"FilingID","Name","Street 1","Street 2","City","State","Country","Postal Code","Private Residence","Phone","Fax","Type","Description"
1980356,"JTC FUND SOLUTIONS (IRELAND) LIMITED","45 MESPIL ROAD","DUBLIN 4","DUBLIN","","Ireland","D04 W2F1","N","+35315848450","","A third-party unaffiliated record keeper","MAINTAINS BOOKS AND RECORDS FOR CERTAIN CLIENTS OF THE ADVISER."
1938433,"IRON MOUNTAIN STORAGE LOCATION","8088 GLENWOOD DRIVE","","BURNABY, BC","","Canada","V3N 5E9","N","N/A","","A third-party unaffiliated record keeper","THIS IS AN ARCHIVAL STORAGE FACILITY THAT MAINTAINS HISTORICAL BOOKS AND RECORDS THAT ARE NO LONGER REQUIRED TO BE MAINTAINED ON-SITE UNDER SECTION 204 OF THE INVESTMENT ADVISORS ACT. RECORDS INCLUDE VARIOUS FINANCIAL, CLIENT AND TRANSACTION RECORDS."
1938433,"IRON MOUNTAIN HEAD OFFICE","195 SUMMERLEA ROAD","","BRAMPTON, ON","","Canada","L6T 4P6","N","N/A","","A third-party unaffiliated record keeper","THIS IS AN ARCHIVAL STORAGE FACILITY THAT MAINTAINS HISTORICAL BOOKS AND RECORDS THAT ARE NO LONGER REQUIRED TO BE MAINTAINED ON-SITE UNDER SECTION 204 OF THE INVESTMENT ADVISORS ACT. RECORDS INCLUDE VARIOUS FINANCIAL, CLIENT AND TRANSACTION RECORDS."
1976801,"TRINET HR IV, LLC","ONE PARK PLACE","SUITE 600","DUBLIN","CA","United States","94568","N","800-638-0461","","A third-party unaffiliated record keeper","TRINET HR IV, LLC IS OUR PEO. THEY MAINTAIN CERTAIN US HR RECORDS ON OUR BEHALF."
1976801,"VISTRA FUND MANAGEMENT S.A.","16 RUE EUGENE RUPPERT","","LUXEMBOURG","","Luxembourg","2543","N","352422229478","","A third-party unaffiliated record keeper","VISTRA FUND MANAGEMENT S.A., IS THE THIRD PARTY LUXEMBOURG AIFM FOR OUR LUXEMBOURG FUND AND LUXEMBOURG GP.  IN THAT ROLE, THEY MAINTAIN CERTAIN BOOKS AND RECORDS RELATED TO THESE ENTITIES."
1976801,"VISTRA (LUXEMBOURG) S.A.R.L.","16 RUE EUGENE RUPPERT","","LUXEMBOURG","","Luxembourg","2543","N","352422229478","","A third-party unaffiliated record keeper","VISTRA (LUXEMBOURG) S.A.R.L., IS THE THIRD PARTY ADMINISTRATOR FOR OUR LUXEMBOURG FUND AND LUXEMBOURG GP.  IN THAT ROLE, THEY ARE THE PRIMARY RECORD KEEPER FOR OUR LUXEMBOURG  BOOKS AND RECORDS."
1976801,"BDO LTD","VIADUKTSTRASSE 42","","BASEL","","Switzerland","4051","N","41 61 501 1634","","A third-party unaffiliated record keeper","BDO LTD IS THE THIRD PARTY ADMINISTRATOR FOR AMR ACTION FUND GP GMBH, THE WHOLLY OWNED SWISS SUBSIDIARY OF AMR ACTION FUND GP, LLC.  BDO LTD KEEPS CERTAIN BOOKS AND RECORDS RELATED TO AMR ACTION FUND GP GMBH, INCLUDING PAYROLL, HR, AND FINANCIAL FINANCIAL RECORDS."
1976801,"VISTRA USA, LLC","156 W 56TH STREET","3RD FLOOR","NEW YORK","NY","United States","10019","N","212-500-6231","","A third-party unaffiliated record keeper","VISTRA USA, LLC IS THE THIRD PARTY ADMINISTRATOR FOR OUR US FUND AND US GP.  IN THAT ROLE, THEY ARE THE PRIMARY RECORD KEEPER FOR MOST OF OUR US BOOKS AND RECORDS."
1976926,"WAYSTONE ADMINISTRATION SOLUTIONS (IE) LIMITED","4TH FLOOR, 35 SHELBOURNE ROAD","BALLSBRIDGE","DUBLIN 4","","Ireland","D04A4EO","N","+353 1 6192300","","A third-party unaffiliated record keeper","CERTAIN RECORDS RELATING TO THE ADMINISTRATION OF THE PRIVATE FUNDS MANAGED BY CAMROSE CAPITAL INVESTMENT PARTNERS LLP"
1979092,"MORGAN STANLEY FUND SERVICES (CAYMAN) LTD","THE OBSERVATORY","7-11 SIR JOHN ROGERSON'S QUAY","DUBLIN","","Ireland","2","N","+353 1799 8778","+353 1655 8715","Other","ADMINISTRATOR TO THE FUNDS, MAINTAINS FOR EXAMPLE, RECORDS RELATING TO INVESTOR SUBSCRIPTIONS AND REDEMPTIONS, TRADING STATEMENTS AND MATERIALS IN SUPPORT OF THE NET ASSET VALUE."
1979092,"SS&C FUND SERVICES (ASIA) LIMITED","56TH FLOOR, ONE ISLAND EAST","18 WESTLANDS ROAD","HONG KONG","","Hong Kong","","N","+852 3419 8849","","Other","ADMINISTRATOR TO THE FUNDS, MAINTAINS FOR EXAMPLE, RECORDS RELATING TO INVESTOR SUBSCRIPTIONS AND REDEMPTIONS, TRADING STATEMENTS AND MATERIALS IN SUPPORT OF THE NET ASSET VALUE."
1979092,"CROWN STORAGE WORLDWIDE","CROWN WORLDWIDE BUILDING, 9-11 YUEN ON STREET","SIU LEK YUEN, SHATIN, NEW TERRITORIES,","HONG KONG","","Hong Kong","","N","+852 2636 8462","","A third-party unaffiliated record keeper","OFF-SITE RECORDS RETENTION FOR ASIA RESEARCH & CAPITAL MANAGEMENT LIMITED"
1965727,"MICROSOFT","ONE MICROSOFT WAY","","REDMOND","WA","United States","98052","N","4528828080","","A third-party unaffiliated record keeper","FILE STORAGE EMAIL COMMUNICATION ARCHIVING MICROSOFT TEAMS COMMUNICATION ARCHIVING"
1965727,"PAYCHEX","911 PANORAMA TRAIL S.","","ROCHESTER","NY","United States","14625","N","5853856666","","A third-party unaffiliated record keeper","EMPLOYEE AND PAYROLL INFORMATION"
1965727,"JUNIPER SQUARE","343 SANSOME ST.","","SAN FRANCISCO","CA","United States","94104","N","4158412722","","A third-party unaffiliated record keeper","JUNIPER SQUARE SERVES AS THIRD-PARTY FUND ADMINISTRATOR AND MAINTAINS VARIOUS BOOKS AND RECORDS FOR CERTAIN PRIVATE FUNDS FOR WHICH THE FIRM SERVES AS INVESTMENT ADVISOR"
1965727,"COMPLY TECHNOLOGIES, INC.","875 SIXTH AVE.","","NEW YORK","NY","United States","10001","N","6467879370","","A third-party unaffiliated record keeper","PERSONAL TRADING AND COMPLIANCE PROGRAM RECORDS, REPORTING AND ATTESTATIONS"
1965727,"PIPEDRIVE INC","5320 FIFTH AVENUE","8TH FLOOR, SUITE 802","NEW YORK","NY","United States","10036","N","8557125931","","A third-party unaffiliated record keeper","CRM"
1983999,"NAV CONSULTING INC.","1 TRANS AM PLAZA DRIVE","SUITE 400","OAKBROOK TERRACE","IL","United States","60181","N","630-954-1919","","A third-party unaffiliated record keeper","NAV CONSULTING INC MAINTAINS CERTAIN OF THE PRIVATE FUNDS' BOOKS AND RECORDS."
1983385,"NAV FUND ADMINISTRATION GROUP","1 TRANSAM PLAZA DRIVE","SUITE 400","OAKBROOK TERRACE","IL","United States","60181","N","(630) 954-1919","","A third-party unaffiliated record keeper","MAINTAINS BOOKS AND RECORDS FOR CLIENTS OF THE ADVISER."
1984231,"CORODATA RECORDS MANAGEMENT","740 NATIONAL COURT","","RICHMOND","CA","United States","94804-2008","N","5103074430","","A third-party unaffiliated record keeper","ARCHIVED FINANCIAL DOCUMENTS AND LEGAL DOCUMENTS PRINCIPALLY FOR PORTFOLIO COMPANY INVESTMENTS."
1984231,"MIMECAST","50 CALIFORNIA ST","SUITE 1500","SAN FRANCISCO","CA","United States","94111","N","4155230630","","A third-party unaffiliated record keeper","EMAIL BACKUP"
1984231,"APEXFS (BROADSCOPE)","95 N STATE ROUTE 17","SUITE 304","PARAMUS","NJ","United States","07652","N","201 397 1660","","A third-party unaffiliated record keeper","BROADSCOPE IS ONE OF OUR TWO OUTSOURCED FUND ADMINISTATORS."
1984231,"NETWORK REMEDY","3150 DE LA CRUZ BLVD","#202","SANTA CLARA","CA","United States","95054","N","8557363395","","Other","NETWORK REMEDY HOSTS GREAT PLAINS/MICROSOFT DYNAMICS SOFTWARE, ACCOUNTING SOFTWARE USED BY US."
1984231,"CORODATA RECORDS MANAGEMENT","450 CHARCOT AVE","","SAN JOSE","CA","United States","95131-1105","N","5103074430","","A third-party unaffiliated record keeper","ARCHIVED FINANCIAL DOCUMENTS AND LEGAL DOCUMENTS PRINCIPALLY FOR PORTFOLIO COMPANY INVESTMENTS."
1984231,"ALTA RETURN","9350 S. DIXIE HIGHWAY","NUMBER 1420","MIAMI","FL","United States","33156","N","3059250500","","A third-party unaffiliated record keeper","CLOUD-BASED FUND ACCOUNTING SOFTWARE, MAINTAINING FUND ACCOUNTING DATA"
1984231,"MICROSOFT CORPORATION","ONE MICROSOFT WAY","","REDMOND","WA","United States","98052-6399","N","8006427676","","A third-party unaffiliated record keeper","MICROSOFT PROVIDES TO US CLOUD-HOSTED SERVICES INCLUDING OFFICE 365 EMAIL. THE DATA THEY HOST FOR US COMPRISES PRIMARILY EMAILS AND EMAIL ATTACHMENTS."
1984231,"BOX, INC.","4440 EL CAMINO REAL","","LOS ALTOS","CA","United States","94022-1003","N","8777294269","","A third-party unaffiliated record keeper","BOX IS A CLOUD-BASED DATA STORAGE COMPANY. WE USE BOX PRIMARILY FOR PORTFOLIO COMPANY AND TRANSACTION RELATED INFORMATION AS WELL AS FUNDRAISING MATERIALS, DATA AND ANALYSES. WE INTEND TO MIGRATE ADDITIONAL DATA TO BOX IN THE FUTURE AS WE TRANSITION FROM INTERNAL SERVERS TO A FULLY CLOUD-BASED ENVIRONMENT."
1982638,"THE 4100 GROUP, INC.","300 SOUTH WASHINTON SQ., SUITE 225","300 SOUTH WASHINTON SQ., SUITE 225","LANSING","MI","United States","48933","N","5172817078","","One of your branch offices or affiliates","ELECTRONIC FILES"
1979710,"EGNYTE, INC.","1350 W. MIDDLEFIELD ROAD","","MOUNTAIN VIEW","CA","United States","94043","N","877-734-6983","","A third-party unaffiliated record keeper","PEAK XV PARTNERS I LLC MAINTAINS ELECTRONIC COPIES OF BOOKS AND RECORDS REQUIRED UNDER SECTION 204 OF THE INVESTMENT ADVISERS ACT AND WITH THIS THIRD-PARTY PROVIDER."
1979710,"AMAZON WEB SERVICES","410 TERRY AVE. NORTH","","SEATTLE","WA","United States","98170","N","206-266-1000","","A third-party unaffiliated record keeper","PEAK XV PARTNERS I LLC MAINTAINS ELECTRONIC COPIES OF BOOKS AND RECORDS REQUIRED UNDER SECTION 204 OF THE INVESTMENT ADVISERS ACT AND WITH THIS THIRD-PARTY PROVIDER."
1979710,"MICROSOFT CORPORATION - AZURE, SHAREPOINT","1 MICROSOFT WAY","","REDMOND","WA","United States","98052","N","452-882-8080","","A third-party unaffiliated record keeper","PEAK XV PARTNERS I LLC MAINTAINS ELECTRONIC COPIES OF BOOKS AND RECORDS REQUIRED UNDER SECTION 204 OF THE INVESTMENT ADVISERS ACT AND WITH THIS THIRD-PARTY PROVIDER."
1979710,"GOOGLE CLOUD PLATFORM","1600 AMPHITHEATER PARKWAY","","MOUNTAIN VIEW","CA","United States","94043","N","866-246-6453","","A third-party unaffiliated record keeper","PEAK XV PARTNERS I LLC MAINTAINS ELECTRONIC COPIES OF EMAILS WITH THIS THIRD-PARTY PROVIDER."
1961586,"NAV CONSULTING, INC.","1 TRANS AM PLAZA DR","SUITE 400","OAKBROOK TERRACE","IL","United States","60181","N","(630) 954-1919","","Other","BOOKS AND RECORDS OF CLIENT ACCOUNT AND DOCUMENTS."
1961534,"HC GLOBAL FUND SERVICES LLC","2121 NORTH CALIFORNIA BLVD.","SUITE 290","WALNUT CREEK","CA","United States","94596","N","4157967520","","A third-party unaffiliated record keeper","INVESTOR STATEMENTS, FUND'S FINANCIAL STATEMENTS."
1963868,"TOKYO KYODO ACCOUNTING OFFICE","1-4-1 MARUNOUCHI","CHIYODA-KU","TOKYO","","Japan","104-0031","N","81352198777","","A third-party unaffiliated record keeper","FINANCIAL BOOKS AND RECORDS OF THE FUND."
1980401,"SALESFORCE","SALESFORCE TOWER","415 MISSION STREET, 3RD FLOOR","SAN FRANCISCO","CA","United States","94105","N","415-901-7000","","A third-party unaffiliated record keeper","CUSTOMER RELATIONSHIP MANAGEMENT SOFTWARE"
1980401,"ABERDEEN GROUP PLC","1 GEORGE STREET","","EDINBURGH","","United Kingdom","EH2 2LL","N","44131 372 9444","","One of your branch offices or affiliates","ABERDEEN GROUP PLC IS THE PARENT COMPANY AND MAY MAINTAIN SOME BOOKS AND RECORDS FOR THE REGISTRANT"
1980401,"WOLTERS KLUWER (ONE SUM X)","WEWORK BUILDING 8TH FLOOR","30 CHURCHILL PLACE CANARY WHARF","LONDON","","United Kingdom","E14 5RE","N","020 3197 6600","","A third-party unaffiliated record keeper","(ONE SUM X) - ENTERPRISE RISK MANAGEMENT SOFTWARE"
1980401,"INSTITUTIONAL SHAREHOLDER SERVICES, INC.","702 KING FARM BLVD, SUITE 300","","ROCKVILLE","MD","United States","20850","N","301-556-0500","","A third-party unaffiliated record keeper","PROXY VOTING RECORDS MAINTAINED FOR THE REGISTRANT"
1980401,"CITI","4400 EASTON COMMONS SUITE 200","","COLUMBUS","OH","United States","43219","N","(614) 470 8240","","A third-party unaffiliated record keeper","ABRDN'S ADMINISTRATOR. CITI ARE LOCATED IN MULITPLE LOCATIONS HOWEVER OPERATIONS OFFICE LISTED ONLY."
1980401,"BLOOMBERG LP","731 LEXINGTON AVENUE","","NEW YORK","NY","United States","10022","N","212-318-2000","","A third-party unaffiliated record keeper","BLOOMBERG EMAIL AND INSTANT MESSAGES FROM TRADERS AND PORTFOLIO MANAGERS"
1980401,"ABRDN INC.","875 THIRD AVENUE, SUITE 403","","NEW YORK","NY","United States","10022","N","212-776-1170","","One of your branch offices or affiliates","AFFILIATE AND MAY MAINTAIN SOME BOOKS AND RECORDS FOR THE REGISTRANT"
1980401,"ABRDN INVESTMENTS IRELAND LIMITED NETHERLANDS BRANCH","WTC H-TOWER","24TH FLOOR, ZUIDPLEIN","AMSTERDAM","","Netherlands","166 1077 XV","N","+31206870500","","One of your branch offices or affiliates","BOOKS AND RECORDS FOR ABRDN EUROPEAN BALANCED PROPERTY FUND"
1980401,"ABRDN INC.","1900 MARKET STREET","STE 200","PHILADELPHIA","PA","United States","19103","N","(215) 405-5700","","One of your branch offices or affiliates","AFFILIATE AND MAY MAINTAIN SOME BOOKS AND RECORDS FOR THE REGISTRANT"
1980401,"BNP PARIBAS SECURITY SERVICES SA","GRANDS MOULINS DE PANTIN","9 RUE DU DEBARCADERE","PANTIN","","France","93500","N","(+33)1 42 98 1","","A third-party unaffiliated record keeper","ABERDEEN GROUP PLC ADMINISTRATOR. BNP ARE LOCATED IN MULITPLE LOCATIONS HOWEVER HEAD OFFICE LISTED ONLY."
1980401,"ABRDN INVESTMENTS LUXEMBOURG S.A.","35A AVENUE JOHN F KENNEDY","","LUXEMBOURG","","Luxembourg","L-1855","N","+352 42 12 41","","One of your branch offices or affiliates","BOOKS AND RECORDS MAINTAINED FOR THE REGISTRANT"
1980401,"ABRDN INC.","28 STATE STREET, 17TH FLOOR","","BOSTON","MA","United States","02109","N","6177207900","617-720-7950","One of your branch offices or affiliates","AFFILIATE AND MAY MAINTAIN SOME BOOKS AND RECORDS FOR THE REGISTRANT"
1980401,"CORLYTICS LIMITED","NEXUS BUILDING, BELFIELD OFFICE PARK","CLONSKEAGH","DUBLIN","","Ireland","D04 V2N9","N","353 1 9038761","","A third-party unaffiliated record keeper","REGULATORY HORIZON SCANNING SOFTWARE"
1980401,"ABRDN INVESTMENTS LIMITED","280 BISHOPSGATE","","LONDON","","United Kingdom","EC2M 4AG","N","00442074636100","","One of your branch offices or affiliates","AFFILIATE AND MAY MAINTAIN SOME BOOKS AND RECORDS FOR THE REGISTRANT (FOR OTHER ADVISERS)"
1980401,"MYCOMPLIANCEOFFICE","535 FIFTH AVENUE, 4TH FLOOR","","NEW YORK","NY","United States","10017","N","1-866-951-2280","","A third-party unaffiliated record keeper","(MY COMPLIANCE OFFICE) - COMPLIANCE REPORTS"
1980401,"BROWN BROTHERS HARRIMAN","80 ROUTE D'ESCH","","LUXEMBOURG","","Luxembourg","1470","N","+352 47 40 66","","A third-party unaffiliated record keeper","ADMIN/CUSTODIAN FOR ABRDN EUROPEAN BALANCED PROPERTY FUND"
1980401,"MICROSOFT AZURE","ONE MICROSOFT WAY","REDMOND","WASHINGTON","WA","United States","98052","N","800-642-7676","","A third-party unaffiliated record keeper","DATA ARCHIVING/CLOUD SERVER PROVIDER"
1975621,"CENTAUR FUND SERVICES LIMITED","2ND FLOOR, CUSTOM HOUSE PLAZA","HARBOURMASTER PLACE","DUBLIN","","Ireland","D01 V9V4","N","+353 1 899 240","","A third-party unaffiliated record keeper","CENTAUR FUND SERVICES LIMITED IS THE INDEPENDENT FUND ADMINISTRATOR TO THE PRIVATE FUNDS ADVISED BY PRIMARY CAPITAL PARTNERS LLP AND MAINTAINS CERTAIN OF THE PRIVATE FUNDS' ACCOUNTING BOOKS AND RECORDS."
1975901,"STANDISH MANAGEMENT, LLC","300 MONTGOMERY ST","SUITE 833","SAN FRANCISCO","CA","United States","94104","N","(415) 813-6817","","A third-party unaffiliated record keeper","BOOKS AND RECORDS AS IT RELATES TO THE FUNDS."
1977516,"NAV CONSULTING, INC.","1 TRANS AM DRIVE","SUITE 400","OAKBROOK TERRACE","IL","United States","60181","N","630 954 1919","","A third-party unaffiliated record keeper","NAV CONSULTING, INC IS THE THIRD-PARTY FUND ADMINISTRATOR."
1937490,"KOVITZ INVESTMENT GROUP PARTNERS, LLC","71 S. WACKER DRIVE","SUITE 1860","CHICAGO","IL","United States","60606","N","3123347300","","Other","CERTAIN LEGAL AND ORGANIZATIONAL RECORDS; INVESTOR SUBSCRIPTION DOCUMENTS"
1968112,"SS&C FUND SERVICES (ASIA) LIMITED","SUITE 2702-4, CENTRAL PLAZA","18 HARBOUR ROAD WAN CHAI","HONG KONG","","Hong Kong","","N","+852 2534 1100","","A third-party unaffiliated record keeper","RECORDS RELATING TO INVESTOR SUBSCRIPTION AND REDEMPTIONS, TRADING SETTLEMENTS AND MATERIALS IN SUPPORT OF NAV."
1968112,"TRICOR SERVICES LIMITED","15/F., 348 KWUN TONG ROAD, KOWLOON","","HONG KONG","","Hong Kong","","N","+852 2980 1888","","A third-party unaffiliated record keeper","THE ACCOUNTING BOOKS AND RECORDS OF PAMALICAN"
1971031,"CITCO FUND SERVICES (SINGAPORE) PTE LTD","10 CHANGI BUSINESS PARK CENTRAL 2","#01-02 HANSAPOINT@CBP","SINGAPORE","","Singapore","486030","N","+65 6571 1000","+32 6220 2040","A third-party unaffiliated record keeper","CITCO IS OUR FUND ADMIN AND THEREFORE HOLDS THE ENTIRE BOOKS AND RECORDS ON BEHALF OF OUR FUNDS."
1971031,"WECONNECT HONG KONG LIMITED","46/F, LEE GARDEN ONE","33 HYSAN AVENUE, CAUSEWAY BAY","HONG KONG","","Hong Kong","","N","+81 3 6416 410","","A third-party unaffiliated record keeper","THE ACCOUNTING BOOKS AND RECORDS OF 3D INVESTMENT PARTNERS"
1977325,"IRON MOUNTAIN MOOREBANK","UNIT 2A, 1 MOOREBANK AVENUE","MOOREBANK","NSW","","Australia","2170","N","1300 476 668","","Other","ARCHIVED BOOKS AND RECORDS."
1977325,"IRON MOUNTAIN GREYSTANES","3 BUTU WARGUN DRIVE","PEMULWUY","NSW","","Australia","2145","N","1300 476 668","","A third-party unaffiliated record keeper","ARCHIVED BOOKS AND RECORDS."
1977325,"IRON MOUNTAIN GNANGARA","45 BOOM STREET","WA","GNANGARA","","Australia","6077","N","1300 476 668","","A third-party unaffiliated record keeper","ARCHIVED BOOKS AND RECORDS"
1977325,"GLOBAL SWITCH SYDNEY","400 HARRIS ST","","ULTIMO","","Australia","NSW 2007","N","+61 2 9566 700","","Other","IT CO-LOCATION FACILITY HOUSING COMPUTER SERVERS CONTAINING ELECTRONIC BOOKS AND RECORDS."
1977344,"CITCO FUND SERVICES","2 BLOOR STREET EAST","SUITE 2700","TORONTO","","Canada","M4W 1A8","N","416-355-3014","","A third-party unaffiliated record keeper","IN ITS CAPACITY AS THIRD-PARTY ADMINISTRATOR FOR CERTAIN ADVISORY CLIENTS OF THE REGISTRANT, CITCO FUND ADMINISTRATION MAINTAINS CERTAIN BOOKS AND RECORDS FOR THE ADVISORY CLIENTS."
1977344,"CITRIN COOPERMAN","325 COLOMBIA TPKE","SUITE 202","FLORHAM PARK","NJ","United States","07932","N","973-805-7213","","A third-party unaffiliated record keeper","THIS IS THE BOOKS AND RECORDS FOR THE MANCO; MAINTAINING BOOKS AND RECORDS OF THE FIRM."
1977344,"ATHANOR CAPITAL, LP","142 WEST 57TH STREET","","NEW YORK","NY","United States","10008","N","646-813-2471","","One of your branch offices or affiliates","WE/ATHANOR MAINTAIN THE BOOKS AND RECORDS FOR THE FUNDS AND MANCO."
1977795,"BNP PARIBAS, ACTING THROUGH ITS HONG KONG BRANCH","21/F, PCCW TOWER, TAIKOO PLACE","979 KING'S ROAD QUARRY BAY","HONG KONG","","China","","N","852 2108 6467","852 2263 6427","A third-party unaffiliated record keeper","RECORDS RELATING TO THE FUND'S NET ASSET VALUE AND INVESTOR DEALING TRANSACTION DOCUMENTS INCLUDING KNOW YOUR CUSTOMER DOCUMENTS ARE KEPT HERE."
1978769,"AZTEC FINANCIAL SERVICES (JERSEY) LIMITED","AZTEC GROUP HOUSE PO BOX 730 11-15 SEATON PLACE","","ST HELIER","","Jersey","JE4 0QH","N","1534 833000","","A third-party unaffiliated record keeper","CERTAIN ACCOUNTING DOCUMENTS RELEVANT TO THE ADVISORY BUSINESS."
1973718,"STANDISH MANAGEMENT, LLC","535 BOYLSTON STREET","6TH FLOOR","BOSTON","MA","United States","02116","N","(617) 449-7700","","A third-party unaffiliated record keeper","FINANCIAL RECORDS"
1981484,"STANDISH MANAGEMENT","3300 NORTH ASHTON BLVD","SUITE 240","LEHI","UT","United States","84043","N","(385) 500-9967","","A third-party unaffiliated record keeper","ALL BOOKS AND RECORDS ARE KEPT AT STANDISH MANAGEMENT.  IN ADDITION, STANDISH MANAGEMENT UTILIZES THE RECORDS TO PROVIDE A SECURE ONLINE PLATFORM THAT MAKES RECORDS READILY ACCESSIBLE TO INVESTORS."
1974643,"NAV CONSULTING, INC.","1 TRANS AM PLAZA DRIVE","SUITE 400","OAKBROOK TERRACE","IL","United States","60181","N","(630) 954.1919","","A third-party unaffiliated record keeper","NAV CONSULTING, INC. IS THE ADMINISTRATOR FOR CERTAIN FUNDS THAT THE APPLICANT FIRM MANAGES. THE ADMINISTRATOR KEEPS CERTAIN FINANCIAL DOCUMENTS, INVESTOR COMMUNICATIONS AND OTHER RECORDS RELATED TO FUND ADMINISTRATION."
1981121,"CARTA INVESTOR SERVICES, INC.","333 BUSH STREET","FLOOR 23, STE. 2300","SAN FRANCISCO","CA","United States","94104","N","650-669-8381","","A third-party unaffiliated record keeper","MAINTAINS BOOKS AND RECORDS FOR THE FIRM AND ITS FUND."
1982025,"CITCO FUND ADMINISTRATION (CAYMAN ISLANDS) LIMITED","89 NEXUS WAY, 2ND FLOOR, CAMANA BAY","PO BOX 31106","GRAND CAYMAN","","Cayman Islands","KY1-1205","N","+345-949-3977","","A third-party unaffiliated record keeper","RECORDS RELATING TO INVESTOR SUBSCRIPTIONS AND REDEMPTION, CERTAIN FINANCIAL, ACCOUNTING AND ADMINISTRATIVE DOCUMENTS, NAV CALCULATIONS, STATEMENTS OF TRANSACTIONS, MANAGEMENT AND PERFORMANCE FEES, AND AML/KYC DOCUMENTATION."
1982025,"CITCO FUND SERVICES (SINGAPORE) PTE. LTD.","10 CHANGI BUSINESS PARK CENTRAL 2","#01-02 HANSAPOINT @ CBP","SINGAPORE","","Singapore","486030","N","+65 6571 1000","","A third-party unaffiliated record keeper","RECORDS RELATING TO INVESTOR SUBSCRIPTIONS AND REDEMPTION, CERTAIN FINANCIAL, ACCOUNTING AND ADMINISTRATIVE DOCUMENTS, NAV CALCULATIONS, STATEMENTS OF TRANSACTIONS, MANAGEMENT AND PERFORMANCE FEES, AND AML/KYC DOCUMENTATION."
1983822,"MIRAE ASSET GLOBAL INVESTMENTS (USA) LLC","1212 AVENUE OF THE AMERICAS","10TH FLOOR","NEW YORK","NY","United States","10036","N","212-205-8300","212-205-8388","One of your branch offices or affiliates","CERTAIN RECORDS RELATED TO VENTURE CAPITAL FUND OPERATIONS"
1975720,"CITCO FUND ADMINISTRATION (CAYMAN ISLANDS)","89 NEXUS WAY, 2ND FLOOR","CAMANA BAY","GRAND CAYMAN","","Cayman Islands","KY1-1205","N","+1 345 949 397","","A third-party unaffiliated record keeper","BOOKS AND RECORDS OF THE FUNDS"
1976060,"CITCO FUND SERVICES (IRELAND) LIMITED","CUSTOM HOUSE PLAZA","BLOCK 6 INTERNATIONAL FINANCIAL SERVICES CENTRE","DUBLIN 1","","Ireland","","N","0035316367300","","A third-party unaffiliated record keeper","AS ADMINISTRATOR FOR THE PRIVATE FUNDS MANAGED BY AKO, CITCO IS RESPONSIBLE FOR KEEPING THE PRIVATE FUND INVESTOR KYC DOCUMENTS, SUBSCRIPTION AND REDEMPTION RECORDS,TRADING AND VALUATION RECORDS."
1975607,"MAPLES FUND SERVICES (CAYMAN) LIMITED","UGLAND HOUSE","","GRAND CAYMAN","","Cayman Islands","KY1-1104","N","852 2293 2284","","A third-party unaffiliated record keeper","RELEVANT DOCUMENTATION IN RESPECT OF EACH OF THE DREAM PEAK CAPITAL MASTER FUND, DREAM PEAK CAPITAL ONSHORE FUND AND DREAM PEAK CAPITAL OFFSHORE FUND"
1969600,"NAV CONSULTING, INC","ONE TRANS AM PLAZA DRIVE","SUITE 400","OAKBROOK TERRACE","IL","United States","60181","N","6039541919","","A third-party unaffiliated record keeper","NAV MAINTAINS THE BOOKS AND RECORDS OF THE FUNDS AND SOME RECORDS OF THE ADVISER"
1975822,"HIGHLANDS CPA","2700 E. LOUISIANA AVE","UNIT 102","DENVER","CO","United States","80210","N","3037181102","7206340939","A third-party unaffiliated record keeper","KYC DOCUMENTS, ACCOUNTING RECORDS"
1978454,"EQT AB","REGERINGSGATAN 25","","STOCKHOLM","","Sweden","SE-111 53","N","+46 8 506 55 3","","One of your branch offices or affiliates","GENERAL CORPORATE BOOKS AND RECORDS."
1971006,"MORGAN STANLEY FUND SERVICES (CAYMAN) LTD. C/O MORGAN STANLEY FUND SERVICES (IRELAND) LIMITED","THE OBSERVATORY, 7-11 SIR JOHN ROGERSON'S QUAY","DUBLIN 2","DUBLIN","","Ireland","","N","353179987","","A third-party unaffiliated record keeper","THE ADMINISTRATOR WILL MAINTAIN RECORDS SUCH AS SUBSCRIPTION DOCUMENTS, CERTAIN FINANCIAL, ACCOUNTING AND ADMINISTRATIVE DOCUMENTS"
1971006,"FAS LIMITED","902 WILSON HOUSE, 19-27 WYNDHAM STREET","CENTRAL","HONG KONG","","Hong Kong","","N","852 28517743","","A third-party unaffiliated record keeper","CORPORATE DOCUMENTS AND BOARD RESOLUTIONS"
1974963,"SS&C FUND SERVICES (ASIA) LIMITED","SUITE 2702-4, CENTRAL PLAZA","18 HARBOUR ROAD, WAN CHAI","HONG KONG","","Hong Kong","","N","+852 2534 1100","","A third-party unaffiliated record keeper","MANAGEMENT ACCOUNT AND ACCOUNTING RECORDS"
1955065,"SS&C  (LUXEMBOURG) SARL","2, RUE JEAN MONNET","","LUXEMBOURG","","Luxembourg","L-2180","N","+35227868077","","A third-party unaffiliated record keeper","THE ADMINISTRATOR WILL MAINTAIN RECORDS SUCH AS SUBSCRIPTION DOCUMENTS, CERTAIN FINANCIAL,ACCOUNTING AND ADMINISTRATIVE DOCUMENTS, NAV CALCULATIONS, MANAGEMENT AND PERFORMANCE FEES, AND AML / KYC DOCUMENTATION."
1955065,"CITIBANK EUROPE PLC, LUXEMBOURG BRANCH","31 - Z.A. BOURMICHT","","BERTRANGE","","Luxembourg","L- 8070","N","+352 45 14 14","","A third-party unaffiliated record keeper","THE ADMINISTRATOR WILL MAINTAIN RECORDS SUCH AS SUBSCRIPTION DOCUMENTS, CERTAIN FINANCIAL,ACCOUNTING AND ADMINISTRATIVE DOCUMENTS, NAV CALCULATIONS, MANAGEMENT AND PERFORMANCE FEES, AND AML / KYC DOCUMENTATION."
1955065,"CITCO FUND SERVICES (LUXEMBOURG) S.A.","20 RUE DE LA POSTE","","LUXEMBOURG","","Luxembourg","L-2346","N","+3522602364000","","A third-party unaffiliated record keeper","HE ADMINISTRATOR WILL MAINTAIN RECORDS SUCH AS SUBSCRIPTION DOCUMENTS, CERTAIN FINANCIAL,ACCOUNTING AND ADMINISTRATIVE DOCUMENTS, NAV CALCULATIONS, MANAGEMENT AND PERFORMANCE FEES, AND AML / KYC DOCUMENTATION."
1957959,"SS&C TECHNOLOGIES, INC.","234 TIMES SQUARE, 6TH FLOOR","","NEW YORK","NY","United States","10036","N","212 349 7412","","A third-party unaffiliated record keeper","GENERAL LEDGER AND INVESTOR RECORDS"
1973001,"MORGENTHALER MANGEMENT CORPORATION","3200 ALPINE ROAD","","PORTOLA VALLEY","CA","United States","94028","N","6503887600","","One of your branch offices or affiliates","PRINCIPAL OFFICE AND PLACE OF BUSINESS"
1973001,"SMARSH","851 SOUTHWEST 6TH AVENUE","800","PORLAND","OR","United States","97204","N","866-762-7741","","A third-party unaffiliated record keeper","EMAIL ARCHIVAL VENDOR"
1948109,"KRANZ & ASSOCIATES HOLDINGS LLC","655 MONTGOMERY STREET","","SAN FRANCISCO","CA","United States","94111","N","6508544400","","A third-party unaffiliated record keeper","ALL BOOKKEEPING AND FINANCIAL DATA AS WELL AS FINANCIAL REPORTING."
1969256,"TINGLEMERRETT LLP","1250, 639 5TH AVENUE SW","","CALGARY, ALBERTA","","Canada","T2P 0M9","N","403-571-8000","","A third-party unaffiliated record keeper","LEGAL RECORDS"
1973292,"CSC FUND SERVICES B.V.","11 WOUDENBERGSEWEG","","MAARSBERGEN","","Netherlands","3953 ME","N","0031343430303","","A third-party unaffiliated record keeper","ACCOUNTS, INVESTOR REGISTER"
1970501,"STANDISH MANAGEMENT, LLC","1676 N CALIFORNIA BLVD","","WALNUT CREEK","CA","United States","94596","N","4152736810","","A third-party unaffiliated record keeper","ALL BOOKS AND RECORDS"
1979982,"CAPITAL Q MANAGEMENT","100 EAST FAITH TERRACE","SUITE 1016","MAITLAND","FL","United States","32751","N","407-307-2277","","Other","ALL BOOKS AND RECORDS"
1948858,"SMARSH","851 SOUTHWEST 6TH AVENUE","#800","PORTLAND","OR","United States","97204","N","866-62-7741","","A third-party unaffiliated record keeper","EMAIL ARCHIVAL VENDOR"
1941915,"BELLTOWER FUND GROUP, LTD","411 1ST AVE S","","SEATTLE","WA","United States","98104","N","3603409337","","A third-party unaffiliated record keeper","FUND DOCUMENTS TRANSACTION RECORDS WRITTEN COMMUNICATIONS"
1979263,"FORMIDIUM","633 ROGERS STREET","ST # 106","DOWNERS GROVE","IL","United States","60515","N","630-853-2946","","A third-party unaffiliated record keeper","FORMIDIUM IS THE INDEPENDENT FUND ADMINISTRATOR TO CERTAIN PRIVATE FUNDS AND MAINTAINS THE OFFICIAL BOOKS AND RECORDS OF THESE PRIVATE FUNDS. A DUPLICATE SET OF DOCUMENTS ARE KEPT AT OUR MAIN LOCATION."
1977046,"SS&C TECHNOLOGIES, INC.","580 CALIFORNIA STREET","SUITE 200","SAN FRANCISCO","CA","United States","94104","N","646-971-500","","A third-party unaffiliated record keeper","SS&C TECHNOLOGIES, INC. IS AN UNAFFILIATED THIRD-PARTY FUND ADMINISTRATOR FOR A PRIVATE FUND FOR WHICH THE FIRM IS THE INVESTMENT ADVISER. SS&C TECHNOLOGEIS, INC. MAINTAINS CERTAIN BOOKS AND RECORDS FOR THE PRIVATE FUND WHICH INCLUDES CERTAIN FINANCIAL STATEMENTS AND ACCOUNTING INFORMATION."
1977059,"MUFG FUND SERVICES (CAYMAN) LIMITED","MUFG HOUSE, 227 ELGIN AVENUE","PO BOX 852","GRAND CAYMAN","","Cayman Islands","KY1-1103","N","00 1 345914100","","Other","CLIENT ADMINISTRATIVE AND ACCOUNTING RECORDS, COPIES OF WHICH WILL BE MADE AVAILABLE PROMPTLY IN RESPONSE TO ANY REQUEST BY THE STAFF OF THE U.S. SECURITIES AND EXCHANGE COMMISSION."
1977059,"SS&C PRIVATE EQUITY SERVICES","4 TIMES SQUARE","6TH FLOOR","NEW YORK","NY","United States","10036","N","00 1 914670380","","Other","CLIENT ADMINISTRATIVE AND ACCOUNTING RECORDS, COPIES OF WHICH WILL BE MADE AVAILABLE PROMPTLY IN RESPONSE TO ANY REQUEST BY THE STAFF OF THE U.S. SECURITIES AND EXCHANGE COMMISSION."
1979279,"LINEAR VENTURE, LTD.","C/O SINO ASEAN, UNIT 1, 9TH FLOOR","WO HING COMM. BLDG., NO. 11 WING WO STREET","CENTRAL","","Hong Kong","","N","852 3953 0412","852 3753 3083","One of your branch offices or affiliates","BOOKS AND RECORDS"
1977891,"STANDISH MANAGEMENT, LLC","300 MONTGOMERY ST","SUITE 833","SAN FRANCISCO","CA","United States","94104","N","(415) 813-6817","","A third-party unaffiliated record keeper","BOOKS AND RECORDS AS IT RELATES TO THE FUNDS."
1975603,"YIU CHO YAN CERTIFIED PUBLIC ACCOUNTANT","SUITE D, 6/F, HO LEE COMMERCIAL BUILDING","38-44 D'AGUILAR STREET, CENTRAL","HONG KONG","","Hong Kong","","N","+852 6505 9600","","A third-party unaffiliated record keeper","THE COMPANY'S BUSINESS AND REGULATORY RECORDS."
1937828,"CANACCORD GENUITY WEALTH (INTERNATIONAL) LIMITED (TRADING NAME CANACCORD GENUITY WEALTH MANAGEMENT)","DOREY COURT","ELIZABETH AVENUE","ST PETER PORT","","Guernsey","GY1 2HT","N","+441481733900","","Other","REGISTER OF DIRECTORS, REGISTER OF SHAREHOLDERS, COMPANY ACCOUNTS"
1952072,"OCORIAN (LUXEMBOURG) S.A.","17 BD FRIEDRICH WILHELM RAIFFEISEN","","LUXEMBOURG","","Luxembourg","2411","N","+3522080014001","","A third-party unaffiliated record keeper","OCORIAN PROVIDES CENTRAL ADMINISTRATION SERVICES FOR FUNDS. THEY ARE THE FUND ADMINISTRATIVE AGENT FOR FUNDS UNDER OUR MANAGEMENT."
1975784,"CARTA INVESTOR SERVICES INC.","333 BUSH STREET, FLOOR 23, STE 2300","","SAN FRANCISCO","CA","United States","94104","N","650-669-8381","","A third-party unaffiliated record keeper","CARTA SERVES AS THE FUND ADMINISTRATOR. IN THIS CAPACITY, CARTA MAINTAINS CERTAIN FUND DOCUMENTS AND ITHER BOOKS AND RECORDS."
1964043,"AZTEC FINANCIAL SERVICES (LUXEMBOURG) S.A.","8, RUE LOU HEMMER","","LUXEMBOURG","","Luxembourg","L-1748","N","+3522461606000","","Other","INDEPENDENT FUND ADMINISTRATOR MAINTAINING CERTAIN BOOKS AND RECORDS RELATING TO THE PRIVATE FUNDS ADVISED BY PATRIZIA INFRASTRUCTURE LIMITED"
1964043,"CRESTBRIDGE S.A.","33 AVENUE JOHN F. KENNEDY","","LUXEMBOURG","","Luxembourg","L-1855","N","+35226215400","","Other","INDEPENDENT FUND ADMINISTRATOR MAINTAINING CERTAIN BOOKS AND RECORDS RELATING TO THE PRIVATE FUNDS ADVISED BY PATRIZIA INFRASTRUCTURE LIMITED."
1964043,"TMF LUXEMBOURG","46A AVENUE JOHN F. KENNEDY","","LUXEMBOURG","","Luxembourg","L-1855","N","+352 42 71711","","Other","INDEPENDENT FUND ADMINISTRATOR MAINTAINING CERTAIN BOOKS AND RECORDS."
1964043,"TMF GUERNSEY","PO BOX 406","MILL COURT LA CHARROTERIE","ST PETER PORT","","Guernsey","GY1 3GG","N","+441481 742400","","Other","INDEPENDENT FUND ADMINISTRATOR MAINTAINING CERTAIN BOOKS AND RECORDS."
1978471,"STANDISH MANAGEMENT, LLC","1676 N CALIFORNIA BLVD","STE 400","WALNUT CREEK","CA","United States","94596","N","415-273-6810","","A third-party unaffiliated record keeper","FINANCIAL AND TAX ACCOUNTING RECORDS FOR AVM, LLC AND UNDERLYING FUNDS."
1975567,"CARTA INVESTOR SERVICES, INC.","333 BUSH STREET, FLOOR 23","STE 2300","SAN FRANCISCO","CA","United States","94104","N","6506698381","","A third-party unaffiliated record keeper","CARTA SERVES AS THE FUND ADMINISTRATOR. IN THIS CAPACITY, CARTA MAINTAINS CERTAIN FUND DOCUMENTS AND OTHER BOOKS AND RECORDS."
1977558,"IBX DATA CENTER","HARBOUR EXCHANGE SQUARE","","LONDON","","United Kingdom","E14 9GE","N","000-000-0000","","Other","THE PRIMARY BOOKS AND RECORDS ARE KEPT IN A DATA CENTRE LOCATED AT LONDON IBX DATA CENTER, HARBOUR EXCHANGE SQUARE, LONDON, E14 9GE, UNITED KINGDOM"
1976493,"HEDGESERV LIMITED","75 ST STEPHEN'S GREEN","","DUBLIN","","Ireland","","N","+35312341000","","A third-party unaffiliated record keeper","HEDGESERV (CAYMAN) LTD ARE THE FUND ADMINISTRATOR OF THE FUNDS FOR WHICH KINTBURY CAPITAL IS THE INVESTMENT ADVISOR.  HEDGESERV (CAYMAN) LTD DELEGATE THIS FUNCTION TO HEDGESERV LIMITED IN IRELAND AND THEREFORE KEEP AND MAINTAIN THE FORMAL BOOKS AND RECORDS OF THE FUNDS IN IRELAND."
1954714,"ZOHO CORPORATION","ESTANCIA IT PARK, PLOT NO. 140 & 151","GST ROAD, VALLANCHERI, CHENGALPATTU DISTRICT","CHENNAI, TAMIL NADU","","India","603 202","N","1 844 316 5544","","A third-party unaffiliated record keeper","CLOUD SERVICES FOR ACCOUNTING BOOKS AND RECORDS."
1977837,"BLICK ROTHENBERG","16 GREAT QUEEN STREET","","LONDON","","United Kingdom","WC2B 5AH","N","02077787200","02073296408","A third-party unaffiliated record keeper","STATUTORY RECORDS ARE KEPT AT THE REGISTERED OFFICE"
1978202,"RACKSPACE","5000 WALZEM ROAD","","SAN ANTONIO","TX","United States","78218","N","800 961 4454","210 312 4039","A third-party unaffiliated record keeper","ALL REPORTING, FINANCIAL, RESEARCH, REGULATORY, TAX, EMAIL DOCUMENTS ARE BACKED UP ON MULTIPLE HARD DRIVES MANAGED BY RACKSPACE."
1976627,"AMAZON.COM, INC.","410 TERRY AVENUE NORTH","","SEATTLE","WA","United States","98109","N","206-266-1000","","Other","STORAGE OF CLIENT AND OTHER FILES CONTAINING CONTRACTS, CORRESPONDENCE, RECOMMENDATIONS AND TRANSACTIONS, IN ADDITION TO PROGRAMMING CODE."
1976627,"THE VANGUARD GROUP, INC.","100 VANGUARD BOULEVARD","","MALVERN","PA","United States","19355","N","610-669-1000","610-669-6600","One of your branch offices or affiliates","STORAGE OF CLIENT AND OTHER FILES IN ADDITION TO PROGRAMMING CODE."
1976627,"IRON MOUNTAIN","2500 HENDERSON DRIVE","","SHARON HILL","PA","United States","19079","N","610-725-0200","","A third-party unaffiliated record keeper","STORAGE OF CLIENT AND OTHER FILES IN ADDITION TO PROGRAMMING CODE."
1976627,"SMARSH, INC.","851 SW 6TH AVE, SUITE 800","","PORTLAND","OR","United States","97204","N","866-762-7741","","Other","RETENTION OF ELECTRONIC MESSAGES"
1982115,"THE VANGUARD GROUP, INC.","100 VANGUARD BOULEVARD","","MALVERN","PA","United States","19355","N","610-669-1000","610-669-6600","One of your branch offices or affiliates","STORAGE OF CLIENT AND OTHER FILES IN ADDITION TO PROGRAMMING CODE."
1982115,"IRON MOUNTAIN","2500 HENDERSON DRIVE","","SHARON HILL","PA","United States","19079","N","610-725-0200","","A third-party unaffiliated record keeper","STORAGE OF CLIENT AND OTHER FILES IN ADDITION TO PROGRAMMING CODE."
1982115,"SMARSH, INC.","851 SW 6TH AVE, SUITE 800","","PORTLAND","OR","United States","97204","N","866-762-7741","","Other","RETENTION OF ELECTRONIC MESSAGES"
1982115,"AMAZON.COM, INC.","410 TERRY AVENUE NORTH","","SEATTLE","WA","United States","98109","N","206-266-1000","","Other","STORAGE OF CLIENT AND OTHER FILES CONTAINING CONTRACTS, CORRESPONDENCE, RECOMMENDATIONS AND TRANSACTIONS, IN ADDITION TO PROGRAMMING CODE."
1936813,"NAV FUND ADMINSTRATION GROUP","1 TRANS AM PLAZA DRIVE","SUITE 400","OAKBROOK TERRACE","IL","United States","60181","N","630-954-1919","","A third-party unaffiliated record keeper","BOOKS AND RECORDS OF CLIENT ACCOUNT AND DOCUMENTS."
1976950,"MORGAN STANLEY FUND SERVICES (CAYMAN) LTD.","C/O MORGAN STANLEY FUND SERVICES (IRELAND) LIMITED","24-26 CITY QUAY","DUBLIN","","Ireland","D02 NY19","N","212-761-8310","","A third-party unaffiliated record keeper","BOOKS AND RECORDS RELATED TO THE OFFSHORE FEEDER FUND AND INVESTORS"
1976950,"MORGAN STANLEY FUND SERVICES","2000 WESTCHESTER AVE.","","PURCHASE","NY","United States","10577","N","212-761-8310","","A third-party unaffiliated record keeper","BOOKS AND RECORDS RELATED TO THE ONSHORE FEEDER FUND AND INVESTORS"
1978709,"GRACE RECORDS MANAGEMENT","9 HEPHER ROAD","","CAMPBELLTOWN","","Australia","2560","N","1300725991","","A third-party unaffiliated record keeper","ARCHIVING OF HARD COPIES OF BOOKS AND RECORDS RELATING TO THE INVESTMENT ADVISORY BUSINESS."
1978612,"ESSENTIAL FUND SERVICES INTERNATIONAL","315 MADISON AVENUE","3RD FLOOR","NEW YORK","NY","United States","10117","N","6469486500","8779783374","A third-party unaffiliated record keeper","FUND ADMINISTRATOR KEEPS BOOKS AND RUNS QUARTERLY NAV REPORTS"
1968449,"BLACK OAK CAPITAL MANAGEMENT, LLC C/O CHAD KOPP","","","","","","","Y","6464312406","","Other","BACKUP ELECTRONIC/SCANNED COPIES OF ALL MATERIAL RECORDS"
1968449,"NAV CONSULTING (3RD PARTY ADMINISTRATOR)","1 TRANS AM PLAZA DR","#400","OAKBROOK TERRACE","IL","United States","60181","N","630 954 1919","","A third-party unaffiliated record keeper","THIS IS OUR NEW ADMINISTRATOR STARTING JAN 1 2017, ALL BOOKS/RECORDS RELEVANT TO A 3RD PARTY FUND ADMINISTRATOR WILL BE STORED WITH THEM AS WELL."
1968462,"PINNACLE FUND SERVICES","1130 WEST PENDER STREET","UNIT 510","VANCOUVER, BC","","Canada","BC V6E 4A4","N","604-559-8920","","A third-party unaffiliated record keeper","FINANCIAL, ACCOUNTING AND INVESTOR RECORDS FOR PRIVATE FUNDS MANAGED BY ADVISER."
1968462,"RAGHURAI INC","1280 FINCH AVE W","","NORTH YORK, ONTARIO","","Canada","M3J 3K6","N","416-266-6824","","A third-party unaffiliated record keeper","FINANCIAL, ACCOUNTING AND INVESTOR RECORDS FOR PRIVATE FUNDS MANAGED BY ADVISER."
1968462,"SGGG","121 KING ST W","#300","TORONTO, ONTARIO","","Canada","M5H 3T9","N","416-967-0038","","A third-party unaffiliated record keeper","FINANCIAL, ACCOUNTING AND INVESTOR RECORDS FOR PRIVATE FUNDS MANAGED BY ADVISER."
1968492,"SILVER FERN FINANCIAL","411 THEODORE FREMD AVE","SUITE 206 S","RYE","NY","United States","10580","N","609-213-7901","","Other","CERTAIN RECORDS RELATING TO THE ADVISER AND CLIENT ACCOUNTS ARE MAINTAINED AT THIS LOCATION."
1968492,"MICROSOFT","ONE MICROSFT WAY","","REDMOND","WA","United States","98052","N","1-800-642-7676","","A third-party unaffiliated record keeper","MIRCROSOFT OUTLOOK OFFICE 365 IS USED FOR KEEPING EMAILS, ONE DRIVE, SHAREPOINT, AND OUTLOOK (CLOUD FILE STORING)."
1968492,"IDRIVE INC.","26115 MUREAU ROAD","SUITE A","CALABASAS","CA","United States","91302","N","885-815-8706","","A third-party unaffiliated record keeper","CERTAIN RECORDS RELATED TO THE ADVISER AND CLIENT ACCOUNTS ARE MAINTAINED AT THIS LOCATION."
1981481,"MAPLES CORPORATE SERVICES LIMITED","P.O. BOX 309, UGLAND HOUSE","","GRAND CAYMAN","","Cayman Islands","KY1-1104","N","(852)29713097","","A third-party unaffiliated record keeper","VARIOUS BOOKS AND RECORDS, AS REQUIRED BY LAW, INCLUDING REGISTERS OF PRIVATE FUNDS, BOARD RESOLUTOINS, ETC."
1981480,"MAPLES CORPORATE SERVICES LIMITED","UGLAND HOUSE, P.O. BOX 309","","GRAND CAYMAN","","Cayman Islands","KY1-1104","N","852 2971 3097","","A third-party unaffiliated record keeper","VARIOUS BOOKS AND RECORDS, AS REQUIRED BY LAW, INCLUDING REGISTERS OF PRIVATE FUNDS, BOARD RESOLUTIONS, ETC."
1961684,"MORGAN STANLEY FUND SERVICES (CAYMAN) LTD.","C/O MORGAN STANLEY FUND SERVICES IRELAND LIMITED","24-26 CITY QUAY","DUBLIN","","Ireland","D02 NY19","N","[   ]","","A third-party unaffiliated record keeper","RELEVANT DOCUMENTATION IN RESPECT OF EACH OF PROTIUM OPPORTUNITIES MASTER FUND LIMITED, PROTIUM OPPORTUNITIES FEEDER FUND LIMITED AND PROTIUM OPPORTUNITIES US FEEDER FUND LIMITED."
1981469,"CAXTON ASSOCIATES LLP","20 CARLTON HOUSE TERRACE, 2ND FLOOR","","LONDON","","United Kingdom","SW1Y 5AN","N","442076470770","","One of your branch offices or affiliates","CAXTON ASSOCIATES LLP IS THE SOLE SHAREHOLDER OF CAXTON ASSET MANAGEMENT (DIFC) LIMITED. AS A RESULT, CAXTON ASSOCIATES LLP MAINTAINS CERTAIN BOOKS AND RECORDS AT THIS LOCATION ON BEHALF OF CAXTON ASSET MANAGEMENT(DIFC) LIMITED."
1981469,"VERITAS TECHNOLOGIES LLC","350 ELLIS STREET","","MOUNTAIN VIEW","CA","United States","94043","N","800-721-3934","","A third-party unaffiliated record keeper","VERITAS TECHNOLOGIES LLC MAINTAINS CERTAIN BOOKS AND RECORDS OF CAXTON ASSET MANAGEMENT (DIFC) LIMITED"
1981469,"CITCO FUND SERVICES (CAYMAN ISLANDS) LIMITED","89 NEXUS WAY, 2ND FLOOR","","GRAND CAYMAN","","Cayman Islands","KY1-1205","N","3459493977","","A third-party unaffiliated record keeper","CITCO FUND SERVICES (CAYMAN ISLANDS) LIMITED AND ITS AFFILIATES/SUB-ADMINISTRATORS (COLLECTIVELY 'CITCO')SERVE AS THE ADMINISTRATORS TO PRIVATE FUNDS TO WHICH CAXTON ASSET MANAGEMENT (DIFC) LIMITED SERVE AS TRADING ADVISOR. CITCO MAY MAINTAIN CERTAIN BOOKS AND RECORDS OF THESE FUNDS AND CAXTON ASSET MANAGEMENT (DIFC) LIMITED IN SUCH CAPACITY"
1983014,"DROPSUITE","2059 CAMDEN AVENUE","","SAN JOSE","CA","United States","95124","N","408-780-2106","","A third-party unaffiliated record keeper","CLOUD STORAGE AND BACKUP OF ELECTRONIC COMMUNICATIONS AND CLIENT RECORDS."
1978907,"SS&C FUND ADMINISTRATION COMPANY","200 FRONT STREET WEST, SUITE 2500","P.O. BOX 56","TORONTO, ONTARIO","","Canada","H3B 4L3","N","905-629-8000","","A third-party unaffiliated record keeper","SS&C IS AN ADMINISTRATOR TO THE FUNDS AND MAINTAINS, FOR EXAMPLE, RECORDS RELATING TO INVESTOR INFORMATION."
1977259,"TRUSTSERVE L.P.","3111 PONCE DE LEON","","CORAL GABLES","FL","United States","33134","N","305-677-2030","","A third-party unaffiliated record keeper","RECORDS RELATED TO FUND ADMINISTRATION."
1976657,"AMAZON.COM INC.","410 TERRY AVENUE NORTH","","SEATTLE","WA","United States","98109","N","206-266-1000","","A third-party unaffiliated record keeper","THE FIRM PROVIDES CLOUD STORAGE SERVICES FOR CLIENT FILES."
1974933,"MORGAN STANLEY FUND SERVICES (CAYMAN) LTD.","C/O MORGAN STANLEY FUND SERVICES (IRELAND) LIMITED","7-11 SIR JOHN ROGERSON'S QUAY, DUBLIN 2","DUBLIN","","Ireland","00000","N","+353 1-7998778","1-914-7297361","A third-party unaffiliated record keeper","RELEVANT DOCUMENTATION IN RESPECT OF EACH OF THE SAGE PARTNERS MASTER FUND, SAGE PARTNERS OFFSHORE FUND, SAGE PARTNERS ONSHORE FUND, AND SAGE PARTNERS ALPHA 1 L.P."
1976657,"SMARSH, INC.","851 SW 6TH AVE, SUITE 800","","PORTLAND","OR","United States","97204","N","866-762-7741","","Other","RETENTION OF ELECTRONIC MESSAGES"
1976595,"MATSACK TRUST LIMITED","70 SIR JOHN ROGERSON'S QUAY","","DUBLIN","","Ireland","2","N","DO2R296","","A third-party unaffiliated record keeper","CLIENT RECORDS"
1976595,"AMAZON.COM INC.","410 TERRY AVENUE NORTH","","SEATTLE","WA","United States","98109","N","206-266-1000","","A third-party unaffiliated record keeper","STORAGE OF CLIENT AND OTHER FILES CONTAINING CONTRACTS, CORRESPONDENCE, RECOMMENDATIONS AND TRANSACTIONS, IN ADDITION TO PROGRAMMING CODE."
1976595,"SMARSH, INC.","851 SW 6TH AVENUE SUITE 800","","PORTLAND","OR","United States","97204","N","866-762-7741","","Other","RETENTION OF ELECTRONIC MESSAGES"
1981462,"VERITAS TECHNOLOGIES LLC","350 ELLIS STREET","","MOUNTAIN VIEW","CA","United States","94043","N","800-721-3934","","A third-party unaffiliated record keeper","VERITAS TECHNOLOGIES LLC MAINTAINS CERTAIN BOOKS AND RECORDS OF CAXTON SINGAPORE"
1981462,"CITCO FUND SERVICES (CAYMAN ISLANDS) LIMITED","89 NEXUS WAY, 2ND FLOOR","CAMANA BAY, P.O. BOX 31106","GRAND CAYMAN","","Cayman Islands","KY1-1205","N","3459493977","","A third-party unaffiliated record keeper","CITCO FUND SERVICES (CAYMAN ISLANDS) LIMITED AND ITS AFFILIATES/SUB-ADMINISTRATORS (COLLECTIVELY 'CITCO') SERVE AS THE ADMINISTRATORS TO PRIVATE FUNDS TO WHICH CAXTON SINGAPORE SERVE AS TRADING ADVISOR. CITCO MAY MAINTAIN CERTAIN BOOKS AND RECORDS OF THESE FUNDS AND CAXTON SINGAPORE IN SUCH CAPACITY."
1981462,"CAXTON ASSOCIATES LLP","20 CARLTON HOUSE TERRACE, 2ND FLOOR","","LONDON","","United Kingdom","SW1Y 5AN","N","442076470770","","One of your branch offices or affiliates","CAXTON ASSOCIATES LLP IS THE SOLE SHAREHOLDER OF CAXTON SINGAPORE. AS A RESULT, CAXTON ASSOCIATES LLP MAINTAINS CERTAIN BOOKS AND RECORDS AT THIS LOCATION ON BEHALF OF CAXTON SINGAPORE"
1983216,"CITCO FUND SERVICES (BERMUDA) LIMITED","O'HARA HOUSE, 3 BERMUDIANA ROAD","P.O. BOX 3399","HAMILTON","","Bermuda","HM08","N","441-295-7149","","A third-party unaffiliated record keeper","VARIOUS BOOKS AND RECORDS MAINTAINED AS REQUIRED PER INVESTMENT ADVISERS ACT OF 1940."
1983216,"CITCO (CANADA) INC.","2 BLOOR ST. E.","SUITE 2700","TORONTO","","Canada","M4W 1A8","N","416-969-6700","","A third-party unaffiliated record keeper","VARIOUS BOOKS AND RECORDS MAINTAINED AS REQUIRED PER INVESTMENT ADVISERS ACT OF 1940."
1984440,"LAB LUXEMBOURG S.A.","2-4, RUE EDMOND REUTER","","CONTERN","","Luxembourg","5326","N","+352 350 222 9","","A third-party unaffiliated record keeper","ARCHIVING PROVIDER WHICH HANDLES ALL TYPES OF ARCHIVING RELEVANT DOCUMENTS (TRANSACTION RELEVANT DATA, FINANCIALS)"
1984440,"BRS ALADDIN","MIRCOSOFT CORPORATION, AZURE WEST US 2","1515 PORT INDUSTIAL WAY","QUINCY","WA","United States","98848","N","833-538-1100","","A third-party unaffiliated record keeper","ORDER MANAGEMENT, TRADING, RESEARCH AND INVESTMENT GUIDELINE MONITORING SYSTEM"
1983256,"PETRA FUNDS GROUP, LLC","520 MADISON AVENUE","21ST FLOOR","NEW YORK","NY","United States","10022","N","212-582-3320","","A third-party unaffiliated record keeper","PETRA FUNDSGROUP, LLC IS THE ADMINISTRATOR FOR ALL PEARL ENERGY FUNDS AND AS SUCH KEEPS BOOKS AND RECORDS NORMALLY KEPT BY AN ADMINISTRATOR."
1984922,"VECTOR AIS, LLC","447 SUTTER STREET","SUITE 405","SAN FRANCISCO","CA","United States","94108","N","857-957-7773","","A third-party unaffiliated record keeper","ACCOUNTING RELATED BOOKS AND RECORDS PREPARED AND MAINTAINED BY THIRD PARTY ADMINISTRATOR."
1984403,"FIRSTCARIBBEAN INTERNATIONAL BANK","P.O. BOX 68","","GRAND CAYMAN","","Cayman Islands","KY1-1102","N","+13459497300","","A third-party unaffiliated record keeper","PRIVATE FUND-RELATED BOOKS AND RECORDS."
1984403,"NAV FUND SERVICES (CAYMAN) LTD.","PO BOX 30464","5TH FLOOR, HARBOUR PLACE","GRAND CAYMAN","","Cayman Islands","KY1 1202","N","+16309541919","","A third-party unaffiliated record keeper","PRIVATE FUND-RELATED BOOKS AND RECORDS."
1984403,"NAV CONSULTING, INC.","1 TRANS AM PLAZA DRIVE","SUITE 400","OAKBROOK TERRACE","IL","United States","60181","N","+16309541919","","A third-party unaffiliated record keeper","PRIVATE FUND-RELATED BOOKS AND RECORDS."
1985115,"MICROSOFT CORPORATION","ONE MICROSOFT WAY","","REDMOND","WA","United States","98052","N","425-882-8080","","A third-party unaffiliated record keeper","CLOUD-BASED COMMUNICATIONS (EMAIL, TEAMS), DOCUMENT STORAGE (ONEDRIVE, SHAREPOINT), COMPLIANCE ARCHIVE SYSTEMS, AND INTERNAL FILE BACKUP INFRASTRUCTURE."
1985115,"NAV CONSULTING, INC","1 TRANS AM PLAZA DRIVE","SUITE 400","OAKBROOK TERRACE","IL","United States","60181","N","630-954-1919","","A third-party unaffiliated record keeper","FUND ACCOUNTING REPORTS, GENERAL LEDGER DATA, CAPITAL ACCOUNT STATEMENTS, INVESTOR SUBSCRIPTION DOCUMENTS, FEE CALCULATIONS, NAV DETERMINATIONS, AND AUDIT FACILITATION RECORDS. NAV IS NOT A RELATED PERSON."
1983530,"KAUFMAN ROSSIN","3310 MARY STREET SUITE 501","","MIAMI","FL","United States","33133","N","305-646-6265","","A third-party unaffiliated record keeper","SPV BOOKS AND RECORDS"
1939292,"LANGHAM HALL (GUERNSEY) LIMITED (FUND ADMINISTRATOR)","NORTH SUITE 2, TOWN MILLS, RUE DU PRE","","PETER PORT","","Guernsey","GY1 1LT","N","+44 1481 7317","","A third-party unaffiliated record keeper","FUND ADMINISTRATOR - RECORDS PERTAINING TO INVESTMENT ACTIVITIES AND SHAREHOLDERS"
1939292,"EOS VENTURE PARTNERS LIMITED","8TH FLOOR, 1 FLEET PLACE","","LONDON","","United Kingdom","EC4M 7RA","N","+447392182009","","One of your branch offices or affiliates","RECORDS PERTAINING TO INVESTMENT ACTIVITIES AND SHAREHOLDERS - THIS IS THE PARENT COMPANY"
1939292,"MICHAEL J SPITZ CPA","","","","","","","Y","(310) 741-7044","","A third-party unaffiliated record keeper","RECORDS PERTAINING TO INVESTMENT ACTIVITIES AND SHAREHOLDERS"
1939292,"SQUARE MILE ACCOUNTING","ARQUEN HOUSE, 4-6 SPICER STREET","","ST ALBANS","","United Kingdom","AL3 4PQ","N","+44 1727 23651","","A third-party unaffiliated record keeper","RECORDS PERTAINING TO INVESTMENT ACTIVITIES AND SHAREHOLDERS"
1985436,"BELLTOWER FUND GROUP, LTD","PO BOX 3217","","SEATTLE","WA","United States","98114","N","360-340-9337","","A third-party unaffiliated record keeper","FUND DOCUMENTS, TRANSACTION RECORDS, WRITTEN COMMUNICATIONS"
1982091,"MATSACK TRUST LIMITED","70 SIR JOHN ROGERSON'S QUAY","","DUBLIN","","Ireland","2","N","DO2R296","","A third-party unaffiliated record keeper","CLIENT RECORDS"
1982091,"AMAZON.COM INC.","410 TERRY AVENUE NORTH","","SEATTLE","WA","United States","98109","N","206-266-1000","","A third-party unaffiliated record keeper","STORAGE OF CLIENT AND OTHER FILES CONTAINING CONTRACTS, CORRESPONDENCE, RECOMMENDATIONS AND TRANSACTIONS, IN ADDITION TO PROGRAMMING CODE."
1982091,"SMARSH, INC.","851 SW 6TH AVENUE SUITE 800","","PORTLAND","OR","United States","97204","N","866-762-7741","","Other","RETENTION OF ELECTRONIC MESSAGES"
1977309,"UMB FUND SERVICES INC.","235 WEST GALENA STREET","","MILWAUKEE","MI","United States","53212","N","+18888443350","","A third-party unaffiliated record keeper","BOOKS AND RECORDS FOR THE FUND FOR WHICH UMB FUND SERVICES ACTS AS ADMINISTRATOR"
1977309,"BBH LUXEMBOURG SCA","80 ROUTE D'ESCH","","LUXEMBOURG","","Luxembourg","L-1470","N","+3524740661","","A third-party unaffiliated record keeper","BOOKS AND RECORDS OF THE FUNDS FOR WHICH BBH LUXEMBOURG ACTS AS DEPOSITARY BANK AND CENTRAL ADMINISTRATION"
1977309,"U.S. BANK GLOBAL FUND SERVICES (LUXEMBOURG) SARL","4 RUE ALBERT BORSCHETTE","","LUXEMBOURG","","Luxembourg","L-1246","N","35228294710","","A third-party unaffiliated record keeper","RECORDS OF NB CREDIT OPPORTUNITIES FUND II LUX SCSP - TRANSFER AGENT AND CENTRAL ADMINISTRATION"
1977309,"ENGINEERING INGENERIA INFORMATICA SPA","VIA FERRINI","LOCALITA SAN MARTINO","MONTERIGGIONI","","Italy","I-53035","N","+3905771887130","","A third-party unaffiliated record keeper","BOOKS AND RECORDS OF THE FUNDS FOR WHICH ENGINEERING INGENERIA INFORMATICS ACTS AS CENTRAL ADMINISTRATOR"
1977309,"NEUBERGER BERMAN AIFM SARL","9 RUE DU LABORATOIRE","","LUXEMBOURG","","Luxembourg","L-1911","N","99999999","","Other","PREVIOUS DOMICILE AND LOCATION - CURRENTLY USED FOR STORAGE DOCUMENTS ON A TEMPORARILY BASIS / NO LIVE PHONE NUMBER"
1977309,"NEUBERGER BERMAN AIFM SARL","33 BOULEVARD PRINCE HENRI","","LUXEMBOURG","","Luxembourg","L-1724","N","35227866453","","Other","TEMPORARY LOCATION"
1977309,"SS&C LUXEMBOURG","2 RUE JEAN MONNET","","LUXEMBOURG","","Luxembourg","L-2180","N","35226757000","","A third-party unaffiliated record keeper","TRANSFER AGENT AND CENTRAL ADMINISTRATION"
1982870,"RELIANT FUND SERVICES","22 W 38TH ST 7TH FLOOR","","NEW YORK","NY","United States","10018","N","212-953-9090","","A third-party unaffiliated record keeper","CERTAIN BOOKS AND RECORDS RELATING TO PRIVATE FUNDS MANAGED BY THE ADVISER."
1980011,"NAV CONSULTING, INC","1 TRANS AM PLAZA DRIVE","SUITE 400","OAKBROOK TERRACE","IL","United States","60181","N","630-954-1919","","A third-party unaffiliated record keeper","FUND ACCOUNTING REPORTS, GENERAL LEDGER DATA, CAPITAL ACCOUNT STATEMENTS, INVESTOR SUBSCRIPTION DOCUMENTS, FEE CALCULATIONS, NAV DETERMINATIONS, AND AUDIT FACILITATION RECORDS. NAV IS NOT A RELATED PERSON."
1980011,"MICROSOFT CORPORATION","ONE MICROSOFT WAY","","REDMOND","WA","United States","98052","N","425-882-8080","","A third-party unaffiliated record keeper","CLOUD-BASED COMMUNICATIONS (EMAIL, TEAMS), DOCUMENT STORAGE (ONEDRIVE, SHAREPOINT), COMPLIANCE ARCHIVE SYSTEMS, AND INTERNAL FILE BACKUP INFRASTRUCTURE."
1985074,"APPLE INC.","ONE APPLE PARK WAY","","CUPERTINO","CA","United States","95014","N","4089961010","","A third-party unaffiliated record keeper","CLOUD BASED BACK UPS OF BOOKS AND RECORDS RELATED TO ACCOUNTING, FINANCIAL REPORTS, TAX DOCUMENTATION AND SUBSCRIPTION DOCUMENTATION."
1985074,"CARTA FUND ADMNISTRATION","333 BUSH STREET","SUITE 2300","SAN FRANCISCO","CA","United States","94104","N","6509446000","","A third-party unaffiliated record keeper","FINANCIAL RECORDS RELATED TO ONE OR MORE POOLED INVESTMENT VEHICLES."
1985074,"JAM OUTSOURCE SERVICES, LLC","200 W MADISON STREET","SUITE 2800","CHICAGO","IL","United States","60606","N","3124991968","","A third-party unaffiliated record keeper","FINANCIAL RECORDS RELATED TO POOLED INVESTMENT VEHICLES."
1985074,"DROPBOX INC","333 BRANNAN STREET","","SAN FRANCISCO","CA","United States","94107","N","4158576800","","A third-party unaffiliated record keeper","FINANCIAL RECORDS, MARKETING MATERIALS, LEGAL DOCUMENTS."
1985074,"GLOBAL RELAY COMMUNICATIONS INC.","286 MADISON AVENUE","","NEW YORK","NY","United States","10017","N","8664846630","","A third-party unaffiliated record keeper","ARCHIVED EMAIL COMMUNICATION ACCESSIBLE VIA A SECURED WEB-BASED PORTAL"
1985074,"WEV CONSULTING, LLC,","75589 MONTAGE PARKWAY","","PALM DESERT","CA","United States","92211","N","6462568233","","A third-party unaffiliated record keeper","FINANCIAL RECORDS FOR POOLED INVESTMENT VEHICLES."
1985074,"SS&C GLOBEOP","675 THIRD AVENUE","","NEW YORK","NY","United States","10017","N","2123199730","","A third-party unaffiliated record keeper","FINANCIAL RECORDS FOR VENTURE CAPITAL FUNDS."
1964147,"SS&C TECHNOLOGIES INC.","80 LAMBERTON RD","","WINDSOR","CT","United States","06095","N","800-234-0556","","A third-party unaffiliated record keeper","CERTAIN BOOKS AND RECORDS OF THE REGISTRANT AND ITS CLIENTS AS REQUIRED BY RULE 204-2."
1970971,"SOUTH WATCH LLC","3000 DAVENPORT AVENUE","SUITE 200","CANTON","MA","United States","02021","N","781-615-9031","","Other","BOOKS AND RECORDS ASSOCIATED WITH THE ADMINISTRATION OF THE AFFILIATED PRIVATE FUNDS"
1975894,"CARTA INVESTOR SERVICES, INC.","333 BUSH STREET, FLOOR 23, STE. 2300","","SAN FRANCISCO","CA","United States","94104","N","6506698381","","A third-party unaffiliated record keeper","CARTA SERVES AS THE FUND ADMINISTRATOR. IN THIS CAPACITY, CARTA MAINTAINS CERTAIN FUND DOCUMENTS AND OTHER BOOKS AND RECORDS."
1978666,"CARTA INVESTOR SERVICES, INC","333 BUSH STREET, FLOOR 23, STE. 2300SAN FRANCISCO","","SAN FRANCISCO","CA","United States","94104","N","6506698381","","A third-party unaffiliated record keeper","CARTA SERVES AS THE FUND ADMINISTRATOR. IN THIS CAPACITY, CARTA MAINTAINS CERTAIN FUND DOCUMENTS ANDOTHER BOOKS AND RECORDS."
1942127,"VERITAS TECHNOLOGIES LLC","350 ELLIS STREET","","MOUNTAIN VIEW","CA","United States","94043","N","800-721-3934","","A third-party unaffiliated record keeper","VERITAS TECHNOLOGIES LLC MAINTAINS CERTAIN BOOKS AND RECORDS OF CAXTON EUROPE LLP AND ITS AFFILIATES AND CLIENTS"
1942127,"CAXTON ASSOCIATES (USA) LLC","500 PARK AVENUE","9TH FLOOR","NEW YORK","NY","United States","10022","N","212 593-7700","","One of your branch offices or affiliates","CAXTON ASSOCIATES (USA) LLC IS A SUB-ADVISER OF CAXTON EUROPE LLP. AS A RESULT, CAXTON ASSOCIATES (USA) LLC MAY MAINTAIN CERTAIN BOOKS AND RECORDS AT THIS LOCATION ON ITS BEHALF AND ON BEHALF OF CAXTON EUROPE LLP AND ITS OTHER AFFILIATES AND CLIENTS."
1942127,"CAXTON ASSET MANAGEMENT (DIFC) LTD","UNIT 416, LEVEL 4","INDEX TOWER, DUBAI INTERNATIONAL FINANCIAL CENTRE","DUBAI","","United Arab Emirates","","N","+442076475901","","One of your branch offices or affiliates","CAXTON ASSET MANAGEMENT (DIFC) LTD IS A SUB-ADVISER OF CAXTON EUROPE LLP. AS A RESULT, CAXTON ASSET MANAGEMENT (DIFC) LTD MAY MAINTAIN CERTAIN BOOKS AND RECORDS AT THIS LOCATION ON ITS BEHALF AND ON BEHALF OF CAXTON EUROPE LLP AND ITS OTHER AFFILIATES AND CLIENTS."
1942127,"CITCO FUND SERVICES (CAYMAN ISLANDS) LIMITED","89 NEXUS WAY, 2ND FLOOR","CAMANA BAY, P.O. BOX 31106","GRAND CAYMAN","","Cayman Islands","KY1-1205","N","3459493977","","A third-party unaffiliated record keeper","CITCO FUND SERVICES (CAYMAN ISLANDS) LIMITED AND ITS AFFILIATES/SUB-ADMINISTRATORS (COLLECTIVELY, ""CITCO"") SERVE AS THE ADMINISTRATORS TO SEVERAL PRIVATE FUNDS TO WHICH CAXTON EUROPE LLP AND ITS AFFILIATES (""CAXTON"") SERVE AS TRADING ADVISOR. CITCO MAY MAINTAIN CERTAIN BOOKS AND RECORDS OF THESE FUNDS AND CAXTON IN SUCH CAPACITY"
1942127,"CAXTON (MONACO) S.A.M","GILDO PASTOR CENTER","7 RUE DU GABIAN","MONACO","","Monaco","MC 98000","N","442076470770","","One of your branch offices or affiliates","CAXTON (MONACO) S.A.M (""CAXTON MONACO"") IS A SUB-ADVISER OF CAXTON EUROPLE LLP. AS A RESULT, CAXTON MONACO MAY MAINTAIN CERTAIN BOOKS AND RECORDS AT THIS LOCATION ON ITS OWN BEHALF AND ON THE BEHALF OF CAXTON EUROPE LLP AND ITS OTHER AFFILIATES AND CLIENTS"
1942127,"CAXTON (SINGAPORE) PTE. LTD.","8 MARINA VIEW, UNIT # 14-05","ASIA TOWER SQUARE 1","SINGAPORE","","Singapore","018961","N","65-65138508","","One of your branch offices or affiliates","CAXTON (SINGAPORE) PTE. LTD. (""CAXTON SINGAPORE"") IS A SUB-ADVISER OF CAXTON EUROPE LLP. AS A RESULT, CAXTON SINGAPORE MAY MAINTAIN CERTAIN BOOKS AND RECORDS AT THIS LOCATION ON ITS BEHALF AND ON BEHALF OF CAXTON EUROPE LLP AND ITS OTHER AFFILIATES AND CLIENTS."
1978713,"GRACE RECORDS MANAGEMENT","9 HEPHER ROAD","","CAMPBELLTOWN","","Australia","2560","N","1300725991","","A third-party unaffiliated record keeper","ARCHIVING OF HARD COPIES OF BOOKS AND RECORDS RELATING TO THE INVESTMENT ADVISORY BUSINESS."
1978771,"AZTEC FINANCIAL SERVICES (JERSEY) LIMITED","11-15 SEATON PLACE","","ST HELIER","","Jersey","JE4 0QH","N","441534833030","+441534833033","A third-party unaffiliated record keeper","CERTAIN ACCOUNTING DOCUMENTS RELEVANT TO THE ADVISORY BUSINESS."
1980752,"GRYPHON FUND GROUP, LLC","3000 AUBURN DR","SUITE 410","BEACHWOOD","OH","United States","44122","N","(216) 329-4274","","A third-party unaffiliated record keeper","ACCOUNTING AND TAX"
1966787,"ABERDEEN GROUP PLC","1 GEORGE STREET","","EDINBURGH","","United Kingdom","EH2 2LL","N","44131 372 9444","","One of your branch offices or affiliates","ABERDEEN GROUP PLC IS THE PARENT COMPANY AND MAY MAINTAIN SOME BOOKS AND RECORDS FOR THE REGISTRANT"
1966787,"SALESFORCE","SALESFORCE TOWER","415 MISSION STREET, 3RD FLOOR","SAN FRANCISCO","CA","United States","94105","N","415-901-7000","","A third-party unaffiliated record keeper","CUSTOMER RELATIONSHIP MANAGEMENT SOFTWARE"
1966787,"WOLTERS KLUWER (ONE SUM X)","WEWORK BUILDING 8TH FLOOR","30 CHURCHILL PLACE CANARY WHARF","LONDON","","United Kingdom","E14 5RE","N","020 3197 6600","","A third-party unaffiliated record keeper","(ONE SUM X) - ENTERPRISE RISK MANAGEMENT SOFTWARE"
1966787,"STATE STREET BANK AND TRUST COMPANY","JOHN ADAMS BUILDING","1776 HERITAGE DRIVE","NORTH QUINCY","MA","United States","02171","N","617-664-9566","","A third-party unaffiliated record keeper","ADMINSTRATOR FOR US REGISTERED AND PRIVATE FUNDS"
1966787,"INSTITUTIONAL SHAREHOLDER SERVICES, INC.","702 KING FARM BLVD, SUITE 300","","ROCKVILLE","MD","United States","20850","N","301-556-0500","","A third-party unaffiliated record keeper","PROXY VOTING RECORDS MAINTAINED FOR THE REGISTRANT"
1966787,"CITI","4400 EASTON COMMONS SUITE 200","","COLUMBUS","OH","United States","43219","N","(614) 470 8240","","A third-party unaffiliated record keeper","ABRDN'S ADMINISTRATOR. CITI ARE LOCATED IN MULITPLE LOCATIONS HOWEVER OPERATIONS OFFICE LISTED ONLY."
1966787,"BLOOMBERG LP","731 LEXINGTON AVENUE","","NEW YORK","NY","United States","10022","N","212-318-2000","","A third-party unaffiliated record keeper","BLOOMBERG EMAIL AND INSTANT MESSAGES FROM TRADERS AND PORTFOLIO MANAGERS"
1966787,"ABRDN INC.","875 THIRD AVENUE, SUITE 403","","NEW YORK","NY","United States","10022","N","212-776-1170","","One of your branch offices or affiliates","AFFILIATE AND MAY MAINTAIN SOME BOOKS AND RECORDS FOR THE REGISTRANT"
1966787,"ABRDN PLC","10 QUEENS TERRACE","","ABERDEEN","","United Kingdom","AB10 1XL","N","+44 1224 631 9","","One of your branch offices or affiliates","ABRDN IS THE PARENT COMPANY AND MAY MAINTAIN SOME BOOKS AND RECORDS FOR THE REGISTRANT"
1966787,"ABRDN INVESTMENTS IRELAND LIMITED NETHERLANDS BRANCH","WTC H-TOWER","24TH FLOOR, ZUIDPLEIN","AMSTERDAM","","Netherlands","166 1077 XV","N","+31206870500","","One of your branch offices or affiliates","BOOKS AND RECORDS FOR ABRDN EUROPEAN BALANCED PROPERTY FUND"
1966787,"ABRDN INC.","1900 MARKET STREET","STE 200","PHILADELPHIA","PA","United States","19103","N","(215) 405-5700","","One of your branch offices or affiliates","AFFILIATE AND MAY MAINTAIN SOME BOOKS AND RECORDS FOR THE REGISTRANT"
1966787,"BNP PARIBAS SECURITY SERVICES SA","GRANDS MOULINS DE PANTIN","9 RUE DU DEBARCADERE","PANTIN","","France","93500","N","(+33)1 42 98 1","","A third-party unaffiliated record keeper","ABERDEEN GROUP PLC ADMINISTRATOR. BNP ARE LOCATED IN MULITPLE LOCATIONS HOWEVER HEAD OFFICE LISTED ONLY."
1966787,"ABRDN INVESTMENTS LUXEMBOURG S.A.","35A AVENUE JOHN F KENNEDY","","LUXEMBOURG","","Luxembourg","L-1855","N","+352 42 12 41","","One of your branch offices or affiliates","BOOKS AND RECORDS MAINTAINED FOR THE REGISTRANT"
1966787,"ABRDN INC.","28 STATE STREET, 17TH FLOOR","","BOSTON","MA","United States","02109","N","6177207900","617-720-7950","One of your branch offices or affiliates","AFFILIATE AND MAY MAINTAIN SOME BOOKS AND RECORDS FOR THE REGISTRANT"
1966787,"CORLYTICS LIMITED","NEXUS BUILDING, BELFIELD OFFICE PARK","CLONSKEAGH","DUBLIN","","Ireland","D04 V2N9","N","353 1 9038761","","A third-party unaffiliated record keeper","REGULATORY HORIZON SCANNING SOFTWARE"
1966787,"ABRDN INVESTMENTS LIMITED","280 BISHOPSGATE","","LONDON","","United Kingdom","EC2M 4AG","N","00442074636100","","One of your branch offices or affiliates","AFFILIATE AND MAY MAINTAIN SOME BOOKS AND RECORDS FOR THE REGISTRANT (FOR OTHER ADVISERS)"
1966787,"MYCOMPLIANCEOFFICE","535 FIFTH AVENUE, 4TH FLOOR","","NEW YORK","NY","United States","10017","N","1-866-951-2280","","A third-party unaffiliated record keeper","(MY COMPLIANCE OFFICE) - COMPLIANCE REPORTS"
1966787,"BROWN BROTHERS HARRIMAN","80 ROUTE D'ESCH","","LUXEMBOURG","","Luxembourg","1470","N","+352 47 40 66","","A third-party unaffiliated record keeper","ADMIN/CUSTODIAN FOR ABRDN EUROPEAN BALANCED PROPERTY FUND"
1966787,"MICROSOFT AZURE","ONE MICROSOFT WAY","REDMOND","WASHINGTON","WA","United States","98052","N","800-642-7676","","A third-party unaffiliated record keeper","DATA ARCHIVING/CLOUD SERVER PROVIDER"
1972983,"IRON MOUNTAIN","175 BEARFOOT ROAD","","NORTHBORO","MA","United States","01532","N","508-393-0217","","A third-party unaffiliated record keeper","BANK STATEMENTS ACCOUNTING & TAX FILES LEGAL & PORTFOLIO FILES"
1974461,"TMF GROUP","790 SE CARY PARKWAY","SUITE 204","CARY","NC","United States","27511","N","919.459.4653","919.459.4670","A third-party unaffiliated record keeper","ALL FINANCIAL RECORDS, CAPITAL STATEMENTS, AND LIMITED PARTNER DOCUMENTS ARE HELD AT VENTURE BACK OFFICE, A THIRD-PARTY ACCOUNTING FIRM WHO HANDLES THE BOOKKEEPING FOR BOTH HATTERAS VENTURE PARTNERS V (PRIVATE FUND LISTED) AND THE VENTURE CAPITAL MULTIPLIER FUND (PRIVATE FUND LISTED)"
1973482,"INTERTRUST CORPORATE AND FUND SERVICES LLC","300 EXECUTIVE DRIVE","SUITE 150","WEST ORANGE","NJ","United States","07052","N","732-868-8100","","A third-party unaffiliated record keeper","MAINTAINS REGISTER OF HOLDERS OF SHARES OR INTERESTS IN COLLECTIVE INVESTMENT VEHICLES, SUBSCRIPTION MATERIALS, AND OTHER RECORDS CUSTOMARILY KEPT BY A FUND ADMINISTRATOR AND ITS AFFILIATES."
1973482,"IRON MOUNTAIN","1100 KENNEDY ROAD","","WINDSOR","CT","United States","06905","N","8009343453","","Other","STORAGE FACILITY FOR THE COMPANY."
1973482,"SMARSH, INC","110 WILLIAM STREET","#1804","NEW YORK","NY","United States","10038","N","18667627741","","A third-party unaffiliated record keeper","ELECTRONIC COMMUNICATION ARCHIVER"
1973482,"BROADRIDGE FINANCIAL SERVICES, INC.","605 THIRD AVENUE","","NEW YORK","NY","United States","10158","N","9176910749","","A third-party unaffiliated record keeper","OMS AND ACCOUNTING SYSTEM"
1973482,"DROPBOX, INC","333 BRANNAN STREET","","SAN FRANCISCO","CA","United States","94107","N","18553376726","","A third-party unaffiliated record keeper","CLOUD SERVER"
1949167,"CARTA","200 AMERICAN METRO BLVD., SUITE 123","","HAMILTON","NJ","United States","08619","N","609-575-7944","","A third-party unaffiliated record keeper","PRIVATE FUND RECORDS"
1975095,"PINEBRIDGE INVESTMENTS EUROPE LIMITED (DIFC REPRESENTATIVE OFFICE)","EMIRATES FINANCIAL TOWERS","SOUTH TOWER FLOOR 3 UNIT 313","DIFC DUBAI","","United Arab Emirates","","N","0097142457411","0097144309251","One of your branch offices or affiliates","COPY AGREEMENTS, ELECTRONIC REGULATORY FILING FOR DIFC AND GENERAL ADMINISTRATION DOCUMENTS"
1975095,"PINEBRIDGE INVESTMENTS EUROPE LIMITED","ONE BEDFORD AVENUE","","LONDON","","United Kingdom","WC1B 3AU","N","+442073986000","","One of your branch offices or affiliates","STATUTORY RECORDS"
1975095,"ARCHIVE WAREHOUSE","UNIT 35A FAIRVIEW INDUSTRIAL PARK","MARSH WAY","RAINHAM","","United Kingdom","RM13 8UH","N","0844 800 4008","","A third-party unaffiliated record keeper","DOCUMENTS, AGREEMENTS, TRADE & SETTLEMENT, BACK UP TAPES"
1975095,"PINEBRIDGE INVESTMENTS EUROPE LIMITED OFICINA DE REPRESENTACION","C/O TMF COLOMNIA LTDA, CALLE 72","NO 10 07 OFFICE 401 EDIFICIO LIBERTY SEGUROS","BOGOTA DC","","Colombia","","N","0057117461000","","One of your branch offices or affiliates","COPY OF AGREEMENTS AND GENERAL CORRESPONDENCE"
1975095,"PINEBRIDGE INVESTMENTS EUROPE LIMITED","THIRD FLOOR","16 SIR JOHN ROGERSON'S QUAY","DUBLIN 2","","Ireland","D02 DH34","N","0035316973939","","One of your branch offices or affiliates","COPY OF AGREEMENTS, COPY OF ACCOUNTS, GENERAL ADMINISTRATION DOCUMENTS"
1975095,"CLM ASSOCIATI","VIALE LUNIGIANA 23","","MILAN","","Italy","20125","N","+39236504225","+39267072841","A third-party unaffiliated record keeper","DOMICILATION OF BRANCH AT CLM REGISTERED OFFICE (FOR OUR MILAN BRANCH) DOUCMENTS AND RECORDS KEEPING FOR MILAN"
1975095,"PINEBRIDGE INVESTMENTS LLC","PARK AVENUE TOWER","65TH EAST 55TH STREET","NEW YORK","NY","United States","10022","N","646 8578000","6463086515","One of your branch offices or affiliates","FAILOVER SITE - (ADDITIONAL BACK UP AND STORAGE FOR IT)"
1975095,"PINEBRIDGE INVESTMENTS SWITZERLAND GMBH","SELNAUSTRASSE 3","","ZURICH","","Switzerland","8001","N","0041434217141","","One of your branch offices or affiliates","COPY DOCUMENTS"
1975095,"PINEBRIDGE INVESTMENTS DEUTSCHLAND GMBH","MAXIMILIANSTRASSE 13","","MUNICH","","Germany","80539","N","04989203006412","","One of your branch offices or affiliates","COPY DOCUMENTS"
1973179,"KAUFMAN & CANOLES, P.C.","150 WEST MAIN ST.","SUITE 2100","NORFOLK","VA","United States","23510","N","7576243000","","A third-party unaffiliated record keeper","OPERATING AGREEMENT, SUBSCRIPTION PAPERWORK"
1973179,"FLEMING FINANCIAL SERVICES, LP","6800 PARAGON PLACE","SUITE 112","RICHMOND","VA","United States","23230","N","8042851234","","A third-party unaffiliated record keeper","FLEMING FINANCIAL SERVICES, LP SERVES AS ADMINISTRATOR AND KEEPER OF SUBSCRIPTION AGREEMENTS AND CERTAIN FINANCIAL REPORTS."
1968778,"VMS","300 CARNEGIE CENTER","SUITE 200","PRINCETON","NJ","United States","08540","N","6094308422","","A third-party unaffiliated record keeper","ALL BOOKS AND RECORDS RELATED TO FUND ADMINISTRATOR AND BOOKKEEPER FUNCTIONS"
1972300,"AKRAM FUND SERVICES","206 HIGH HOUSE ROAD","SUITE 106","CARY","NC","United States","27513","N","919 377 1097","919 800 3881","A third-party unaffiliated record keeper","INVESTOR REGISTRY AND CAPITAL ACCOUNT STATEMENTS"
1972300,"RICHEY, MAY & CO., LLP","9780 S MERIDIAN BLVD","SUITE 500","ENGLEWOOD","CO","United States","80112","N","303 721 6131","","A third-party unaffiliated record keeper","WORK PAPERS USED TO PREPARE TAX PREPARATION"
1976486,"BNP PARIBAS, ACTING THROUGH ITS HONG KONG BRANCH","21/F, PCCW TOWER, TAIKOO PLACE","979 KING'S ROAD, QUARRY BAY","HONG KONG","","China","","N","852 2108 6467","852 2263 6427","A third-party unaffiliated record keeper","RECORDS RELATING TO THE FUND'S NET ASSET VALUE AND INVESTOR DEALING TRANSACTION DOCUMENTS INCLUDING KNOW YOUR CUSTOMERS DOCUMENTS ARE KEPT HERE."
1953298,"FORMIDIUM CORP.","633 ROGERS ST.","SUITE 106","DOWNERS GROVE","IL","United States","60515","N","630-828-3520","","A third-party unaffiliated record keeper","BOOKS AND RECORDS OF CLIENT ACCOUNTS AND DOCUMENTS."
1943431,"BRAVE CAPITAL MANAGEMENT LLC","","","","","","","Y","650-272-0075","","One of your branch offices or affiliates","A COPY OF BOOKS AND RECORDS."
1971916,"ALTRA INVERSIONES SAS","CALLE 97A NO. 8-10","INT. 2, OF 501","BOGOTA","","Colombia","","N","(571) 275 8340","","One of your branch offices or affiliates","CERTAIN RECORDS RELATED TO THE ADVISER AND FUND INVESTMENTS, INCLUDING MOSTLY INVESTMENT ANALYSIS, PIPELINE AND RESEARCH RECORDS"
1975005,"STONE COAST FUND SERVICES","2 PORTLAND SQUARE","","PORTLAND","ME","United States","04101","N","207-699-2680","","A third-party unaffiliated record keeper","CALCULATION OF THE NAV AND ONBOARDING OF INVESTORS FOR FUNDS UNDER ADMINISTRATION"
1945118,"WAYSTONE ADMINISTRATION SOLUTIONS (IE) LIMITED","35 SHELBOURNE ROAD","BALLSBRIDGE","DUBLIN","","Ireland","D04 A4E0","N","+353 18992427","+353 18992499","A third-party unaffiliated record keeper","THIS FIRM ACTS AS THE ADMINISTRATOR TO THE PRIVATE FUND"
1975424,"MORGAN STANLEY FUND SERVICES USA LLC","2000 WESTCHESTER AVENUE","","PURCHASE","NY","United States","10577","N","(914) 225-0700","","Other","FUND ADMINISTRATOR MAINTAINS CERTAIN BOOKS AND RECORDS RELATING TO PRIVATE FUND CLIENTS."
1974144,"CARTA INVESTOR SERVICES, INC.","333 BUSH STREET","SUITE 2300","SAN FRANCISCO","CA","United States","94104","N","8018907542","","A third-party unaffiliated record keeper","FINANCIAL STATEMENTS, NOTICES TO INVESTORS, INVESTOR RECORDS, STATEMENTS AND ACCOUNTING RECORDS, ORGANIZATIONAL DOCUMENTS"
1970985,"FINANCIAL SOLUTIONS ACCOUNTING AND ADMINISTRATIVE SERVICES, INC.","112 STATE ROAD, PO BOX 1897","UNIT A","SAGAMORE BEACH","MA","United States","02562","N","508-888-2752","508-888-2618","A third-party unaffiliated record keeper","ACCURAL-BASED BOOKS AND RECORDS FOR LMK CAPITAL MANAGEMENT, LLC (THE ""COMPANY""); FULL CASH RECONCILIATION AND ACCRUAL OF ALL INCOME AND EXPENSES FOR THE COMPANY, IN ADDTION TO 3RD PARTY NAVLIGHT ADMINISTRATOR FOR BLUE HERON PARTNES, L.P. (THE ""FUND"")."
1983758,"MAPLES FIDUCIARY SERVICES (UK) LIMITED","11TH FLOOR","200 ALDERSGATE","LONDON","","United Kingdom","EC1A 4HD","N","44-2074661600","44-2074661700","A third-party unaffiliated record keeper","SUCH CORPORATE DOCUMENTS AS ARE REQUIRED TO BE KEPT PURSUANT TO APPLICABLE LAW."
1983758,"MAPLES CORPORATE SERVICES LIMITED","PO BOX 309","UGLAND HOUSE","GRAND CAYMAN","","Cayman Islands","KY1-1104","N","345-949-8066","345-949-8080","A third-party unaffiliated record keeper","SUCH CORPORATE DOCUMENTS AS ARE REQUIRED TO BE KEPT PURSUANT TO APPLICABLE LAW."
1983758,"MAPLES FIDUCIARY SERVICES (DELAWARE) INC.","SUITE 302","4001 KENNET PIKE","WILMINGTON","DE","United States","19807","N","302-338-9130","302-300-4063","A third-party unaffiliated record keeper","SUCH CORPORATE DOCUMENTS AS ARE REQUIRED TO BE KEPT PURSUANT TO APPLICABLE LAW."
1983758,"CITCO FUND ADMINISTRATION (CAYMAN ISLANDS) LIMITED","89 NEXUS WAY","CAMANA BAY, PO BOX 31106","GRAND CAYMAN","","Cayman Islands","KY1-1205","N","+1-345-949-397","","A third-party unaffiliated record keeper","SUCH CORPORATE DOCUMENTS AS ARE REQUIRED TO BE KEPT PURSUANT TO APPLICABLE LAW."
1983758,"CITCO FUND SERVICES (IRELAND) LIMITED","CUSTOM HOUSE PLAZA, BLOCK 6","INTERNATIONAL FINANCIAL SERVICES CENTRE","DUBLIN 1","","Ireland","D01 X9Y5","N","+353 16367300","","A third-party unaffiliated record keeper","SUCH CORPORATE DOCUMENTS AS ARE REQUIRED TO BE KEPT PURSUANT TO APPLICABLE LAW."
1983758,"CITCO MIDDLE EAST LIMITED","AL SILA TOWER, 14TH FLOOR","ADGM SQUARE, PO BOX 764678","ABU DHABI","","United Arab Emirates","","N","+971 24952777","","A third-party unaffiliated record keeper","SUCH CORPORATE DOCUMENTS AS ARE REQUIRED TO BE KEPT PURSUANT TO APPLICABLE LAW."
1983758,"SEI GLOBAL SERVICES, INC.","1 FREEDOM VALLEY DRIVE","","OAKS","PA","United States","19456","N","610.676.1000","","A third-party unaffiliated record keeper","SUCH CORPORATE DOCUMENTS AS ARE REQUIRED TO BE KEPT PURSUANT TO APPLICABLE LAW."
1983758,"SEI GLOBAL SERVICES, INC.","STYNE HOUSE","UPPER HATCH STREET","DUBLIN 2","","Ireland","00000","N","353 1 638 2400","","A third-party unaffiliated record keeper","SUCH CORPORATE DOCUMENTS AS ARE REQUIRED TO BE KEPT PURSUANT TO APPLICABLE LAW."
1978697,"MAPLES FUND SERVICES (CAYMAN) LIMITED","P.O. BOX 1093, BOUNDARY HALL","CRICKET SQUARE","GRAND CAYMAN","","Cayman Islands","","N","1 345 945 7099","1 345 945 7100","A third-party unaffiliated record keeper","RECORDS RELATING TO INVESTOR SUBSCRIPTIONS AND REDEMPTION, CERTAIN FINANCIAL, ACCOUNTING AND ADMINISTRATIVE DOCUMENTS, NAV CALCULATIONS, STATEMENTS OF TRANSACTIONS, MANAGEMENT AND PERFORMANCE FEES, AND AML/KYC DOCUMENTATION."
1975734,"UPWELLING CAPITAL GROUP LLC","","","","","","","Y","5307587888","","One of your branch offices or affiliates","PASSWORD PROTECTED OFFSITE REMOTE SERVER"
1975734,"UPWELLING CAPITAL GROUP LLC","2820 FIFTH STREET","","DAVIS","CA","United States","95618","N","5307587888","","Other","ELECTRONIC STORAGE ON PASSWORD PROTECTED SERVER WITH REDUNDANT BACK UP SERVER STORAGE OFFSITE FOR CONTINUITY PROTECTION."
1978711,"GRACE RECORDS MANAGEMENT","9 HEPHER ROAD","","CAMPBELLTOWN","","Australia","2560","N","1300725991","","A third-party unaffiliated record keeper","ARCHIVING OF HARD COPIES OF BOOKS AND RECORDS RELATING TO THE INVESTMENT ADVISORY BUSINESS."
1972981,"IRON MOUNTAIN","175 BEARFOOT ROAD","","NORTHBORO","MA","United States","01532","N","508-393-0217","","A third-party unaffiliated record keeper","BANK STATEMENTS ACCOUNTING & TAX FILES LEGAL & PORTFOLIO FILES"
1974772,"TMF GROUP","790 SE CARY PARKWAY","SUITE 204","CARY","NC","United States","27511","N","9194594653","9194594670","A third-party unaffiliated record keeper","ALL FINANCIAL RECORDS AND CAPITAL STATEMENTS ARE HELD AT TMF GROUP, A THIRD PARTY ACCOUNTING FIRM WHO HANDLES THE BOOKKEEPING FOR HATTERAS VENTURE PARTNERS VII, LP (PRIVATE FUND LISTED)"
1974718,"TMF GROUP","790 SE CARY PARKWAY","SUITE 204","CARY","NC","United States","27511","N","919.459.4653","919.459.4670","A third-party unaffiliated record keeper","ALL FINANCIAL RECORDS AND CAPITAL STATEMENTS ARE HELD AT VENTURE BACK OFFICE, A THIRD-PARTY ACCOUNTING FIRM WHO HANDLES THE BOOKKEEPING FOR HATTERAS VENTURE PARTNERS VI, LP (PRIVATE FUND LISTED)"
1965933,"STANDISH MANAGEMENT, LLC","750 BATTERY ST","6TH FLOOR","SAN FRANCISCO","CA","United States","94111","N","19253573039","","A third-party unaffiliated record keeper","CERTAIN BOOKKEEPING AND TAX RECORDS"
1965933,"VECTOR AIS","447 SUTTER STREET","SUITE 405","SAN FRANCISCO","CA","United States","94108","N","+1 (415) 449-4","","A third-party unaffiliated record keeper","CERTAIN BOOKKEEPING AND TAX RECORDS."
1975136,"STATE STREET GLOBAL SERVICES","78 SIR JOHN ROGERSONS QUAY","","DUBLIN","","Ireland","DUBLIN 2","N","+353 1 7768000","","A third-party unaffiliated record keeper","ALL FILES RELATING TO ADMINISTRATION OF THE FUNDS, INCLUDING KYC FILES FOR INVESTORS."
1945019,"SYMMETRY INVESTMENTS JERSEY LIMITED","10 LE CAPELAIN HOUSE, CASTLE QUAY","LA RUE DE L'ETAU","ST HEILER","","Jersey","JE2 3EH","N","+442070723100","","One of your branch offices or affiliates","LEGAL, REGULATORY AND BUSINESS RECORDS"
1945019,"SYMMETRY INVESTMENTS UK LLP","4TH FLOOR, 31 ST JAMES'S SQUARE","","LONDON","","United Kingdom","SW1Y 4JR","N","+442070723100","","One of your branch offices or affiliates","LEGAL, REGULATORY AND BUSINESS RECORDS"
1945019,"STARCOMPLIANCE OPERATING, LLC","9200 CORPORATE BLVD.","SUITE 440","ROCKVILLE","MD","United States","20850","N","(301)340-3900","(301)340-3906","A third-party unaffiliated record keeper","CERTAIN BOOKS AND RECORDS RELATING TO BUSINESS OPERATION"
1945019,"EQUINIX (UK) LIMITED","COMPUTERSHARE GOVERNANCE SERVICES THE PAVILIONS","BRIDGWATER ROAD","BRISTOL","","United Kingdom","BS13 8FD","N","+44845372900","","A third-party unaffiliated record keeper","DATE CENTER FOR ELECTRONIC STORAGE"
1945019,"OPTIONS TECHNOLOGY LTD","5TH FLOOR, 50 PAUL MALL","","LONDON","","United Kingdom","SW1Y 5JH","N","+442070705000","","A third-party unaffiliated record keeper","DATA CENTER FOR ELECTRONIC STORAGE"
1945019,"SYMMETRY INVESTMENTS CAYMAN LIMITED","OFFICE 1.20, THE WHITE HOUSE","20 GENESIS CL","GEORGE TOWN","","Cayman Islands","KY1-1208","N","+1 345 749 200","","One of your branch offices or affiliates","LEGAL, REGULATORY AND BUSINESS RECORDS"
1945019,"GLOBAL RELAY COMMUNICATIONS INC.","220 CAMBIE STREET","","VANCOUVER, BC","","Canada","V6B 2M9","N","866-484-6630","","A third-party unaffiliated record keeper","ELECTRONIC COMMUNICATIONS RECORD OF THE BUSINESS OPERATIONS"
1945019,"OPTIONS FINANCIAL TECHNOLOGY PTE LTD","#10-13 & 14, 100 PECK SEAH STREET","PS100 BUILDING","-","","Singapore","079333","N","+6565765000","","A third-party unaffiliated record keeper","DATA CENTER FOR ELECTRONIC STORAGE"
1945019,"SYMMETRY INVESTMENTS (HONG KONG) LIMITED","1301, THREE EXCHANGE SQUARE","8 CONNAUGHT PLACE","HONG KONG","","Hong Kong","","N","852 3698 9100","852 2303 5799","One of your branch offices or affiliates","LEGAL, REGULATORY AND BUSINESS RECORDS"
1945019,"SYMMETRY INVESTMENTS SINGAPORE PRIVATE LIMITED","3 CHURCH STREET, #27-03","SAMSUNG HUB","SINGAPORE","","Singapore","049483","N","+6565766000","","One of your branch offices or affiliates","LEGAL, REGULATORY AND BUSINESS RECORDS"
1945019,"STATE STREET FUND SERVICES (IRELAND) LIMITED","78 SIR JOHN ROGERSON'S QUAY","","DUBLIN","","Ireland","2","N","+1 35317075000","+1 35317075100","A third-party unaffiliated record keeper","LEGAL, REGULATORY AND BUSINESS RECORDS"
1945019,"OPTIONS TECHNOLOGY (ASIA) LTD","UNIT 2202, 100QRC","100 QUEEN'S ROAD CENTRAL","HONG KONG","","Hong Kong","","N","+85231665000","","A third-party unaffiliated record keeper","DATA CENTER FOR ELECTRONIC STORAGE"
1945019,"SOCIAL MEDIA COMPLIANCE LIMITED D/B/A DEEPVIEW SOLUTIONS","82 STATION ROAD","BISHOPS CLEEVE","CHELTENHAM","","United Kingdom","GL52 8HJ","N","+442033930633","","A third-party unaffiliated record keeper","ELECTRONIC COMMUNICATIONS REQUIRED TO BE MAINTAINED UNDER RULE 204-2 OF THE INVESTMENT ADVISERS ACT OF 1940, AS AMENDED"
1973175,"ALTERDOMUS","50 FEDERAL STREET","5TH FLOOR","BOSTON","MA","United States","02110","N","617-723-5023","857-264-2503","A third-party unaffiliated record keeper","ACCOUNTING RECORDS"
1973175,"FREDERIC DORWART, LAWYERS","124 E 4TH STREET","","TULSA","OK","United States","74103","N","918-583-9922","918-584-2729","Other","LEGAL DOCUMENTS"
1973568,"RICHARD A. GREENWOOD","","","","","","","Y","312-391-1906","","Other","ALL BOOKS AND RECORDS."
1967745,"TECNOLOGIAS ARISTA SAS","CARRERA 42 #5 SUR-145","EDIFICIO OFI 15-114, LOBBY WEWORK","MEDELLIN","","Colombia","050001","N","+573014102825","","One of your branch offices or affiliates","1. JOURNALS 2. GENERAL LEDGERS 3. BANK STATEMENTS 4. VENDOR BILLS AND STATEMENTS 5. TRIAL BALANCES AND COLOMBIA FINANCIAL STATEMENTS 6. ORIGINAL MAIL CORRESPONDENCE RELATED TO DAILY OPERATIONS"
1958532,"NAV CONSULTING INC","1 TRANS AM PLAZA DRIVE, SUITE 400","","OAKBROOK TERRACE","IL","United States","60181","N","6309541919","","A third-party unaffiliated record keeper","FINANCIAL BOOKS AND RECORDS FOR A PRIVATE FUND."
1974439,"TMF SAN DIEGO LLC","6005 HIDDEN VALLEY ROAD, SUITE 200","","CARLSBAD","CA","United States","92011","N","858-375-4110","","A third-party unaffiliated record keeper","COPIES OF ACCOUNTING RECORDS, INCLUDING FINANCIAL WORKBOOKS, INVESTMENT DOCUMENTS, INVOICES AND OTHER SUPPORTING DOCUMENTS, AS WELL AS FUND DOCUMENTS, INCLUDING SUBSCRIPTION DOCUMENTS, INVESTOR W-9S, SUPPORTING DOCUMENTS REQUIRED FOR AML/KYC CHECKS, OFFERING DOCUMENTS AND MISCELLANEOUS TAX AND ADMIN AGREEMENTS."
1976021,"FOLIO TRUST LTD. SEA MEADOW HOUSE","FOLIO CHAMBERS","ROAD TOWN","TORTOLA","","British Virgin Islands","VG1110","N","1-284-494-4717","","A third-party unaffiliated record keeper","ACCOUNTING RELATED BOOKS AND RECORDS PREPARED AND MAINTAINED BY THE CORPORATE REGISTRAR."
1968183,"GREAT LAKES FUND SOLUTIONS, INC.","500 PARK AVE","SUITE 114","LAKE VILLA","IL","United States","60046","N","8472655000","","A third-party unaffiliated record keeper","GREAT LAKES IS THE ADMINISTRATIVE MANAGER FOR THE PRIVATE FUNDS MANAGED BY THE FIRM."
1968183,"GLOBAL RELAY COMMUNICATIONS INC.","220 CAMBIE STREET","","VANCOUVER","","Canada","V6B 2M0","N","866.484.6630","","A third-party unaffiliated record keeper","EMAIL ARCHIVAL SYSTEM."
1968546,"ARCHIVECO","15 AVENUE MARCELLIN BERTHELOT","","VILLENEUVE-LA-GARENNE","","France","92390","N","33-1-4792-9999","","A third-party unaffiliated record keeper","PAPER FILES"
1968546,"OZITEM","14 PL. MARIE-JEANNE BASSOT","","LEVALLOIS-PERRET","","France","92300","N","33-141991111","","A third-party unaffiliated record keeper","SERVERS"
1976034,"YULISH & ASSOCIATES","3600 S. HARBOR BLVD.","SUITE 110 #118","OXNARD","CA","United States","93035","N","855-498-5474","","A third-party unaffiliated record keeper","CERTAIN BOOKS AND RECORDS OF THE FIRM AND ITS CLIENT"
1976034,"STANDISH MANAGEMENT","275 BATTERY ST","SUITE 420","SAN FRANCISCO","CA","United States","94111","N","650-681-8923","760-929-9637","A third-party unaffiliated record keeper","CERTAIN BOOKS AND RECORDS OF THE FIRM AND ITS CLIENT"
1976034,"STONEPINE CAPITAL MANAGEMENT, LLC","475 GATE FIVE ROAD","SUITE 342","SAUSALITO","CA","United States","94965","N","415-331-7100","","One of your branch offices or affiliates","CERTAIN BOOKS AND RECORDS OF THE FIRM AND ITS CLIENT"
1975425,"INTERTRUST","190 ELGIN AVENUE, GEORGE TOWN","","GRAND CAYMAN","","Cayman Islands","KY-1-9005","N","+1 345 9433100","+1 345 9454757","A third-party unaffiliated record keeper","REGISTER OF MEMBERS."
1981467,"CAXTON ASSOCIATES LLP","20 CARLTON HOUSE TERRACE, 2ND FLOOR","","LONDON","","United Kingdom","SW1Y 5AN","N","442076470770","","One of your branch offices or affiliates","CAXTON ASSOCIATES LLP IS THE MAJORITY SHAREHOLDER OF CAXTON (MONACO) S.A.M. AS A RESULT, CAXTON ASSOCIATES LLP MAINTAINS CERTAIN BOOKS AND RECORDS AT THIS LOCATION ON BEHALF OF CAXTON (MONACO) S.A.M."
1981467,"VERITAS TECHNOLOGIES LLC","350 ELLIS STREET","","MOUNTAIN VIEW","CA","United States","94043","N","800-721-3934","","A third-party unaffiliated record keeper","VERITAS TECHNOLOGIES LLC MAINTAINS CERTAIN BOOKS AND RECORDS OF CAXTON (MONACO) S.A.M."
1981467,"CITCO FUND SERVICES (CAYMAN ISLANDS) LIMITED","89 NEXUS WAY, 2ND FLOOR","CAMANA BAY, P.O. BOX 31106","GRAND CAYMAN","","Cayman Islands","KY1-1205","N","3459493977","","A third-party unaffiliated record keeper","CITCO FUND SERVICES (CAYMAN ISLANDS) LIMITED AND ITS AFFILIATES/SUB-ADMINISTRATORS (COLLECTIVELY 'CITCO')SERVE AS THE ADMINISTRATORS TO PRIVATE FUNDS TO WHICH CAXTON (MONACO) S.A.M SERVE AS TRADING ADVISOR.CITCO MAY MAINTAIN CERTAIN BOOKS AND RECORDS OF THESE FUNDS AND CAXTON (MONACO) S.A.M IN SUCH CAPACITY."
1981665,"FAIRVIEW INVESTMENT SERVICES","1330 ST. MARY'S ST","SUITE 400","RALEIGH","NC","United States","27605","N","919-706-4100","","A third-party unaffiliated record keeper","ADDITIONAL COPIES OF COMPLIANCE RECORDS."
1974700,"NAV FUND ADMINISTRATION GROUP","1 TRANS AM PLAZA DRIVE, SUITE 400","SUITE 400","OAKBROOK TERRACE","IL","United States","60181","N","630.954.1919","","A third-party unaffiliated record keeper","FINANCIAL RECORDS"
1975461,"EXTRA SPACE STORAGE","15875 LAGUNA CANYON ROAD","","IRVINE","CA","United States","92618","N","(949) 753-9058","","Other","PAID OFF LOAN FILES, INVESTOR FILES AND CORPORATE RECORDS."
1979750,"VILLAGE VENTURES, INC.","ONE BANK STREET","SECOND FLOOR","WILLIAMSTOWN","MA","United States","01267","N","413-458-1113","413-458-0338","Other","FUND FORMATION DOCUMENTS AND INVESTMENT TRANSACTION DOCUMENTS."
1979750,"ESHARES, INC. (DBA CARTA, INC.)","175 SOUTH WEST TEMPLE","FLOOR 7 SUITE 700","SALT LAKE CITY","UT","United States","84101","N","650.669.8381","","A third-party unaffiliated record keeper","PHYSICAL AND DIGITAL STOCK CERTIFICATES FOR FUND INVESTMENTS IN PORTFOLIO COMPANIES"
1975127,"ALPS ALTERNATIVE INVESTMENT SERVICES, LLC","2699 S. BAYSHORE DRIVE","","MIAMI","FL","United States","33133","N","305-857-6842","","A third-party unaffiliated record keeper","THE ADMINISTRATOR WILL MAINTAIN RECORDS SUCH AS SUBSCRIPTION DOCUMENTS, CERTAIN FINANCIAL, ACCOUNTING ANDADMINISTRATIVE DOCUMENTS, NAV CALCULATIONS, MANAGEMENT FEE AND PERFORMANCE ALLOCATIONS, AND AML / KYC DOCUMENTATION."
1975127,"NAV CONSULTING, INC.","1 TRANS AM PLAZA DR","","OAKBROOK TERRACE","IL","United States","60181","N","(630) 954-1919","","A third-party unaffiliated record keeper","THE ADMINISTRATOR WILL MAINTAIN RECORDS SUCH AS SUBSCRIPTION DOCUMENTS, CERTAIN FINANCIAL, ACCOUNTING ANDADMINISTRATIVE DOCUMENTS, NAV CALCULATIONS, MANAGEMENT FEE AND PERFORMANCE ALLOCATIONS, AND AML / KYC DOCUMENTATION."
1975101,"CARTA","333 BUSH STREET","FLOOR 23 SUITE 2300","SAN FRANCISCO","CA","United States","94104","N","6507615442","","A third-party unaffiliated record keeper","FUND ADMIN"
1967995,"ADURO ADVISORS, LLC","2420 17TH STREET","SUITE 240","DENVER","CO","United States","80202","N","(650)283-2679","","A third-party unaffiliated record keeper","FINANCIAL RECORDS"
1975097,"JOHN SPENCE","2116 HOBBS RD. M-14","","NASHVILLE","TN","United States","37215","N","6157520980","","One of your branch offices or affiliates","ACCOUNTS AND AUDITS"
1975097,"FINANCIAL JUNK LLC","5120 VIRGINIA WAY C22","","BRENTWOOD","TN","United States","37027-5182","N","6153832654","","One of your branch offices or affiliates","ACCOUNTS AND AUDIT"
1975508,"CITCO FUND SERVICES (IRELAND) LIMITED","6 CUSTOM HOUSE PLAZA","INTERNATIONAL FINANCIAL SERVICES CENTRE","DUBLIN 1","","Ireland","","N","353-01-6367300","353-01-6360466","A third-party unaffiliated record keeper","RECORDS RELATED TO THE MAINTENANCE OF AMIA'S INVESTMENT ADVISORY BUSINESS."
1974789,"SPRINGROCK VENTURES","2001 6TH AVENUE","SUITE 3400","SEATTLE","WA","United States","98121-2851","N","206-607-9938","","One of your branch offices or affiliates","PORTFOLIO & INVESTOR DATA, FUND ALLOCATIONS, CAPITAL ACCOUNTS, FINANCIAL STATEMENTS, TAX RETURNS"
1977319,"MORGAN STANLEY FUND SERVICES (CAYMAN) LTD","C/O MORGAN STANLEY FUND SERVICES (CAYMAN) LTD","THE OBSERVATORY, 7-11 SIR JOHN ROGERSON'S QUAY","DUBLIN","","Ireland","","N","+353 1799 8700","","A third-party unaffiliated record keeper","MORGAN STANLEY FUND SERVICES (CAYMAN) LTD IS THE INDEPENDENT FUND ADMINISTRATOR TO THE PRIVATE FUNDS ADVISED BY ILEX CAPITAL PARTNERS (UK) LLP AND MAINTAINS CERTAIN OF THE PRIVATE FUNDS' ACCOUNTING BOOKS AND RECORDS"
1977456,"BRL TRUST INVESTIMENTOS LTDA","R. IGUATEMI, 151 - ITAIM BIBI","","SAO PAULO","","Brazil","01451-011","N","55113133035","","Other","CLIENT ADMINISTRATIVE AND ACCOUNTING RECORDS, COPIES OF WHICH WILL BE MADE AVAILABLE PROMPTLY UPON REQUEST OF THE APPLICANT IN RESPONSETO ANY REQUEST BY THE STAFF OF THE U.S. SECURITIES AND EXCHANGE COMMISSION"
1977456,"OLIVEIRA TRUST DTVM S.A.","RUA JOAQUIM FLORIANO 1052 ITAIM BIBI","13TH FLOOR","SAO PAULO","","Brazil","04534-004","N","55113504 8100","","Other","CLIENT ADMINISTRATIVE AND ACCOUNTING RECORDS, COPIES OF WHICH WILL BE MADE AVAILABLE PROMPTLY UPON REQUEST OF THE APPLICANT IN RESPONSETO ANY REQUEST BY THE STAFF OF THE U.S. SECURITIES AND EXCHANGE COMMISSION"
1977456,"BANCO GENIAL S.A.","AV. BRIGADEIRO FARIA LIMA, 3400","ITAIM BIBI","SAO PAULO","","Brazil","04538-132","N","55113206800","","Other","CLIENT ADMINISTRATIVE AND ACCOUNTING RECORDS, COPIES OF WHICH WILL BE MADE AVAILABLE PROMPTLY UPON REQUEST OF THE APPLICANT IN RESPONSETO ANY REQUEST BY THE STAFF OF THE U.S. SECURITIES AND EXCHANGE COMMISSION"
1979927,"WI HARPER TAIPEI","10F-2, 76 TUN HUA SOUTH RD","SECTION 2","TAIPEI","","Taiwan,  Republic of China","106","N","886-2-27556033","886-2-27092127","One of your branch offices or affiliates","ELECTRONIC ACCOUNTING SYSTEMS, ORIGINAL DOCUMENTS"
1979493,"JUNIPER SQUARE, INC.","555 MONTGOMERY ST #1400","","SAN FRANCISCO","CA","United States","94111","N","4158412722","","A third-party unaffiliated record keeper","FUND ADMIN"
1981672,"EGNYTE","1350 W MIDDLEFIELD ROAD","","MOUNTAIN VIEW","CA","United States","94043","N","877-734-6983","","A third-party unaffiliated record keeper","CLOUD FILE SHARING SOFTWARE WHERE FINANCIAL B&R ARE MAINTAINED"
1975248,"ADURO ADVISORS, LLC","2420 17TH STREET, SUITE 240","","DENVER","CO","United States","80202","N","609-430-8422","","A third-party unaffiliated record keeper","FINANCIAL RECORDS"
1975248,"STANDISH MANAGEMENT, LLC","445 PARK AVENUE","17TH FLOOR","NEW YORK","NY","United States","10022","N","(646) 968-6380","","A third-party unaffiliated record keeper","FINANCIAL RECORDS"
1969420,"FOLIO TRUST LTD. SEA MEADOW HOUSE","FOLIO CHAMBERS","ROAD TOWN","TORTOLA","","British Virgin Islands","VG1110","N","1-284-494-4717","","A third-party unaffiliated record keeper","ACCOUNTING RELATED BOOKS AND RECORDS PREPARED AND MAINTAINED BY THE CORPORATE REGISTRAR."
1976139,"FUNDCRAFT SERVICES SARL","12 RUE DES MROVINGIENS","L-8070 BERTRANGE","LUXEMBOURG","","Luxembourg","L-8070","N","+352621725608","","Other","INDEPENDENT FUND ADMINISTRATOR MAINTAINING CERTAIN BOOKS AND RECORDS"
1980354,"JUNIPER SQUARE, INC.","555 MONTGOMERY STREET","#1400","SAN FRANCISCO","CA","United States","94111","N","(415) 841-2722","","A third-party unaffiliated record keeper","FINANCIAL BOOKS AND RECORDS; RECORDS RELATED TO FUND MANAGEMENT."
1983950,"GOOGLE DRIVE","1600 AMPHITHEATRE PKWY","","MOUNTAIN VIEW","CA","United States","94043","N","(650) 253-0000","","Other","THE INVESTMENT MANAGER KEEPS ALL BOOKS AND RECORDS STORED ON GOOGLE DRIVE."
1982995,"INTEGRATED INVESTMENT SOLUTIONS LLC","7000 W. PALMETTO PARK ROAD,","SUITE 503","BOCA RATON","FL","United States","33433","N","561-453-3800","","A third-party unaffiliated record keeper","ADMINISTRATOR OF THE PRIVATE FUNDS MANAGED BY THE ADVISER"
1982995,"DATTO, INC.","101 MERRITT 7","7TH FLOOR","NORWALK","CT","United States","06851","N","877-811 0577","","A third-party unaffiliated record keeper","BACKUP OF COMPUTER FILES AND WORKSTATIONS."
1976614,"CITCO FUND SERVICES (BERMUDA) LIMITED","O'HARA HOUSE, 3 BERMUDIANA ROAD","P.O. BOX 3399","HAMILTON","","Bermuda","HM08","N","441-295-7149","","A third-party unaffiliated record keeper","VARIOUS BOOKS AND RECORDS MAINTAINED AS REQUIRED PER INVESTMENT ADVISERS ACT OF 1940."
1976614,"CITCO (CANADA) INC.","2 BLOOR ST. E.","SUITE 2700","TORONTO","","Canada","M4W 1A8","N","416-969-6700","","A third-party unaffiliated record keeper","VARIOUS BOOKS AND RECORDS MAINTAINED AS REQUIRED PER INVESTMENT ADVISERS ACT OF 1940."
1976695,"DATASAFE","37580 FILBERT STREET","","NEWARK","CA","United States","94560","N","650-875-3700","","A third-party unaffiliated record keeper","MOST PHYSICAL ACCOUNTING RECORDS PRIOR TO 2018"
1978858,"STATE STREET FUND SERVICES (IRELAND)","78 SIR JOHN ROGERSON'S QUAY","","DUBLIN","","Ireland","","N","+353 1 776 800","","Other","STATE STREET FUND SERVICES (IRELAND) IS AN INDEPENDENT FUND ADMINISTRATOR AND MAINTAINS CERTAIN BOOKS AND RECORDS RELATING THE PRIVATE FUNDS ADVISED BY GEMSSTOCK LTD."
1978858,"MORGAN STANLEY FUND SERVICES","2000 WESTCHESTER AVENUE","1ST FLOOR","PURCHASE","NY","United States","10577","N","914-225-9710","","Other","MORGAN STANLEY FUND SERVICES IS AN INDEPENDENT FUND ADMINISTRATOR AND MAINTAINS CERTAIN BOOKS AND RECORDS RELATING THE PRIVATE FUNDS ADVISED BY GEMSSTOCK LTD."
1983878,"AZTEC FINANCIAL SERVICES (UK) LIMITED","FORUM 3, SOLENT BUSINESS PARK","PARKWAY SOUTH, WHITELEY","FAREHAM","","United Kingdom","PO15 7FH","N","0238 202 2300","0238 202 2309","A third-party unaffiliated record keeper","FUND ACCOUNTING RECORDS."
1983878,"LIVINGBRIDGE EP LLP","7TH FLOOR, 82 KING STREET, MANCHESTER","","MANCHESTER","","United Kingdom","M2 4WQ","N","4401619126500","","One of your branch offices or affiliates","INVESTMENT FILES INCLUDING DUE DILIGENCE INFORMATION AND MONITORING INFORMATION."
1983878,"ARCHIVE MANAGEMENT SYSTEMS LIMITED","STERLING WAY","NORCOT ROAD","READING","","United Kingdom","RG30 6HW","N","4408007837079","","A third-party unaffiliated record keeper","ARCHIVED INVESTMENT FILES INCLUDING DUE DILIGENCE INFORMATION AND MONITORING INFORMATION."
1983279,"PETRA FUNDS GROUP, LLC","520 MADISON AVE","21ST FLOOR","NEW YORK","NY","United States","10022","N","212-582-3320","","A third-party unaffiliated record keeper","PETRA FUNDSGROUP, LLC IS THE ADMINISTRATOR FOR ALL PEARL ENERGY FUNDS AND AS SUCH KEEPS BOOKS AND RECORDS NORMALLY KEPT BY AN ADMINISTRATOR. STANDISH MANAGEMENT WAS THE PRIOR ADMINISTRATOR UNTIL THE FIRM CHANGED TO PETRA FUND SERVICES."
1976508,"KRYPTON FUND SERVICES","SUITE NO. 1222","ROSEBANK CENTRE, 11 BERMUDIANA ROAD","PEMBROKE","","Bermuda","HM08","N","14413385285","","A third-party unaffiliated record keeper","NAVS, AML/KYC ETC"
1973359,"NAV CONSULTING INC","1 TRANS AM PLAZA DR","","OAKBROOK TERRACE","IL","United States","60181","N","(630) 954-1919","","A third-party unaffiliated record keeper","ACCOUNTING AND INVESTOR RECORDS."
1982325,"IQ-EQ","2777 NORTH STEMMONS FREEWAY","SUITE 1425","DALLAS","TX","United States","75207-2211","N","(888) 604-2583","","A third-party unaffiliated record keeper","CERTAIN HISTORIC COMPLIANCE AND OPERATIONS RECORDS FOR THE ADVISER."
1982325,"CITCO FUND ADMINISTRATION (CAYMAN ISLANDS) LIMITED","89 NEXUS WAY, CAMANA BAY","PO BOX 31106","GRAND CAYMAN","","Cayman Islands","KY1-1205","N","353 1 636 7300","","A third-party unaffiliated record keeper","FINANCIAL, ACCOUNTING AND INVESTOR RECORDS FOR PRIVATE FUND MANAGED BY THE ADVISER."
1982325,"NAV FUND SERVICES (CAYMAN) LTD.","103 SOUTH CHURCH STREET, HARBOUR PLACE","5TH FLOOR","GRAND CAYMAN","","Cayman Islands","KY1-1202","N","630-954-1919","","A third-party unaffiliated record keeper","FINANCIAL, ACCOUNTING AND INVESTOR RECORDS FOR PRIVATE FUND MANAGED BY THE ADVISER."
1985581,"MAITLAND ADMINISTRATION LIMITED","5TH FLOOR, 90 FORT STREET, PO BOX 259","GEORGE TOWN","GRAND CAYMAN","","Cayman Islands","KY1-1104","N","+1 345 949-070","","A third-party unaffiliated record keeper","ACCOUNTING RECORDS AND ALL ADMINISTRATIVE RECORDS FOR THE FUNDS"
1985581,"COWEN INTERNATIONAL LIMITED","11TH FLOOR, 1 SNOWDEN STREET","","LONDON","","United Kingdom","EC2A 2DQ","N","020 7071 7500","","A third-party unaffiliated record keeper","PRIME BROKER"
1985581,"MAPLES FIDUCIARY SERVICES","PO BOX 309","UGLAND HOUSE","GRAND CAYMAN","","Cayman Islands","KY1-1104","N","+1 345 945 709","","A third-party unaffiliated record keeper","PROVISION OF DIRECTORSHIP SERVICES"
1985581,"INTERNATIONAL MANAGEMENT SERVICES","PO BOX 61 HARBOUR CENTRE","","GRAND CAYMAN","","Cayman Islands","KY1-1102","N","+1 (345) 949 4","","A third-party unaffiliated record keeper","PROVISION OF DIRECTORSHIP SERVICES"
1985581,"KPMG","CENTURY YARD BUILDING","171C ELGIN AVENUE CORCTAUN","GRAND CAYMAN","","Cayman Islands","","N","+1 345-949-480","","A third-party unaffiliated record keeper","AUDITOR OF THE FUND"
1933610,"CARTA SECURITIES, LLC","333 BUSH STREET","","SAN FRANCISCO","CA","United States","94104","N","848-667-9488","","A third-party unaffiliated record keeper","CARTA IS A THIRD-PARTY FUND ADMINISTRATOR KEEPING VIRTUAL COPIES OF SECURITIES AGREEMENTS"
1980941,"STANDISH MANAGEMENT, LLC","1191 2ND AVENUE","SUITE 600","SEATTLE","WA","United States","98101","N","206-428-1942","","A third-party unaffiliated record keeper","THIRD-PARTY UNAFFILIATED RECORDKEEPER"
1977529,"PRAGUE AND COMPANY PC","15 WALNUT STREET","SUITE 150","WELLESLEY","MA","United States","02481","N","(781) 235-2190","","A third-party unaffiliated record keeper","ACCOUNTING, TAX AND ORGANIZATIONAL DOCUMENTS."
1977529,"KPMG LLP","90 SOUTH 7TH STREET","4200 WELLS FARGO CTR","MINNEAPOLIS","MN","United States","55402","N","612-305-5000","","A third-party unaffiliated record keeper","TAX RECORD-KEEPING"
1976059,"CITCO FUND ADMINISTRATION (CAYMAN ISLANDS) LIMITED","P.O. BOX 31106,89 NEXUS WAY, 2ND FLOOR, CAMANA BAY","","GRAND CAYMAN","","Cayman Islands","KY1-1205","N","0","","A third-party unaffiliated record keeper","THE ADMINISTRATOR WILL MAINTAIN RECORDS SUCH AS CERTAIN FINANCIAL,ACCOUNTING AND ADMINISTRATIVE DOCUMENTS"
1976059,"CITCO FUND SERVICES (AUSTRALIA) PTY. LTD.","LEVEL 22, 45 CLARENCE ST","","SYDNEY","","Australia","NSW 2000","N","0","","A third-party unaffiliated record keeper","THE ADMINISTRATOR WILL MAINTAIN RECORDS SUCH AS CERTAIN FINANCIAL,ACCOUNTING AND ADMINISTRATIVE DOCUMENTS"
1976059,"TIE CONSULTANCY LIMITED","ROOM S, 26/F., ONE MIDTOWN","11 HOI SHING ROAD,","TSUEN WAN","","Hong Kong","00000","N","852 2242 2518","852 2242 2538","A third-party unaffiliated record keeper","THE REGISTERED OFFICE WILL MAINTAIN RECORDS SUCH AS CERTAIN FINANCIAL,ACCOUNTING AND ADMINISTRATIVE DOCUMENTS"
1976134,"CORNERSTONE FUND SERVICES","3300 NORTH ASHTON BLVD","240","LEI","UT","United States","84043","N","(801) 326-6372","","A third-party unaffiliated record keeper","INVESTOR SUBSCRIPTION MATERIALS; ACCOUNTING RECORDS."
1968276,"GREAT LAKES FUND SOLUTIONS, INC.","500 PARK AVE","SUITE 114","LAKE VILLA","IL","United States","60046","N","8472655000","","A third-party unaffiliated record keeper","GREAT LAKES IS THE FUND ADMINISTRATOR AND TRANSFER AGENT."
1979460,"SOUTH WATCH LLC","3000 DAVENPORT AVE, SUITE 200","","CANTON","MA","United States","02021","N","781-615-9035","","A third-party unaffiliated record keeper","SOME LP RECORDS AND RELATED ADMINISTRATION AND ACCOUNTING RECORDS FOR THE PRIVATE FUNDS WE MANAGE."
1977041,"SS&C PRIVATE EQUITY SERVICES","4 TIMES SQUARE","6TH FLOOR","NEW YORK","NY","United States","10036","N","1 914 670 3800","","Other","CLIENT ADMINISTRATIVE AND ACCOUNTING RECORDS, COPIES OF WHICH WILL BE MADE AVAILABLE PROMPTLY UPON REQUEST OF THE APPLICANT IN RESPONSE TO ANY REQUEST BY THE STAFF OF THE SECURITIES AND EXCHANGE COMMISSION."
1977041,"CITCO FUND ADMINISTRATION (CAYMAN ISLANDS) LIMITED","89 NEXUS WAY, SECOND FLOOR","PO. BOX: 31105","GRAND CAYMAN","","Cayman Islands","KY1-1205","N","1 345 949 3977","","Other","CLIENT ADMINISTRATIVE AND ACCOUNTING RECORDS, COPIES OF WHICH WILL BE MADE AVAILABLE PROMPTLY UPON REQUEST OF THE APPLICANT IN RESPONSE TO ANY REQUEST BY THE STAFF OF THE SECURITIES AND EXCHANGE COMMISSION."
1977041,"MAPLES AND CALDER","UGLAND HOUSE, P.O. BOX 309","","GRAND CAYMAN","","Cayman Islands","K1Y-1104","N","1 345 814 5639","","A third-party unaffiliated record keeper","EVERY CAYMAN COMPANY MUST MAINTAIN A REGISTERED OFFICE IN THE CAYMAN ISLANDS. THE REGISTERED OFFICE USUALLY KEEPS ORIGINALS OF THE INCORPORATION DOCUMENTS, A REGISTER OF DIRECTORS AND OFFICERS, A REGISTER OF MORTGAGES, USUALLY A REGISTER OF MEMBERS AND A MINUTE BOOK IN WHICH ORIGINALS OR COPIES OF ALL MINUTES AND RESOLUTIONS OF DIRECTORS AND SHAREHOLDERS SHOULD BE FILED."
1977041,"MUFG FUND SERVICES CAYMAN LIMITED","227 ELGIN AVENUE, PO BOX 852","","GRAND CAYMAN","","Cayman Islands","KY1-1103","N","1 345 947 3229","","A third-party unaffiliated record keeper","CLIENT ADMINISTRATIVE AND ACCOUNTING RECORDS, COPIES OF WHICH WILL BE MADE AVAILABLE PROMPTLY UPON REQUEST OF THE APPLICANT IN RESPONSE TO ANY REQUEST BY THE STAFF OF THE SECURITIES AND EXCHANGE COMMISSION."
1979824,"BARRIER CREST","145 KING STREET","","CHARLESTON","SC","United States","29401","N","908-451-2060","","A third-party unaffiliated record keeper","THE ADMINISTRATOR WILL MAINTAIN RECORDS SUCH AS SUBSCRIPTION DOCUMENTS, CERTAIN FINANCIAL, ACCOUNTING AND ADMINISTRATIVE DOCUMENTS, NAV CALCULATIONS, MANAGEMENT FEE AND PERFORMANCE ALLOCATIONS, AND AML /KYCDOCUMENTATION."
1979007,"U.S. BANCORP FUND SERVICES, LLC","433 HACKENSACK AVE.","11TH FLOOR","HACKENSACK","NJ","United States","07601","N","201-708-9777","","A third-party unaffiliated record keeper","U.S. BANCORP FUND SERVICES, LLC HAS BEEN ENGAGED TO SERVE AS THE FUNDS' ADMINISTRATOR. CLIENT FILES ARE STORED AT THIS LOCATION."
1985163,"KATHLEEN GUERRY","","","","","","","Y","949-842-4308","","A third-party unaffiliated record keeper","ALL AGREEMENTS FOR IA AND PRIVATE FUND, PF INVESTORS, ALL FINANCIAL INFORMATION."
1976466,"STANDISH MANAGEMENT","6320 CANOGA AVE","STE 210","WOODLAND HILLS","CA","United States","91367","N","310-310-7400","","A third-party unaffiliated record keeper","ACCOUNTING RECORDS"
1986025,"MICROSOFT CORPORATION","ONE MICROSOFT WAY","","REDMOND","WA","United States","98052","N","425-882-8080","","A third-party unaffiliated record keeper","CLOUD-BASED COMMUNICATIONS (EMAIL, TEAMS), DOCUMENT STORAGE (ONEDRIVE, SHAREPOINT), COMPLIANCE ARCHIVE SYSTEMS, AND INTERNAL FILE BACKUP INFRASTRUCTURE."
1986025,"NAV CONSULTING, INC","1 TRANS AM PLAZA DRIVE","SUITE 400","OAKBROOK TERRACE","IL","United States","60181","N","630-954-1919","","A third-party unaffiliated record keeper","FUND ACCOUNTING REPORTS, GENERAL LEDGER DATA, CAPITAL ACCOUNT STATEMENTS, INVESTOR SUBSCRIPTION DOCUMENTS, FEE CALCULATIONS, NAV DETERMINATIONS, AND AUDIT FACILITATION RECORDS. NAV IS NOT A RELATED PERSON."
1973819,"CARTA","ONE WORLD TRADE CENTER","81ST FLOOR","NEW YORK","NY","United States","10007","N","650-669-8381","","A third-party unaffiliated record keeper","FINANCIAL RECORDS AND LEGAL AGREEMENTS."
1933124,"SS&C FUND SERVICES (CAYMAN) LTD","39 MARKET STREET SUITE 3205, 2ND FLOOR, GARDENIA C","","GRAND CAYMAN","","Cayman Islands","KY1-9003","N","+1 345-943-333","+1 345-943-333","A third-party unaffiliated record keeper","SUBSCRIPTION AGREEMENTS; INFORMATION REGARDING FUND INVESTMENTS; OFFICIAL FUND BOOKS AND RECORDS."
1933124,"MAPLES SERVICES (CAYMAN) LTD","PO BOX 309, UGLAND HOUSE","SOUTH CHURCH STREET","GRAND CAYMAN","","Cayman Islands","KY1-1104","N","+1 345 9498066","+1 345 9498080","A third-party unaffiliated record keeper","SUBSCRIPTION AGREEMENTS; INFORMATION REGARDING FUND INVESTMENTS; OFFICIAL FUND BOOKS AND RECORDS"
1975930,"WAGNER, FERBER FINE & ACKERMAN","66 SOUTH TYSON AVENUE","","FLORAL PARK","NY","United States","11001-1805","N","(212) 576-1829","","A third-party unaffiliated record keeper","ACCOUNTANTS."
1975930,"CARTA INVESTOR SERVICES, INC.","333 BUSH STREET.","STE. 2300","SAN FRANCISCO","CA","United States","94104-2854","N","(801) 919-8273","","A third-party unaffiliated record keeper","FUND ADMINISTRATION."
1975930,"FTS ADMIN, LLC.","548 MARKET STREET","#91771","SAN FRANCISCO","CA","United States","94104-5401","N","(650) 503-4695","","A third-party unaffiliated record keeper","FUND ADMINISTRATION."
1975930,"SYDECAR LLC","2093 PHILADELPHIA PIKE","#5885","CLAYMONT","DE","United States","19703","N","8186428181","","A third-party unaffiliated record keeper","FUND ADMINISTRATION."
1975581,"APEX GROUP LTD","150 E 52ND STREET STE 4003","","NEW YORK","NY","United States","10022","N","704-752-8996","","A third-party unaffiliated record keeper","CERTAIN PRIVATE FUND ACCOUNTING BOOKS AND RECORDS."
1975581,"WINDSAIL CAPITAL GROUP, LLC","133 FEDERAL STREET","SUITE 702","BOSTON","MA","United States","02110","N","617-548-5738","","One of your branch offices or affiliates","GENERAL BOOKS AND RECORDS OF THE ADVISER."
1975581,"APEX FUND SOLUTIONS (INDIANA) INC","420 NW 5TH STREET","","EVANSVILLE","IN","United States","47708","N","2128027980","","A third-party unaffiliated record keeper","APEX FUND SOLUTIONS (INDIANA) INC IS THE INDEPENDENT FUND ADMINISTRATOR TO CERTAIN OF THE PRIVATE FUNDS ADVISED BY WINDSAIL CAPITAL GROUP, LLC, AND MAINTAINS CERTAIN OF THE PRIVATE FUNDS' ACCOUNTING BOOKS AND RECORDS."
1936912,"NAV CONSULTING, INC.","1 TRANS AM PLAZA DRIVE","SUITE 400","OAKBROOK TERRACE","IL","United States","60181","N","(630) 954-1919","(630) 954-1945","A third-party unaffiliated record keeper","CERTAIN RECORDS RELATING TO THE ADVISER AND CLIENT ACCOUNTS ARE MAINTINED AT THIS LOCATION."
1936912,"MICROSOFT","ONE MICROSOFT WAY","","REDMOND","WA","United States","98052","N","1-800-642-7676","","A third-party unaffiliated record keeper","MICROSOFT OUTLOOK OFFICE 365 IS USED FOR KEEPING EMAILS, ONE DRIVE, SHAREPOINT, AND OUTLOOK (CLOUD FILE STORING)."
1936912,"HEDGESERV (CAYMAN) LTD.","CRICKET SQUARE, 6TH FLOOR","PO BOX 261","GRAND CAYMAN","","Cayman Islands","KY1-1104","N","345-769-8220","","A third-party unaffiliated record keeper","CERTAIN RECORDS RELATING TO THE ADVISER AND CLIENT ACCOUNTS ARE MAINTINED AT THIS LOCATION."
1979098,"STATE STREET FUND SERVICES (IRELAND) LIMITED","78 SIR JOHN ROGERSON'S QUAY","","DUBLIN","","Ireland","DUBLIN 2","N","353 1 776 8000","353 1 776 8491","A third-party unaffiliated record keeper","THIRD PARTY ADMINISTRATOR FOR THE PRIVATE FUNDS"
1981177,"ACHILLES LEGACY SL","","","","","","","Y","+33652171807","","One of your branch offices or affiliates","CLIENTS INFORMATIONS LIKE ADDRESS, AND TRADES"
1981188,"CAMBRIAN CAPITAL, L.P.","","","","","","","Y","415-658-3000","","One of your branch offices or affiliates","SOME COMPLIANCE AND INVESTMENT MANAGEMENT RECORDS"
1981188,"BOX, INC","900 JEFFERSON AVE","","REDWOOD CITY","CA","United States","94063","N","877-729-4269","","A third-party unaffiliated record keeper","SOME COMPLIANCE AND MANAGEMENT RECORDS"
1979046,"ASM DIGITAL TECHNOLOGIES","BLOCK 1B, RMZ NXT, RD NUMBER 2, WHITEFIELD","KIADB EXPORT PROMOTION INDUSTRIAL AREA","BENGALURU, KARNATAKA","","India","560048","N","919880720690","","A third-party unaffiliated record keeper","COMNPANY HAS SHUT DOWN. PRINCIPAL PLACE OF BUSINESS IS WHERE ALL THE BOOKS AND RECORDS ARE KEPT. ALL COMPANY BOOKS AND RECORDS ARE KEPT AT THIS LOCATION."
1975670,"CANACCORD GENUITY WEALTH (INTERNATIONAL) LIMITED (TRADING NAME CANACCORD GENUITY WEALTH MANAGEMENT)","DOREY COURT","ELIZABETH AVENUE","ST PETER PORT","","Guernsey","GY1 2HT","N","+441481733900","","Other","REGISTER OF DIRECTORS, REGISTER OF SHAREHOLDERS, COMPANY ACCOUNTS"
1978308,"ABRDN INC.","875 THIRD AVENUE","4TH FLOOR, SUITE 403","NEW YORK","NY","United States","10022","N","212-776-1170","","One of your branch offices or affiliates","AFFILIATE AND MAY MAINTAIN SOME BOOKS AND RECORDS FOR THE REGISTRANT"
1978308,"ABRDN INVESTMENTS LIMITED","280 BISHOPSGATE","","LONDON","","United Kingdom","EC2M 4AG","N","44 20 74636100","","One of your branch offices or affiliates","AFFILIATE AND MAY MAINTAIN SOME BOOKS AND RECORDS FOR THE REGISTRANT"
1978308,"BROWN BROTHERS HARRIMAN","80 ROUTE D'ESCH","","LUXEMBOURG","","United Kingdom","1470","N","+352 474066 1","","A third-party unaffiliated record keeper","ADMINISTRATOR TO PRIVATE FUND: STANDARD LIFE INVESTMENTS EUROPEAN REAL ESTATE CLUB LP, STANDARD LIFE INVESTMENTS EUROPEAN REAL ESTATE CLUB II LP AND STANDARD LIFE INVESTMENTS EUROPEAN REAL ESTATE CLUB III LP"
1978308,"MAPLES SECRETARIES (CAYMAN) LIMITED","PO BOX 309","UGLAND HOUSE","GRAND CAYMAN","","Cayman Islands","KY1 1104","N","1 345 949 8066","","A third-party unaffiliated record keeper","ADMINISTRATOR FOR THE ENTITY- HOLDS BOARD PAPERS AND OTHER LEGAL DOCUMENTS"
1978308,"DIRECTBOOKS LLC","72 MADISON AVENUE","11TH FLOOR","NEW YORK","NY","United States","10016","N","1 347 321 7910","","A third-party unaffiliated record keeper","TRADING INFORMATION CONSOLIDATOR, MAINTAINS OFFERING AND ALLOCATION DOCUMENTATION"
1978308,"SALESFORCE","SALESFORCE TOWER","415 MISSION STREET, THIRD FLOOR","SAN FRANCISCO","CA","United States","94105","N","415-901-7000","","A third-party unaffiliated record keeper","CUSTOMER RELATIONSHIP MANAGEMENT SOFTWARE"
1978308,"CORLYTICS LIMITED","NEXUS BUILDING","BELFIELD OFFICE PARK","DUBLIN","","Ireland","D04 V2N9","N","+353 1903 8761","","A third-party unaffiliated record keeper","REGULATORY HORIZON SCANNING SOFTWARE"
1978308,"MYCOMPLIANCE OFFICE","535 FIFTH AVENUE","4TH FLOOR","NEW YORK","NY","United States","10017","N","1-866-951-2280","","A third-party unaffiliated record keeper","COMPLIANCE REPORTS"
1978308,"ABRDN ASIA LIMITED","7 STRAITS VIEW","#23-04 MARINA ONE EAST TOWER","SINGAPORE","","Singapore","018936","N","65-63952700","65-65357159","One of your branch offices or affiliates","AFFILIATE AND MAY MAINTAIN SOME BOOKS AND RECORDS FOR THE REGISTRANT"
1978308,"WOLTERS KLUWER (ONESUMX)","WEWORK BUILDING 8TH FLOOR","30 CHURCHILL PLACE","LONDON","","United Kingdom","E14 5RE","N","020 3197 6600","","A third-party unaffiliated record keeper","ENTERPRISE RISK MANAGEMENT SOFTWARE"
1978308,"BNP PARIBAS SECURITY SERVICES SCA","GRANDS MOULINS DE PANTIN, RUE DU DEBARCADERE, 9","","PANTIN","","France","93500","N","(+33)142981000","","A third-party unaffiliated record keeper","ABERDEEN GROUP PLC ADMINISTRATOR"
1978308,"BLOOMBERG L.P.","731 LEXINGTON AVENUE","","NEW YORK","NY","United States","10022","N","212-318-2000","","A third-party unaffiliated record keeper","BLOOMBERG EMAIL AND INSTANT MESSAGES FROM TRADERS AND PORTFOLIO MANAGERS"
1978308,"ABRDN INC.","28 STATE STREET, 17TH FLOOR","","BOSTON","MA","United States","02109","N","617-720-7900","617-720-7950","One of your branch offices or affiliates","AFFILIATE AND MAY MAINTAIN SOME BOOKS AND RECORDS FOR THE REGISTRANT"
1978308,"INSTITUTIONAL SHAREHOLDER SERVICES, INC.","702 KING FARM BLVD","SUITE 300","ROCKVILLE","MD","United States","20850","N","301-556-0500","","A third-party unaffiliated record keeper","PROXY VOTING RECORDS MAINTAINED FOR THE REGISTRANT"
1978308,"ABRDN INC.","1900 MARKET ST","SUITE 200","PHILADELPHIA","PA","United States","19103","N","215 405-5700","","A third-party unaffiliated record keeper","AFFILIATE AND MAY MAINTAIN SOME BOOKS AND RECORDS FOR THE REGISTRANT"
1978308,"CITIBANK FUND SERVICE","4400 EASTON COMMONS","SUITE 200","COLUMBUS","OH","United States","43219","N","(614) 470 8240","","A third-party unaffiliated record keeper","ABERDEEN GROUP'S ADMINISTRATOR. CITI ARE LOCATED IN MULITPLE LOCATIONS HOWEVER OPERATIONS OFFICE LISTED ONLY."
1978308,"STATE STREET BANK AND TRUST COMPANY","JOHN ADAMS BUILDING","1776 HERITAGE DRIVE","NORTH QUINCY","MA","United States","02171","N","617-664-9566","","A third-party unaffiliated record keeper","ADMINSTRATOR FOR US REGISTERED AND PRIVATE FUNDS"
1978308,"MICROSOFT AZURE","ONE MICROSOFT WAY","","REDMOND","WA","United States","98052","N","8006427676","","A third-party unaffiliated record keeper","DATA ARCHIVING/CLOUD SERVER PROVIDER"
1970356,"STP INVESTMENT SERVICES","44 WEST GAY STREET","SUITE 300","WEST CHESTER","PA","United States","19380","N","484-823-5614","","A third-party unaffiliated record keeper","REPORTS TO INVESTORS, AND ALL RECORDS RELATED TO CALCULATION OF THE PERFORMANCE OF ALL ACCOUNTS."
1973711,"DROPBOX, INC.","1800 OWENS ST","","SAN FRANCISCO","CA","United States","94158","N","(415) 857-6800","","A third-party unaffiliated record keeper","ACCOUNTING AND COMPLIANCE DOCUMENTS, ORGANIZATIONAL DOCUMENTS, DOCUMENTS CONCERNING PORTFOLIO COMPANIES, AND LIMITED PARTNER INFORMATION."
1975602,"NAV CONSULTING, INC.","1 TRANS AM PLAZA DRIVE","SUITE 400","OAKBROOK TERRACE","IL","United States","60181-4283","N","(630) 954-1919","(6300 954-1945","A third-party unaffiliated record keeper","NAV CONSULTING, INC. IS THE ADMINISTRATOR FOR CERTAIN FUNDS THAT THE APPLICANT FIRM MANAGES. THE ADMINISTRATOR KEEPS CERTAIN FINANCIAL DOCUMENTS, INVESTOR COMMUNICATIONS AND OTHER RECORDS RELATED TO FUND ADMINISTRATION."
1968184,"CHARTER GROUP FUND ADMINISTRATION LTD","2 BLEEDING HEART YARD","","LONDON","","United Kingdom","EC1N 8SJ","N","+442031378499","","A third-party unaffiliated record keeper","ADMINISTRATOR OF THE PRIVATE FUND TYR CAPITAL PARTNERS SPC"
1984764,"BELLTOWER FUND GROUP, LTD","PO BOX 3217","","SEATTLE","WA","United States","98114","N","360-340-9337","","A third-party unaffiliated record keeper","FUND DOCUMENTS, TRANSACTION RECORDS, WRITTEN COMMUNICATIONS"
1978601,"ESHARES, INC. DBA CARTA, INC.","195 PAGE MILL ROAD","SUITE 101","PALO ALTO","CA","United States","94306","N","(650)669-8381","","A third-party unaffiliated record keeper","FINANCIALS, INVESTMENT STOCK CERTIFICATES, LIMITED PARTNER ACCOUNT INFORMATION."
1978703,"SS&C FUND SERVICES (ASIA) LIMITED","SUITE 2702-4, CENTRAL PLAZA","18 HARBOUR ROAD WAN CHAI","HONG KONG","","Hong Kong","","N","+852 2534 1100","","A third-party unaffiliated record keeper","RECORDS RELATING TO INVESTOR SUBSCRIPTION AND REDEMPTIONS, TRADING SETTLEMENTS AND MATERIALS IN SUPPORT OF NAV."
1978703,"TRICOR SERVICES LIMITED","15/F., 348 KWUN TONG ROAD, KOWLOON","","HONG KONG","","Hong Kong","","N","+852 2980 1888","","A third-party unaffiliated record keeper","THE ACCOUNTING BOOKS AND RECORDS OF PAMALICAN"
1970652,"TAIWANIA CAPITAL MANAGEMENT CORPORATION","R1806, NO.333 KEELUNG ROAD, SEC.1","","TAIPEI","","Taiwan,  Republic of China","11012","N","886-2-27209898","886-2-27200686","One of your branch offices or affiliates","ACCOUNTING RECORDS AND INVESTMENT TRANSACTION DOCUMENTS OF VENTURE CAPITAL FUND ADVISED BY TAIWANIA CAPITAL"
1974868,"CARTA","333 BUSH STREET","","SAN FRANCISCO","CA","United States","94104","N","650-454-9544","","A third-party unaffiliated record keeper","FORMATION DOCS, SAFE NOTES, LPA, ETC."
1976051,"AFFINITY EQUITY PARTNERS (S) PTE LTD","8 TEMASEK BOULEVARD","#18-01 & 02 SUNTEC TOWER THREE","SINGAPORE","","Singapore","038988","N","65 6238 2260","65 6238 7765","One of your branch offices or affiliates","BOOKS AND RECORDS OF THE ERA"
1977158,"LATERAL FRONTIERS","","","","","","","Y","3108771618","","One of your branch offices or affiliates","IN HOME OFFICE ON PRIVATE COMPUTER"
1976621,"CATALYST FUND ADMINISTRATION","222 S RIVERSIDE PLAZA","15TH FLOOR","CHICAGO","IL","United States","60606","N","312-623-9681","","A third-party unaffiliated record keeper","PORTFOLIO ACCOUNTING RECORDS OF PRIVATE FUNDS."
1982123,"AMAZON.COM INC.","410 TERRY AVENUE NORTH","","SEATTLE","WA","United States","98109","N","206-266-1000","","A third-party unaffiliated record keeper","THE FIRM PROVIDES CLOUD STORAGE SERVICES FOR CLIENT FILES."
1982123,"SMARSH, INC.","851 SW 6TH AVE, SUITE 800","","PORTLAND","OR","United States","97204","N","866-762-7741","","Other","RETENTION OF ELECTRONIC MESSAGES"
