"FilingID","ReferenceID","Legal Name","Business Name","SEC Number or Other","CRD Number","Type","5a","5b","5c","5d","5e","5f","5g","5h","5i","5j","5k","5l","5m","5n","5o","5p","Control/Controlled","Common Control","Custodian","Exam Exempt","Street 1","Street 2","City","State","Country","Postal Code","Private Residence","IA Exempt","Exemption","Foreign Registered","Share Persons","Share Location"
1922684,292297,"MARINER INSURANCE RESOURCES, LLC","MARINER INSURANCE RESOURCES, LLC","",,"","N","N","N","N","N","N","N","N","N","N","N","Y","N","N","N","N","N","Y","N","","","","","","","","N","","","N","Y","N"
1922684,349967,"1248 PARTNERS, LLC","1248 PARTNERS, LLC","802-127566",325304,"","N","Y","N","N","N","N","N","N","N","N","N","N","N","N","N","Y","N","Y","N","","","","","","","","N","Y","PRIVATE FUNDS UNDER 150MM","N","Y","Y"
1922684,326479,"MONTAGE FUND ADVISORS, LLC","MONTAGE FUND ADVISORS, LLC","802-122188",315847,"","N","Y","N","N","N","N","N","N","N","N","N","N","N","N","N","Y","N","Y","N","","","","","","","","N","Y","PRIVATE FUNDS/AUM LESS THAN $150MM","N","Y","Y"
1922684,292303,"MARINER PLATFORM SOLUTIONS, LLC","MARINER INDEPENDENT","801-117332",305418,"","N","Y","N","N","N","N","N","N","N","N","N","N","N","N","N","N","N","Y","N","","","","","","","","N","N","","N","Y","N"
1922684,292298,"MARINER WEALTH ADVISORS-IC, LLC","MARINER WEALTH","801-111823",289886,"","N","Y","N","N","N","N","N","N","N","N","N","N","N","N","N","N","N","Y","N","","","","","","","","N","N","","N","Y","N"
1922684,292299,"FLYOVER CAPITAL PARTNERS, LLC","FLYOVER CAPITAL PARTNERS, LLC","801-128069",173709,"","N","Y","N","N","N","N","N","N","N","N","N","N","N","N","N","Y","N","Y","N","","","","","","","","N","N","","N","Y","Y"
1922684,292300,"MSEC, LLC","MSEC, LLC","8-68627",154327,"","Y","N","N","N","N","N","N","N","N","N","N","N","N","N","N","N","N","Y","N","","","","","","","","N","","","N","Y","N"
1922684,292301,"MARINER, LLC","MARINER WEALTH","801-66632",140195,"","N","Y","N","N","N","N","N","N","N","Y","N","N","Y","N","N","Y","N","Y","N","","","","","","","","N","N","","N","Y","N"
1922684,292302,"MARINER TRUST COMPANY, LLC","MARINER TRUST COMPANY, LLC","",,"","N","N","N","N","N","N","N","N","Y","N","N","N","N","N","N","N","N","Y","N","","","","","","","","N","","","N","Y","N"
1922684,347309,"MARINER INDEPENDENT ADVISOR NETWORK, LLC","MARINER INDEPENDENT","801-107913",283824,"","N","Y","N","N","N","N","N","N","N","N","N","N","N","N","N","N","N","Y","N","","","","","","","","N","N","","N","Y","N"
1930486,265031,"PARTNERS GROUP PRIVATE MARKETS (AUSTRALIA) PTY. LTD.","PARTNERS GROUP PRIVATE MARKETS (AUSTRALIA) PTY. LTD.","",,"","N","Y","N","N","N","N","N","N","N","N","N","N","N","N","N","N","N","Y","N","","","","","","","","N","Y","FOREIGN PRIVATE ADVISER","Y","Y","N"
1930486,205376,"PARTNERS GROUP (SINGAPORE) PTE. LTD.","PARTNERS GROUP (SINGAPORE) PTE. LTD.","",,"","N","Y","N","N","N","N","N","N","N","N","N","N","N","N","N","N","N","Y","N","","","","","","","","N","Y","FOREIGN PRIVATE ADVISER","Y","Y","N"
1930486,220963,"PARTNERS GROUP US MANAGEMENT II LLC","PARTNERS GROUP US MANAGEMENT II LLC","",,"","N","N","N","N","N","Y","N","N","N","N","N","N","N","N","N","Y","N","Y","N","","","","","","","","N","","","N","N","N"
1930486,115643,"PARTNERS GROUP MANAGEMENT IX LIMITED","PARTNERS GROUP MANAGEMENT IX LIMITED","",,"","N","N","N","N","N","Y","N","N","N","N","N","N","N","N","Y","Y","N","Y","N","","","","","","","","N","","","Y","Y","N"
1930486,205378,"PARTNERS GROUP CAYMAN MANAGEMENT II LIMITED","PARTNERS GROUP CAYMAN MANAGEMENT II LIMITED","",,"","N","N","N","N","N","Y","N","N","N","N","N","N","N","N","Y","Y","N","Y","N","","","","","","","","N","N","","N","N","N"
1930486,366280,"PARTNERS GROUP CAYMAN MANAGEMENT SECONDARY VIII LIMITED","PARTNERS GROUP CAYMAN MANAGEMENT SECONDARY VIII LIMITED","",,"","N","N","N","N","N","N","N","N","N","N","N","N","N","N","Y","Y","N","Y","N","","","","","","","","N","","","N","N","N"
1930486,366279,"PARTNERS GROUP CAYMAN MANAGEMENT V LIMITED","PARTNERS GROUP CAYMAN MANAGEMENT V LIMITED","",,"","N","N","N","N","N","N","N","N","N","N","N","N","N","N","Y","Y","N","Y","N","","","","","","","","N","","","N","N","N"
1930486,347001,"PARTNERS GROUP MANAGEMENT XV LIMITED","PARTNERS GROUP MANAGEMENT XV LIMITED","",,"","N","N","N","N","N","Y","N","N","N","N","N","N","N","N","Y","Y","N","Y","N","","","","","","","","N","","","N","Y","N"
1930486,205377,"PARTNERS GROUP CAYMAN MANAGEMENT I LIMITED","PARTNERS GROUP CAYMAN MANAGEMENT I LIMITED","",,"","N","N","N","N","N","Y","N","N","N","N","N","N","N","N","Y","Y","N","Y","N","","","","","","","","N","","","N","N","N"
1930486,347019,"PARTNERS GROUP CAYMAN MANAGEMENT DIRECT INFRA IV LIMITED","PARTNERS GROUP CAYMAN MANAGEMENT DIRECT INFRA IV LIMITED","",,"","N","N","N","N","N","Y","N","N","N","N","N","N","N","N","Y","Y","N","Y","N","","","","","","","","N","","","N","Y","N"
1930486,286167,"PARTNERS GROUP (LUXEMBOURG) S.A.","PARTNERS GROUP (LUXEMBOURG) S.A.","",,"","N","Y","N","N","N","N","N","N","N","N","N","N","N","N","N","N","N","Y","N","","","","","","","","N","Y","FOREIGN PRIVATE ADVISER","Y","Y","N"
1930486,286171,"PARTNERS GROUP MANAGEMENT (SCOTS) LLP","PARTNERS GROUP MANAGEMENT (SCOTS) LLP","",,"","N","N","N","N","N","N","N","N","N","N","N","N","N","N","Y","Y","N","Y","N","","","","","","","","N","","","N","N","N"
1930486,286176,"PARTNERS GROUP MANAGEMENT IV LIMITED","PARTNERS GROUP MANAGEMENT IV LIMITED","",,"","N","N","N","N","N","N","N","N","N","N","N","N","N","N","Y","Y","N","Y","N","","","","","","","","N","","","Y","Y","N"
1930486,155969,"PARTNERS GROUP MANAGEMENT II S.A.R.L.","PARTNERS GROUP MANAGEMENT II S.A.R.L.","",,"","N","N","N","N","N","Y","N","N","N","N","N","N","N","N","Y","Y","N","Y","N","","","","","","","","N","","","N","Y","N"
1930486,115632,"PARTNERS GROUP MANAGEMENT II LIMITED","PARTNERS GROUP MANAGEMENT II LIMITED","",,"","N","N","N","N","N","Y","N","N","N","N","N","N","N","N","Y","Y","N","Y","N","","","","","","","","N","","","Y","Y","N"
1930486,172736,"PARTNERS GROUP (UK) MANAGEMENT LTD.","PARTNERS GROUP (UK) MANAGEMENT LTD.","",,"","N","Y","N","N","N","N","N","N","N","N","N","N","N","N","Y","N","N","Y","N","","","","","","","","N","Y","FOREIGN PRIVATE ADVISER","Y","N","N"
1930486,115646,"PARTNERS GROUP (GUERNSEY) LIMITED","PARTNERS GROUP (GUERNSEY) LIMITED","",,"","N","Y","N","N","N","Y","N","N","N","N","N","N","N","N","Y","Y","Y","Y","N","","","","","","","","N","Y","FOREIGN PRIVATE ADVISER","Y","Y","N"
1930486,115648,"PARTNERS GROUP MANAGEMENT X LIMITED","PARTNERS GROUP MANAGEMENT X LIMITED","",,"","N","N","N","N","N","Y","N","N","N","N","N","N","N","N","Y","Y","N","Y","N","","","","","","","","N","","","Y","Y","N"
1930486,122130,"PARTNERS GROUP MANAGEMENT XIV LIMITED","PARTNERS GROUP MANAGEMENT XIV LIMITED","",,"","N","N","N","N","N","Y","N","N","N","N","N","N","N","N","Y","Y","N","Y","N","","","","","","","","N","","","Y","Y","N"
1930486,115636,"PARTNERS GROUP MANAGEMENT V LIMITED","PARTNERS GROUP MANAGEMENT V LIMITED","",,"","N","N","N","N","N","Y","N","N","N","N","N","N","N","N","Y","Y","N","Y","N","","","","","","","","N","","","Y","Y","N"
1930486,115638,"PARTNERS GROUP MANAGEMENT VI LIMITED","PARTNERS GROUP MANAGEMENT VI LIMITED","",,"","N","N","N","N","N","Y","N","N","N","N","N","N","N","N","Y","Y","N","Y","N","","","","","","","","N","","","Y","Y","N"
1930486,115640,"PARTNERS GROUP MANAGEMENT VII LIMITED","PARTNERS GROUP MANAGEMENT VII LIMITED","",,"","N","N","N","N","N","Y","N","N","N","N","N","N","N","N","Y","Y","N","Y","N","","","","","","","","N","","","Y","Y","N"
1930486,115641,"PARTNERS GROUP MANAGEMENT VIII LIMITED","PARTNERS GROUP MANAGEMENT VIII LIMITED","",,"","N","N","N","N","N","Y","N","N","N","N","N","N","N","N","Y","Y","N","Y","N","","","","","","","","N","","","Y","Y","N"
1930486,242349,"PARTNERS GROUP US MANAGEMENT CLO LLC","PARTNERS GROUP US MANAGEMENT CLO LLC","801-112862",293856,"","N","Y","N","N","N","N","N","N","N","N","N","N","N","N","N","N","N","Y","N","","","","","","","","N","N","","N","N","N"
1930486,242323,"PARTNERS GROUP CAYMAN MANAGEMENT III LIMITED","PARTNERS GROUP CAYMAN MANAGEMENT III LIMITED","",,"","N","N","N","N","N","Y","N","N","N","N","N","N","N","N","Y","Y","N","Y","N","","","","","","","","N","","","N","N","N"
1930486,265645,"PARTNERS GROUP CAYMAN MANAGEMENT IV LIMITED","PARTNERS GROUP CAYMAN MANAGEMENT IV LIMITED","",,"","N","Y","N","N","N","N","N","N","N","N","N","N","N","N","N","Y","N","Y","N","","","","","","","","N","Y","FOREIGN PRIVATE ADVISER","Y","N","N"
1930486,366276,"PARTNERS GROUP MANAGEMENT SECONDARY VIII S.A.R.L.","PARTNERS GROUP MANAGEMENT SECONDARY VIII S.A.R.L.","",,"","N","N","N","N","N","Y","N","N","N","N","N","N","N","N","Y","Y","N","Y","N","","","","","","","","N","","","N","Y","N"
1930486,366269,"PARTNERS GROUP FINANCE IBCP (USD), LLC","PARTNERS GROUP FINANCE IBCP (USD), LLC","",,"","N","N","N","N","N","N","N","N","N","N","N","N","N","N","Y","Y","N","Y","N","","","","","","","","N","","","N","N","N"
1930486,286165,"PARTNERS GROUP (EU) GMBH","PARTNERS GROUP (EU) GMBH","",,"","N","Y","N","N","N","N","N","N","N","N","N","N","N","N","N","N","N","Y","N","","","","","","","","N","Y","FOREIGN PRIVATE ADVISER","Y","Y","N"
1930486,366277,"PARTNERS GROUP CAYMAN CLIENT ACCESS MANAGEMENT I LIMITED","PARTNERS GROUP CAYMAN CLIENT ACCESS MANAGEMENT I LIMITED","",,"","N","N","N","N","N","N","N","N","N","N","N","N","N","N","Y","Y","N","Y","N","","","","","","","","N","","","N","N","N"
1930486,347013,"PARTNERS GROUP MANAGEMENT REO II S.A.R.L.","PARTNERS GROUP MANAGEMENT REO II S.A.R.L.","",,"","N","N","N","N","N","Y","N","N","N","N","N","N","N","N","Y","Y","N","Y","N","","","","","","","","N","","","N","Y","N"
1930486,122056,"PARTNERS GROUP MANAGEMENT LIMITED","PARTNERS GROUP MANAGEMENT LIMITED","",,"","N","N","N","N","N","Y","N","N","N","N","N","N","N","N","Y","Y","N","Y","N","","","","","","","","N","","","Y","Y","N"
1930486,145182,"PARTNERS GROUP CLIENT ACCESS MANAGEMENT I LIMITED","PARTNERS GROUP CLIENT ACCESS MANAGEMENT I LIMITED","",,"","N","N","N","N","N","Y","N","N","N","N","N","N","N","N","Y","Y","N","Y","N","","","","","","","","N","","","Y","Y","N"
1930486,115633,"PARTNERS GROUP MANAGEMENT III LIMITED","PARTNERS GROUP MANAGEMENT III LIMITED","",,"","N","N","N","N","N","Y","N","N","N","N","N","N","N","N","Y","Y","N","Y","N","","","","","","","","N","","","Y","Y","N"
1930486,264988,"PARTNERS GROUP JAPAN KABUSHIKI KAISHA","PARTNERS GROUP JAPAN KABUSHIKI KAISHA","",,"","N","Y","N","N","N","N","N","N","N","N","N","N","N","N","N","N","N","Y","N","","","","","","","","N","Y","FOREIGN PRIVATE ADVISER","Y","N","N"
1930486,157545,"PARTNERS GROUP US MANAGEMENT LLC","PARTNERS GROUP US MANAGEMENT LLC","",,"","N","N","N","N","N","N","N","N","N","N","N","N","N","N","N","Y","N","Y","N","","","","","","","","N","","","N","N","N"
1930486,155968,"PARTNERS GROUP MANAGEMENT I S.A.R.L.","PARTNERS GROUP MANAGEMENT I S.A.R.L.","",,"","N","N","N","N","N","Y","N","N","N","N","N","N","N","N","Y","Y","N","Y","N","","","","","","","","N","","","N","Y","N"
1930486,265149,"PARTNERS GROUP ADVISORS (DIFC) LIMITED","PARTNERS GROUP ADVISORS (DIFC) LIMITED","",,"","N","Y","N","N","N","N","N","N","N","N","N","N","N","N","N","N","N","Y","N","","","","","","","","N","Y","FOREIGN PRIVATE ADVISER","Y","N","N"
1930486,155971,"PARTNERS GROUP MANAGEMENT III S.A.R.L.","PARTNERS GROUP MANAGEMENT III S.A.R.L.","",,"","N","N","N","N","N","Y","N","N","N","N","N","N","N","N","Y","Y","N","Y","N","","","","","","","","N","","","N","Y","N"
1930486,347008,"PARTNERS GROUP MANAGEMENT VI (USD) S.A.R.L.","PARTNERS GROUP MANAGEMENT VI (USD) S.A.R.L.","",,"","N","N","N","N","N","Y","N","N","N","N","N","N","N","N","Y","Y","N","Y","N","","","","","","","","N","","","N","Y","N"
1930486,261670,"PARTNERS GROUP US MANAGEMENT III LLC","PARTNERS GROUP US MANAGEMENT III LLC","",,"","N","N","N","N","N","Y","N","N","N","N","N","N","N","N","N","Y","N","Y","N","","","","","","","","N","","","N","N","N"
1930486,115657,"PARTNERS GROUP (USA) INC.","PARTNERS GROUP (USA) INC.","801-68463",145228,"","N","Y","N","N","N","Y","N","N","N","N","N","N","N","N","Y","Y","N","Y","N","","","","","","","","N","N","","Y","Y","N"
1930486,115649,"PARTNERS GROUP MANAGEMENT XI LIMITED","PARTNERS GROUP MANAGEMENT XI LIMITED","",,"","N","N","N","N","N","Y","N","N","N","N","N","N","N","N","Y","Y","N","Y","N","","","","","","","","N","","","Y","Y","N"
1930486,172735,"PARTNERS GROUP (UK) LTD.","PARTNERS GROUP (UK) LTD.","",,"","N","Y","N","N","N","N","N","N","N","N","N","N","N","N","N","N","N","Y","N","","","","","","","","N","Y","FOREIGN PRIVATE ADVISER","Y","Y","N"
1930486,347010,"PARTNERS GROUP MANAGEMENT DIRECT EQUITY V S.A.R.L.","PARTNERS GROUP MANAGEMENT DIRECT EQUITY V S.A.R.L.","",,"","N","N","N","N","N","Y","N","N","N","N","N","N","N","N","Y","Y","N","Y","N","","","","","","","","N","","","N","Y","N"
1930486,347014,"PARTNERS GROUP CAYMAN MANAGEMENT DIRECT EQUITY V LIMITED","PARTNERS GROUP CAYMAN MANAGEMENT DIRECT EQUITY V LIMITED","",,"","N","N","N","N","N","Y","N","N","N","N","N","N","N","N","Y","Y","N","Y","N","","","","","","","","N","","","N","Y","N"
1930486,347007,"PARTNERS GROUP MANAGEMENT V (GBP) S.A.R.L.","PARTNERS GROUP MANAGEMENT V (GBP) S.A.R.L.","",,"","N","N","N","N","N","Y","N","N","N","N","N","N","N","N","Y","Y","N","Y","N","","","","","","","","N","","","N","Y","N"
1930486,347005,"PARTNERS GROUP MANAGEMENT IV (EUR) S.A.R.L.","PARTNERS GROUP MANAGEMENT IV (EUR) S.A.R.L.","",,"","N","N","N","N","N","Y","N","N","N","N","N","N","N","N","Y","Y","N","Y","N","","","","","","","","N","","","N","Y","N"
1930486,286180,"PARTNERS GROUP MANAGEMENT XII LIMITED","PARTNERS GROUP MANAGEMENT XII LIMITED","",,"","N","N","N","N","N","N","N","N","N","N","N","N","N","N","Y","Y","N","Y","N","","","","","","","","N","","","Y","Y","N"
1930486,286181,"PARTNERS GROUP MANAGEMENT XIII LIMITED","PARTNERS GROUP MANAGEMENT XIII LIMITED","",,"","N","N","N","N","N","N","N","N","N","N","N","N","N","N","Y","Y","N","Y","N","","","","","","","","N","","","Y","Y","N"
1930486,347011,"PARTNERS GROUP MANAGEMENT DIRECT INFRA IV S.A.R.L.","PARTNERS GROUP MANAGEMENT DIRECT INFRA IV S.A.R.L.","",,"","N","N","N","N","N","Y","N","N","N","N","N","N","N","N","Y","Y","N","Y","N","","","","","","","","N","","","N","Y","N"
1930486,347017,"PARTNERS GROUP CAYMAN MANAGEMENT REO II LIMITED","PARTNERS GROUP CAYMAN MANAGEMENT REO II LIMITED","",,"","N","N","N","N","N","Y","N","N","N","N","N","N","N","N","Y","Y","N","Y","N","","","","","","","","N","","","N","Y","N"
1930486,366274,"PARTNERS GROUP MANAGEMENT VII S.A.R.L.","PARTNERS GROUP MANAGEMENT VII S.A.R.L.","",,"","N","N","N","N","N","Y","N","N","N","N","N","N","N","N","Y","Y","N","Y","N","","","","","","","","N","","","N","Y","N"
1925588,113824,"BRIDGESCALE OPPORTUNITIES LLC","BRIDGESCALE OPPORTUNITIES LLC","",,"","N","Y","N","N","N","N","N","N","N","N","N","N","N","N","N","Y","N","Y","N","","","","","","","","N","N","","N","Y","Y"
1925588,113475,"BRIDGESCALE PARTNERS GP I, LLC","BRIDGESCALE PARTNERS GP I, LLC","",,"","N","Y","N","N","N","N","N","N","N","N","N","N","N","N","N","Y","N","Y","N","","","","","","","","N","N","","N","Y","Y"
1920903,186569,"KKR CREDIT ADVISORS (US) LLC","KKR CREDIT ADVISORS (US) LLC","801-69633",146629,"","N","Y","N","N","N","Y","N","N","N","N","N","N","N","N","N","N","N","Y","N","","","","","","","","N","N","","N","N","Y"
1920903,186566,"KKR CREDIT ADVISORS (EMEA) LLP","KKR CREDIT ADVISORS (EMEA) LLP","",,"","N","Y","N","N","N","N","N","N","N","N","N","N","N","N","N","N","N","Y","N","","","","","","","","N","Y","PARTICIPATING AFFILIATE","Y","Y","N"
1920903,256709,"KKR CAPITAL MARKETS (IRELAND) LIMITED","KKR CAPITAL MARKETS (IRELAND) LIMITED","",,"","Y","N","N","N","N","N","N","N","N","N","N","N","N","N","N","N","N","Y","N","","","","","","","","N","","","Y","Y","Y"
1920903,300334,"KKR CREDIT ADVISORS (SINGAPORE) PTE. LTD.","KKR CREDIT ADVISORS (SINGAPORE) PTE. LTD.","801-119302",309194,"","N","Y","N","N","N","Y","N","N","N","N","N","N","N","N","N","N","N","Y","N","","","","","","","","N","N","","Y","N","N"
1920903,350861,"KJR MANAGEMENT","KJR MANAGEMENT","",,"","N","Y","N","N","N","N","N","N","N","N","N","N","N","Y","N","N","N","Y","N","","","","","","","","N","Y","PARTICIPATING AFFILIATE","Y","N","N"
1920903,372768,"THE GLOBAL ATLANTIC FINANCIAL GROUP LLC","THE GLOBAL ATLANTIC FINANCIAL GROUP LLC","",,"","Y","N","N","N","N","N","N","N","N","N","N","Y","N","N","N","N","N","Y","N","","","","","","","","N","","","Y","N","N"
1920903,300319,"KKR CAPITAL MARKETS PARTNERS LLP","KKR CAPITAL MARKETS PARTNERS LLP","",,"","Y","N","N","N","N","N","N","N","N","N","N","N","N","N","N","N","N","Y","N","","","","","","","","N","","","Y","Y","N"
1920903,186564,"KOHLBERG KRAVIS ROBERTS & CO. L.P.","KOHLBERG KRAVIS ROBERTS & CO. L.P.","801-69634",144533,"","N","Y","N","N","N","Y","N","N","N","N","N","N","N","N","N","N","Y","Y","N","","","","","","","","N","N","","N","Y","Y"
1920903,186565,"KKR CREDIT ADVISORS (IRELAND) UNLIMITED COMPANY","KKR CREDIT ADVISORS IRELAND","801-114469",293314,"","N","Y","N","N","N","Y","N","N","N","N","N","N","N","N","N","N","N","Y","N","","","","","","","","N","Y","RELYING ADVISOR TO KKR CREDIT ADVISORS (US) LLC","Y","Y","Y"
1920155,383950,"GREENPEAK GP GMBH","GREENPEAK GP GMBH","",,"","N","N","N","N","N","N","N","N","N","N","N","N","N","N","N","Y","N","Y","N","","","","","","","","N","","","Y","Y","Y"
1929012,166293,"WATERTON GLOBAL RESOURCE MANAGEMENT CAYMAN CORP.","WATERTON GLOBAL RESOURCE MANAGEMENT CAYMAN CORP.","",,"","N","N","N","N","N","N","N","N","N","N","N","N","N","N","N","Y","Y","Y","N","","","","","","","","N","","","N","Y","N"
1929012,379596,"WATERTON COPPER MANAGEMENT, INC.","WATERTON COPPER MANAGEMENT, INC.","802-130897",332363,"","N","Y","N","N","N","N","N","N","N","N","N","N","N","N","N","N","N","Y","N","","","","","","","","N","Y","ENTITY ADVISES ONLY PRIVATE FUNDS AND MANAGES UNDER $150 MILLION IN US ASSETS PER RULE 203(M)-1","N","Y","Y"
1929012,151513,"WATERTON GLOBAL RESOURCE MANAGEMENT, LP","WATERTON GLOBAL RESOURCE MANAGEMENT, LP","",,"","N","N","N","N","N","N","N","N","N","N","N","N","N","N","N","Y","Y","Y","N","","","","","","","","N","","","N","Y","N"
1929012,215463,"WATERTON MINING PARALLEL FUND GP CORP.","WATERTON MINING PARALLEL FUND GP CORP.","",,"","N","N","N","N","N","N","N","N","N","N","N","N","N","N","N","Y","Y","Y","N","","","","","","","","N","","","N","Y","N"
1906530,381799,"COVALENCE EQUITY INCOME FUND GP, L.P.","COVALENCE EQUITY INCOME FUND GP, L.P.","",,"","N","N","N","N","N","N","N","N","N","N","N","N","N","N","N","Y","Y","Y","N","","","","","","","","N","","","N","Y","Y"
1917376,322444,"ANSA CAPITAL GP I, LLC","ANSA CAPITAL GP I, LLC","",,"","N","N","N","N","N","N","N","N","N","N","N","N","N","N","N","Y","N","Y","N","","","","","","","","N","","","N","Y","Y"
1932608,374762,"SRT GROUP LLC","SRT GROUP LLC","801-130704",330219,"","N","Y","N","N","N","N","N","N","N","N","N","N","N","N","N","N","N","Y","N","","","","","","","","N","Y","RULE 203(M)-1","N","N","N"
1932608,342378,"AFC MANAGEMENT, LLC","AFC MANAGEMENT, LLC","801-121055",311281,"","N","Y","N","N","N","N","N","N","N","N","N","N","N","N","N","N","N","Y","N","","","","","","","","N","N","","N","N","Y"
1932608,342436,"AFC INSTITUTIONAL FUND HOLDINGS LLC","AFC INSTITUTIONAL FUND HOLDINGS LLC","",,"","N","N","N","N","N","N","N","N","N","N","N","N","N","N","N","Y","N","Y","N","","","","","","","","N","","","N","Y","Y"
1932608,384473,"SUNRISE MANAGER LLC","SUNRISE MANAGER LLC","801-130413",330704,"","N","Y","N","N","N","N","N","N","N","N","N","N","N","N","N","N","N","Y","N","","","","","","","","N","N","","N","N","N"
1928208,314826,"FOUR CITIES FUND V GP, LLC","FOUR CITIES FUND V GP, LLC","",,"","N","N","N","N","N","N","N","N","N","N","N","N","N","N","N","Y","N","Y","N","","","","","","","","N","","","N","Y","Y"
1928208,314824,"FOUR CITIES RUBICON, LLC","FOUR CITIES RUBICON, LLC","802-124900",319450,"","N","Y","N","N","N","N","N","N","N","N","N","N","N","N","N","Y","N","Y","N","","","","","","","","N","Y","203(L)-1; 203(M)-1","N","Y","Y"
1932004,354569,"DERIVE VENTURES GP I, LLC","DERIVE VENTURES GP I, LLC","",,"","N","N","N","N","N","N","N","N","N","N","N","N","N","N","N","Y","N","Y","N","","","","","","","","N","Y","VENTURE CAPITAL FUND ADVISER EXEMPTION UNDER SECTION 203(L) OF THE ADVISERS ACT","N","Y","Y"
1933240,226085,"H2 EQUITY PARTNERS LIMITED","H2 EQUITY PARTNERS","",,"","N","Y","N","N","N","N","N","N","N","N","N","N","N","N","N","N","Y","Y","N","","","","","","","","N","Y","FOREIGN PRIVATE ADVISOR EXEMPTION","N","Y","N"
1933240,225559,"H2 EQUITY PARTNERS B.V.","H2 EQUITY PARTNERS","802-75396",162637,"","N","Y","N","N","N","N","N","N","N","N","N","N","N","N","N","N","N","Y","N","","","","","","","","N","Y","PRIVATE FUND ADVISER EXEMPTION","N","Y","Y"
1929633,384291,"CIBRA CAPITAL LLC","CIBRA CAPITAL LLC","",334678,"","N","Y","N","N","N","N","N","N","N","N","N","N","N","N","N","N","Y","Y","N","","","","","","","","N","N","","N","Y","N"
1933356,113151,"DENNIS P FERRY","DENNIS P FERRY","",,"","N","N","N","N","N","N","N","N","N","Y","N","N","N","N","N","N","Y","N","N","","","","","","","","N","","","N","Y","Y"
1933356,113147,"CHARLES C FREYER","CHARLES C FREYER","",,"","N","N","N","N","N","N","N","N","N","N","Y","N","N","N","N","N","Y","N","N","","","","","","","","N","","","N","N","Y"
1933415,292301,"MARINER, LLC","MARINER WEALTH","801-66632",140195,"","N","Y","N","N","N","N","N","N","N","Y","N","N","Y","N","N","Y","N","Y","N","","","","","","","","N","N","","N","Y","N"
1933415,292302,"MARINER TRUST COMPANY, LLC","MARINER TRUST COMPANY, LLC","",,"","N","N","N","N","N","N","N","N","Y","N","N","N","N","N","N","N","N","Y","N","","","","","","","","N","","","N","Y","N"
1933415,347309,"MARINER INDEPENDENT ADVISOR NETWORK, LLC","MARINER INDEPENDENT","801-107913",283824,"","N","Y","N","N","N","N","N","N","N","N","N","N","N","N","N","N","N","Y","N","","","","","","","","N","N","","N","Y","N"
1933415,292297,"MARINER INSURANCE RESOURCES, LLC","MARINER INSURANCE RESOURCES, LLC","",,"","N","N","N","N","N","N","N","N","N","N","N","Y","N","N","N","N","N","Y","N","","","","","","","","N","","","N","Y","N"
1933415,349967,"1248 PARTNERS, LLC","1248 PARTNERS, LLC","802-127566",325304,"","N","Y","N","N","N","N","N","N","N","N","N","N","N","N","N","Y","N","Y","N","","","","","","","","N","Y","PRIVATE FUNDS UNDER 150MM","N","Y","Y"
1933415,326479,"MONTAGE FUND ADVISORS, LLC","MONTAGE FUND ADVISORS, LLC","802-122188",315847,"","N","Y","N","N","N","N","N","N","N","N","N","N","N","N","N","Y","N","Y","N","","","","","","","","N","Y","PRIVATE FUNDS/AUM LESS THAN $150MM","N","Y","Y"
1933415,292303,"MARINER PLATFORM SOLUTIONS, LLC","MARINER INDEPENDENT","801-117332",305418,"","N","Y","N","N","N","N","N","N","N","N","N","N","N","N","N","N","N","Y","N","","","","","","","","N","N","","N","Y","N"
1933415,292298,"MARINER WEALTH ADVISORS-IC, LLC","MARINER WEALTH","801-111823",289886,"","N","Y","N","N","N","N","N","N","N","N","N","N","N","N","N","N","N","Y","N","","","","","","","","N","N","","N","Y","N"
1933415,292299,"FLYOVER CAPITAL PARTNERS, LLC","FLYOVER CAPITAL PARTNERS, LLC","801-128069",173709,"","N","Y","N","N","N","N","N","N","N","N","N","N","N","N","N","Y","N","Y","N","","","","","","","","N","N","","N","Y","Y"
1933415,292300,"MSEC, LLC","MSEC, LLC","8-68627",154327,"","Y","N","N","N","N","N","N","N","N","N","N","N","N","N","N","N","N","Y","N","","","","","","","","N","","","N","Y","N"
1926749,355404,"KIRKOSWALD GLOBAL MANAGEMENT SERVICES LTD.","KIRKOSWALD GLOBAL MANAGEMENT SERVICES LTD.","802-127021",322811,"","N","Y","N","N","N","Y","N","N","N","N","N","N","N","N","N","N","N","Y","N","","","","","","","","N","Y","PRIVATE FUND ADVISER EXEMPTION","Y","Y","N"
1926749,269718,"KIRKOSWALD ASSET MANAGEMENT LLC","KIRKOSWALD ASSET MANAGEMENT LLC","801-114632",298735,"","N","Y","N","N","N","Y","N","N","N","N","N","N","N","N","N","N","N","Y","N","","","","","","","","N","N","","N","Y","N"
1926749,333981,"KIRKOSWALD ASSET MANAGEMENT HOLDING COMPANY LTD.","KIRKOSWALD ASSET MANAGEMENT HOLDING COMPANY LTD.","",,"","N","N","N","N","N","N","N","N","N","N","N","N","N","N","N","Y","N","Y","N","","","","","","","","N","","","Y","Y","N"
1926749,228374,"KIRKOSWALD CAPITAL GP LIMITED","KIRKOSWALD CAPITAL GP LIMITED","",,"","N","N","N","N","N","N","N","N","N","N","N","N","N","N","N","Y","N","Y","N","","","","","","","","N","","","N","N","N"
1924170,265695,"DWS INTERNATIONAL GMBH","DWS INTERNATIONAL GMBH","801-20289",105075,"","N","Y","N","N","N","Y","N","N","N","N","N","N","N","N","N","N","N","Y","N","","","","","","","","N","N","","Y","N","N"
1924170,265693,"DWS INVESTMENTS AUSTRALIA LIMITED","DWS INVESTMENTS AUSTRALIA LIMITED","801-57743",109112,"","N","Y","N","N","N","N","N","N","N","N","N","N","N","N","N","N","N","Y","N","","","","","","","","N","N","","Y","N","N"
1924170,265713,"DWS INVESTMENTS JAPAN LIMITED","DWS INVESTMENTS JAPAN LIMITED","",,"","N","Y","N","N","N","N","N","N","N","N","N","N","N","N","N","N","N","Y","N","","","","","","","","N","N","","Y","N","N"
1924170,265718,"DWS ASSET MANAGEMENT (KOREA) COMPANY LIMITED","DWS ASSET MANAGEMENT (KOREA) COMPANY LIMITED","",,"","N","Y","N","N","N","N","N","N","N","N","N","N","N","N","N","N","N","Y","N","","","","","","","","N","Y","THE ADVISER DOES NOT HAVE ANY US CLIENTS OR INVESTORS","Y","N","N"
1924170,265771,"DWS INVESTMENT GMBH","DWS INVESTMENT GMBH","",,"","N","Y","N","N","N","N","N","N","N","N","N","N","N","N","N","N","N","Y","N","","","","","","","","N","N","","Y","Y","N"
1924170,265703,"DWS INVESTMENTS SINGAPORE LIMITED","DWS INVESTMENTS SINGAPORE LIMITED","",,"","N","Y","N","N","N","Y","N","N","N","N","N","N","N","N","N","N","N","Y","N","","","","","","","","N","Y","EXEMPT REPORTING ADVISOR","Y","N","N"
1924170,265725,"DEUTSCHE BANK (SUISSE) SA","DEUTSCHE BANK (SUISSE) SA","",,"","N","Y","N","N","N","N","N","Y","N","N","N","N","N","N","N","N","N","Y","N","","","","","","","","N","Y","THE ADVISER DOES NOT HAVE ANY US CLIENTS OR INVESTORS","Y","N","N"
1924170,265726,"DWS INVESTMENT MANAGEMENT AMERICAS, INC.","DWS INVESTMENT MANAGEMENT AMERICAS, INC.","801-252",104518,"","N","Y","N","N","N","Y","N","N","N","N","N","N","N","N","N","N","N","Y","N","","","","","","","","N","N","","Y","N","N"
1924170,265699,"DEUTSCHE ALTERNATIVE ASSET MANAGEMENT (UK) LIMITED","DEUTSCHE ALTERNATIVE ASSET MANAGEMENT (UK) LIMITED","",,"","N","Y","N","N","N","N","N","N","N","N","N","N","N","N","N","N","N","Y","N","","","","","","","","N","Y","FOREIGN ADVISER","Y","N","N"
1924170,265730,"DEUTSCHE BANK LUXEMBOURG S.A.","DEUTSCHE BANK LUXEMBOURG S.A.","",,"","N","N","N","N","N","N","N","Y","N","N","N","N","N","N","N","N","N","Y","N","","","","","","","","N","","","Y","N","N"
1924170,265723,"DEUTSCHE BANK AG","DEUTSCHE BANK AG","",,"","Y","N","N","Y","N","N","N","Y","Y","N","N","N","N","N","Y","Y","Y","N","N","","","","","","","","N","","","Y","N","N"
1924170,265691,"RREEF AMERICA L.L.C.","RREEF AMERICA L.L.C.","801-55209",109596,"","N","Y","N","N","N","Y","N","N","N","N","N","N","N","N","N","N","N","Y","N","","","","","","","","N","N","","N","N","N"
1924170,265710,"DWS INVESTMENTS HONG KONG LIMITED","DWS INVESTMENTS HONG KONG LIMITED","801-66285",139666,"","N","Y","N","N","N","N","N","N","N","N","N","N","N","N","N","N","N","Y","N","","","","","","","","N","N","","Y","N","N"
1924170,265732,"DWS ALTERNATIVES GLOBAL LIMITED","DWS ALTERNATIVES GLOBAL LIMITED","801-66274",139526,"","N","Y","N","N","N","Y","N","N","N","N","N","N","N","N","N","N","N","Y","N","","","","","","","","N","N","","Y","N","N"
1905173,381761,"ELLIOTT SPECIAL GP, LLC","ELLIOTT SPECIAL GP, LLC","",292238,"","N","Y","N","N","N","Y","N","N","N","N","N","N","N","N","N","Y","Y","Y","N","","","","","","","","N","N","","N","N","N"
1905173,381762,"ELLIOTT ADVISORS (UK) LIMITED","ELLIOTT ADVISORS (UK) LIMITED","",292248,"","N","Y","N","N","N","Y","N","N","N","N","N","N","N","N","N","N","N","Y","N","","","","","","","","N","N","","Y","N","N"
1905173,381760,"ELLIOTT CAPITAL ADVISORS, L.P.","ELLIOTT CAPITAL ADVISORS, L.P.","",292232,"","N","Y","N","N","N","Y","N","N","N","N","N","N","N","N","N","Y","Y","Y","N","","","","","","","","N","N","","N","N","N"
1905173,381759,"ELLIOTT MANAGEMENT CORPORATION","ELLIOTT MANAGEMENT CORPORATION","",156601,"","N","Y","N","N","N","Y","N","N","N","N","N","N","N","N","N","N","N","Y","N","","","","","","","","N","N","","N","N","N"
1905173,381767,"EIMCT LLC","EIMCT LLC","",312162,"","N","Y","N","N","N","Y","N","N","N","N","N","N","N","N","N","N","N","Y","N","","","","","","","","N","N","","N","N","N"
1905173,381765,"EALL LLP","EALL LLP","",292250,"","N","Y","N","N","N","Y","N","N","N","N","N","N","N","N","N","N","N","Y","N","","","","","","","","N","N","","Y","N","N"
1905173,381766,"EIMFL LLC","EIMFL LLC","311380",,"","N","Y","N","N","N","Y","N","N","N","N","N","N","N","N","N","N","N","Y","N","","","","","","","","N","N","","N","N","N"
1905173,381768,"ELLIOTT FINANCIAL ITALIA S.R.L.","ELLIOTT FINANCIAL ITALIA S.R.L.","",318704,"","N","Y","N","N","N","Y","N","N","N","N","N","N","N","N","N","N","N","Y","N","","","","","","","","N","N","","N","N","N"
1905173,381769,"HAMBLEDON MANAGEMENT LLC","HAMBLEDON MANAGEMENT LLC","",307072,"","N","Y","N","N","N","Y","N","N","N","N","N","N","N","N","N","N","N","Y","N","","","","","","","","N","N","","N","N","N"
1905173,381770,"EIMFL SUB LLC","EIMFL SUB LLC","",313159,"","N","Y","N","N","N","Y","N","N","N","N","N","N","N","N","N","N","N","Y","N","","","","","","","","N","N","","N","N","N"
1905173,381771,"ELLIOTT INVESTMENT MANAGEMENT L.P.","ELLIOTT INVESTMENT MANAGEMENT L.P.","801-119969",307151,"","N","Y","N","N","N","Y","N","N","N","N","N","N","N","N","N","N","N","Y","N","","","","","","","","N","N","","N","N","N"
1905173,381764,"HAMBLEDON, INC.","HAMBLEDON, INC.","",292242,"","N","Y","N","N","N","Y","N","N","N","N","N","N","N","N","N","Y","Y","Y","N","","","","","","","","N","N","","N","N","N"
1905173,381832,"EMCCA CORPORATION","EMCCA CORPORATION","",292243,"","N","Y","N","N","N","N","N","N","N","N","N","N","N","N","N","N","N","Y","N","","","","","","","","N","N","","N","N","N"
1905173,381763,"ELLIOTT ADVISORS GP LLC","ELLIOTT ADVISORS GP LLC","",292231,"","N","Y","N","N","N","Y","N","N","N","N","N","N","N","N","N","Y","Y","Y","N","","","","","","","","N","N","","N","N","N"
1917528,383314,"CIF HOLDINGS LP","CIF HOLDINGS LP","",,"","N","N","N","N","N","N","N","N","N","N","N","N","N","N","N","Y","N","N","N","","","","","","","","N","N","","N","N","N"
1919668,383590,"CAXTON EUROPE LLP","CAXTON EUROPE LLP","802-131979",333153,"","N","Y","N","N","N","Y","N","N","N","N","N","N","N","N","N","N","Y","Y","N","","","","","","","","N","Y","EXEMPT REPORTING ADVISER RULE 203(M)-1","Y","N","N"
1924738,294064,"DELLORA INVESTMENTS FUND GP LLC","DELLORA INVESTMENTS FUND GP LLC","",,"","N","N","N","N","N","N","N","N","N","N","N","N","N","N","N","Y","N","Y","N","","","","","","","","N","","","N","Y","Y"
1924738,384059,"DELLORA LONG ONLY FUND GP LLC","DELLORA LONG ONLY FUND GP LLC","",,"","N","N","N","N","N","N","N","N","N","N","N","N","N","N","N","Y","N","Y","N","","","","","","","","N","","","N","Y","Y"
1928486,346959,"CERTA FUND I GP LLC","CERTA FUND I GP LLC","",,"","N","N","N","N","N","N","N","N","N","N","N","N","N","N","N","Y","N","Y","N","","","","","","","","N","N","","N","Y","Y"
1930297,275717,"LCP INVESTORS, LLC","THE LCP GROUP","",,"","N","N","N","N","N","N","N","N","N","N","N","N","N","Y","Y","Y","Y","Y","N","","","","","","","","N","","","N","Y","Y"
1933275,354191,"HASH3 CAPITAL GP LLC","HASH3 CAPITAL GP LLC","",,"","N","N","N","N","N","N","N","N","N","N","N","N","N","N","N","Y","Y","Y","N","","","","","","","","N","Y","VENTURE CAPITAL EXEMPTION","Y","Y","Y"
1910568,384143,"K8 FUND I GP LLC","K8 FUND I GP LLC","",,"","N","N","N","N","N","N","N","N","N","N","N","N","N","N","N","Y","N","Y","N","","","","","","","","N","N","","N","Y","Y"
1927879,354384,"RBC GLOBAL ASSET MANAGEMENT (U.S.) INC.","RBC GLOBAL ASSET MANAGEMENT (U.S.) INC.","801-20303",107173,"","N","Y","N","N","N","Y","N","N","N","N","N","N","N","N","N","N","N","Y","N","","","","","","","","N","N","","N","N","N"
1927879,354383,"RBC GLOBAL ASSET MANAGEMENT (UK) LIMITED","RBC GLOBAL ASSET MANAGEMENT (UK) LIMITED","801-78436",168551,"","N","Y","N","N","N","Y","N","N","N","N","N","N","N","N","N","Y","N","Y","N","","","","","","","","N","N","","Y","N","N"
1927879,354385,"ROYAL BANK OF CANADA","ROYAL BANK OF CANADA","",,"","N","N","N","N","N","N","N","Y","N","N","N","N","N","N","N","N","Y","N","N","","","","","","","","N","","","Y","N","N"
1930982,316429,"KRUNGTHAI-AXA LIFE INSURANCE PUBLIC COMPANY LIMITED","KRUNGTHAI-AXA LIFE INSURANCE PUBLIC COMPANY LIMITED","",,"","N","N","N","N","N","N","N","N","N","N","N","Y","N","N","N","N","N","N","N","","","","","","","","N","","","Y","N","N"
1930982,289013,"AXA REAL ESTATE INVESTMENT MANAGERS SGP","AXA REIM SGP","802-107315",282641,"","N","Y","N","N","N","N","N","N","N","N","N","N","N","N","N","N","N","Y","N","","","","","","","","N","Y","EXEMPT REPORTING ADVISER","Y","N","N"
1930982,289011,"AXA INVESTMENT MANAGERS UK LIMITED","AXA INVESTMENT MANAGERS UK LIMITED","",,"","N","Y","N","N","N","N","N","N","N","N","N","N","N","N","N","N","N","Y","N","","","","","","","","N","Y","FOREIGN ADVISER THAT DOES NOT HAVE U.S. CLIENTS AND DOES NOT MARKET ITS SERVICES IN THE U.S.","Y","N","N"
1930982,289015,"AXA INVESTMENT MANAGERS US INC","AXA INVESTMENT MANAGERS US INC","801-60374",113608,"","N","Y","N","N","N","N","N","N","N","N","N","N","N","N","N","N","N","Y","N","","","","","","","","N","N","","N","N","N"
1930982,315862,"AXA S.A.","AXA S.A.","",,"","N","N","N","N","N","N","N","N","N","N","N","N","N","N","Y","N","Y","N","N","","","","","","","","N","","","N","N","N"
1930982,315863,"XL GROUP INVESTMENTS LTD","XL GROUP INVESTMENTS LTD","",,"","N","Y","N","N","N","N","N","N","N","N","N","N","N","N","N","N","N","N","N","","","","","","","","N","N","","Y","N","N"
1930982,289007,"AXA INVESTMENT MANAGERS AUSTRALIA LTD","AXA INVESTMENT MANAGERS AUSTRALIA LTD","",,"","N","Y","N","N","N","N","N","N","N","N","N","N","N","N","N","N","N","Y","N","","","","","","","","N","Y","FOREIGN ADVISER THAT DOES NOT HAVE U.S. CLIENTS AND DOES NOT MARKET ITS SERVICES IN THE U.S.","Y","N","N"
1930982,289002,"AXA FRANCE VIE S.A.","AXA FRANCE VIE S.A.","",,"","N","N","N","N","N","N","N","N","N","N","N","Y","N","N","N","N","N","N","N","","","","","","","","N","","","Y","N","N"
1930982,362812,"AXA INVESTMENT MANAGERS SELECT INDONESIA PT","AXA INVESTMENT MANAGERS SELECT INDONESIA PT","",,"","N","Y","N","N","N","N","N","N","N","N","N","N","N","N","N","N","N","Y","N","","","","","","","","N","Y","EXEMPT REPORTING ADVISER","Y","N","N"
1930982,384377,"W CAPITAL MANAGEMENT, LLC","W CAPITAL PARTNERS","801-73383",159408,"","N","Y","N","N","N","N","N","N","N","N","N","N","N","N","N","N","N","Y","N","","","","","","","","N","N","","N","N","N"
1930982,384376,"AXA AURORA IBERICA SA DE SEGUROS Y REASEGUROS","AXA AURORA IBERICA SA DE SEGUROS Y REASEGUROS","",,"","N","N","N","N","N","N","N","N","N","N","N","Y","N","N","N","N","N","N","N","","","","","","","","N","","","Y","N","N"
1930982,384375,"AXA IM PRIME","AXA IM PRIME","802-131670",333603,"","N","Y","N","N","N","N","N","N","N","N","N","N","N","N","N","N","N","Y","N","","","","","","","","N","Y","EXEMPT REPORTING ADVISER","Y","N","N"
1932701,202169,"GREENSTONE MANAGEMENT LIMITED","GREENSTONE MANAGEMENT LIMITED","",,"","N","N","N","N","N","N","N","N","N","N","N","N","N","N","N","Y","N","Y","N","","","","","","","","N","","","Y","Y","N"
1932701,202165,"GREENSTONE MANAGEMENT II LIMITED","GREENSTONE MANAGEMENT II LIMITED","",,"","N","N","N","N","N","N","N","N","N","N","N","N","N","N","N","Y","N","Y","N","","","","","","","","N","","","Y","Y","N"
1932701,202959,"WATERFALL MANAGEMENT LIMITED","WATERFALL MANAGEMENT LIMITED","",,"","N","N","N","N","N","N","N","N","N","N","N","N","N","N","N","Y","N","Y","N","","","","","","","","N","","","N","Y","N"
1932701,202962,"WATERFALL MANAGEMENT II LIMITED","WATERFALL MANAGEMENT II LIMITED","",,"","N","N","N","N","N","N","N","N","N","N","N","N","N","N","N","Y","N","Y","N","","","","","","","","N","","","N","Y","N"
1930891,207419,"PTV GP IV, LP","PTV GP IV, LP","",,"","N","Y","N","N","N","N","N","N","N","N","N","N","N","N","N","Y","Y","Y","N","","","","","","","","N","Y","VENTURE CAPITAL FUND ADVISER EXEMPTION","N","Y","Y"
1930891,207418,"PINTO TECHNOLOGY VENTURES GP II, LP","PINTO TECHNOLOGY VENTURES GP II, LP","",,"","N","Y","N","N","N","N","N","N","N","N","N","N","N","N","N","Y","Y","Y","N","","","","","","","","N","Y","VENTURE CAPITAL FUND ADVISER EXEMPTION","N","Y","Y"
1930891,204954,"PAGF GP, LLC","PAGF GP, LLC","802-108121",161760,"","N","Y","N","N","N","N","N","N","N","N","N","N","N","N","N","Y","N","Y","N","","","","","","","","N","Y","ACT SOLELY AS AN ADVISOR TO PRVIATE FUNDS AND HAVE ASSETS UNDER MANAGEMENT IN THE US UNDER $150 MILLION","N","N","N"
1929190,384267,"TRO INVESTMENT PARTNERS IV LLC","MANAGER OF FUND","",,"","N","N","N","N","N","N","N","N","N","N","N","N","N","N","N","Y","N","Y","N","","","","","","","","N","","","N","N","Y"
1933341,273100,"MMC GP SCALE-UP I LLP","MMC GP SCALE-UP I LLP","",,"","N","N","N","N","N","N","N","N","N","N","N","N","N","N","N","Y","Y","Y","N","","","","","","","","N","","","N","Y","Y"
1930872,384397,"MARSHALL WACE ASIA LIMITED","MARSHALL WACE ASIA LIMITED","802-110603",157501,"","N","Y","N","N","N","Y","N","N","N","N","N","N","N","N","N","Y","N","Y","N","","","","","","","","N","Y","PRIVATE FUND ADVISER EXEMPTION","Y","Y","N"
1930872,384398,"MARSHALL WACE LLP","MARSHALL WACE LLP","802-76358",160885,"","N","Y","N","N","N","Y","N","N","N","N","N","N","N","N","N","Y","N","Y","N","","","","","","","","N","Y","PRIVATE FUND ADVISER EXEMPTION","Y","Y","N"
1930872,384400,"MARSHALL WACE NORTH AMERICA L.P.","MARSHALL WACE NORTH AMERICA L.P.","801-70586",135902,"","N","Y","N","N","N","Y","N","N","N","N","N","N","N","N","N","Y","N","Y","N","","","","","","","","N","N","","N","Y","N"
1930872,384399,"MARSHALL WACE SINGAPORE PTE. LTD.","MARSHALL WACE SINGAPORE PTE. LTD.","802-126606",322296,"","N","Y","N","N","N","N","N","N","N","N","N","N","N","N","N","Y","N","Y","N","","","","","","","","N","Y","PRIVATE FUND ADVISER EXEMPTION","Y","Y","N"
1922549,275684,"VISION OPPORTUNITY FUND (GP) INC.","VISION OPPORTUNITY FUND (GP) INC.","",,"","N","N","N","N","N","N","N","N","N","N","N","N","N","N","N","Y","N","Y","N","","","","","","","","N","","","N","Y","Y"
1922549,275683,"VISION STRATEGIC OPPORTUNITY FUND (GP) INC.","VISION STRATEGIC OPPORTUNITY FUND (GP) INC.","",,"","N","N","N","N","N","N","N","N","N","N","N","N","N","N","N","Y","N","Y","N","","","","","","","","N","","","N","Y","Y"
1922549,314209,"VISION OPPORTUNITY TE & NON-U.S. FUND (GP) INC.","VISION OPPORTUNITY TE & NON-U.S. FUND (GP) INC.","",,"","N","N","N","N","N","N","N","N","N","N","N","N","N","N","N","Y","N","Y","N","","","","","","","","N","","","N","Y","Y"
1922549,246940,"VISION STRATEGIC OPPORTUNITY NON-RESIDENT FUND (GP) INC.","VISION STRATEGIC OPPORTUNITY NON-RESIDENT FUND (GP) INC.","",,"","N","N","N","N","N","N","N","N","N","N","N","N","N","N","N","Y","N","Y","N","","","","","","","","N","","","N","Y","Y"
1922549,246939,"VISION OPPORTUNITY U.S. FUND (GP) INC.","VISION OPPORTUNITY U.S. FUND (GP) INC.","",,"","N","N","N","N","N","N","N","N","N","N","N","N","N","N","N","Y","N","Y","N","","","","","","","","N","","","N","Y","Y"
1922549,275682,"VISION OPPORTUNITY MASTER FUND (GP) INC.","VISION OPPORTUNITY MASTER FUND (GP) INC.","",,"","N","N","N","N","N","N","N","N","N","N","N","N","N","N","N","Y","N","Y","N","","","","","","","","N","","","N","Y","Y"
1929230,344443,"500 GLOBAL MANAGEMENT MALAYSIA SDN. BHD.","500 GLOBAL MANAGEMENT MALAYSIA SDN. BHD.","",,"","N","Y","N","N","N","N","N","N","N","N","N","N","N","N","N","N","Y","Y","N","","","","","","","","N","Y","203(L)","Y","Y","N"
1929230,344435,"500 GEORGIA, L.L.C.","500 GEORGIA, L.L.C.","",,"","N","Y","N","N","N","N","N","N","N","N","N","N","N","N","N","Y","N","Y","N","","","","","","","","N","Y","203(L)","N","Y","Y"
1929230,344442,"500 MENA, L.L.C.","500 MENA, L.L.C.","",,"","N","Y","N","N","N","N","N","N","N","N","N","N","N","N","N","Y","N","Y","N","","","","","","","","N","Y","203(L)","N","Y","Y"
1929230,206263,"500 KIMCHI MANAGEMENT COMPANY LLC","500 KIMCHI MANAGEMENT COMPANY LLC","802-112801",292500,"","N","Y","N","N","N","N","N","N","N","N","N","N","N","N","N","N","Y","Y","N","","","","","","","","N","Y","203(L)","N","Y","Y"
1929230,206265,"500 STARTUPS IV, L.L.C.","500 STARTUPS IV, L.L.C.","",,"","N","Y","N","N","N","N","N","N","N","N","N","N","N","N","N","Y","N","Y","N","","","","","","","","N","Y","203(L)","N","Y","Y"
1929230,170038,"500 MOBILE COLLECTIVE, L.L.C.","500 MOBILE COLLECTIVE, L.L.C.","",,"","N","Y","N","N","N","N","N","N","N","N","N","N","N","N","N","Y","N","Y","N","","","","","","","","N","Y","203(L)","N","Y","Y"
1929230,206267,"500 TUKTUKS GP, LTD.","500 TUKTUKS GP, LTD.","",,"","N","Y","N","N","N","N","N","N","N","N","N","N","N","N","N","Y","N","Y","N","","","","","","","","N","Y","203(L)","N","Y","N"
1929230,206264,"500 STARTUPS JP, L.L.C.","500 STARTUPS JP, L.L.C.","",,"","N","Y","N","N","N","N","N","N","N","N","N","N","N","N","N","Y","N","Y","N","","","","","","","","N","Y","203(L)","Y","Y","Y"
1929230,259827,"500 TUKTUKS II, L.L.C.","500 TUKTUKS II, L.L.C.","",,"","N","Y","N","N","N","N","N","N","N","N","N","N","N","N","N","Y","N","Y","N","","","","","","","","N","Y","203(L)","N","Y","Y"
1929230,259829,"500 DURIANS GROWTH FUND I, L.L.C.","500 DURIANS GROWTH FUND I, L.L.C.","",,"","N","Y","N","N","N","N","N","N","N","N","N","N","N","N","N","Y","N","Y","N","","","","","","","","N","Y","203(L)","Y","Y","Y"
1929230,231971,"500 FINTECH, L.L.C.","500 FINTECH, L.L.C.","",,"","N","Y","N","N","N","N","N","N","N","N","N","N","N","N","N","Y","N","Y","N","","","","","","","","N","Y","203(L)","N","Y","Y"
1929230,157005,"500 STARTUPS, L.L.C.","500 STARTUPS, L.L.C.","",,"","N","Y","N","N","N","N","N","N","N","N","N","N","N","N","N","Y","N","Y","N","","","","","","","","N","Y","203(L)","Y","Y","Y"
1929230,206266,"500 TUKTUKS GP, L.P.","500 TUKTUKS GP, L.P.","",,"","N","Y","N","N","N","N","N","N","N","N","N","N","N","N","N","Y","N","Y","N","","","","","","","","N","Y","203(L)","N","Y","N"
1929230,171676,"500 DIABLOS, LLC","500 DIABLOS, LLC","",,"","N","N","N","N","N","N","N","N","N","N","N","N","N","N","N","Y","N","Y","N","","","","","","","","N","Y","203(L)","N","Y","Y"
1929230,320974,"500 GLOBAL ACCELERATOR FUND I, L.L.C.","500 GLOBAL ACCELERATOR FUND I, L.L.C.","",,"","N","Y","N","N","N","N","N","N","N","N","N","N","N","N","N","Y","N","Y","N","","","","","","","","N","Y","203(L)","N","Y","Y"
1929230,320969,"500 SOUTHEAST ASIA SPV II, L.L.C.","500 SOUTHEAST ASIA SPV II, L.L.C.","",,"","N","Y","N","N","N","N","N","N","N","N","N","N","N","N","N","Y","N","Y","N","","","","","","","","N","Y","203(L)","N","Y","Y"
1929230,320058,"500 GLOBAL SPV I, L.L.C.","500 GLOBAL SPV I, L.L.C.","",,"","N","Y","N","N","N","N","N","N","N","N","N","N","N","N","N","Y","N","Y","N","","","","","","","","N","Y","203(L)","N","Y","Y"
1929230,320978,"ORZON VENTURES, L.L.C.","ORZON VENTURES, L.L.C.","",,"","N","Y","N","N","N","N","N","N","N","N","N","N","N","N","N","Y","N","Y","N","","","","","","","","N","Y","203(L)","N","Y","Y"
1929230,157362,"500 STARTUPS III, L.L.C.","500 STARTUPS III, L.L.C.","",,"","N","Y","N","N","N","N","N","N","N","N","N","N","N","N","N","Y","N","Y","N","","","","","","","","N","Y","203(L)","Y","Y","Y"
1929230,157364,"500 STARTUPS ANNEX, L.L.C.","500 STARTUPS ANNEX, L.L.C.","",,"","N","Y","N","N","N","N","N","N","N","N","N","N","N","N","N","Y","N","Y","N","","","","","","","","N","Y","203(L)","N","Y","Y"
1929230,299795,"500 STARTUPS FUND OPS, L.L.C.","500 STARTUPS FUND OPS, L.L.C.","",,"","N","Y","N","N","N","N","N","N","N","N","N","N","N","N","N","Y","N","Y","N","","","","","","","","N","Y","203(L)","N","Y","Y"
1929230,231969,"500 FALCONS, L.L.C","500 FALCONS, L.L.C.","",,"","N","Y","N","N","N","N","N","N","N","N","N","N","N","N","N","Y","N","Y","N","","","","","","","","N","Y","203(L)","N","Y","Y"
1929230,233490,"SMARTHR SPV, L.L.C.","SMARTHR SPV, L.L.C.","",,"","N","Y","N","N","N","N","N","N","N","N","N","N","N","N","N","Y","N","Y","N","","","","","","","","N","Y","203(L)","Y","Y","Y"
1929230,232009,"500 STARTUPS MANAGEMENT COMPANY SINGAPORE PTE LTD","500 STARTUPS MANAGEMENT COMPANY SINGAPORE PTE LTD","802-112804",292515,"","N","Y","N","N","N","N","N","N","N","N","N","N","N","N","N","N","Y","Y","N","","","","","","","","N","Y","203(L)","Y","Y","N"
1929230,157370,"500 LUCHADORES, L.L.C.","500 LUCHADORES, L.L.C.","",,"","N","Y","N","N","N","N","N","N","N","N","N","N","N","N","N","Y","N","Y","N","","","","","","","","N","Y","203(L)","N","Y","Y"
1929230,322396,"500 MENA ACCELERATOR I, L.L.C.","500 MENA ACCELERATOR I, L.L.C.","",,"","N","Y","N","N","N","N","N","N","N","N","N","N","N","N","N","Y","N","Y","N","","","","","","","","N","Y","203(L)","N","Y","Y"
1929230,222143,"ACELERADORA 500 LUCHADORES S.A., DE C.V.","ACELERADORA 500 LUCHADORES S.A., DE C.V.","802-112803",292514,"","N","Y","N","N","N","N","N","N","N","N","N","N","N","N","N","N","Y","Y","N","","","","","","","","N","Y","203(L)","N","Y","N"
1929230,218777,"500 STARTUPS ISTANBUL, L.L.C.","500 STARTUPS ISTANBUL, L.L.C.","",,"","N","Y","N","N","N","N","N","N","N","N","N","N","N","N","N","Y","N","Y","N","","","","","","","","N","Y","203(L)","N","Y","Y"
1929230,218778,"500 DURIANS II, L.L.C.","500 DURIANS II, L.L.C.","",,"","N","Y","N","N","N","N","N","N","N","N","N","N","N","N","N","Y","N","Y","N","","","","","","","","N","Y","203(L)","N","Y","Y"
1929230,218776,"500 LUCHADORES II, L.L.C.","500 LUCHADORES II, L.L.C.","",,"","N","Y","N","N","N","N","N","N","N","N","N","N","N","N","N","Y","N","Y","N","","","","","","","","N","Y","203(L)","N","Y","Y"
1929230,369899,"500 MENA ACCELERATOR II, L.L.C.","500 MENA ACCELERATOR II, L.L.C.","",,"","N","Y","N","N","N","N","N","N","N","N","N","N","N","N","N","Y","N","Y","N","","","","","","","","N","Y","203(L)","N","Y","Y"
1929230,369900,"500 LATAM SEED IV, L.L.C.","500 LATAM SEED IV, L.L.C.","",,"","N","Y","N","N","N","N","N","N","N","N","N","N","N","N","N","Y","N","Y","N","","","","","","","","N","Y","203(L)","N","Y","Y"
1929230,369907,"500 SOUTHEAST ASIA SPV III, L.L.C.","500 SOUTHEAST ASIA SPV III, L.L.C.","",,"","N","Y","N","N","N","N","N","N","N","N","N","N","N","N","N","Y","N","Y","N","","","","","","","","N","Y","203(L)","N","Y","N"
1929230,222316,"500 STARTUPS CANADA MANAGEMENT COMPANY, INC.","500 STARTUPS CANADA MANAGEMENT COMPANY, INC.","802-110576",288002,"","N","Y","N","N","N","N","N","N","N","N","N","N","N","N","N","N","N","N","N","","","","","","","","N","Y","203(L)","N","Y","N"
1929230,369898,"500 GLOBAL FLAGSHIP VI, L.L.C.","500 GLOBAL FLAGSHIP VI, L.L.C.","",,"","N","Y","N","N","N","N","N","N","N","N","N","N","N","N","N","Y","N","Y","N","","","","","","","","N","Y","203(L)","N","Y","Y"
1929230,322630,"500 DURIANS, L.L.C.","500 DURIANS, L.L.C.","",,"","N","Y","N","N","N","N","N","N","N","N","N","N","N","N","N","Y","N","Y","N","","","","","","","","N","Y","203(L)","Y","Y","Y"
1929230,321029,"500 BL CARRY, L.L.C.","500 BL CARRY, L.L.C.","",,"","N","N","N","N","N","N","N","N","N","N","N","N","N","N","N","Y","N","Y","N","","","","","","","","N","Y","203(L)","N","Y","Y"
1929230,320998,"500 SPV PTECH 1, L.L.C.","500 SPV PTECH 1, L.L.C.","",,"","N","N","N","N","N","N","N","N","N","N","N","N","N","N","N","Y","N","Y","N","","","","","","","","N","Y","203(L)","N","Y","Y"
1929230,206262,"500 KIMCHI, L.L.C","500 KIMCHI, L.L.C","",,"","N","Y","N","N","N","N","N","N","N","N","N","N","N","N","N","Y","N","Y","N","","","","","","","","N","Y","203(L)","N","Y","Y"
1929230,299726,"500 SOUTHEAST ASIA III, L.L.C.","500 SOUTHEAST ASIA III, L.L.C.","",,"","N","Y","N","N","N","N","N","N","N","N","N","N","N","N","N","Y","N","Y","N","","","","","","","","N","Y","203(L)","N","Y","Y"
1929230,283173,"500 STARTUPS KOREA II, L.L.C.","500 STARTUPS KOREA II, L.L.C.","",,"","N","Y","N","N","N","N","N","N","N","N","N","N","N","N","N","Y","N","Y","N","","","","","","","","N","Y","203(L)","N","Y","Y"
1929230,283181,"500 LUCHADORES III, L.L.C.","500 LUCHADORES III, L.L.C.","",,"","N","Y","N","N","N","N","N","N","N","N","N","N","N","N","N","Y","N","Y","N","","","","","","","","N","Y","203(L)","N","Y","Y"
1929230,283126,"500 STARTUPS V, L.L.C.","500 STARTUPS V, L.L.C.","",,"","N","Y","N","N","N","N","N","N","N","N","N","N","N","N","N","Y","N","Y","N","","","","","","","","N","Y","203(L)","N","Y","Y"
1929230,369904,"500 KOREA III, L.L.C.","500 KOREA III, L.L.C.","",,"","N","Y","N","N","N","N","N","N","N","N","N","N","N","N","N","Y","N","Y","N","","","","","","","","N","Y","203(L)","N","Y","N"
1929230,157359,"500 STARTUPS II, L.L.C.","500 STARTUPS II, L.L.C.","",,"","N","Y","N","N","N","N","N","N","N","N","N","N","N","N","N","Y","N","Y","N","","","","","","","","N","Y","203(L)","Y","Y","Y"
1929230,369902,"500 GLOBAL MANAGEMENT KOREA LC","500 GLOBAL MANAGEMENT KOREA LC","",,"","N","Y","N","N","N","N","N","N","N","N","N","N","N","N","N","Y","N","Y","N","","","","","","","","N","Y","203(L)","Y","Y","N"
1929230,369906,"ENDAU CAPITAL SDN. BHN.","ENDAU CAPITAL SDN. BHN.","",,"","N","Y","N","N","N","N","N","N","N","N","N","N","N","N","N","Y","N","Y","N","","","","","","","","N","Y","203(L)","N","Y","N"
1929543,233266,"VANGUARD INVESTMENTS UK, LIMITED","VANGUARD INVESTMENTS UK, LIMITED","802-108191",283775,"","N","Y","N","N","N","N","N","N","N","N","N","N","N","N","N","Y","N","Y","N","","","","","","","","N","Y","PRIVATE FUND ADVISER EXEMPTION","Y","Y","N"
1929543,233265,"VANGUARD ASSET MANAGEMENT, LIMITED","VANGUARD ASSET MANAGEMENT, LIMITED","801-107653",282598,"","N","Y","N","N","N","N","N","N","N","N","N","N","N","N","N","Y","N","Y","N","","","","","","","","N","Y","FOREIGN PRIVATE ADVISER EXEMPTION","Y","Y","N"
1929543,301855,"VGIM, S.A. DE C.V., ASESOR EN INVERSIONES INDEPENDIENTE","VANGUARD MXICO","",,"","N","Y","N","N","N","N","N","N","N","N","N","N","N","N","N","Y","N","Y","N","","","","","","","","N","Y","FOREIGN PRIVATE ADVISER EXEMPTION","Y","N","N"
1929543,233263,"VANGUARD GLOBAL ADVISERS, LLC","VANGUARD GLOBAL ADVISERS, LLC","801-76825",164593,"","N","Y","N","N","N","N","N","N","N","N","N","N","N","N","N","N","N","Y","N","","","","","","","","N","N","","N","Y","N"
1929543,233262,"THE VANGUARD GROUP, INC.","VANGUARD GROUP INC","801-11953",105958,"","N","Y","N","N","N","Y","N","N","N","N","N","N","N","N","N","Y","Y","N","N","","","","","","","","N","N","","N","N","N"
1929543,348686,"VANGUARD SUPER PTY LTD.","VANGUARD SUPER PTY LTD.","",,"","N","N","N","N","N","N","N","N","Y","N","N","N","Y","N","N","N","N","Y","N","","","","","","","","N","N","","Y","N","N"
1929543,351423,"VANGUARD MARKETING CORPORATION","VANGUARD MARKETING CORPORATION","8-21570",7452,"","Y","N","N","N","N","N","N","N","N","N","N","N","N","N","N","N","N","Y","N","","","","","","","","N","","","N","Y","N"
1929543,351396,"VANGUARD INVESTMENTS CANADA INC.","VANGUARD INVESTMENTS CANADA INC.","802-107926",283519,"","Y","Y","N","N","N","Y","N","N","N","N","N","N","N","N","N","Y","N","Y","N","","","","","","","","N","Y","PRIVATE FUND ADVISER EXEMPTION","Y","Y","N"
1929543,348685,"VANGUARD GROUP EUROPE GMBH","VANGUARD GROUP EUROPE GMBH","",,"","Y","N","N","N","N","N","N","Y","N","N","N","N","N","N","N","N","N","Y","N","","","","","","","","N","N","","Y","N","N"
1929543,348928,"VGI INSURANCE, INC.","VGI INSURANCE, INC.","",,"","N","N","N","N","N","N","N","N","N","N","N","Y","N","N","N","N","N","Y","N","","","","","","","","N","","","N","N","N"
1929543,233264,"VANGUARD INVESTMENTS AUSTRALIA LIMITED","VANGUARD INVESTMENTS AUSTRALIA LIMITED","801-107761",282933,"","N","Y","N","N","N","N","N","N","N","N","N","N","N","N","N","Y","N","Y","N","","","","","","","","N","Y","FOREIGN PRIVATE ADVISER EXEMPTION","Y","Y","N"
1929293,214142,"JETSTREAM PARTNERS LLC","JETSTREAM PARTNERS LLC","CIK # 0001678780",,"","N","N","N","N","N","N","N","N","N","N","N","N","N","N","N","Y","N","Y","N","","","","","","","","N","","","N","Y","Y"
1933732,251189,"HNVR TECHNOLOGY INVESTMENT GP, LLC","HNVR TECHNOLOGY INVESTMENT GP, LLC","",,"","N","N","N","N","N","N","N","N","N","N","N","N","N","N","N","Y","N","Y","N","","","","","","","","N","Y","VENTURE CAPITAL FUND EXEMPTION","N","Y","Y"
1908507,382023,"URBANSTONE REAL ESTATE ADVISORS LLC","URBANSTONE REAL ESTATE ADVISORS","",,"","N","N","N","N","N","N","N","N","N","N","N","N","N","Y","N","N","N","Y","N","","","","","","","","N","","","N","Y","Y"
1930641,378959,"E12 VENTURE CAPITAL, LLC","E12 VENTURE CAPITAL, LLC","802-127809",325056,"","N","Y","N","N","N","N","N","N","N","N","N","N","N","N","N","N","N","N","N","","","","","","","","N","Y","VENTURE CAPITAL FUND AS DEFINED IN RULE 203 (L)-1","Y","N","N"
1925594,327820,"DESTINATION PARTNERS (SHANGHAI) LIMITED","DESTINATION PARTNERS (SHANGHAI) LIMITED","",,"","N","Y","N","N","N","N","N","N","N","N","N","N","N","N","N","N","N","N","N","","","","","","","","N","Y","RULE 203(M)-1","N","Y","N"
1927329,384171,"VICKERS CO-INVESTMENT PARTNERS LTD","VICKERS CO-INVESTMENT PARTNERS LTD","",,"","N","N","N","N","N","N","N","N","N","N","N","N","N","N","N","Y","N","Y","N","","","","","","","","N","","","N","Y","N"
1927329,345077,"VICKERS VENTURE PARTNERS (S) PTE LTD","VICKERS VENTURE PARTNERS","802-117965",305848,"","N","Y","N","N","N","N","N","N","N","N","N","N","N","N","N","N","N","Y","N","","","","","","","","N","Y","VENTURE CAPITAL FUND ADVISER","Y","Y","N"
1927329,343795,"VICKERS VENTURE PARTNERS VI (EU) SARL","VICKERS VENTURE PARTNERS VI (EU) SARL","",,"","N","N","N","N","N","N","N","N","N","N","N","N","N","N","N","Y","N","Y","N","","","","","","","","N","","","N","Y","N"
1927329,343796,"VICKERS VENTURE PARTNERS II LTD (CAYMAN)","VICKERS VENTURE PARTNERS II LTD (CAYMAN)","",,"","N","N","N","N","N","N","N","N","N","N","N","N","N","N","N","Y","N","Y","N","","","","","","","","N","","","N","Y","N"
1927329,344835,"V V P ADVISORS (HONG KONG) LIMITED","V V P ADVISORS (HONG KONG) LIMITED","",,"","N","Y","N","N","N","N","N","N","N","N","N","N","N","N","N","N","N","Y","N","","","","","","","","N","Y","FOREIGN PRIVATE ADVISER","N","Y","N"
1927329,344836,"VVP ADVISORS (UK) LTD","VVP ADVISORS (UK) LTD","",,"","N","Y","N","N","N","N","N","N","N","N","N","N","N","N","N","N","N","Y","N","","","","","","","","N","Y","FOREIGN PRIVATE ADVISER","N","Y","N"
1927329,343797,"VICKERS VENTURE PARTNERS III LTD (CAYMAN)","VICKERS VENTURE PARTNERS III LTD (CAYMAN)","",,"","N","N","N","N","N","N","N","N","N","N","N","N","N","N","N","Y","N","Y","N","","","","","","","","N","","","N","Y","N"
1927329,343800,"VICKERS VENTURE PARTNERS V LTD (CAYMAN)","VICKERS VENTURE PARTNERS V LTD (CAYMAN)","",,"","N","N","N","N","N","N","N","N","N","N","N","N","N","N","N","Y","N","Y","N","","","","","","","","N","","","N","Y","N"
1927329,343801,"VICKERS VENTURE PARTNERS VI (CI) LTD","VICKERS VENTURE PARTNERS VI (CI) LTD","",,"","N","N","N","N","N","N","N","N","N","N","N","N","N","N","N","Y","N","Y","N","","","","","","","","N","","","N","Y","N"
1927329,343799,"VICKERS VENTURE PARTNERS IV LTD (CAYMAN)","VICKERS VENTURE PARTNERS IV LTD (CAYMAN)","",,"","N","N","N","N","N","N","N","N","N","N","N","N","N","N","N","Y","N","Y","N","","","","","","","","N","","","N","Y","N"
1915511,258356,"GP4","GP4","",,"","N","Y","N","N","N","N","N","N","N","N","N","N","N","N","N","N","Y","Y","N","","","","","","","","N","Y","VENTURE CAPITAL EXEMPTION","N","Y","Y"
1915511,280997,"GP 7","GP 7","",,"","N","Y","N","N","N","N","N","N","N","N","N","N","N","N","N","N","Y","Y","N","","","","","","","","N","Y","VENTURE CAPITAL EXEMPTION","N","Y","Y"
1915511,132948,"GP 6","GP 6","",,"","N","Y","N","N","N","N","N","N","N","N","N","N","N","N","N","N","Y","Y","N","","","","","","","","N","Y","VENTURE CAPITAL EXEMPTION","N","Y","Y"
1915511,132950,"GP 2","GP 2","",,"","N","Y","N","N","N","N","N","N","N","N","N","N","N","N","N","N","Y","Y","N","","","","","","","","N","Y","VENTURE CAPITAL EXEMPTION","N","Y","Y"
1915511,132942,"GP 5","GP 5","",,"","N","Y","N","N","N","N","N","N","N","N","N","N","N","N","N","N","Y","Y","N","","","","","","","","N","Y","VENTURE CAPITAL EXEMPTION","N","Y","Y"
1915511,132949,"GP 3","GP 3","",,"","N","Y","N","N","N","N","N","N","N","N","N","N","N","N","N","N","Y","Y","N","","","","","","","","N","Y","VENTURE CAPITAL EXEMPTION","N","Y","Y"
1924276,336777,"ARKENSTONE US, LLC","ARKENSTONE US","",,"","N","Y","N","N","N","N","N","N","N","N","N","N","N","N","N","N","N","Y","N","","","","","","","","N","Y","ACT SECTION 203A","N","Y","N"
1924276,336778,"ARKENSTONE SERVICES LIMITED","ARKENSTONE SERVICES","",,"","N","N","N","N","N","N","N","N","N","N","N","N","N","N","N","Y","N","Y","N","","","","","","","","N","","","N","N","N"
1924276,311660,"ARKENSTONE GP I LIMITED","ARKENSTONE GP I","",,"","N","N","N","N","N","N","N","N","N","N","N","N","N","N","N","Y","N","Y","N","","","","","","","","N","","","N","N","N"
1924276,336776,"THE ARKENSTONE GROUP LLP","THE ARKENSTONE GROUP","",,"","N","Y","N","N","N","N","N","N","N","N","N","N","N","N","N","N","N","Y","N","","","","","","","","N","Y","ACT SECTION 203(B)(3)","N","Y","N"
1924276,291037,"EREBOR GP LIMITED","EREBOR GP","",,"","N","N","N","N","N","N","N","N","N","N","N","N","N","N","N","Y","N","Y","N","","","","","","","","N","","","N","N","N"
1919024,383714,"THISTLE CREEK QOF I GP, LLC","THISTLE CREEK QOF I GP, LLC","",,"","N","N","N","N","N","N","N","N","N","N","N","N","N","N","N","Y","N","Y","N","","","","","","","","N","","","N","Y","Y"
1919024,376920,"TCP GP, LLC","TCP GP, LLC","",,"","N","N","N","N","N","N","N","N","N","N","N","N","N","N","N","Y","N","Y","N","","","","","","","","N","","","N","Y","Y"
1925186,219630,"CALUNIUS GP3 LIMITED","CALUNIUS GP3 LIMITED","CALUNIUS",,"","N","N","N","N","N","N","N","N","N","N","N","N","N","N","N","Y","N","Y","N","","","","","","","","N","N","","Y","Y","N"
1925186,281409,"CALUNIUS SPECIAL OPPORTUNITIES GP LIMITED","CALUNIUS SPECIAL OPPORTUNITIES GP LIMITED","CALUNIUS",,"","N","N","N","N","N","N","N","N","N","N","N","N","N","N","N","Y","N","Y","N","","","","","","","","N","N","","N","Y","N"
1918831,383506,"38 HILL STREET MAYFAIR LLC","38 HILL STREET MAYFAIR LLC","",,"","N","N","N","N","N","N","N","N","N","N","N","N","N","N","N","Y","Y","N","N","","","","","","","","N","","","N","Y","N"
1922173,381747,"SIMON E CARLO","SIMON E CARLO","",,"","N","N","N","N","N","N","N","N","N","Y","Y","N","N","N","N","N","Y","N","N","","","","","","","","N","","","N","N","N"
1922173,381748,"ANTHONY O MACEIRA","ANTHONY O MACEIRA","",,"","N","N","N","N","N","N","N","N","N","N","Y","N","N","N","N","N","Y","N","N","","","","","","","","N","","","N","N","N"
1922173,381746,"MZLS LLC","MZLS LLC","",,"","N","N","N","N","N","N","N","N","N","N","Y","N","N","N","N","N","N","Y","N","","","","","","","","N","","","N","N","Y"
1922173,381787,"STRATAGEM CAPITAL GP LLC","STRATAGEM CAPITAL GP LLC","",,"","N","N","N","N","N","N","N","N","N","N","N","N","N","N","N","Y","N","Y","N","","","","","","","","N","","","N","N","Y"
1922171,382917,"AVENDUS FINANCE PRIVATE LIMITED","AVENDUS FINANCE PRIVATE LIMITED","",,"","N","N","N","N","N","N","N","Y","N","N","N","N","N","N","N","N","N","Y","N","","","","","","","","N","","","Y","Y","Y"
1922171,383064,"AVENDUS CAPITAL PUBLIC MARKETS ALTERNATE STRATEGIES LLP","AVENDUS CAPITAL PUBLIC MARKETS ALTERNATE STRATEGIES LLP","",,"","N","Y","N","N","N","N","N","N","N","N","N","N","N","N","N","Y","N","Y","N","","","","","","","","N","Y","FOREIGN PRIVATE ADVISER EXEMPTION","Y","Y","Y"
1922171,382911,"AVENDUS WEALTH MANAGEMENT PRIVATE LIMITED","AVENDUS WEALTH MANAGEMENT PRIVATE LIMITED","801-72264",156771,"","N","Y","N","N","N","N","N","N","N","N","N","N","N","N","N","N","N","Y","N","","","","","","","","N","N","","Y","Y","Y"
1922171,382912,"AVENDUS INVESTMENT MANAGERS PRIVATE LIMITED","AVENDUS INVESTMENT MANAGERS PRIVATE LIMITED","",,"","N","Y","N","N","N","N","N","N","N","N","N","N","N","N","N","Y","N","Y","N","","","","","","","","N","Y","FOREIGN PRIVATE ADVISER EXEMPTION","Y","Y","Y"
1922171,382913,"AVENDUS CAPITAL, INC.","AVENDUS CAPITAL, INC.","",150160,"","Y","Y","N","N","N","N","N","N","N","N","N","N","N","N","N","N","N","Y","N","","","","","","","","N","N","","N","Y","N"
1922171,382914,"AVEZO ADVISORS PRIVATE LIMITED","AVEZO ADVISORS PRIVATE LIMITED","",,"","N","N","N","N","N","N","N","N","N","N","N","N","N","N","N","Y","N","Y","N","","","","","","","","N","","","Y","Y","Y"
1922171,382915,"SPARK INSTITUTIONAL EQUITIES PRIVATE LIMITED","SPARK INSTITUTIONAL EQUITIES PRIVATE LIMITED","",,"","Y","N","N","N","N","N","N","N","N","N","N","N","N","N","N","N","N","Y","N","","","","","","","","N","","","Y","Y","Y"
1922171,382910,"AVENDUS CAPITAL PTE. LTD.","AVENDUS CAPITAL PTE. LTD.","802-126344",321058,"","N","Y","N","N","N","N","N","N","N","N","N","N","N","N","N","Y","N","Y","N","","","","","","","","N","Y","PRIVATE FUND ADVISER EXEMPTION","Y","Y","N"
1922171,383065,"AVENDUS CAPITAL PRIVATE LIMITED","AVENDUS CAPITAL PRIVATE LIMITED","",,"","N","Y","N","N","N","N","N","N","N","N","N","N","N","N","N","Y","Y","Y","N","","","","","","","","N","N","","Y","Y","Y"
1901771,291327,"PRESERVATION CAPITAL PARTNERS FUND I GP LIMITED","PRESERVATION CAPITAL PARTNERS FUND I GP LIMITED","",,"","N","N","N","N","N","Y","N","N","N","N","N","N","N","N","N","Y","N","Y","N","","","","","","","","N","","","Y","Y","Y"
1901771,312623,"PRESERVATION CAPITAL PARTNERS FUND II GP LIMITED","PRESERVATION CAPITAL PARTNERS FUND II GP LIMITED","",,"","N","N","N","N","N","Y","N","N","N","N","N","N","N","N","N","Y","N","Y","N","","","","","","","","N","","","Y","Y","Y"
1901771,357805,"PRESERVATION CAPITAL PARTNERS CO-INVEST GP LIMITED","PRESERVATION CAPITAL PARTNERS CO-INVEST GP LIMITED","",,"","N","N","N","N","N","N","N","N","N","N","N","N","N","N","N","Y","N","Y","N","","","","","","","","N","","","N","Y","N"
1925579,358308,"SYMMETRY INVESTMENTS US LLC","SYMMETRY INVESTMENTS US LLC","801-128668",317755,"","N","Y","N","N","N","Y","N","N","N","N","N","N","N","N","N","N","N","Y","N","","","","","","","","N","N","","N","Y","N"
1925579,308056,"SYMMETRY INVESTMENTS SINGAPORE PRIVATE LIMITED","SYMMETRY INVESTMENTS SINGAPORE PRIVATE LIMITED","802-114257",299056,"","N","Y","N","N","N","Y","N","N","N","N","N","N","N","N","N","N","N","Y","N","","","","","","","","N","Y","203 (M), US INVESTMENT ADVISERS ACT OF 1940","Y","Y","N"
1925579,308057,"SYMMETRY INVESTMENTS (HONG KONG) LIMITED","SYMMETRY INVESTMENTS (HONG KONG) LIMITED","802-80047",171483,"","N","Y","N","N","N","Y","N","N","N","N","N","N","N","N","N","N","N","Y","N","","","","","","","","N","Y","203 (M), US INVESTMENT ADVISERS ACT OF 1940","Y","Y","N"
1925579,308046,"SYMMETRY INVESTMENTS LP","SYMMETRY INVESTMENTS LP","802-80046",171484,"","N","Y","N","N","N","Y","N","N","N","N","N","N","N","N","N","N","Y","Y","N","","","","","","","","N","Y","203 (M), US INVESTMENT ADVISERS ACT OF 1940","Y","Y","N"
1925579,372490,"SYMMETRY INVESTMENTS CAYMAN LIMITED","SYMMETRY INVESTMENTS CAYMAN LIMITED","802-129600",329733,"","N","Y","N","N","N","Y","N","N","N","N","N","N","N","N","N","N","N","Y","N","","","","","","","","N","Y","203 (M), US INVESTMENT ADVISERS ACT OF 1940","Y","Y","N"
1925579,308058,"SYMMETRY INVESTMENTS UK LLP","SYMMETRY INVESTMENTS UK LLP","802-80045",171476,"","N","Y","N","N","N","Y","N","N","N","N","N","N","N","N","N","N","N","Y","N","","","","","","","","N","Y","203 (M), US INVESTMENT ADVISERS ACT OF 1940","Y","Y","N"
1925583,362588,"SYMMETRY INVESTMENTS (HONG KONG) LIMITED","SYMMETRY INVESTMENTS (HONG KONG) LIMITED","802-80047",171483,"","N","Y","N","N","N","Y","N","N","N","N","N","N","N","N","N","N","N","Y","N","","","","","","","","N","Y","203 (M), US INVESTMENT ADVISERS ACT OF 1940","Y","Y","N"
1925583,362589,"SYMMETRY INVESTMENTS LP","SYMMETRY INVESTMENTS LP","802-80046",171484,"","N","Y","N","N","N","Y","N","N","N","N","N","N","N","N","N","N","Y","Y","N","","","","","","","","N","Y","203 (M), US INVESTMENT ADVISERS ACT OF 1940","Y","Y","N"
1925583,362590,"SYMMETRY INVESTMENTS UK LLP","SYMMETRY INVESTMENTS UK LLP","802-80045",171476,"","N","Y","N","N","N","Y","N","N","N","N","N","N","N","N","N","N","N","Y","N","","","","","","","","N","Y","203 (M), US INVESTMENT ADVISERS ACT OF 1940","Y","Y","N"
1925583,362586,"SYMMETRY INVESTMENTS US LLC","SYMMETRY INVESTMENTS US LLC","801-128668",317755,"","N","Y","N","N","N","Y","N","N","N","N","N","N","N","N","N","N","N","Y","N","","","","","","","","N","N","","N","Y","N"
1925583,362587,"SYMMETRY INVESTMENTS SINGAPORE PRIVATE LIMITED","SYMMETRY INVESTMENTS SINGAPORE PRIVATE LIMITED","802-114257",299056,"","N","Y","N","N","N","Y","N","N","N","N","N","N","N","N","N","N","N","Y","N","","","","","","","","N","Y","203 (M), US INVESTMENT ADVISERS ACT OF 1940","Y","Y","N"
1925583,362585,"SYMMETRY INVESTMENTS JERSEY LIMITED","SYMMETRY INVESTMENTS JERSEY LIMITED","802-121607",314983,"","N","Y","N","N","N","Y","N","N","N","N","N","N","N","N","N","N","N","Y","N","","","","","","","","N","Y","203 (M), US INVESTMENT ADVISERS ACT OF 1940","Y","Y","N"
1922159,383917,"COMMONWEAL VENTURES FUND I GP, LLC","COMMONWEAL VENTURES FUND I GP, LLC","",,"","N","N","N","N","N","N","N","N","N","N","N","N","N","N","N","Y","N","Y","N","","","","","","","","N","","","N","Y","Y"
1922807,266809,"VINCI GGN GESTO DE RECURS OS LTDA.","VINCI GGN GESTO DE RECURS OS LTDA.","",,"","N","Y","N","N","N","N","N","N","N","N","N","N","N","N","N","N","N","Y","N","","","","","","","","N","N","","Y","Y","Y"
1922807,127378,"VINCI EQUITIES GESTORA DE RECURSOS LTDA.","VINCI EQUITIES GESTORA DE RECURSOS LTDA.","",,"","N","Y","N","N","N","N","N","N","N","N","N","N","N","N","N","N","N","Y","N","","","","","","","","N","Y","SECTION 203(B)(3) OF THE INVESTMENT ADVISERS ACT","Y","Y","Y"
1922807,266810,"VINCI INFRAESTRUTURA GESTO RA DE RECURSOS LTDA.","VINCI INFRAESTRUTURA GESTO RA DE RECURSOS LTDA.","",,"","N","Y","N","N","N","N","N","N","N","N","N","N","N","N","N","N","N","Y","N","","","","","","","","N","Y","SECTION 203(B)(3) OF THE INVESTMENT ADVISERS ACT","Y","Y","Y"
1922807,266807,"VINCI CAPITAL PARTNERS GP II LIMITED (CAYMAN - GP VCP II)","VINCI CAPITAL PARTNERS GP II LIMITED (CAYMAN - GP VCP II)","",,"","N","N","N","N","N","N","N","N","N","N","N","N","N","N","N","Y","N","Y","N","","","","","","","","N","","","N","N","Y"
1922807,353053,"VINCI ASSESSORIA FINANCEIRA LTDA.","VINCI ASSESSORIA FINANCEIRA LTDA.","",,"","Y","N","N","N","N","N","N","N","N","N","N","N","N","N","N","N","N","Y","N","","","","","","","","N","","","Y","N","N"
1922807,353055,"SPS CAPITAL GESTO DE RECURSOS LTDA.","SPS CAPITAL GESTO DE RECURSOS LTDA.","",,"","N","Y","N","N","N","N","N","N","N","N","N","N","N","N","N","N","N","Y","N","","","","","","","","N","N","","Y","N","N"
1922807,127369,"VINCI SOLUES DE INVESTIMENTOS GESTORA DE RECURSOS LTDA.","VINCI SOLUES DE INVESTIMENTOS GESTORA DE RECURSOS LTDA.","",,"","N","Y","N","N","N","N","N","N","N","N","N","N","N","N","N","N","N","Y","N","","","","","","","","N","Y","SECTION 203(B)(3) OF THE INVESTMENT ADVISERS ACT","Y","Y","Y"
1922807,266806,"VINCI CAPITAL PARTNERS GP III LIMITED (CAYMAN - GP VCP III)","VINCI CAPITAL PARTNERS GP III LIMITED (CAYMAN - GP VCP III)","",,"","N","N","N","N","N","N","N","N","N","N","N","N","N","N","N","Y","N","Y","N","","","","","","","","N","","","N","N","Y"
1922807,127374,"VINCI GESTORA DE RECURSOS LTDA.","VINCI GESTORA DE RECURSOS LTDA.","",,"","N","Y","N","N","N","N","N","N","N","N","N","N","N","N","N","N","N","Y","N","","","","","","","","N","Y","SECTION 203(B)(3) OF THE INVESTMENT ADVISERS ACT","Y","Y","Y"
1922807,331495,"VINCI ASSET ALLOCATION LTDA.","VINCI ASSET ALLOCATION LTDA.","",,"","N","Y","N","N","N","N","N","N","N","N","N","N","N","N","N","N","N","Y","N","","","","","","","","N","Y","SECTION 203(B)(3) OF THE INVESTMENT ADVISERS ACT","Y","N","Y"
1922807,347190,"VINCI VIDA E PREVIDNCIA S/A","VINCI VIDA E PREVIDNCIA S/A","",,"","N","N","N","N","N","N","N","N","N","N","N","Y","N","N","N","N","N","Y","N","","","","","","","","N","","","Y","N","N"
1922807,127389,"VINCI REAL ESTATE GESTORA DE RECURSOS LTDA.","VINCI REAL ESTATE GESTORA DE RECURSOS LTDA.","",,"","N","Y","N","N","N","N","N","N","N","N","N","N","N","N","N","N","N","Y","N","","","","","","","","N","Y","SECTION 203(B)(3) OF THE INVESTMENT ADVISERS ACT","Y","Y","Y"
1922807,266804,"VINCI PARTNERS USA LLC","VINCI PARTNERS USA","801-77895",162399,"","N","Y","N","N","N","N","N","N","N","N","N","N","N","N","N","N","N","Y","N","","","","","","","","N","N","","N","N","N"
1922807,376328,"GGN GP LLC","GGN GP LLC","",,"","N","N","N","N","N","N","N","N","N","N","N","N","N","N","N","Y","N","Y","N","","","","","","","","N","","","N","N","N"
1922807,376329,"VINCI CAPITAL PARTNERS IV GP LLC","VINCI CAPITAL PARTNERS IV GP LLC","",,"","N","N","N","N","N","N","N","N","N","N","N","N","N","N","N","Y","N","Y","N","","","","","","","","N","","","N","N","N"
1922807,266808,"VINCI FINANCIAL VENTURE (VF 2) GP (CAYMAN - GP VF2)","VINCI FINANCIAL VENTURE (VF 2) GP (CAYMAN - GP VF2)","",,"","N","N","N","N","N","N","N","N","N","N","N","N","N","N","N","Y","N","Y","N","","","","","","","","N","","","N","N","Y"
1920512,383778,"CATEGORY VENTURES GP I, LLC","CATEGORY VENTURES GP I, LLC","",,"","N","N","N","N","N","N","N","N","N","N","N","N","N","N","N","Y","N","Y","N","","","","","","","","N","Y","VENTURE CAPITAL FUND ADVISER EXEMPTION","N","Y","Y"
1921726,383882,"DYMON ASIA CAPITAL (HK) LIMITED","DYMON ASIA CAPITAL (HK) LIMITED","802-76755",164387,"","N","Y","N","N","N","N","N","N","N","N","N","N","N","N","N","N","N","Y","N","","","","","","","","N","Y","RULE 203M(1) EXEMPT REPORTING ADVISER","Y","Y","N"
1921726,383885,"DYMON ASIA CAPITAL (SINGAPORE) PTE. LTD.","DYMON ASIA CAPITAL (SINGAPORE) PTE. LTD.","802-74548",159386,"","N","Y","N","N","N","Y","N","N","N","N","N","N","N","N","N","N","N","Y","N","","","","","","","","N","Y","RULE 203M(1) EXEMPT REPORTING ADVISER","Y","Y","N"
1921726,383884,"DYMON ASIA CAPITAL LTD","DYMON ASIA CAPITAL LTD","",,"","N","N","N","N","N","N","N","N","N","N","N","N","N","N","N","Y","Y","Y","N","","","","","","","","N","","","Y","Y","N"
1921726,383883,"DYMON ASIA CAPITAL (JAPAN) LIMITED","DYMON ASIA CAPITAL (JAPAN) LIMITED","802-125738",321093,"","N","Y","N","N","N","N","N","N","N","N","N","N","N","N","N","N","N","Y","N","","","","","","","","N","Y","RULE 203M(1) EXEMPT REPORTING ADVISER","Y","Y","N"
1920428,383651,"HEADLIGHT SPV GP I, LLC","HEADLIGHT SPV GP I, LLC","",,"","N","Y","N","N","N","N","N","N","N","N","N","N","N","N","N","Y","N","Y","N","","","","","","","","N","Y","203(M)","N","Y","Y"
1924426,384060,"KMD INVESTMENTS, GP, LLC","KMD INVESTMENTS, GP, LLC","",,"","N","N","N","N","N","N","N","N","N","N","N","N","N","N","N","Y","Y","Y","N","","","","","","","","N","","","N","Y","Y"
1926242,383257,"PINNACLE HILL CAPITAL MANAGEMENT LLC","PINNACLE HILL CAPITAL MANAGEMENT LLC","",,"","N","N","N","N","N","N","N","N","N","N","N","N","N","N","N","Y","N","Y","N","","","","","","","","N","Y","COMMONLY OWNED AND CONTROLLED BY FILER AND FORMED FOR THE PURPOSE OF SERVING AS GENERAL PARTNER OF A PRIVATE FUND","N","Y","Y"
1924743,252755,"SUTHERLAND IMPACT FUND GP, LP","SUTHERLAND IMPACT FUND GP, LP","",,"","N","N","N","N","N","N","N","N","N","N","N","N","N","N","N","Y","N","Y","N","","","","","","","","N","","","N","Y","Y"
1924743,216989,"INVERDALE STRATEGIC FUND GP, LP","INVERDALE STRATEGIC FUND GP, LP","",,"","N","N","N","N","N","N","N","N","N","N","N","N","N","N","N","Y","N","Y","N","","","","","","","","N","","","N","Y","Y"
1921874,311374,"STARKILLER CAPITAL GP, LP","STARKILLER CAPITAL GP, LP","",,"","N","N","N","N","N","N","N","N","N","N","N","N","N","N","N","Y","N","Y","N","","","","","","","","N","","","N","Y","Y"
1923017,258652,"UCK PARTNERS, INC.","UCK PARTNERS, INC.","",,"","N","N","N","N","N","N","N","N","N","N","N","N","N","N","N","Y","N","Y","N","","","","","","","","N","N","","Y","N","N"
1923017,169203,"UCGP IV (F), L.P.","UCGP IV (F), L.P.","",,"","N","N","N","N","N","N","N","N","N","N","N","N","N","N","N","Y","N","Y","N","","","","","","","","N","","","N","N","N"
1923017,314718,"UCGP V, L.P.","UCGP V, L.P.","",,"","N","N","N","N","N","N","N","N","N","N","N","N","N","N","N","Y","N","Y","N","","","","","","","","N","N","","N","N","N"
1923017,314717,"UCGP V(J), L.P.","UCGP V(J), L.P.","",,"","N","N","N","N","N","N","N","N","N","N","N","N","N","N","N","Y","N","Y","N","","","","","","","","N","N","","N","N","N"
1923017,258653,"UCGP IV, L.P.","UCGP IV, L.P.","",,"","N","N","N","N","N","N","N","N","N","N","N","N","N","N","N","Y","N","Y","N","","","","","","","","N","","","N","N","N"
1923017,223262,"UNISON CAPITAL, INC.","UNISON CAPITAL, INC.","802-110297",287942,"","N","Y","N","N","N","N","N","N","N","N","N","N","N","N","N","Y","N","Y","N","","","","","","","","N","N","","Y","N","N"
1923020,258652,"UCK PARTNERS, INC.","UCK PARTNERS, INC.","",,"","N","N","N","N","N","N","N","N","N","N","N","N","N","N","N","Y","N","Y","N","","","","","","","","N","N","","Y","N","N"
1923020,169203,"UCGP IV (F), L.P.","UCGP IV (F), L.P.","",,"","N","N","N","N","N","N","N","N","N","N","N","N","N","N","N","Y","N","Y","N","","","","","","","","N","","","N","N","N"
1923020,314718,"UCGP V, L.P.","UCGP V, L.P.","",,"","N","N","N","N","N","N","N","N","N","N","N","N","N","N","N","Y","N","Y","N","","","","","","","","N","N","","N","N","N"
1923020,314717,"UCGP V(J), L.P.","UCGP V(J), L.P.","",,"","N","N","N","N","N","N","N","N","N","N","N","N","N","N","N","Y","N","Y","N","","","","","","","","N","N","","N","N","N"
1923020,258653,"UCGP IV, L.P.","UCGP IV, L.P.","",,"","N","N","N","N","N","N","N","N","N","N","N","N","N","N","N","Y","N","Y","N","","","","","","","","N","","","N","N","N"
1923020,223262,"UNISON CAPITAL, INC.","UNISON CAPITAL, INC.","802-110297",287942,"","N","Y","N","N","N","N","N","N","N","N","N","N","N","N","N","Y","N","Y","N","","","","","","","","N","N","","Y","N","N"
1924434,384077,"SURGEPOINT CAPITAL GP LLC","SURGEPOINT CAPITAL GP LLC","",,"","N","N","N","N","N","N","N","N","N","N","N","N","N","N","N","Y","N","Y","N","","","","","","","","N","","","N","Y","Y"
1924631,331801,"ARTISANAL VENTURES GP I, LLC","ARTISANAL VENTURES GP I, LLC","",,"","N","N","N","N","N","N","N","N","N","N","N","N","N","N","N","Y","N","Y","N","","","","","","","","N","","","N","Y","Y"
1925577,362588,"SYMMETRY INVESTMENTS (HONG KONG) LIMITED","SYMMETRY INVESTMENTS (HONG KONG) LIMITED","802-80047",171483,"","N","Y","N","N","N","Y","N","N","N","N","N","N","N","N","N","N","N","Y","N","","","","","","","","N","Y","203 (M), US INVESTMENT ADVISERS ACT OF 1940","Y","Y","N"
1925577,362589,"SYMMETRY INVESTMENTS LP","SYMMETRY INVESTMENTS LP","802-80046",171484,"","N","Y","N","N","N","Y","N","N","N","N","N","N","N","N","N","N","Y","Y","N","","","","","","","","N","Y","203 (M), US INVESTMENT ADVISERS ACT OF 1940","Y","Y","N"
1925577,362590,"SYMMETRY INVESTMENTS UK LLP","SYMMETRY INVESTMENTS UK LLP","802-80045",171476,"","N","Y","N","N","N","Y","N","N","N","N","N","N","N","N","N","N","N","Y","N","","","","","","","","N","Y","203 (M), US INVESTMENT ADVISERS ACT OF 1940","Y","Y","N"
1925577,362586,"SYMMETRY INVESTMENTS US LLC","SYMMETRY INVESTMENTS US LLC","801-128668",317755,"","N","Y","N","N","N","Y","N","N","N","N","N","N","N","N","N","N","N","Y","N","","","","","","","","N","N","","N","Y","N"
1925577,362587,"SYMMETRY INVESTMENTS SINGAPORE PRIVATE LIMITED","SYMMETRY INVESTMENTS SINGAPORE PRIVATE LIMITED","802-114257",299056,"","N","Y","N","N","N","Y","N","N","N","N","N","N","N","N","N","N","N","Y","N","","","","","","","","N","Y","203 (M), US INVESTMENT ADVISERS ACT OF 1940","Y","Y","N"
1925577,362585,"SYMMETRY INVESTMENTS JERSEY LIMITED","SYMMETRY INVESTMENTS JERSEY LIMITED","802-121607",314983,"","N","Y","N","N","N","Y","N","N","N","N","N","N","N","N","N","N","N","Y","N","","","","","","","","N","Y","203 (M), US INVESTMENT ADVISERS ACT OF 1940","Y","Y","N"
1929720,276201,"AM SQUARED GENERAL PARTNER LIMITED","AM SQUARED GENERAL PARTNER LIMITED","",,"","N","N","N","N","N","N","N","N","N","N","N","N","N","N","N","Y","Y","Y","N","","","","","","","","N","","","N","Y","N"
1931006,273748,"MITSUBISHI CORPORATION","MITSUBISHI CORPORATION","",,"","N","N","N","N","N","N","N","N","N","N","N","N","N","Y","Y","N","Y","N","N","","","","","","","","N","","","N","Y","N"
1931006,273752,"MITSUBISHI CORPORATION INSURANCE CO., LTD.","MITSUBISHI CORPORATION INSURANCE CO., LTD.","",,"","N","N","N","N","N","N","N","N","N","N","N","Y","N","N","N","N","N","Y","N","","","","","","","","N","","","N","N","N"
1931006,273694,"DREAM US CORE FUND 2 GP LLC","DREAM US CORE FUND 2 GP LLC","",,"","N","N","N","N","N","N","N","N","N","N","N","N","N","N","N","Y","Y","N","N","","","","","","","","N","N","","N","N","N"
1931006,273753,"MITSUBISHI CORPORATION URBAN DEVELOPMENT, INC.","MITSUBISHI CORPORATION URBAN DEVELOPMENT, INC.","",,"","N","N","N","N","N","N","N","N","N","N","N","N","N","Y","N","N","N","Y","N","","","","","","","","N","","","N","Y","N"
1929107,208436,"M&G ALTERNATIVES INVESTMENT MANAGEMENT LIMITED","M&G ALTERNATIVES INVESTMENT MANAGEMENT LIMITED","802-107608",283173,"","N","Y","N","N","N","N","N","N","N","N","N","N","N","N","N","N","N","Y","N","","","","","","","","N","Y","RULE 203(M) OF THE INVESTMENT ADVISERS ACT OF 1940","Y","Y","Y"
1929107,366126,"M&G REAL ESTATE JAPAN CO., LTD.","M&G REAL ESTATE JAPAN CO., LTD.","",,"","N","Y","N","N","N","N","N","N","N","N","N","N","N","N","N","N","N","Y","N","","","","","","","","N","Y","NON US ADVISER, NO US CLIENTS","Y","N","N"
1929107,258418,"M&G REAL ESTATE FUNDS MANAGEMENT S.A.R.L.","M&G REAL ESTATE FUNDS MANAGEMENT S.A.R.L.","",,"","N","Y","N","N","N","N","N","N","N","N","N","N","N","N","N","N","N","Y","N","","","","","","","","N","Y","NON US ADVISER, NO US CLIENTS","N","N","N"
1929107,286066,"MANDG INVESTMENTS (NAMIBIA) (PTY) LTD","MANDG INVESTMENTS (NAMIBIA) (PTY) LTD","",,"","N","Y","N","N","N","N","N","N","N","N","N","N","N","N","N","N","N","Y","N","","","","","","","","N","Y","NON US ADVISER, NO US CLIENTS","Y","N","N"
1929107,142429,"THE PRUDENTIAL ASSURANCE COMPANY LIMITED","THE PRUDENTIAL ASSURANCE COMPANY LIMITED","",,"","N","N","N","N","N","N","N","N","N","N","N","Y","N","N","N","N","N","Y","N","","","","","","","","N","","","Y","N","Y"
1929107,286058,"M&G INVESTMENTS JAPAN CO., LTD.","M&G INVESTMENTS JAPAN CO., LTD.","",,"","N","Y","N","N","N","N","N","N","N","N","N","N","N","N","N","N","N","Y","N","","","","","","","","N","Y","NON US ADVISER, NO US CLIENTS","Y","Y","N"
1929107,142439,"M&G SECURITIES LIMITED","M&G SECURITIES LIMITED","",,"","N","Y","N","N","N","N","N","N","N","N","N","N","N","N","N","N","N","Y","N","","","","","","","","N","Y","NON US ADVISER, NO US CLIENTS","Y","Y","Y"
1929107,366123,"M&G INVESTMENTS (TAIWAN) LIMITED","M&G INVESTMENTS (TAIWAN) LIMITED","",,"","N","Y","N","N","N","N","N","N","N","N","N","N","N","N","N","N","N","Y","N","","","","","","","","N","Y","NON US ADVISER, NO US CLIENTS","Y","N","N"
1929107,286061,"MANDG INVESTMENTS UNIT TRUSTS (NAMIBIA) LTD","MANDG INVESTMENTS UNIT TRUSTS (NAMIBIA) LTD","",,"","N","Y","N","N","N","N","N","N","N","N","N","N","N","N","N","N","N","Y","N","","","","","","","","N","Y","NON US ADVISER, NO US CLIENTS","Y","N","N"
1929107,350811,"RESPONSABILITY INVESTMENTS AG","RESPONSABILITY INVESTMENTS AG","802-118625",307488,"","N","Y","N","N","N","N","N","N","N","N","N","N","N","N","N","N","N","Y","N","","","","","","","","N","Y","RULE 203(M) OF THE INVESTMENT ADVISERS ACT OF 1940","Y","Y","N"
1929107,258450,"MANDG INVESTMENTS UNIT TRUSTS SOUTH AFRICA (RF) LTD","MANDG INVESTMENTS UNIT TRUSTS SOUTH AFRICA (RF) LTD","",,"","N","Y","N","N","N","N","N","N","N","N","N","N","N","N","N","N","N","Y","N","","","","","","","","N","Y","NON US ADVISER, NO US CLIENTS","Y","N","N"
1929107,210548,"M&G FINANCIAL SERVICES LIMITED","M&G FINANCIAL SERVICES LIMITED","",,"","N","Y","N","N","N","N","N","N","N","N","N","N","N","N","N","N","N","Y","N","","","","","","","","N","Y","NON US ADVISER, NO US CLIENTS","Y","Y","Y"
1929107,210553,"M&G INVESTMENTS (SINGAPORE) PTE LIMITED","M&G INVESTMENTS (SINGAPORE) PTE LIMITED","",,"","N","Y","N","N","N","N","N","N","N","N","N","N","N","N","N","N","N","Y","N","","","","","","","","N","Y","NON US ADVISER, NO US CLIENTS","N","N","N"
1929107,142567,"M&G GUERNSEY LIMITED","M&G GUERNSEY LIMITED","",,"","N","Y","N","N","N","N","N","N","N","N","N","N","N","N","N","N","N","Y","N","","","","","","","","N","Y","NON US ADVISER, NO US CLIENTS","Y","N","N"
1929107,286064,"MANDG INVESTMENT MANAGERS (PTY) LTD","MANDG INVESTMENT MANAGERS (PTY) LTD","",,"","N","Y","N","N","N","N","N","N","N","N","N","N","N","N","N","N","N","Y","N","","","","","","","","N","Y","NON US ADVISER, NO US CLIENTS","Y","N","N"
1929107,350828,"M&G INVESTMENTS (USA) INC.","M&G INVESTMENTS (USA) INC.","801-118836",305254,"","N","Y","N","N","N","N","N","N","N","N","N","N","N","N","N","N","N","Y","N","","","","","","","","N","N","","N","Y","N"
1929107,157092,"M&G  LUXEMBOURG S.A.","M&G  LUXEMBOURG S.A.","",,"","N","Y","N","N","N","N","N","N","N","N","N","N","N","N","N","N","N","Y","N","","","","","","","","N","Y","FOREIGN PRIVATE ADVISER EXEMPTION","Y","Y","N"
1929107,142568,"M&G SIF MANAGEMENT COMPANY (IRELAND) LIMITED","M&G SIF MANAGEMENT COMPANY (IRELAND) LIMITED","",,"","N","Y","N","N","N","N","N","N","N","N","N","N","N","N","N","N","N","Y","N","","","","","","","","N","Y","NON US ADVISER, NO US CLIENTS","N","N","N"
1929107,372491,"M&G INTERNATIONAL INVESTMENTS SWITZERLAND AG","M&G INTERNATIONAL INVESTMENTS SWITZERLAND AG","",,"","N","Y","N","N","N","N","N","N","N","N","N","N","N","N","N","N","N","Y","N","","","","","","","","N","Y","NON US ADVISER, NO US CLIENTS","N","Y","N"
1929107,366122,"M&G REAL ESTATE ASIA PTE. LTD","M&G REAL ESTATE ASIA PTE. LTD","",,"","N","Y","N","N","N","N","N","N","N","N","N","N","N","N","N","N","N","Y","N","","","","","","","","N","Y","NON US ADVISER - MANAGES 3 (C ) 5(C ) REAL ESTATE FUNDS","Y","N","N"
1929107,366124,"M&G GROUP PCC LIMITED","M&G GROUP PCC LIMITED","",,"","N","N","N","N","N","N","N","N","N","N","N","Y","N","N","N","N","N","Y","N","","","","","","","","N","","","Y","N","N"
1929107,366125,"M&G REAL ESTATE LIMITED","M&G REAL ESTATE LIMITED","",,"","N","N","N","N","N","N","N","N","N","N","N","Y","N","N","N","N","N","Y","N","","","","","","","","N","","","Y","N","Y"
1929107,210552,"M&G INVESTMENTS (HONG KONG) LIMITED","M&G INVESTMENTS (HONG KONG) LIMITED","",,"","N","Y","N","N","N","N","N","N","N","N","N","N","N","N","N","N","N","Y","N","","","","","","","","N","Y","NON US ADVISER, NO US CLIENTS","Y","N","N"
1929107,286068,"MANDG INVESTMENTS LIFE SOUTH AFRICA (RF) LTD","MANDG INVESTMENTS LIFE SOUTH AFRICA (RF) LTD","",,"","N","N","N","N","N","N","N","N","N","N","N","Y","N","N","N","N","N","Y","N","","","","","","","","N","Y","NON US ADVISER, NO US CLIENTS","Y","N","N"
1929173,369691,"M&G REAL ESTATE JAPAN CO., LTD.","M&G REAL ESTATE JAPAN CO., LTD.","",,"","N","Y","N","N","N","N","N","N","N","N","N","N","N","N","N","N","N","Y","N","","","","","","","","N","Y","NON US ADVISER, NO US CLIENTS","Y","N","N"
1929173,369690,"M&G REAL ESTATE LIMITED","M&G REAL ESTATE LIMITED","",,"","N","N","N","N","N","N","N","N","N","N","N","Y","N","N","N","N","N","Y","N","","","","","","","","N","N","","Y","N","Y"
1929173,219590,"M&G FINANCIAL SERVICES LIMITED","M&G FINANCIAL SERVICES LIMITED","",,"","N","Y","N","N","N","N","N","N","N","N","N","N","N","N","N","N","N","Y","N","","","","","","","","N","Y","NON US ADVISER, NO US CLIENTS","Y","Y","Y"
1929173,285990,"MANDG INVESTMENT MANAGERS (PTY) LTD","MANDG INVESTMENT MANAGERS (PTY) LTD","",,"","N","Y","N","N","N","N","N","N","N","N","N","N","N","N","N","N","N","Y","N","","","","","","","","N","Y","NON US ADVISER, NO US CLIENTS","Y","N","N"
1929173,210646,"M&G INVESTMENTS (SINGAPORE) PTE LTD","M&G INVESTMENTS (SINGAPORE) PTE LTD","",,"","N","Y","N","N","N","N","N","N","N","N","N","N","N","N","N","N","N","Y","N","","","","","","","","N","Y","NON US ADVISER, NO US CLIENTS","Y","N","N"
1929173,369686,"M&G REAL ESTATE ASIA PTE. LTD","M&G REAL ESTATE ASIA PTE. LTD","",,"","N","Y","N","N","N","N","N","N","N","N","N","N","N","N","N","N","N","Y","N","","","","","","","","N","Y","NON US ADVISER, NO US CLIENTS","Y","N","N"
1929173,285965,"M&G INVESTMENTS JAPAN CO., LTD.","M&G INVESTMENTS JAPAN CO., LTD.","",,"","N","Y","N","N","N","N","N","N","N","N","N","N","N","N","N","N","N","Y","N","","","","","","","","N","Y","NON US ADVISER, NO US CLIENTS","Y","Y","N"
1929173,205667,"M&G SIF MANAGEMENT COMPANY (IRELAND) LIMITED","M&G SIF MANAGEMENT COMPANY (IRELAND) LIMITED","",,"","N","Y","N","N","N","N","N","N","N","N","N","N","N","N","N","N","N","Y","N","","","","","","","","N","Y","NON US ADVISER, NO US CLIENTS","Y","N","N"
1929173,219598,"M&G INVESTMENTS (HONG KONG) LIMITED","M&G INVESTMENTS (HONG KONG) LIMITED","",,"","N","Y","N","N","N","N","N","N","N","N","N","N","N","N","N","N","N","Y","N","","","","","","","","N","Y","NON US ADVISER, NO US CLIENTS","Y","N","N"
1929173,350959,"MANDG INVESTMENTS UNIT TRUSTS SOUTH AFRICA (RF) LTD","MANDG INVESTMENTS UNIT TRUSTS SOUTH AFRICA (RF) LTD","",,"","N","Y","N","N","N","N","N","N","N","N","N","N","N","N","N","N","N","Y","N","","","","","","","","N","Y","NON US ADVISER, NO US CLIENTS","Y","N","N"
1929173,351188,"M&G GROUP PCC LIMITED","M&G GROUP PCC LIMITED","",,"","N","N","N","N","N","N","N","N","N","N","N","Y","N","N","N","N","N","Y","N","","","","","","","","N","","","N","N","N"
1929173,286006,"MANDG INVESTMENTS LIFE SOUTH AFRICA (RF) LTD","MANDG INVESTMENTS LIFE SOUTH AFRICA (RF) LTD","",,"","N","Y","N","N","N","N","N","N","N","N","N","N","N","N","N","N","N","Y","N","","","","","","","","N","Y","NON US ADVISER, NO US CLIENTS","Y","N","N"
1929173,369687,"M&G INVESTMENTS (TAIWAN) LIMITED","M&G INVESTMENTS (TAIWAN) LIMITED","",,"","N","Y","N","N","N","N","N","N","N","N","N","N","N","N","N","N","N","Y","N","","","","","","","","N","Y","NON US ADVISER, NO US CLIENTS","Y","N","N"
1929173,369689,"M&G (GUERNSEY) LIMITED","M&G (GUERNSEY) LIMITED","",,"","N","Y","N","N","N","N","N","N","N","N","N","N","N","N","N","N","N","Y","N","","","","","","","","N","Y","NON US ADVISER, NO US CLIENTS","Y","N","N"
1929173,369684,"RESPONSABILITY INVESTMENTS AG","RESPONSABILITY INVESTMENTS AG","802-118625",307488,"","N","Y","N","N","N","N","N","N","N","N","N","N","N","N","N","N","N","Y","N","","","","","","","","N","Y","RULE 203(M) OF THE INVESTMENT ADVISERS ACT OF 1940","Y","Y","N"
1929173,205665,"M&G SECURITIES LIMITED","M&G SECURITIES LIMITED","",,"","N","Y","N","N","N","N","N","N","N","N","N","N","N","N","N","N","N","Y","N","","","","","","","","N","Y","NON US ADVISER, NO US CLIENTS","Y","Y","Y"
1929173,219607,"M&G REAL ESTATE FUNDS MANAGEMENT S.A.R.L","M&G REAL ESTATE FUNDS MANAGEMENT S.A.R.L","",,"","N","Y","N","N","N","N","N","N","N","N","N","N","N","N","N","N","N","Y","N","","","","","","","","N","Y","NON US ADVISER, NO US CLIENTS","Y","N","N"
1929173,285984,"MANDG INVESTMENTS UNIT TRUSTS (NAMIBIA) LTD","MANDG INVESTMENTS UNIT TRUSTS (NAMIBIA) LTD","",,"","Y","N","N","N","N","N","N","N","N","N","N","N","N","N","N","N","N","Y","N","","","","","","","","N","","","Y","Y","N"
1929173,285994,"MANDG INVESTMENTS (NAMIBIA) (PTY) LTD","MANDG INVESTMENTS (NAMIBIA) (PTY) LTD","",,"","N","Y","N","N","N","N","N","N","N","N","N","N","N","N","N","N","N","Y","N","","","","","","","","N","Y","NON US ADVISER, NO US CLIENTS","Y","N","N"
1929173,219608,"M&G LUXEMBOURG S.A","M&G LUXEMBOURG S.A","",,"","N","Y","N","N","N","N","N","N","N","N","N","N","N","N","N","N","N","Y","N","","","","","","","","N","Y","FOREIGN PRIVATE ADVISER EXEMPTION","Y","Y","N"
1929173,205682,"M&G INVESTMENT MANAGEMENT LTD.","M&G INVESTMENT MANAGEMENT LTD.","802-126969",114527,"","N","Y","N","N","N","Y","N","N","N","N","N","N","N","N","N","N","N","Y","N","","","","","","","","N","Y","RULE 203(M) OF THE INVESTMENT ADVISERS ACT OF 1940","Y","Y","Y"
1929173,207748,"THE PRUDENTIAL ASSURANCE COMPANY LIMITED","THE PRUDENTIAL ASSURANCE COMPANY LIMITED","",,"","N","N","N","N","N","N","N","N","N","N","N","Y","N","N","N","N","N","Y","N","","","","","","","","N","N","","Y","N","Y"
1929173,350890,"M&G INVESTMENTS (USA) INC.","M&G INVESTMENTS (USA) INC.","801-118836",305254,"","N","Y","N","N","N","N","N","N","N","N","N","N","N","N","N","N","N","Y","N","","","","","","","","N","N","","N","Y","N"
1929163,284610,"PRIMARY V GP LLP","PRIMARY V GP LLP","",,"","N","N","N","N","N","N","N","N","N","N","N","N","N","N","N","Y","Y","N","N","","","","","","","","N","","","N","N","Y"
1929163,284605,"PRIMARY IV GP LLP","PRIMARY IV GP LLP","",,"","N","N","N","N","N","N","N","N","N","N","N","N","N","N","N","Y","Y","N","N","","","","","","","","N","","","N","N","Y"
1929618,198773,"PANGAEA VENTURES LTD.","VENTURE CAPITAL","",,"","N","N","N","N","N","N","N","N","N","N","N","N","N","N","N","Y","Y","Y","N","","","","","","","","N","N","","N","N","N"
1927355,384327,"GYRUS MANAGEMENT GUERNSEY LIMITED","GYRUS MANAGEMENT GUERNSEY LIMITED","",,"","N","N","N","N","N","Y","N","N","N","N","N","N","N","N","N","Y","Y","Y","N","","","","","","","","N","","","Y","N","N"
1927355,384269,"GYRUS CAPITAL II GP GUERNSEY LIMITED","GYRUS CAPITAL II GP GUERNSEY LIMITED","",,"","N","N","N","N","N","Y","N","N","N","N","N","N","N","N","N","Y","Y","Y","N","","","","","","","","N","","","N","N","N"
1927355,384253,"GYRUS ELYSIUM GUERNSEY LIMITED","GYRUS ELYSIUM GUERNSEY LIMITED","",,"","N","N","N","N","N","Y","N","N","N","N","N","N","N","N","N","Y","Y","Y","N","","","","","","","","N","","","N","N","N"
1927355,384255,"GYRUS GUERNSEY GP LIMITED","GYRUS GUERNSEY GP LIMITED","",,"","N","N","N","N","N","Y","N","N","N","N","N","N","N","N","N","Y","Y","Y","N","","","","","","","","N","","","N","N","N"
1927355,384259,"GYRUS PRINCIPAL GP GUERNSEY LIMITED","GYRUS PRINCIPAL GP GUERNSEY LIMITED","",,"","N","N","N","N","N","Y","N","N","N","N","N","N","N","N","N","Y","Y","Y","N","","","","","","","","N","","","N","N","N"
1933289,103653,"RIVER BIRCH CAPITAL GP, LLC","RIVER BIRCH CAPITAL GP, LLC","",,"","N","N","N","N","N","N","N","N","N","N","N","N","N","N","N","Y","N","Y","N","","","","","","","","N","","","N","Y","Y"
1929302,265695,"DWS INTERNATIONAL GMBH","DWS INTERNATIONAL GMBH","801-20289",105075,"","N","Y","N","N","N","Y","N","N","N","N","N","N","N","N","N","N","N","Y","N","","","","","","","","N","N","","Y","N","N"
1929302,265725,"DEUTSCHE BANK (SUISSE) SA","DEUTSCHE BANK (SUISSE) SA","",,"","N","Y","N","N","N","N","N","Y","N","N","N","N","N","N","N","N","N","Y","N","","","","","","","","N","Y","THE ADVISER DOES NOT HAVE ANY US CLIENTS OR INVESTORS","Y","N","N"
1929302,265726,"DWS INVESTMENT MANAGEMENT AMERICAS, INC.","DWS INVESTMENT MANAGEMENT AMERICAS, INC.","801-252",104518,"","N","Y","N","N","N","Y","N","N","N","N","N","N","N","N","N","N","N","Y","N","","","","","","","","N","N","","Y","N","N"
1929302,265699,"DEUTSCHE ALTERNATIVE ASSET MANAGEMENT (UK) LIMITED","DEUTSCHE ALTERNATIVE ASSET MANAGEMENT (UK) LIMITED","",,"","N","Y","N","N","N","N","N","N","N","N","N","N","N","N","N","N","N","Y","N","","","","","","","","N","Y","FOREIGN ADVISER","Y","N","N"
1929302,265693,"DWS INVESTMENTS AUSTRALIA LIMITED","DWS INVESTMENTS AUSTRALIA LIMITED","801-57743",109112,"","N","Y","N","N","N","N","N","N","N","N","N","N","N","N","N","N","N","Y","N","","","","","","","","N","N","","Y","N","N"
1929302,265713,"DWS INVESTMENTS JAPAN LIMITED","DWS INVESTMENTS JAPAN LIMITED","",,"","N","Y","N","N","N","N","N","N","N","N","N","N","N","N","N","N","N","Y","N","","","","","","","","N","N","","Y","N","N"
1929302,265718,"DWS ASSET MANAGEMENT (KOREA) COMPANY LIMITED","DWS ASSET MANAGEMENT (KOREA) COMPANY LIMITED","",,"","N","Y","N","N","N","N","N","N","N","N","N","N","N","N","N","N","N","Y","N","","","","","","","","N","Y","THE ADVISER DOES NOT HAVE ANY US CLIENTS OR INVESTORS","Y","N","N"
1929302,265771,"DWS INVESTMENT GMBH","DWS INVESTMENT GMBH","",,"","N","Y","N","N","N","N","N","N","N","N","N","N","N","N","N","N","N","Y","N","","","","","","","","N","N","","Y","Y","N"
1929302,265703,"DWS INVESTMENTS SINGAPORE LIMITED","DWS INVESTMENTS SINGAPORE LIMITED","",,"","N","Y","N","N","N","Y","N","N","N","N","N","N","N","N","N","N","N","Y","N","","","","","","","","N","Y","EXEMPT REPORTING ADVISOR","Y","N","N"
1929302,265730,"DEUTSCHE BANK LUXEMBOURG S.A.","DEUTSCHE BANK LUXEMBOURG S.A.","",,"","N","N","N","N","N","N","N","Y","N","N","N","N","N","N","N","N","N","Y","N","","","","","","","","N","","","Y","N","N"
1929302,265723,"DEUTSCHE BANK AG","DEUTSCHE BANK AG","",,"","Y","N","N","Y","N","N","N","Y","Y","N","N","N","N","N","Y","Y","Y","N","N","","","","","","","","N","","","Y","N","N"
1929302,265691,"RREEF AMERICA L.L.C.","RREEF AMERICA L.L.C.","801-55209",109596,"","N","Y","N","N","N","Y","N","N","N","N","N","N","N","N","N","N","N","Y","N","","","","","","","","N","N","","N","N","N"
1929302,265710,"DWS INVESTMENTS HONG KONG LIMITED","DWS INVESTMENTS HONG KONG LIMITED","801-66285",139666,"","N","Y","N","N","N","N","N","N","N","N","N","N","N","N","N","N","N","Y","N","","","","","","","","N","N","","Y","N","N"
1929302,265732,"DWS ALTERNATIVES GLOBAL LIMITED","DWS ALTERNATIVES GLOBAL LIMITED","801-66274",139526,"","N","Y","N","N","N","Y","N","N","N","N","N","N","N","N","N","N","N","Y","N","","","","","","","","N","N","","Y","N","N"
1929754,381334,"CAPELIGHT GP LLC","CAPELIGHT GP LLC","",,"","N","N","N","N","N","N","N","N","N","N","N","N","N","N","N","Y","N","Y","N","","","","","","","","N","N","","N","Y","Y"
1933477,365040,"PHX VENTURES FUND II GP, LLC","PHX VENTURES FUND II GP, LLC","",,"","N","N","N","N","N","N","N","N","N","N","N","N","N","N","N","Y","N","Y","N","","","","","","","","N","","","N","Y","Y"
1927639,384198,"FIRST GENERATION GP LLC","FIRST GENERATION GP LLC","",,"","N","N","N","N","N","Y","N","N","N","N","N","N","N","N","N","Y","Y","Y","N","","","","","","","","N","","","N","Y","Y"
1933359,361911,"QUANTA GP, LLC","QUANTA GP, LLC","",,"","N","N","N","N","N","N","N","N","N","N","N","N","N","N","N","Y","N","Y","N","","","","","","","","N","","","N","Y","Y"
1933747,277585,"INTRIVA CAPITAL ADVISORS LLP","INTRIVA CAPITAL ADVISORS LLP","",,"","N","Y","N","N","N","N","N","N","N","N","N","N","N","N","N","N","N","N","N","","","","","","","","N","N","","Y","N","N"
1928544,312864,"ACTAI UNICORN FUND II GP, LLC","ACTAI UNICORN FUND II GP, LLC","",,"","N","N","N","N","N","N","N","N","N","N","N","N","N","N","N","Y","N","Y","N","","","","","","","","N","Y","2012 ABA NO-ACTION LETTER","N","Y","Y"
1930832,384339,"AGVENTURES III GP, LLC","AGVENTURES III GP, LLC","",,"","N","N","N","N","N","N","N","N","N","N","N","N","N","N","N","Y","N","Y","N","","","","","","","","N","","","N","Y","Y"
1930832,384338,"AGVENTURES II GP, LLC","AGVENTURES II GP, LLC","",,"","N","N","N","N","N","N","N","N","N","N","N","N","N","N","N","Y","N","Y","N","","","","","","","","N","","","N","Y","Y"
1921370,255389,"WESTBOURNE INFRASTRUCTURE DEBT GP LIMITED","WESTBOURNE INFRASTRUCTURE DEBT GP LIMITED","",,"","N","Y","N","N","N","N","N","N","N","N","N","N","N","N","N","Y","N","Y","N","","","","","","","","N","Y","FOREIGN EXEMPT ADVISER","N","Y","Y"
1921370,255390,"WESTBOURNE CREDIT MANAGEMENT LIMITED","WESTBOURNE CREDIT MANAGEMENT LIMITED","",301033,"","N","Y","N","N","N","N","N","N","N","N","N","N","N","N","N","N","Y","Y","N","","","","","","","","N","Y","PRIVATE FUND ADVISER EXEMPTION, SECTION 203(M) OF THE INVESTMENT ADVISERS ACT OF 1940, AS AMENDED","Y","N","N"
1920816,345055,"ALPHA ASCENT MINT MANAGER LLC","ALPHA ASCENT MINT MANAGER LLC","",,"","N","N","N","N","N","N","N","N","N","N","N","N","N","N","N","Y","Y","Y","N","","","","","","","","N","","","N","Y","Y"
1920816,345056,"ALPHA ASCENT ORGANELLE MANAGER LLC","ALPHA ASCENT ORGANELLE MANAGER LLC","",,"","N","N","N","N","N","N","N","N","N","N","N","N","N","N","N","Y","Y","Y","N","","","","","","","","N","","","N","Y","Y"
1920816,327063,"ALPHA ASCENT ZINC MANAGER LLC","ALPHA ASCENT ZINC MANAGER LLC","",,"","N","N","N","N","N","N","N","N","N","N","N","N","N","N","N","Y","Y","Y","N","","","","","","","","N","","","N","Y","Y"
1920816,327060,"ALPHA ASCENT ADDITION MANAGER LLC","ALPHA ASCENT ADDITION MANAGER LLC","",,"","N","N","N","N","N","N","N","N","N","N","N","N","N","N","N","Y","Y","Y","N","","","","","","","","N","","","N","Y","Y"
1920816,235202,"ALPHA ASCENT GOURMET MANAGER LLC","ALPHA ASCENT GOURMET MANAGER LLC","",,"","N","N","N","N","N","N","N","N","N","N","N","N","N","N","N","Y","N","Y","N","","","","","","","","N","","","N","Y","Y"
1920816,251708,"ALPHA ASCENT SURFACE MANAGER LLC","ALPHA ASCENT SURFACE MANAGER LLC","",,"","N","N","N","N","N","N","N","N","N","N","N","N","N","N","N","Y","Y","Y","N","","","","","","","","N","","","N","Y","Y"
1920816,251789,"ASCENT CAPITAL ADVISORS LIMITED","ASCENT CAPITAL ADVISORS LIMITED","",,"","Y","N","N","N","N","N","N","N","N","N","N","N","N","N","N","N","N","Y","N","","","","","","","","N","","","Y","Y","N"
1920816,252999,"ALPHA ASCENT NEWS MANAGER LLC","ALPHA ASCENT NEWS MANAGER LLC","",,"","N","N","N","N","N","N","N","N","N","N","N","N","N","N","N","Y","Y","Y","N","","","","","","","","N","","","N","Y","Y"
1920816,251709,"ALPHA ASCENT HEALTHCARE MANAGER LLC","ALPHA ASCENT HEALTHCARE MANAGER LLC","",,"","N","N","N","N","N","N","N","N","N","N","N","N","N","N","N","Y","Y","Y","N","","","","","","","","N","","","N","Y","Y"
1920816,302467,"ALPHA ASCENT AMULET MANAGER LLC","ALPHA ASCENT AMULET MANAGER LLC","",,"","N","N","N","N","N","N","N","N","N","N","N","N","N","N","N","Y","Y","Y","N","","","","","","","","N","","","N","Y","Y"
1920816,327061,"ALPHA ASCENT STRATA MANAGER LLC","ALPHA ASCENT STRATA MANAGER LLC","",,"","N","N","N","N","N","N","N","N","N","N","N","N","N","N","N","Y","Y","Y","N","","","","","","","","N","","","N","Y","Y"
1920816,345051,"ALPHA ASCENT PAYFLOW MANAGER LLC","ALPHA ASCENT PAYFLOW MANAGER LLC","",,"","N","N","N","N","N","N","N","N","N","N","N","N","N","N","N","Y","Y","Y","N","","","","","","","","N","","","N","Y","Y"
1920816,327062,"ALPHA ASCENT SPRING MANAGER LLC","ALPHA ASCENT SPRING MANAGER LLC","",,"","N","N","N","N","N","N","N","N","N","N","N","N","N","N","N","Y","Y","Y","N","","","","","","","","N","","","N","Y","Y"
1920816,345050,"ALPHA ASCENT ADVANCE MANAGER LLC","ALPHA ASCENT ADVANCE MANAGER LLC","",,"","N","N","N","N","N","N","N","N","N","N","N","N","N","N","N","Y","Y","Y","N","","","","","","","","N","","","N","Y","Y"
1919392,383556,"ASCENDO VENTURES GP I, LLC","ASCENDO VENTURES GP I, LLC","",,"","N","N","N","N","N","N","N","N","N","N","N","N","N","N","N","Y","N","Y","N","","","","","","","","N","Y","203(L)-1","N","Y","Y"
1914491,382920,"TIBERIA ASSET OPPORTUNITIES GP LIMITED","TIBERIA ASSET OPPORTUNITIES GP LIMITED","",,"","N","N","N","N","N","N","N","N","N","N","N","N","N","N","N","Y","N","Y","N","","","","","","","","N","","","Y","Y","Y"
1924461,322847,"RAZOR'S EDGE VENTURES, LLC","RAZOR'S EDGE VENTURES, LLC","802-75870",162941,"","N","Y","N","N","N","N","N","N","N","N","N","N","N","N","N","Y","N","Y","N","","","","","","","","N","Y","PRIVATE FUND < $25M, VENTURES CAPITAL FUND","N","Y","Y"
1924461,322848,"RAZOR'S EDGE VENTURES II, LLC","RAZOR'S EDGE VENTURES II, LLC","802-113596",297288,"","N","Y","N","N","N","N","N","N","N","N","N","N","N","N","N","Y","N","Y","N","","","","","","","","N","Y","VENTURE CAPITAL FUND","N","Y","Y"
1923747,134006,"KEPHA PARTNERS I GP, LP","KEPHA PARTNERS I GP, LP","",,"","N","N","N","N","N","N","N","N","N","N","N","N","N","N","N","Y","Y","Y","N","","","","","","","","N","","","N","N","Y"
1923747,134007,"KEPHA PARTNERS II GP, LP","KEPHA PARTNERS II GP, LP","",,"","N","N","N","N","N","N","N","N","N","N","N","N","N","N","N","Y","Y","Y","N","","","","","","","","N","","","N","N","Y"
1930104,384308,"AIRBORNE VENTURES GP I, LLC","AIRBORNE VENTURES GP I, LLC","",,"","N","N","N","N","N","N","N","N","N","N","N","N","N","N","N","Y","Y","Y","N","","","","","","","","N","Y","VENTURE CAPITAL EXEMPTION","N","Y","Y"
1931127,215415,"BLUEGRASS GP LLC","BLUEGRASS GP LLC","",,"","N","N","N","N","N","Y","N","N","N","N","N","N","N","N","N","Y","N","Y","N","","","","","","","","N","","","N","Y","Y"
1919626,383584,"SCIFOUNDERS II GP, LLC","SCIFOUNDERS II GP, LLC","",,"","N","Y","N","N","N","N","N","N","N","N","N","N","N","N","N","Y","N","Y","N","","","","","","","","N","Y","SECTION 203(L) VENTURE CAPITAL EXEMPTION","N","Y","Y"
1919626,383585,"SCIFOUNDERS GP, LLC","SCIFOUNDERS GP, LLC","",,"","N","Y","N","N","N","N","N","N","N","N","N","N","N","N","N","Y","N","Y","N","","","","","","","","N","Y","SECTION 203(L) VENTURE CAPITAL EXEMPTION","N","Y","Y"
1926705,233399,"MOONSAIL GP, LLC","GENERAL PARTNER TO MOONSAIL PARTNERS LP","",,"","N","N","N","N","N","N","N","N","N","N","N","N","N","N","N","Y","N","Y","N","","","","","","","","N","","","N","Y","Y"
1926353,211801,"MARNELL CAPITAL LLC","MARNELL CAPITAL LLC","",,"","N","N","N","N","N","N","N","N","N","N","N","N","N","N","N","Y","N","Y","N","","","","","","","","N","","","N","Y","Y"
1922945,274797,"SUIMEI GP LLC","SUIMEI GP LLC","",,"","N","N","N","N","N","N","N","N","N","N","N","N","N","N","N","Y","Y","Y","N","","","","","","","","N","","","N","Y","Y"
1931263,380205,"COGENUITY FUND I GP, LP","COGENUITY FUND I GP, LP","",,"","N","N","N","N","N","N","N","N","N","N","N","N","N","N","N","Y","N","Y","N","","","","","","","","N","","","N","Y","Y"
1921823,383890,"DANIEL S. ROSHCO","DANIEL S. ROSHCO PC","",,"","N","N","N","N","N","N","N","N","N","N","Y","N","N","N","N","N","Y","Y","N","","","","","","","","N","N","","N","Y","Y"
1923756,378340,"ARROWPOINT INVESTMENT PARTNERS (SINGAPORE) PTE. LTD.","ARROWPOINT INVESTMENT PARTNERS (SINGAPORE) PTE. LTD.","",331921,"","N","Y","N","N","N","Y","N","N","N","N","N","N","N","N","N","N","N","Y","N","","","","","","","","N","Y","PRIVATE FUND ADVISER EXEMPTION","Y","Y","N"
1923756,378341,"ARROWPOINT INVESTMENT PARTNERS (CAYMAN) LIMITED","ARROWPOINT INVESTMENT PARTNERS (CAYMAN) LIMITED","",,"","N","N","N","N","N","N","N","N","N","N","N","N","N","N","N","Y","Y","Y","N","","","","","","","","N","","","N","Y","N"
1923686,378327,"ARROWPOINT INVESTMENT PARTNERS (HONG KONG) LIMITED","ARROWPOINT INVESTMENT PARTNERS (HONG KONG) LIMITED","802-131095",331922,"","N","Y","N","N","N","Y","N","N","N","N","N","N","N","N","N","N","N","Y","N","","","","","","","","N","Y","PRIVATE FUND ADVISER EXEMPTION","Y","Y","N"
1923686,378345,"ARROWPOINT INVESTMENT PARTNERS (CAYMAN) LIMITED","ARROWPOINT INVESTMENT PARTNERS (CAYMAN) LIMITED","",,"","N","N","N","N","N","N","N","N","N","N","N","N","N","N","N","Y","Y","Y","N","","","","","","","","N","","","N","Y","N"
1926671,341361,"L&R CAPITAL (SHANGHAI) LIMITED","L&R CAPITAL (SHANGHAI) LIMITED","",,"","N","Y","N","N","N","N","N","N","N","N","N","N","N","N","N","N","Y","N","N","","","","","","","","N","Y","NOT PROVIDING INVESTMENT ADVISORY TO US PERSONS.","N","Y","N"
1919411,383558,"CAXTON EUROPE LLP","CAXTON EUROPE LLP","",138105,"","N","N","N","N","N","Y","N","N","N","N","N","N","N","N","N","N","Y","Y","N","","","","","","","","N","Y","ADVISERS ACT SECTION 203(M)-1","Y","N","N"
1933019,294232,"SGC SPV GP LLC","SGC SPV GP LLC","",,"","N","N","N","N","N","N","N","N","N","N","N","N","N","N","N","Y","N","Y","N","","","","","","","","N","","","N","Y","Y"
1921065,383866,"GARDEN STATE SECURITIES, INC.","GARDEN STATE SECURITIES, INC.","8-25790",10083,"","Y","N","N","N","N","N","N","N","N","N","N","N","N","N","N","N","N","Y","N","","","","","","","","N","N","","N","Y","N"
1924083,384032,"1EP VENTURES GP I, LLC","1EP VENTURES GP I, LLC","",,"","N","N","N","N","N","N","N","N","N","N","N","N","N","N","N","Y","N","Y","N","","","","","","","","N","","","N","Y","Y"
1922195,383926,"DEMETER INVESTMENT HOLDINGS","DEMETER INVESTMENT HOLDINGS","",,"","N","N","N","N","N","N","N","N","N","N","N","N","N","N","N","Y","Y","N","N","","","","","","","","N","","","N","Y","N"
1922910,383952,"A-FUND INVESTMENT MANAGEMENT, L.P.","DCM","",,"","N","N","N","N","N","N","N","N","N","N","N","N","N","N","N","Y","N","Y","N","","","","","","","","N","Y","","N","Y","Y"
1922910,156295,"DCM INVESTMENT MANAGEMENT VII, L.P.","DCM","",,"","N","N","N","N","N","N","N","N","N","N","N","N","N","N","N","Y","N","Y","N","","","","","","","","N","Y","VENTURE CAPITAL EXEMPTION","N","Y","Y"
1922910,325739,"DCM OPPORTUNITY FUND INVESTMENT MANAGEMENT III, L.P.","DCM","",,"","N","N","N","N","N","N","N","N","N","N","N","N","N","N","N","Y","N","Y","N","","","","","","","","N","Y","","N","Y","Y"
1922910,201814,"DCM INVESTMENT MANAGEMENT VIII, L.P.","DCM","",,"","N","N","N","N","N","N","N","N","N","N","N","N","N","N","N","Y","N","Y","N","","","","","","","","N","Y","VENTURE CAPITAL EXEMPTION","N","Y","Y"
1922910,172423,"A-FUND INVESTMENT MANAGEMENT II, L.P.","DCM","",,"","N","N","N","N","N","N","N","N","N","N","N","N","N","N","N","Y","N","Y","N","","","","","","","","N","Y","VENTURE CAPITAL EXEMPTION","N","Y","Y"
1922910,125529,"DCM INVESTMENT MANAGEMENT IV, L.P.","DCM","",,"","N","N","N","N","N","N","N","N","N","N","N","N","N","N","N","Y","N","Y","N","","","","","","","","N","Y","VENTURE CAPITAL EXEMPTION","N","Y","Y"
1922910,172424,"DCM TURBO FUND INVESTMENT MANAGEMENT, L.P.","DCM","",,"","N","N","N","N","N","N","N","N","N","N","N","N","N","N","N","Y","N","Y","N","","","","","","","","N","Y","VENTURE CAPITAL EXEMPTION","N","Y","Y"
1922910,263155,"DCM INVESTMENT MANAGEMENT IX, L.P.","DCM","",,"","N","N","N","N","N","N","N","N","N","N","N","N","N","N","N","Y","N","Y","N","","","","","","","","N","Y","VENTURE CAPITAL EXEMPTION","N","Y","Y"
1922910,283443,"DCM OPPORTUNITY FUND INVESTMENT MANAGEMENT II, L.P.","DCM","",,"","N","N","N","N","N","N","N","N","N","N","N","N","N","N","N","Y","N","Y","N","","","","","","","","N","Y","","N","Y","Y"
1922910,241683,"A-FUND INVESTMENT MANAGEMENT III, L.P.","DCM","",,"","N","N","N","N","N","N","N","N","N","N","N","N","N","N","N","Y","N","Y","N","","","","","","","","N","Y","VENTURE CAPITAL EXEMPTION","N","Y","Y"
1922910,125533,"DCM INVESTMENT MANAGEMENT V, L.P.","DCM","",,"","N","N","N","N","N","N","N","N","N","N","N","N","N","N","N","Y","N","Y","N","","","","","","","","N","Y","VENTURE CAPITAL EXEMPTION","N","Y","Y"
1922910,125511,"DCM HYBRID RMB INVESTMENT MANAGEMENT, L.P.","DCM","",,"","N","N","N","N","N","N","N","N","N","N","N","N","N","N","N","Y","N","Y","N","","","","","","","","N","Y","VENTURE CAPITAL EXEMPTION","N","Y","Y"
1922910,125542,"DCM INVESTMENT MANAGEMENT VI, L.P.","DCM","",,"","N","N","N","N","N","N","N","N","N","N","N","N","N","N","N","Y","N","Y","N","","","","","","","","N","Y","VENTURE CAPITAL EXEMPTION","N","Y","Y"
1933776,363991,"IMPERATIVE VENTURES II GP, LLC","IMPERATIVE VENTURES II GP, LLC","",,"","N","N","N","N","N","N","N","N","N","N","N","N","N","N","N","Y","Y","Y","N","","","","","","","","N","Y","","N","Y","Y"
1933776,275804,"IMPERATIVE VENTURES G.P., LLC","IMPERATIVE VENTURES G.P., LLC","",,"","N","N","N","N","N","N","N","N","N","N","N","N","N","N","N","Y","Y","Y","N","","","","","","","","N","Y","VENTURE CAPITAL","N","Y","Y"
1932029,283017,"IVP FUND II A (GP), LTD.","IVP FUND II A (GP), LTD.","",,"","N","N","N","N","N","N","N","N","N","N","N","N","N","N","N","Y","N","Y","N","","","","","","","","N","","","N","Y","Y"
1932029,283018,"IVP FUND II B (GP), LTD.","IVP FUND II B (GP), LTD.","",,"","N","N","N","N","N","N","N","N","N","N","N","N","N","N","N","Y","N","Y","N","","","","","","","","N","","","Y","Y","Y"
1932029,283021,"INFINITY VENTURES IV (GP), L.P.","INFINITY VENTURES IV (GP), L.P.","",,"","N","N","N","N","N","N","N","N","N","N","N","N","N","N","N","Y","N","Y","N","","","","","","","","N","","","Y","Y","Y"
1932029,283020,"INFINITY E.VENTURES ASIA III (GP), LTD.","INFINITY E.VENTURES ASIA III (GP), LTD.","",,"","N","N","N","N","N","N","N","N","N","N","N","N","N","N","N","Y","N","Y","N","","","","","","","","N","","","Y","Y","Y"
1932029,365560,"HEADLINE ASIA V(GP), LTD.","HEADLINE ASIA V(GP), LTD.","",,"","N","N","N","N","N","N","N","N","N","N","N","N","N","N","N","Y","N","Y","N","","","","","","","","N","","","Y","Y","Y"
1933873,287980,"AXCEL MANAGEMENT AB","AXCEL MANAGEMENT AB","",,"","N","Y","N","N","N","N","N","N","N","N","N","N","N","N","N","N","Y","Y","N","","","","","","","","N","Y","FOREIGN PRIVATE ADVISER","N","Y","N"
1933873,342254,"AXCEL VII GP APS","AXCEL VII GP APS","",,"","N","N","N","N","N","N","N","N","N","N","N","N","N","N","N","Y","N","Y","N","","","","","","","","N","","","N","Y","N"
1933873,288086,"AXCEL FONDEN","AXCEL FONDEN","",,"","N","N","N","N","N","N","N","N","N","N","N","N","N","N","N","Y","N","Y","N","","","","","","","","N","","","N","Y","N"
1933873,287807,"AXCEL V GP APS","AXCEL V GP APS","",,"","N","N","N","N","N","N","N","N","N","N","N","N","N","N","N","Y","N","Y","N","","","","","","","","N","","","N","Y","N"
1933873,384580,"AXCEL CV GP APS","AXCEL CV GP APS","",,"","N","N","N","N","N","N","N","N","N","N","N","N","N","N","N","Y","N","Y","N","","","","","","","","N","","","N","Y","N"
1933873,285869,"AXCEL VI GP APS","AXCEL VI GP APS","",,"","N","N","N","N","N","N","N","N","N","N","N","N","N","N","N","Y","N","Y","N","","","","","","","","N","","","N","Y","N"
1933388,140579,"CHEYNE NEW EUROPE GENERAL PARTNER INC","CHEYNE NEW EUROPE GENERAL PARTNER INC","0402048",,"","N","N","N","N","N","Y","N","N","N","N","N","N","N","N","N","Y","N","Y","N","","","","","","","","N","N","","N","N","N"
1933388,140577,"CHEYNE CAPITAL MANAGEMENT (UK) LLP","CHEYNE CAPITAL MANAGEMENT (UK) LLP","801-78313",158991,"","N","Y","N","N","N","Y","N","N","N","N","N","N","N","N","N","N","N","Y","N","","","","","","","","N","N","","Y","N","N"
1933388,340809,"CHEYNE CAPITAL (MENA) LIMITED","CHEYNE CAPITAL (MENA) LIMITED","",,"","N","Y","N","N","N","N","N","N","N","N","N","N","N","N","N","N","N","Y","N","","","","","","","","N","Y","203(M)","Y","N","N"
1933388,276923,"CHEYNE CAPITAL SMC LIMITED","CHEYNE CAPITAL SMC LIMITED","802-117164",304782,"","N","Y","N","N","N","Y","N","N","N","N","N","N","N","N","N","N","N","Y","N","","","","","","","","N","Y","203(M)","Y","N","N"
1933388,276921,"CHEYNE REAL ESTATE CREDIT HOLDINGS SARL","CHEYNE REAL ESTATE CREDIT HOLDINGS SARL","",,"","N","N","N","N","N","N","N","N","N","N","N","N","N","N","N","Y","N","Y","N","","","","","","","","N","","","N","N","N"
1933388,140578,"CHEYNE GENERAL PARTNER INC","CHEYNE GENERAL PARTNER INC","0303035",,"","N","N","N","N","N","Y","N","N","N","N","N","N","N","N","N","Y","N","Y","N","","","","","","","","N","N","","N","N","N"
1933388,235185,"CHEYNE GENERAL PARTNER S.A.R.L","CHEYNE GENERAL PARTNER S.A.R.L","",,"","N","N","N","N","N","Y","N","N","N","N","N","N","N","N","N","Y","N","Y","N","","","","","","","","N","N","","N","N","N"
1933388,340810,"CHEYNE REAL ESTATE CREDIT HOLDINGS RAIF","CHEYNE REAL ESTATE CREDIT HOLDINGS RAIF","",,"","N","N","N","N","N","N","N","N","N","N","N","N","N","N","N","Y","N","Y","N","","","","","","","","N","","","Y","N","N"
1933388,340811,"CHEYNE SELECT MASTER FUND ICAV","CHEYNE SELECT MASTER FUND ICAV","",,"","N","N","N","N","N","N","N","N","N","N","N","N","N","N","N","Y","N","Y","N","","","","","","","","N","","","Y","N","N"
1933388,340812,"CHEYNE SELECT FEEDER FUND ICAV","CHEYNE SELECT FEEDER FUND ICAV","",,"","N","N","N","N","N","N","N","N","N","N","N","N","N","N","N","Y","N","Y","N","","","","","","","","N","","","Y","N","N"
1933388,155888,"CHEYNE CAPITAL US LIMITED PARTNERSHIP","CHEYNE CAPITAL US LIMITED PARTNERSHIP","",,"","N","N","N","N","N","Y","N","N","N","N","N","N","N","N","N","N","N","Y","N","","","","","","","","N","","","N","Y","N"
1933388,253512,"CHEYNE SVC LLP","CHEYNE SVC LLP","",,"","N","N","N","N","N","Y","N","N","N","N","N","N","N","N","N","N","N","Y","N","","","","","","","","N","","","N","N","N"
1933388,276920,"CHEYNE SVC GENERAL PARTNER SARL","CHEYNE SVC GENERAL PARTNER SARL","",,"","N","N","N","N","N","N","N","N","N","N","N","N","N","N","N","Y","N","Y","N","","","","","","","","N","","","N","N","N"
1919666,383589,"CAXTON EUROPE LLP","CAXTON EUROPE LLP","",138105,"","N","Y","N","N","N","Y","N","N","N","N","N","N","N","N","N","N","Y","Y","N","","","","","","","","N","Y","EXEMPT REPORTING ADVISER RULE 203(M)-1","Y","N","N"
1927542,292617,"RED & BLUE VENTURES II GP, LLC","RED & BLUE VENTURES II GP, LLC","",,"","N","N","N","N","N","N","N","N","N","N","N","N","N","N","N","Y","N","Y","N","","","","","","","","N","","","N","Y","Y"
1927542,292618,"MENTORTECH MANAGEMENT, LLC","MENTORTECH MANAGEMENT, LLC","",,"","N","Y","N","N","N","N","N","N","N","N","N","N","N","N","N","Y","N","Y","N","","","","","","","","N","Y","INSUFFICIENT ASSETS UNDER MANAGEMENT REQUIRED FOR REPORTING.","N","Y","N"
1927542,292616,"RED & BLUE VENTURES, LLC","RED & BLUE VENTURES, LLC","",,"","N","N","N","N","N","N","N","N","N","N","N","N","N","N","N","Y","N","Y","N","","","","","","","","N","","","N","Y","Y"
1933339,111543,"VALHALLA II GP LLC","VALHALLA II GP LLC","",,"","N","Y","N","N","N","N","N","N","N","N","N","N","N","N","N","Y","N","Y","N","","","","","","","","N","Y","203(L)","N","Y","Y"
1927187,361218,"KERSHNER STRATEGIC OPPORTUNITY ADVISORS, LLC","KERSHNER STRATEGIC OPPORTUNITY ADVISORS, LLC","801-119281",309646,"","N","Y","N","N","N","N","N","N","N","N","N","N","N","N","N","N","N","Y","N","","","","","","","","N","N","","N","N","N"
1927187,289784,"FIFTH LANE GP, LP","FIFTH LANE GP, LP","",,"","N","N","N","N","N","N","N","N","N","N","N","N","N","N","N","Y","N","Y","N","","","","","","","","N","","","N","Y","Y"
1927187,289786,"KERSHNER SECURITIES, LLC","KERSHNER SECURITIES, LLC","8-67922",147653,"","Y","N","N","N","N","N","N","N","N","N","N","N","N","N","N","N","N","Y","N","","","","","","","","N","","","N","Y","N"
1928900,303019,"SECTOR CAPITAL AS","SECTOR CAPITAL AS","",,"","N","Y","N","N","N","N","N","N","N","N","N","N","N","N","N","N","N","Y","N","","","","","","","","N","Y","FOREIGN PRIVATE FUND ADVISER","Y","Y","Y"
1928900,188106,"SECTOR THETA AS","SECTOR THETA AS","",,"","N","Y","N","N","N","N","N","N","N","N","N","N","N","N","N","N","N","Y","N","","","","","","","","N","Y","FOREIGN PRIVATE FUND ADVISER","Y","Y","Y"
1923862,384109,"SCIP EQUITY GP LTD.","SCIP EQUITY GP LTD.","",,"","N","N","N","N","N","N","N","N","N","N","N","N","N","N","N","Y","N","Y","N","","","","","","","","N","","","N","Y","Y"
1923862,384110,"SCIP HEDGE FUND GP LTD.","SCIP HEDGE FUND GP LTD.","",,"","N","N","N","N","N","N","N","N","N","N","N","N","N","N","N","Y","N","Y","N","","","","","","","","N","","","N","Y","Y"
1923862,384111,"SCIP PRIVATE EQUITY GP LTD.","SCIP PRIVATE EQUITY GP LTD.","",,"","N","N","N","N","N","N","N","N","N","N","N","N","N","N","N","Y","N","Y","N","","","","","","","","N","","","N","Y","Y"
1923862,384112,"SCIP REAL ESTATE GP LTD.","SCIP REAL ESTATE GP LTD.","",,"","N","N","N","N","N","N","N","N","N","N","N","N","N","N","N","Y","N","Y","N","","","","","","","","N","","","N","Y","Y"
1925431,341308,"ARBORETUM INVESTMENT MANAGER, LLC","ARBORETUM INVESTMENT MANAGER, LLC","",,"","N","N","N","N","N","N","N","N","N","N","N","N","N","N","N","Y","N","Y","N","","","","","","","","N","Y","VENTURE CAPITAL FUND ADVISER EXEMPTION","N","Y","Y"
1925431,341309,"ARBORETUM INVESTMENT MANAGER II, LLC","ARBORETUM INVESTMENT MANAGER II, LLC","",,"","N","N","N","N","N","N","N","N","N","N","N","N","N","N","N","Y","N","Y","N","","","","","","","","N","Y","VENTURE CAPITAL FUND ADVISER EXEMPTION","N","Y","Y"
1925431,341310,"ARBORETUM INVESTMENT MANAGER IIA, LLC","ARBORETUM INVESTMENT MANAGER IIA, LLC","",,"","N","N","N","N","N","N","N","N","N","N","N","N","N","N","N","Y","N","Y","N","","","","","","","","N","Y","VENTURE CAPITAL FUND ADVISER EXEMPTION","N","Y","Y"
1925431,341312,"ARBORETUM INVESTMENT MANAGER IV, LLC","ARBORETUM INVESTMENT MANAGER IV, LLC","",,"","N","N","N","N","N","N","N","N","N","N","N","N","N","N","N","Y","N","Y","N","","","","","","","","N","Y","VENTURE CAPITAL FUND ADVISER EXEMPTION","N","Y","Y"
1925431,341314,"ARBORETUM INVESTMENT MANAGER VI, LLC","ARBORETUM INVESTMENT MANAGER VI, LLC","",,"","N","N","N","N","N","N","N","N","N","N","N","N","N","N","N","Y","N","Y","N","","","","","","","","N","Y","VENTURE CAPITAL FUND ADVISER EXEMPTION","N","Y","Y"
1925431,341313,"ARBORETUM INVESTMENT MANAGER V, LLC","ARBORETUM INVESTMENT MANAGER V, LLC","",,"","N","N","N","N","N","N","N","N","N","N","N","N","N","N","N","Y","N","Y","N","","","","","","","","N","Y","VENTURE CAPITAL FUND ADVISER EXEMPTION","N","Y","Y"
1925431,341311,"ARBORETUM INVESTMENT MANAGER III, LLC","ARBORETUM INVESTMENT MANAGER III, LLC","",,"","N","N","N","N","N","N","N","N","N","N","N","N","N","N","N","Y","N","Y","N","","","","","","","","N","Y","VENTURE CAPITAL FUND ADVISER EXEMPTION","N","Y","Y"
1925766,125763,"DRAPER FISHER JURVETSON FUND VIII MANAGEMENT COMPANY, LLC","DRAPER FISHER JURVETSON FUND VIII MANAGEMENT COMPANY, LLC","",,"","N","Y","N","N","N","N","N","N","N","N","N","N","N","N","N","N","N","Y","N","","","","","","","","N","Y","203(L)","N","Y","Y"
1925766,125767,"DRAPER FISHER JURVETSON FUND IX MANAGEMENT COMPANY, LLC","DRAPER FISHER JURVETSON FUND IX MANAGEMENT COMPANY, LLC","",,"","N","Y","N","N","N","N","N","N","N","N","N","N","N","N","N","N","N","Y","N","","","","","","","","N","Y","203(L)","N","Y","Y"
1925766,125764,"DRAPER FISHER JURVETSON FUND VIII PARTNERS, L.P.","DRAPER FISHER JURVETSON FUND VIII PARTNERS, L.P.","",,"","N","N","N","N","N","N","N","N","N","N","N","N","N","N","N","Y","N","Y","N","","","","","","","","N","Y","203(L)","N","Y","Y"
1925766,355311,"THRESHOLD VENTURES I GENERAL PARTNER, LLC","THRESHOLD VENTURES I GENERAL PARTNER, LLC","",,"","N","N","N","N","N","N","N","N","N","N","N","N","N","N","N","Y","N","Y","N","","","","","","","","N","Y","203(L)","N","Y","Y"
1925766,355312,"THRESHOLD VENTURES II GENERAL PARTNER, LLC","THRESHOLD VENTURES II GENERAL PARTNER, LLC","",,"","N","N","N","N","N","N","N","N","N","N","N","N","N","N","N","Y","N","Y","N","","","","","","","","N","Y","203(L)","N","Y","Y"
1925766,355246,"ANDREAS STAVROPOULOS","ANDREAS STAVROPOULOS","",,"","N","N","N","N","N","N","N","N","N","N","N","N","N","N","N","Y","Y","Y","N","","","","","","","","N","Y","203(L)","N","Y","Y"
1925766,355245,"TIMOTHY COOK DRAPER","TIMOTHY DRAPER","",,"","N","N","N","N","N","N","N","N","N","N","N","N","N","N","N","Y","Y","Y","N","","","","","","","","N","Y","203(L)","N","Y","Y"
1925766,355247,"JOSHUA STEIN","JOSHUA STEIN","",,"","N","N","N","N","N","N","N","N","N","N","N","N","N","N","N","Y","Y","Y","N","","","","","","","","N","Y","203(L)","N","Y","Y"
1925766,125770,"DRAPER FISHER JURVETSON FUND X PARTNERS, L.P.","DRAPER FISHER JURVETSON FUND X PARTNERS, L.P.","",,"","N","N","N","N","N","N","N","N","N","N","N","N","N","N","N","Y","N","Y","N","","","","","","","","N","Y","203(L)","N","Y","Y"
1925766,355244,"JOHN HERBERT NEWALL FISHER","JOHN FISHER","",,"","N","N","N","N","N","N","N","N","N","N","N","N","N","N","N","Y","Y","Y","N","","","","","","","","N","Y","203(L)","N","Y","Y"
1925766,355309,"THRESHOLD VENTURES II MANAGEMENT COMPANY, LLC","THRESHOLD VENTURES II MANAGEMENT COMPANY, LLC","",326501,"","N","Y","N","N","N","N","N","N","N","N","N","N","N","N","N","N","N","Y","N","","","","","","","","N","Y","203(L)","N","Y","Y"
1925766,125765,"DFJ FUND IX CONTINUATION PARTNERS, L.P.","DFJ FUND IX CONTINUATION PARTNERS, L.P.","",,"","N","N","N","N","N","N","N","N","N","N","N","N","N","N","N","Y","N","Y","N","","","","","","","","N","Y","203(L)","N","Y","Y"
1925766,125768,"DRAPER FISHER JURVETSON FUND X MANAGEMENT COMPANY, LLC","DRAPER FISHER JURVETSON FUND X MANAGEMENT COMPANY, LLC","",,"","N","Y","N","N","N","N","N","N","N","N","N","N","N","N","N","N","N","Y","N","","","","","","","","N","Y","203(L)","N","Y","Y"
1925766,355308,"THRESHOLD VENTURES I MANAGEMENT COMPANY, LLC","THRESHOLD VENTURES I MANAGEMENT COMPANY, LLC","",326413,"","N","Y","N","N","N","N","N","N","N","N","N","N","N","N","N","N","N","Y","N","","","","","","","","N","Y","203(L)","N","Y","Y"
1922628,148887,"A.Z.G. CAPITAL CORP.","A.Z.G. CAPITAL CORP.","",,"","N","N","N","N","N","N","N","N","N","N","N","N","N","N","N","Y","N","Y","N","","","","","","","","N","","","N","Y","Y"
1922628,148886,"NANO-CAP ADVISORS LLC","NANO-CAP ADVISORS LLC","",,"","N","N","N","N","N","N","N","N","N","N","N","N","N","N","N","Y","N","Y","N","","","","","","","","N","Y","","N","Y","Y"
1929760,292593,"CENTURION US GP LLC","CENTURION US GP LLC","",,"","N","N","N","N","N","N","N","N","N","N","N","N","N","N","N","Y","Y","Y","N","","","","","","","","N","","","N","Y","Y"
1924312,324648,"SHARENETT SECURITIES LLC","SHARENETT SECURITIES LLC","8-68326",151011,"","Y","N","N","N","N","N","N","N","N","N","N","N","N","N","N","N","N","Y","N","","","","","","","","N","","","N","Y","Y"
1934275,324648,"SHARENETT SECURITIES LLC","SHARENETT SECURITIES LLC","8-68326",151011,"","Y","N","N","N","N","N","N","N","N","N","N","N","N","N","N","N","N","Y","N","","","","","","","","N","","","N","Y","Y"
1933412,250218,"MV INVESTMENT VEHICLE LLC","MV INVESTMENT VEHICLE LLC","",282658,"","N","Y","N","N","N","N","N","N","N","N","N","N","N","N","N","Y","N","Y","N","","","","","","","","N","Y","PRIVATE FUND ADVISER (STATE ERA)","N","Y","N"
1922168,307218,"CLEO CAPITAL FUND I GP, LLC","CLEO CAPITAL FUND I GP, LLC","",,"","N","N","N","N","N","N","N","N","N","N","N","N","N","N","N","Y","N","Y","N","","","","","","","","N","","","N","Y","Y"
1922168,307219,"CLEO CAPITAL FUND II GP, LLC","CLEO CAPITAL FUND II GP, LLC","",,"","N","N","N","N","N","N","N","N","N","N","N","N","N","N","N","Y","N","Y","N","","","","","","","","N","","","N","Y","Y"
1922168,327641,"CLEO OPPORTUNITY FUND GP, LLC","CLEO OPPORTUNITY FUND GP, LLC","",,"","N","N","N","N","N","N","N","N","N","N","N","N","N","N","N","Y","N","Y","N","","","","","","","","N","","","N","Y","Y"
1904925,381685,"WELWING CAPITAL (UK) LIMITED","WELWING CAPITAL (UK) LIMITED","",,"","N","Y","N","N","N","N","N","N","N","N","N","N","N","N","N","N","N","Y","N","","","","","","","","N","Y","FOREIGN PRIVATE ADVISER EXEMPTION","Y","Y","N"
1904925,381683,"WELWING CAPITAL MANAGEMENT (DIFC) LIMITED","WELWING CAPITAL MANAGEMENT (DIFC) LIMITED","",,"","N","Y","N","N","N","N","N","N","N","N","N","N","N","N","N","N","N","Y","N","","","","","","","","N","Y","FOREIGN PRIVATE ADVISER EXEMPTION","Y","Y","N"
1904925,381684,"WELWING CAPITAL (SINGAPORE) PTE. LIMITED","WELWING CAPITAL (SINGAPORE) PTE. LIMITED","",,"","N","N","N","N","N","N","N","N","N","Y","N","N","N","N","N","N","N","Y","N","","","","","","","","N","","","N","Y","N"
1929947,315953,"ETHOS INVESTMENTS GP LLC","GENERAL PARTNER OF FUNDS MANAGED BY ETHOS INVESTMENT MANAGEMENT LP","",,"","N","N","N","N","N","N","N","N","N","N","N","N","N","N","N","Y","Y","Y","N","","","","","","","","N","","","N","N","N"
1929947,315952,"ETHOS INVESTMENT MANAGEMENT (GP) LLC","GENERAL PARTNER OF ETHOS INVESTMENT MANAGEMENT LP","",,"","N","N","N","N","N","N","N","N","N","N","N","N","N","N","Y","N","Y","Y","N","","","","","","","","N","","","N","N","N"
1927996,381329,"14PEAKS CAPITAL ADVISORS LLC","14PEAKS CAPITAL ADVISORS LLC","",,"","N","Y","N","N","N","N","N","N","N","N","N","N","N","N","N","N","Y","Y","N","","","","","","","","N","Y","FLORIDA DE MINIMIS EXEMPTION","N","Y","Y"
1929624,381833,"CARDINAL COMPANIES FUND I GP, LLC","CARDINAL COMPANIES FUND I GP, LLC","",,"","N","N","N","N","N","N","N","N","N","N","N","N","N","N","N","Y","Y","Y","N","","","","","","","","N","Y","CARDINAL COMPANIES FUND I GP, LLC IS A PRIVATE FUND ADVISER  PURSUANT TO SEC RULE 203(M)-1.","N","Y","Y"
1914383,354724,"CITATION GP I LP","CITATION GP I LP","",,"","N","N","N","N","N","N","N","N","N","N","N","N","N","N","N","Y","N","Y","N","","","","","","","","N","","","N","Y","Y"
1914383,358986,"CITATION CERES CO-INVEST GP LP","CITATION CERES CO-INVEST GP LP","",,"","N","N","N","N","N","N","N","N","N","N","N","N","N","N","N","Y","N","Y","N","","","","","","","","N","","","N","Y","Y"
1914383,382845,"CITATION ALPHA CO-INVEST GP LP","CITATION ALPHA CO-INVEST GP LP","",,"","N","N","N","N","N","N","N","N","N","N","N","N","N","N","N","Y","N","Y","N","","","","","","","","N","","","N","Y","Y"
1925657,351162,"THE MAGNOLIA GROUP, LLC","THE MAGNOLIA GROUP, LLC","801-79848",171102,"","N","Y","N","N","N","N","N","N","N","N","N","N","N","N","N","Y","N","Y","N","","","","","","","","N","N","","N","Y","Y"
1925657,370809,"BOAM FUND ONE: GP LLC","BOAM FUND ONE: GP LLC","",,"","N","N","N","N","N","N","N","N","N","N","N","N","N","N","N","Y","N","Y","N","","","","","","","","N","","","N","Y","Y"
1925657,351157,"LOGIC REAL ESTATE COMPANIES LLC","LOGIC REAL ESTATE COMPANIES LLC","",,"","N","N","N","N","N","N","N","N","N","N","N","N","N","Y","N","N","N","Y","N","","","","","","","","N","","","N","Y","Y"
1925657,351154,"GENERAL INDEMNITY GROUP, LLC","GENERAL INDEMNITY GROUP, LLC","",,"","N","N","N","N","N","N","N","N","N","N","N","Y","N","N","N","N","N","Y","N","","","","","","","","N","","","N","N","N"
1925657,351146,"BOSTON OMAHA ASSET MANAGEMENT, LLC","BOSTON OMAHA ASSET MANAGEMENT, LLC","",,"","N","N","N","N","N","N","N","N","N","N","N","N","N","N","Y","N","Y","N","N","","","","","","","","N","","","N","Y","Y"
1925657,384104,"24TH STREET ASSET MANAGEMENT LLC","24TH STREET ASSET MANAGEMENT LLC","",,"","N","N","N","N","N","N","N","N","N","N","N","N","N","N","N","Y","N","Y","N","","","","","","","","N","","","N","Y","N"
1925135,384079,"ACE REDPOINT OPPORTUNITY II GP, L.P.","ACE REDPOINT OPPORTUNITY II, L.P.","",,"","N","N","N","N","N","N","N","N","N","N","N","N","N","N","N","Y","N","Y","N","","","","","","","","N","Y","","N","Y","Y"
1925135,354624,"ACE REDPOINT VENTURES III GP, L.P.","ACE REDPOINT VENTURES III GP, L.P.","",,"","N","N","N","N","N","N","N","N","N","N","N","N","N","N","N","Y","N","Y","N","","","","","","","","N","Y","","N","Y","Y"
1925135,225671,"ACE REDPOINT VENTURES CHINA I GP, L.P.","ACE REDPOINT VENTURES CHINA I GP, L.P.","",,"","N","N","N","N","N","N","N","N","N","N","N","N","N","N","N","Y","N","Y","N","","","","","","","","N","Y","","N","Y","Y"
1925135,255960,"ACE REDPOINT VENTURES CHINA II GP, L.P.","ACE REDPOINT VENTURES CHINA II GP, L.P.","",,"","N","N","N","N","N","N","N","N","N","N","N","N","N","N","N","Y","N","Y","N","","","","","","","","N","Y","","N","Y","Y"
1925135,255961,"ACE REDPOINT OPPORTUNITY CHINA GP, L.P.","ACE REDPOINT OPPORTUNITY CHINA GP, L.P.","",,"","N","N","N","N","N","N","N","N","N","N","N","N","N","N","N","Y","N","Y","N","","","","","","","","N","Y","","N","Y","Y"
1928549,319070,"HCVP II, LLC","HCVP II, LLC","",,"","N","N","N","N","N","N","N","N","N","N","N","N","N","N","N","Y","Y","Y","N","","","","","","","","N","","","N","Y","Y"
1928549,301757,"HCVP I, LLC","HCVP I, LLC","",,"","N","N","N","N","N","N","N","N","N","N","N","N","N","N","N","Y","Y","Y","N","","","","","","","","N","","","N","Y","Y"
1929084,339295,"MINORU UMEZAKI","N/A","",,"","N","N","N","N","N","N","N","N","N","N","N","N","N","N","N","Y","Y","N","N","","","","","","","","N","","","Y","N","Y"
1930258,384313,"ROOT VENTURES GP, LLC","ROOT VENTURES GP, LLC","",,"","N","N","N","N","N","N","N","N","N","N","N","N","N","N","N","Y","N","Y","N","","","","","","","","N","","","N","Y","Y"
1930258,384314,"ROOT VENTURES II GP, LLC","ROOT VENTURES II GP, LLC","",,"","N","N","N","N","N","N","N","N","N","N","N","N","N","N","N","Y","N","Y","N","","","","","","","","N","","","N","Y","Y"
1930258,384315,"ROOT VENTURES III GP, LLC","ROOT VENTURES III GP, LLC","",,"","N","N","N","N","N","N","N","N","N","N","N","N","N","N","N","Y","N","Y","N","","","","","","","","N","","","N","Y","Y"
1930310,348579,"VANGUARD SUPER PTY LTD.","VANGUARD SUPER PTY LTD.","",,"","N","N","N","N","N","N","N","N","Y","N","N","N","Y","N","N","N","N","Y","N","","","","","","","","N","","","Y","Y","Y"
1930310,211289,"VANGUARD INVESTMENTS AUSTRALIA LIMITED","VANGUARD INVESTMENTS AUSTRALIA LIMITED","801-107761",282933,"","N","Y","N","N","N","N","N","N","N","N","N","N","N","N","N","Y","N","Y","N","","","","","","","","N","N","","Y","Y","N"
1930310,211288,"VANGUARD ASSET MANAGEMENT, LIMITED","VANGUARD ASSET MANAGEMENT, LIMITED","801-107653",282598,"","N","Y","N","N","N","N","N","N","N","N","N","N","N","N","N","Y","N","Y","N","","","","","","","","N","Y","FOREIGN PRIVATE ADVISER EXEMPTION","Y","Y","Y"
1930310,211286,"THE VANGUARD GROUP, INC.","VANGUARD GROUP INC","801-11953",105958,"","N","Y","N","N","N","Y","N","N","N","N","N","N","N","N","N","Y","Y","N","N","","","","","","","","N","N","","N","Y","N"
1930310,301871,"VANGUARD GROUP (IRELAND) LIMITED","VANGUARD GROUP (IRELAND) LIMITED","802-112172",285297,"","N","Y","N","N","N","N","N","N","N","N","N","N","N","N","N","Y","N","Y","N","","","","","","","","N","Y","PRIVATE FUND ADVISER EXEMPTION","Y","Y","N"
1930310,302300,"VANGUARD INVESTMENTS CANADA INC.","VANGUARD INVESTMENTS CANADA INC.","802-107926",283519,"","Y","Y","N","N","N","Y","N","N","N","N","N","N","N","N","N","Y","N","Y","N","","","","","","","","N","Y","PRIVATE FUND ADVISER EXEMPTION","Y","Y","N"
1930310,301858,"VGIM, S.A. DE C.V., ASESOR EN INVERSIONES INDEPENDIENTE","VANGUARD MXICO","",,"","N","Y","N","N","N","N","N","N","N","N","N","N","N","N","N","Y","N","Y","N","","","","","","","","N","Y","FOREIGN PRIVATE ADVISER EXEMPTION","Y","N","N"
1930310,349223,"VGI INSURANCE, INC.","VGI INSURANCE, INC.","",,"","N","N","N","N","N","N","N","N","N","N","N","Y","N","N","N","N","N","Y","N","","","","","","","","N","","","N","Y","N"
1930310,348578,"VANGUARD GROUP EUROPE GMBH","VANGUARD GROUP EUROPE GMBH","",,"","Y","N","N","N","N","N","N","Y","N","N","N","N","N","N","N","N","N","Y","N","","","","","","","","N","","","Y","N","N"
1930310,211287,"VANGUARD GLOBAL ADVISERS, LLC","VANGUARD GLOBAL ADVISERS, LLC","801-76825",164593,"","N","Y","N","N","N","N","N","N","N","N","N","N","N","N","N","N","N","Y","N","","","","","","","","N","N","","N","Y","N"
1930310,211285,"VANGUARD MARKETING CORPORATION","VANGUARD MARKETING CORPORATION","8-21570",7452,"","Y","N","N","N","N","N","N","N","N","N","N","N","N","N","N","N","N","Y","N","","","","","","","","N","","","N","Y","N"
1928433,358754,"DC FOF 3 GP, LLC","DC FOF 3 GP, LLC","",,"","N","N","N","N","N","N","N","N","N","N","N","N","N","N","N","Y","N","Y","Y","","489 W SOUTH JORDAN PKWY, STE 310","","SOUTH JORDAN","UT","United States","84095","N","","","N","Y","Y"
1928433,358717,"DC FOF 2 GP, LLC","DC FOF 2 GP, LLC","",,"","N","N","N","N","N","N","N","N","N","N","N","N","N","N","N","Y","N","Y","Y","","489 W SOUTH JORDAN PKWY, STE 310","","SOUTH JORDAN","UT","United States","84095","N","","","N","Y","Y"
1928433,359028,"FIDUCIENT ADVISORS LLC","FIDUCIENT ADVISORS LLC","801-48820",106720,"","N","Y","N","N","N","N","N","N","N","N","N","N","N","N","N","N","N","Y","N","","","","","","","","N","N","","N","N","N"
1928433,359026,"NFP PROPERTY & CASUALTY SERVICES, INC.","NFP PROPERTY & CASUALTY SERVICES, INC.","",,"","N","N","N","N","N","N","N","N","N","N","N","Y","N","N","N","N","N","Y","N","","","","","","","","N","","","N","N","N"
1928433,359021,"FIDUCIARY FIRST, LLC","FIDUCIARY FIRST","801-72234",150330,"","N","Y","N","N","N","N","N","N","N","N","N","N","N","N","N","N","N","Y","N","","","","","","","","N","N","","N","Y","N"
1928433,359023,"WEALTHSPIRE ADVISORS LLC","WEALTHSPIRE ADVISORS","801-49390",106181,"","N","Y","N","N","N","N","N","N","N","N","N","N","N","N","N","N","N","Y","N","","","","","","","","N","N","","N","N","N"
1928433,361790,"NFP CORPORATE SERVICES (UT), INC.","NFP CORPORATE SERVICES (UT), INC.","",,"","N","N","N","N","N","N","N","N","N","N","N","Y","N","N","N","N","N","Y","N","","","","","","","","N","","","N","N","N"
1928433,359025,"ACCOUNTANTS PROPRIETARY FINANCIAL SERVICENET, INC.","ACCOUNTANTS PROPRIETARY FINANCIAL SERVICENET, INC.","801-62457",126685,"","N","Y","N","N","N","N","N","N","N","N","N","N","N","N","N","N","N","Y","N","","","","","","","","N","N","","N","N","N"
1928433,359027,"SST BENEFITS CONSULTING & INSURANCE SERVICES, INC.","SST BENEFITS CONSULTING","801-110377",288129,"","N","Y","N","N","N","N","N","N","N","N","N","N","N","N","N","N","N","Y","N","","","","","","","","N","N","","N","Y","N"
1912487,382612,"BSF OPPORTUNITY FUND I GP, LLC","BSF OPPORTUNITY FUND I GP, LLC","",,"","N","Y","N","N","N","N","N","N","N","N","N","N","N","N","N","Y","N","Y","N","","","","","","","","N","Y","RULE 203(L)-1 UNDER THE INVESTMENT ADVISERS ACT OF 1940","N","Y","Y"
1912487,382613,"BERKELEY SKYDECK FUND I GP, LLC","BERKELEY SKYDECK FUND I GP, LLC","",,"","N","Y","N","N","N","N","N","N","N","N","N","N","N","N","N","Y","N","Y","N","","","","","","","","N","Y","RULE 203(L)-1 UNDER THE INVESTMENT ADVISERS ACT OF 1940","N","Y","Y"
1912494,382614,"BSF OPPORTUNITY FUND I GP, LLC","BSF OPPORTUNITY FUND I GP, LLC","",,"","N","Y","N","N","N","N","N","N","N","N","N","N","N","N","N","Y","N","Y","N","","","","","","","","N","Y","RULE 203(L)-1 UNDER THE INVESTMENT ADVISERS ACT OF 1940","N","Y","Y"
1922948,383953,"A-FUND IV INVESTMENT MANAGEMENT, L.P.","A-FUND IV INVESTMENT MANAGEMENT, L.P.","",,"","N","N","N","N","N","N","N","N","N","N","N","N","N","N","N","Y","N","Y","N","","","","","","","","N","Y","VENTURE CAPITAL EXEMPTION","N","Y","Y"
1924710,336035,"DARDANELLES CAPITAL GP, LLC","DARDANELLES CAPITAL GP, LLC","",,"","N","N","N","N","N","Y","N","N","N","N","N","N","N","N","N","Y","N","Y","N","","","","","","","","N","","","N","Y","Y"
1930817,276048,"WT INVESTMENT MANAGEMENT","WT INVESTMENT MANAGEMENT","",,"","N","N","N","N","N","N","N","N","N","N","N","N","N","N","N","Y","N","Y","N","","","","","","","","N","","","N","Y","N"
1930086,334171,"17CAPITAL CO-INVEST (B) GP S.A.R.L.","17CAPITAL CO-INVEST (B) GP S.A.R.L.","",,"","N","N","N","N","N","N","N","N","N","N","N","N","N","N","N","Y","Y","Y","N","","","","","","","","N","","","Y","Y","N"
1930086,334172,"17CAPITAL STRATEGIC PATH FUND (A) GP S.A.R.L.","17CAPITAL STRATEGIC PATH FUND (A) GP S.A.R.L.","",,"","N","N","N","N","N","N","N","N","N","N","N","N","N","N","N","Y","Y","Y","N","","","","","","","","N","","","Y","Y","N"
1930086,334170,"17CAPITAL CO-INVEST (A) GP S.A.R.L.","17CAPITAL CO-INVEST (A) GP S.A.R.L.","",,"","N","N","N","N","N","N","N","N","N","N","N","N","N","N","N","Y","Y","Y","N","","","","","","","","N","","","Y","Y","N"
1930086,289493,"17 CAPITAL SERVICES LIMITED","17 CAPITAL SERVICES LIMITED","",,"","N","Y","N","N","N","N","N","N","N","N","N","N","N","N","N","N","Y","Y","N","","","","","","","","N","Y","PRIVATE FUND ADVISER EXEMPTION","N","Y","Y"
1930086,342073,"17CAPITAL STRATEGIC LENDING FUND 6 LUXEMBOURG GP S.A.R.L.","17CAPITAL STRATEGIC LENDING FUND 6 LUXEMBOURG GP S.A.R.L.","",,"","N","N","N","N","N","N","N","N","N","N","N","N","N","N","N","Y","Y","Y","N","","","","","","","","N","","","Y","Y","N"
1930086,289952,"17CAPITAL FUND 5 LUXEMBOURG GP S.A.R.L.","17CAPITAL FUND 5 LUXEMBOURG GP S.A.R.L.","",,"","N","N","N","N","N","N","N","N","N","N","N","N","N","N","N","Y","Y","Y","N","","","","","","","","N","","","Y","Y","N"
1930086,366118,"17CAPITAL CREDIT 2 LUXEMBOURG GP SARL","17CAPITAL CREDIT 2 LUXEMBOURG GP SARL","",,"","N","N","N","N","N","N","N","N","N","N","N","N","N","N","N","Y","Y","Y","N","","","","","","","","N","","","Y","Y","N"
1930086,366119,"EMERALD DIVERSIFIED CREDIT GP S.A.R.L","EMERALD DIVERSIFIED CREDIT GP S.A.R.L","",,"","N","N","N","N","N","N","N","N","N","N","N","N","N","N","N","Y","Y","Y","N","","","","","","","","N","","","Y","Y","N"
1930086,366120,"17CAPITAL CO-INVEST (V) GP SARL","17CAPITAL CO-INVEST (V) GP SARL","",,"","N","N","N","N","N","N","N","N","N","N","N","N","N","N","N","Y","Y","Y","N","","","","","","","","N","","","Y","Y","N"
1930086,366121,"17CAPITAL CREDIT STRATEGIC PARTNERSHIP GP SARL","17CAPITAL CREDIT STRATEGIC PARTNERSHIP GP SARL","",,"","N","N","N","N","N","N","N","N","N","N","N","N","N","N","N","Y","Y","Y","N","","","","","","","","N","","","Y","Y","N"
1930086,375636,"17CAPITAL (SCOTS GP 4) LLP","17CAPITAL (SCOTS GP 4) LLP","",,"","N","N","N","N","N","N","N","N","N","N","N","N","N","N","N","Y","Y","Y","N","","","","","","","","N","","","Y","Y","N"
1930086,289953,"17CAPITAL CREDIT LUXEMBOURG GP S.A.R.L.","17CAPITAL CREDIT LUXEMBOURG GP S.A.R.L.","",,"","N","N","N","N","N","N","N","N","N","N","N","N","N","N","N","Y","Y","Y","N","","","","","","","","N","","","Y","Y","N"
1930086,375649,"17CAPITAL LUXEMBOURG GP S.A.R.L","17CAPITAL LUXEMBOURG GP S.A.R.L","",,"","N","N","N","N","N","N","N","N","N","N","N","N","N","N","N","Y","Y","Y","N","","","","","","","","N","","","Y","Y","N"
1931923,384406,"JOHN LEGGETT","JOHN LEGGETT","",,"","N","N","N","N","N","N","N","N","N","N","N","N","N","Y","N","N","N","N","N","","","","","","","","N","","","N","Y","Y"
1931923,354578,"HILLMAN ROYALTIES GP, LLC","HILLMAN ROYALTIES","",,"","N","N","N","N","N","N","N","N","N","N","N","N","N","N","N","Y","Y","Y","N","","","","","","","","N","","","N","Y","Y"
1931923,354577,"CANNON FIELD MINERALS FUND I GP, LLC","CANNON FIELD MINERALS FUND I GP","",,"","N","N","N","N","N","N","N","N","N","N","N","N","N","N","N","Y","Y","Y","N","","","","","","","","N","","","N","Y","Y"
1923944,314376,"ZEFF CAPITAL, LP","ZEFF CAPITAL, LP","",,"","N","N","N","N","N","N","N","N","N","N","N","N","N","N","N","Y","Y","N","N","","","","","","","","N","","","N","Y","Y"
1908697,287726,"VALEDOR CAPITAL MANAGEMENT, LP","VALEDOR CAPITAL MANAGEMENT, LP","",,"","N","Y","N","N","N","N","N","N","N","N","N","N","N","N","N","Y","N","Y","N","","","","","","","","N","Y","PRIVATE FUND ADVISER","N","Y","Y"
1908697,287727,"VALEDOR CP II FEEDER FUND GP, LLC","VALEDOR CP II FEEDER FUND GP, LLC","",,"","N","N","N","N","N","N","N","N","N","N","N","N","N","N","N","Y","Y","Y","N","","","","","","","","N","Y","PRIVATE FUND ADVISER","N","Y","Y"
1908697,342360,"VALEDOR PARNTNERS HOLDINGS GP, LLC","VALEDOR PARTNERS HOLDINGS GP, LLC","",,"","N","N","N","N","N","N","N","N","N","N","N","N","N","N","N","Y","Y","Y","N","","","","","","","","N","Y","PRIVATE FUND ADVISER","N","Y","Y"
1921961,383906,"SNAK VENTURES GP I LLC","SNAK VENTURES GP I LLC","",,"","N","N","N","N","N","N","N","N","N","N","N","N","N","N","N","Y","N","Y","N","","","","","","","","N","","","N","Y","Y"
1921031,361791,"LOUISBOURG FINANCIAL SERVICES","LOUISBOURG FINANCIAL SERVICES","",,"","N","N","N","N","N","N","N","N","N","N","N","Y","N","N","N","N","N","Y","N","","","","","","","","N","","","N","Y","Y"
1921031,361792,"GENERATION COMMERCIAL REAL ESTATE GP INC.","GENERATION COMMERCIAL REAL ESTATE GP INC.","",,"","N","N","N","N","N","N","N","N","N","N","N","N","N","N","N","Y","N","Y","N","","","","","","","","N","N","","N","Y","Y"
1921031,361670,"ASSUMPTION MUTUAL LIFE INSURANCE COMPANY","ASSUMPTION LIFE","",,"","N","N","N","N","N","N","N","N","N","N","N","Y","N","N","N","N","Y","N","N","","","","","","","","N","","","Y","N","N"
1921352,338304,"ADVANTAGE PARTNERS, INC.","ADVANTAGE PARTNERS, INC.","802-106532",277122,"","N","Y","N","N","N","N","N","N","N","N","N","N","N","N","N","N","Y","N","N","","","","","","","","N","Y","PRIVATE FUND ADVISOR EXEMPTION","N","Y","N"
1921352,338310,"APIP, INC.","APIP, INC.","",,"","N","N","N","N","N","N","N","N","N","N","N","N","N","N","N","Y","Y","N","N","","","","","","","","N","","","N","Y","N"
1921352,338305,"AP 3 CO., LTD.","AP 3 CO., LTD.","",,"","N","N","N","N","N","N","N","N","N","N","N","N","N","N","N","Y","Y","N","N","","","","","","","","N","","","N","Y","N"
1921352,361906,"APGP MANAGEMENT LIMITED","APGP MANAGEMENT LIMITED","",,"","N","N","N","N","N","N","N","N","N","N","N","N","N","N","N","Y","Y","N","N","","","","","","","","N","N","","N","Y","N"
1921352,338307,"AP IV-S GP CO., LTD.","AP IV-S GP CO., LTD.","",,"","N","N","N","N","N","N","N","N","N","N","N","N","N","N","N","Y","Y","N","N","","","","","","","","N","","","N","Y","N"
1921352,338311,"FAM, INC.","FAM, INC.","",,"","N","N","N","N","N","N","N","N","N","N","N","N","N","N","N","Y","Y","N","N","","","","","","","","N","","","N","N","N"
1921352,338312,"FLAGSHIP ASSET MANAGEMENT, INC.","FLAGSHIP ASSET MANAGEMENT, INC.","",,"","N","N","N","N","N","N","N","N","N","N","N","N","N","N","N","Y","Y","N","N","","","","","","","","N","","","N","N","N"
1921352,361905,"ADVANTAGE ADVISORS CO.,LTD.","ADVANTAGE ADVISORS CO.,LTD.","",,"","N","Y","N","N","N","N","N","N","N","N","N","N","N","N","N","N","Y","N","N","","","","","","","","N","Y","PRIVATE FUND ADVISOR EXEMPTION","N","Y","N"
1921352,338313,"ADVANTAGE PARTNERS (H.K.) LIMITED","ADVANTAGE PARTNERS (H.K.) LIMITED","",,"","N","Y","N","N","N","N","N","N","N","N","N","N","N","N","N","N","Y","N","N","","","","","","","","N","Y","PRIVATE FUND ADVISOR EXEMPTION","N","Y","N"
1921352,338303,"ADVANTAGE PARTNERS (CHINA) CO. LTD.","ADVANTAGE PARTNERS (CHINA) CO. LTD.","",,"","N","Y","N","N","N","N","N","N","N","N","N","N","N","N","N","N","Y","N","N","","","","","","","","N","Y","PRIVATE FUND ADVISOR EXEMPTION","N","Y","N"
1922412,383181,"CRESCENT CAPITAL GROUP HIGH INCOME LLC","CRESCENT CAPITAL GROUP HIGH INCOME LLC","",,"","N","N","N","N","N","N","N","N","N","N","N","N","N","N","N","Y","N","Y","N","","","","","","","","N","","","N","Y","Y"
1922412,383182,"CRESCENT CAPITAL GROUP LP","CRESCENT CAPITAL GROUP LP","801-71747",153966,"","N","Y","N","N","N","Y","N","N","N","N","N","N","N","N","N","N","Y","Y","N","","","","","","","","N","N","","N","Y","Y"
1922412,383183,"CRESCENT GLOBAL CLO MANAGEMENT, LLC, MANAGEMENT SERIES","CRESCENT GLOBAL CLO MANAGEMENT, LLC, MANAGEMENT SERIES","",326263,"","N","Y","N","N","N","N","N","N","N","N","N","N","N","N","N","N","N","Y","N","","","","","","","","N","N","","N","Y","Y"
1922412,383184,"CRESCENT DIRECT LENDING MANAGEMENT, LLC","CRESCENT DIRECT LENDING MANAGEMENT, LLC","571716",296371,"","N","Y","N","N","N","N","N","N","N","N","N","N","N","N","N","N","N","Y","N","","","","","","","","N","N","","Y","Y","Y"
1922412,383186,"CRESCENT CREDIT OPPORTUNITIES GP, S. R.L.","CRESCENT CREDIT OPPORTUNITIES GP, S. R.L.","",,"","N","N","N","N","N","N","N","N","N","N","N","N","N","N","N","Y","N","Y","N","","","","","","","","N","","","N","Y","Y"
1922412,383187,"CRESCENT CREDIT OPPORTUNITIES, LLC","CRESCENT CREDIT OPPORTUNITIES, LLC","",,"","N","N","N","N","N","N","N","N","N","N","N","N","N","N","N","Y","N","Y","N","","","","","","","","N","","","N","Y","Y"
1922412,383191,"CRESCENT DIRECT LENDING SMA MANAGEMENT LLC","CRESCENT CAPITAL GROUP LP","",316042,"","N","Y","N","N","N","N","N","N","N","N","N","N","N","N","N","N","N","Y","N","","","","","","","","N","N","","N","Y","Y"
1922412,383177,"CDL FUND II GP, LLC","CDL FUND II GP, LLC","",,"","N","N","N","N","N","N","N","N","N","N","N","N","N","N","N","Y","N","Y","N","","","","","","","","N","","","N","Y","Y"
1922412,383178,"CDL FUND III GP, LLC","CDL FUND III GP, LLC","",,"","N","N","N","N","N","N","N","N","N","N","N","N","N","N","N","Y","N","Y","N","","","","","","","","N","","","N","Y","Y"
1922412,383179,"CPCP GENERAL PARTNER LLC","CPCP GENERAL PARTNER LLC","",,"","N","N","N","N","N","N","N","N","N","N","N","N","N","N","N","Y","N","Y","N","","","","","","","","N","","","N","Y","Y"
1922412,383173,"BENTALLGREENOAK (CANADA) LIMITED PARTNERSHIP","BENTALLGREENOAK (CANADA) LIMITED PARTNERSHIP","",,"","N","N","N","N","N","N","N","N","N","N","N","N","N","N","Y","N","N","Y","N","","","","","","","","N","","","Y","N","N"
1922412,383180,"CRESCENT CAPITAL GROUP HIGH INCOME B LLC","CRESCENT CAPITAL GROUP HIGH INCOME B LLC","",,"","N","N","N","N","N","N","N","N","N","N","N","N","N","N","N","Y","N","Y","N","","","","","","","","N","","","N","Y","Y"
1922412,383174,"BENTALLGREENOAK (U.S.) LIMITED PARTNERSHIP","BENTALLGREENOAK (U.S.) LIMITED PARTNERSHIP","801-24618",111470,"","N","Y","N","N","N","N","N","N","N","N","N","N","N","Y","Y","N","N","Y","N","","","","","","","","N","N","","N","N","N"
1922412,383175,"BENTALLGREENOAK REAL ESTATE US LLC","BENTALLGREENOAK REAL ESTATE US LLC","8-68869",157909,"","Y","N","N","N","N","N","N","N","N","N","N","N","N","N","N","N","N","Y","N","","","","","","","","N","","","N","N","N"
1922412,383176,"BGO US REAL ESTATE LP","BGO US REAL ESTATE LP","801-73605",157034,"","N","Y","N","N","N","N","N","N","N","N","N","N","N","N","N","N","N","Y","N","","","","","","","","N","N","","N","N","N"
1922412,383188,"CRESCENT CREDIT SOLUTIONS VIII, LLC","CRESCENT CREDIT SOLUTIONS VIII, LLC","",,"","N","N","N","N","N","N","N","N","N","N","N","N","N","N","N","Y","N","Y","N","","","","","","","","N","","","N","Y","Y"
1922412,383189,"CRESCENT DIRECT LENDING LEVERED, LLC","CRESCENT DIRECT LENDING LEVERED, LLC","",,"","N","N","N","N","N","N","N","N","N","N","N","N","N","N","N","Y","N","Y","N","","","","","","","","N","","","N","Y","Y"
1922412,383192,"CRESCENT DIRECT LENDING SBIC, LLC","CRESCENT DIRECT LENDING SBIC, LLC","",,"","N","N","N","N","N","N","N","N","N","N","N","N","N","N","N","Y","N","Y","N","","","","","","","","N","","","N","Y","Y"
1922412,383193,"CRESCENT DIRECT LENDING, LLC","CRESCENT DIRECT LENDING, LLC","",,"","N","N","N","N","N","N","N","N","N","N","N","N","N","N","N","Y","N","Y","N","","","","","","","","N","","","N","Y","Y"
1922412,383194,"CRESCENT EUROPEAN SPECIALTY LENDING II LLC","CRESCENT EUROPEAN SPECIALTY LENDING II LLC","",,"","N","N","N","N","N","N","N","N","N","N","N","N","N","N","N","Y","N","Y","N","","","","","","","","N","","","N","Y","Y"
1922412,383195,"CRESCENT EUROPEAN SPECIALTY LENDING LLC","CRESCENT EUROPEAN SPECIALTY LENDING LLC","",,"","N","N","N","N","N","N","N","N","N","N","N","N","N","N","N","Y","N","Y","N","","","","","","","","N","","","N","Y","Y"
1922412,383196,"CRESCENT EUROPEAN SPECIALTY LOAN S.A.R.L.","CRESCENT EUROPEAN SPECIALTY LOAN S.A.R.L.","",296375,"","N","Y","N","N","N","N","N","N","N","N","N","N","N","N","N","N","N","Y","N","","","","","","","","N","N","","Y","Y","Y"
1922412,383197,"CRESCENT MEZZANINE VI, LLC","CRESCENT MEZZANINE VI, LLC","",,"","N","N","N","N","N","N","N","N","N","N","N","N","N","N","N","Y","N","Y","N","","","","","","","","N","","","N","Y","Y"
1922412,383198,"CRESCENT MEZZANINE VII, LLC","CRESCENT MEZZANINE VII, LLC","",,"","N","N","N","N","N","N","N","N","N","N","N","N","N","N","N","Y","N","Y","N","","","","","","","","N","","","N","Y","Y"
1922412,383199,"CRESCENT PRIVATE CREDIT PARTNERS MANAGEMENT, LLC","CRESCENT PRIVATE CREDIT PARTNERS MANAGEMENT, LLC","",299050,"","N","Y","N","N","N","N","N","N","N","N","N","N","N","N","N","N","N","Y","N","","","","","","","","N","N","","N","Y","Y"
1922412,383200,"CRESCENT SBIC MANAGEMENT, LLC","CRESCENT SBIC MANAGEMENT, LLC","",296373,"","N","Y","N","N","N","N","N","N","N","N","N","N","N","N","N","N","N","Y","N","","","","","","","","N","N","","N","Y","Y"
1922412,383204,"INFRARED CAPITAL PARTNERS LIMITED","INFRARED CAPITAL PARTNERS LIMITED","802-75863",161187,"","N","Y","N","N","N","N","N","N","N","N","N","N","N","N","N","N","N","Y","N","","","","","","","","N","Y","203M-1","Y","N","N"
1922412,383205,"MASSACHUSETTS FINANCIAL SERVICES COMPANY","MFS INVESTMENT MANAGEMENT","801-17352",110045,"","N","Y","N","N","N","Y","N","N","N","N","N","N","N","N","N","N","N","Y","N","","","","","","","","N","N","","N","N","N"
1922412,383203,"INFRARED CAPITAL PARTNERS (US) LLC","INFRARED CAPITAL PARTNERS (US) LLC","801-123066",310401,"","N","Y","N","N","N","N","N","N","N","N","N","N","N","N","N","N","N","Y","N","","","","","","","","N","N","","N","N","N"
1922412,383207,"MFS INSTITUTIONAL ADVISORS INC.","MFS INSTITUTIONAL ADVISORS INC.","801-46433",107144,"","N","Y","N","N","N","Y","N","N","N","N","N","N","N","N","N","N","N","Y","N","","","","","","","","N","N","","Y","N","N"
1922412,383214,"ADVISORS ASSET MANAGEMENT, INC.","ADVISORS ASSET MANAGEMENT, INC.","801-62731",46727,"","Y","Y","N","N","N","N","N","N","N","N","N","N","N","N","N","N","N","Y","N","","","","","","","","N","N","","N","N","N"
1922412,383206,"MFS FUND DISTRIBUTORS, INC.","MFS FUND DISTRIBUTORS, INC.","8-45321",31052,"","Y","N","N","N","N","N","N","N","N","N","N","N","N","N","N","N","N","Y","N","","","","","","","","N","","","N","N","N"
1922412,383208,"SUN LIFE CAPITAL MANAGEMENT (CANADA) INC.","SUN LIFE CAPITAL MANAGEMENT (CANADA) INC.","",,"","Y","Y","N","N","N","Y","N","N","N","N","N","N","N","N","N","N","N","Y","N","","","","","","","","N","N","","Y","N","N"
1922412,383209,"SUN LIFE CAPITAL MANAGEMENT (U.S.) LLC","SLC MANAGEMENT","801-39938",109684,"","N","Y","N","N","N","Y","N","N","N","N","N","N","N","N","N","Y","N","Y","N","","","","","","","","N","N","","N","N","N"
1922412,383210,"SLGI ASSET MANAGEMENT INC.","SLGI ASSET MANAGEMENT INC.","",,"","Y","Y","N","N","N","Y","N","N","N","N","N","N","N","N","N","N","N","Y","N","","","","","","","","N","N","","Y","N","N"
1922412,383212,"TCW/CRESCENT MEZZANINE V, LLC","TCW/CRESCENT MEZZANINE V, LLC","",,"","N","N","N","N","N","N","N","N","N","N","N","N","N","N","N","Y","N","Y","N","","","","","","","","N","","","N","N","N"
1922412,383213,"TCW/CRESCENT MEZZANINE MANAGEMENT V, LLC","TCW/CRESCENT MEZZANINE MANAGEMENT V, LLC","",296367,"","N","Y","N","N","N","N","N","N","N","N","N","N","N","N","N","N","N","Y","N","","","","","","","","N","N","","N","N","N"
1922412,383211,"SUN LIFE INSTITUTIONAL DISTRIBUTORS (U.S.) LLC","SUN LIFE INSTITUTIONAL DISTRIBUTORS (U.S.) LLC","8-69407",170062,"","Y","N","N","N","N","N","N","N","N","N","N","N","N","N","N","N","N","Y","N","","","","","","","","N","","","N","N","N"
1922412,383215,"BENTALLGREENOAK STRATEGIC CAPITAL PARTNERS LLC","BENTALLGREENOAK STRATEGIC CAPITAL PARTNERS","801-65113",137813,"","N","Y","N","N","N","Y","N","N","N","N","N","N","N","N","N","N","N","Y","N","","","","","","","","N","N","","N","N","N"
1922412,383216,"CRESCENT CAP NT ADVISORS, LLC","CRESCENT CAP NT ADVISORS, LLC","801-127081",324139,"","N","Y","N","N","N","Y","N","N","N","N","N","N","N","N","N","N","N","Y","N","","","","","","","","N","N","","N","Y","Y"
1922412,383217,"CRESCENT CAP ADVISORS, LLC","CRESCENT CAP ADVISORS, LLC","801-81168",175430,"","N","Y","N","N","N","Y","N","N","N","N","N","N","N","N","N","N","N","Y","N","","","","","","","","N","N","","N","Y","Y"
1922412,383218,"CRESCENT SYNDICATED CREDIT SOLUTIONS LLC","CRESCENT SYNDICATED CREDIT SOLUTIONS LLC","",,"","N","N","N","N","N","N","N","N","N","N","N","N","N","N","N","Y","N","Y","N","","","","","","","","N","","","N","Y","Y"
1922412,383219,"CRESCENT SYNDICATED CREDIT SOLUTIONS LLC","CRESCENT SYNDICATED CREDIT SOLUTIONS LLC","",,"","N","N","N","N","N","N","N","N","N","N","N","N","N","N","N","Y","N","Y","N","","","","","","","","N","","","N","Y","Y"
1922412,383201,"CRESCENT SENIOR SECURED LOAN MANAGEMENT LLC","CRESCENT SENIOR SECURED LOAN MANAGEMENT LLC","",,"","N","N","N","N","N","N","N","N","N","N","N","N","N","N","N","Y","N","Y","N","","","","","","","","N","","","N","Y","Y"
1922412,383202,"CRESCENT SPECIAL SITUATIONS LP","CRESCENT SPECIAL SITUATIONS LP","",,"","N","N","N","N","N","N","N","N","N","N","N","N","N","N","N","Y","N","Y","N","","","","","","","","N","","","N","Y","Y"
1920519,354570,"BBQ CAPITAL MANAGEMENT COMPANY, LLC","BBQ CAPITAL MANAGEMENT COMPANY, LLC","",,"","N","N","N","N","N","N","N","N","N","N","N","N","N","N","N","Y","N","Y","N","","","","","","","","N","","","N","Y","Y"
1920519,383658,"BBQ CAPITAL GP I LLC","BBQ CAPITAL GP I LLC","",,"","N","N","N","N","N","N","N","N","N","N","N","N","N","N","N","Y","N","Y","N","","","","","","","","N","","","N","Y","Y"
1922805,122536,"MARLIN SAMS GENPAR, LLC","MARLIN SAMS GENPAR, LLC","",,"","N","N","N","N","N","N","N","N","N","N","N","N","N","N","N","Y","N","Y","N","","","","","","","","N","","","N","Y","Y"
1921396,383933,"BALANCE CAPITAL FUND GP LLC","BALANCE CAPITAL FUND GP LLC","",,"","N","N","N","N","N","Y","N","N","N","N","N","N","N","N","N","Y","N","Y","N","","","","","","","","N","","","N","Y","Y"
1923926,287186,"BHV ENTREPRENEURSHIP FUND II GP, LLC","BHV ENTREPRENEURSHIP FUND II GP, LLC","",,"","N","N","N","N","N","N","N","N","N","N","N","N","N","N","N","Y","N","Y","N","","","","","","","","N","","","N","Y","Y"
1923926,287188,"SCOUT VENTURES FUND III GP, LLC","SCOUT VENTURES FUND III GP, LLC","",,"","N","N","N","N","N","N","N","N","N","N","N","N","N","N","N","Y","N","Y","N","","","","","","","","N","","","N","Y","Y"
1923926,341265,"SCOUT VENTURES FUND IV GP LLC","SCOUT VENTURES FUND IV GP LLC","",,"","N","N","N","N","N","N","N","N","N","N","N","N","N","N","N","Y","N","Y","N","","","","","","","","N","","","N","Y","Y"
1924130,377097,"UCGP V(J), L.P.","UCGP V(J), L.P.","",,"","N","N","N","N","N","N","N","N","N","N","N","N","N","N","N","Y","N","Y","N","","","","","","","","N","N","","N","N","N"
1924130,377096,"UCGP V, L.P.","UCGP V, L.P.","",,"","N","N","N","N","N","N","N","N","N","N","N","N","N","N","N","Y","N","Y","N","","","","","","","","N","N","","N","N","N"
1924130,377095,"UCK PARTNERS, INC.","UCK PARTNERS, INC.","",,"","N","N","N","N","N","N","N","N","N","N","N","N","N","N","N","Y","N","Y","N","","","","","","","","N","N","","Y","N","N"
1924130,377094,"UNISON CAPITAL MANAGEMENT PTE LTD","UNISON CAPITAL MANAGEMENT PTE LTD","802-75575",160384,"","N","Y","N","N","N","N","N","N","N","N","N","N","N","N","N","Y","N","Y","N","","","","","","","","N","N","","Y","N","N"
1924130,376476,"UCGP IV (F), L.P.","UCGP IV (F), L.P.","",,"","N","N","N","N","N","N","N","N","N","N","N","N","N","N","N","Y","N","Y","N","","","","","","","","N","","","N","N","N"
1924130,376477,"UCGP IV, L.P.","UCGP IV, L.P.","",,"","N","N","N","N","N","N","N","N","N","N","N","N","N","N","N","Y","N","Y","N","","","","","","","","N","","","N","N","N"
1923273,383997,"AEOLUS CAPITAL MANAGEMENT LTD.","AEOLUS CAPITAL MANAGEMENT LTD.","",,"","N","N","N","N","N","N","N","N","N","N","N","N","N","N","N","Y","N","Y","N","","","","","","","","N","","","Y","Y","Y"
1923273,384006,"ELLIOTT FINANCIAL ITALIA S.R.L.","ELLIOTT FINANCIAL ITALIA S.R.L.","",,"","N","Y","N","N","N","Y","N","N","N","N","N","N","N","N","N","N","N","Y","N","","","","","","","","N","N","","N","N","N"
1923273,384007,"HAMBLEDON MANAGEMENT LLC","HAMBLEDON MANAGEMENT LLC","",307072,"","N","Y","N","N","N","Y","N","N","N","N","N","N","N","N","N","N","N","Y","N","","","","","","","","N","N","","N","N","N"
1923273,384008,"EIMFL SUB LLC","EIMFL SUB LLC","",313159,"","N","Y","N","N","N","Y","N","N","N","N","N","N","N","N","N","N","N","Y","N","","","","","","","","N","N","","N","N","N"
1923273,384009,"EIMFL LLC","EIMFL LLC","",311380,"","N","Y","N","N","N","Y","N","N","N","N","N","N","N","N","N","N","N","Y","N","","","","","","","","N","N","","N","N","N"
1923273,384010,"ELLIOTT MANAGEMENT CORPORATION","ELLIOTT MANAGEMENT CORPORATION","",156601,"","N","Y","N","N","N","Y","N","N","N","N","N","N","N","N","N","N","N","Y","N","","","","","","","","N","N","","N","N","N"
1923273,384011,"EIMCT LLC","EIMCT LLC","",312162,"","N","Y","N","N","N","Y","N","N","N","N","N","N","N","N","N","N","N","Y","N","","","","","","","","N","N","","N","N","N"
1923273,384012,"EALL LLP","EALL LLP","",292250,"","N","Y","N","N","N","Y","N","N","N","N","N","N","N","N","N","N","N","Y","N","","","","","","","","N","N","","Y","N","N"
1923273,384014,"ELLIOTT ADVISORS GP LLC","ELLIOTT ADVISORS GP LLC","",292231,"","N","Y","N","N","N","Y","N","N","N","N","N","N","N","N","N","Y","Y","Y","N","","","","","","","","N","N","","N","N","N"
1923273,384015,"ELLIOTT ADVISORS (UK) LIMITED","ELLIOTT ADVISORS (UK) LIMITED","",292248,"","N","Y","N","N","N","Y","N","N","N","N","N","N","N","N","N","N","N","Y","N","","","","","","","","N","N","","Y","N","N"
1923273,384003,"ELLIOTT INVESTMENT MANAGEMENT L.P.","ELLIOTT INVESTMENT MANAGEMENT L.P.","801-119969",307151,"","N","Y","N","N","N","Y","N","N","N","N","N","N","N","N","N","N","N","Y","N","","","","","","","","N","N","","N","N","N"
1923273,384000,"AEOLUS PROPERTY CATASTROPHE SPIRE PF GP LTD.","AEOLUS PROPERTY CATASTROPHE SPIRE PF GP LTD.","",,"","N","N","N","N","N","N","N","N","N","N","N","N","N","N","N","Y","N","Y","N","","","","","","","","N","","","N","Y","Y"
1923273,383999,"AEOLUS PROPERTY CATASTROPHE KEYSTONE PF GP LTD.","AEOLUS PROPERTY CATASTROPHE KEYSTONE PF GP LTD.","",,"","N","N","N","N","N","N","N","N","N","N","N","N","N","N","N","Y","N","Y","N","","","","","","","","N","","","N","Y","Y"
1923273,383998,"ACM HOLDINGS GP II LTD.","ACM HOLDINGS GP II LTD.","",,"","N","N","N","N","N","N","N","N","N","N","N","N","N","N","N","Y","Y","Y","N","","","","","","","","N","","","N","Y","Y"
1923273,384001,"AEOLUS PROPERTY CATASTROPHE ASHLAR GP LTD.","AEOLUS PROPERTY CATASTROPHE ASHLAR GP LTD.","",,"","N","N","N","N","N","N","N","N","N","N","N","N","N","N","N","Y","N","Y","N","","","","","","","","N","","","N","Y","Y"
1923273,384002,"HAMBLEDON, INC.","HAMBLEDON, INC.","",292242,"","N","Y","N","N","N","Y","N","N","N","N","N","N","N","N","N","Y","Y","Y","N","","","","","","","","N","N","","N","N","N"
1923273,384013,"ELLIOTT SPECIAL GP, LLC","ELLIOTT SPECIAL GP, LLC","",292238,"","N","Y","N","N","N","Y","N","N","N","N","N","N","N","N","N","Y","Y","Y","N","","","","","","","","N","N","","N","N","N"
1923273,384004,"EMCCA CORPORATION","EMCCA CORPORATION","",292243,"","N","Y","N","N","N","N","N","N","N","N","N","N","N","N","N","N","N","Y","N","","","","","","","","N","N","","N","N","N"
1923273,384005,"ELLIOTT CAPITAL ADVISORS, L.P.","ELLIOTT CAPITAL ADVISORS, L.P.","",292232,"","N","Y","N","N","N","Y","N","N","N","N","N","N","N","N","N","Y","Y","Y","N","","","","","","","","N","N","","N","N","N"
1925783,380066,"NEW CLIMATE VENTURES FUND I GP, LLC","NEW CLIMATE VENTURES FUND I GP, LLC","",,"","N","N","N","N","N","N","N","N","N","N","N","N","N","N","N","Y","Y","N","N","","","","","","","","N","","","N","Y","Y"
1925783,380067,"NEW CLIMATE VENTURES ACCESS FUND GP, LLC","NEW CLIMATE VENTURES ACCESS FUND GP, LLC","",,"","N","N","N","N","N","N","N","N","N","N","N","N","N","N","N","Y","N","Y","N","","","","","","","","N","","","N","Y","Y"
1924646,384173,"VICKERS CO-INVESTMENT PARTNERS LTD","VICKERS CO-INVESTMENT PARTNERS LTD","",,"","N","N","N","N","N","N","N","N","N","N","N","N","N","N","N","Y","N","Y","N","","","","","","","","N","","","N","Y","Y"
1924646,343112,"VICKERS VENTURE PARTNERS II LTD (CAYMAN)","VICKERS VENTURE PARTNERS II LTD (CAYMAN)","",,"","N","N","N","N","N","N","N","N","N","N","N","N","N","N","N","Y","N","Y","N","","","","","","","","N","","","N","Y","Y"
1924646,345046,"V V P ADVISORS INC.","V V P ADVISORS INC.","802-127766",325608,"","N","Y","N","N","N","N","N","N","N","N","N","N","N","N","N","N","N","Y","N","","","","","","","","N","Y","VENTURE CAPITAL FUND ADVISER","N","Y","N"
1924646,343113,"VICKERS VENTURE PARTNERS III LTD (CAYMAN)","VICKERS VENTURE PARTNERS III LTD (CAYMAN)","",,"","N","N","N","N","N","N","N","N","N","N","N","N","N","N","N","Y","N","Y","N","","","","","","","","N","","","N","Y","Y"
1924646,344779,"V V P ADVISORS (HONG KONG) LIMITED","V V P ADVISORS (HONG KONG) LIMITED","",,"","N","Y","N","N","N","N","N","N","N","N","N","N","N","N","N","N","N","Y","N","","","","","","","","N","Y","FOREIGN PRIVATE ADVISER","N","Y","N"
1924646,343114,"VICKERS VENTURE PARTNERS IV LTD (CAYMAN)","VICKERS VENTURE PARTNERS IV LTD (CAYMAN)","",,"","N","N","N","N","N","N","N","N","N","N","N","N","N","N","N","Y","N","Y","N","","","","","","","","N","","","N","Y","Y"
1924646,343116,"VICKERS VENTURE PARTNERS V LTD (CAYMAN)","VICKERS VENTURE PARTNERS V LTD (CAYMAN)","",,"","N","N","N","N","N","N","N","N","N","N","N","N","N","N","N","Y","N","Y","N","","","","","","","","N","","","N","Y","Y"
1924646,344782,"VVP ADVISORS (UK) LTD","VVP ADVISORS (UK) LTD","",,"","N","Y","N","N","N","N","N","N","N","N","N","N","N","N","N","N","N","Y","N","","","","","","","","N","Y","FOREIGN PRIVATE ADVISER","N","Y","N"
1924646,343117,"VICKERS VENTURE PARTNERS VI (CI) LTD.","VICKERS VENTURE PARTNERS VI (CI) LTD.","",,"","N","N","N","N","N","N","N","N","N","N","N","N","N","N","N","Y","N","Y","N","","","","","","","","N","","","N","Y","Y"
1924646,343118,"VICKERS VENTURE FUND VI (EU) SARL","VICKERS VENTURE FUND VI (EU) SARL","",,"","N","N","N","N","N","N","N","N","N","N","N","N","N","N","N","Y","N","Y","N","","","","","","","","N","","","N","Y","Y"
1927073,317341,"OLD HICKORY FUND I GP, LLC","OLD HICKORY FUND I GP, LLC","",,"","N","N","N","N","N","N","N","N","N","N","N","N","N","N","N","Y","N","Y","N","","","","","","","","N","Y","ABA NO-ACTION LETTER (DECEMBER 8, 2005)","N","Y","Y"
1927946,357214,"AEGON ASSET MANAGEMENT UK PLC","AEGON ASSET MANAGEMENT UK PLC","801-111656",289505,"","N","Y","N","N","N","N","N","N","N","N","N","N","N","N","N","N","N","Y","N","","","","","","","","N","N","","Y","Y","Y"
1927946,357213,"AEGON ASSET MANAGEMENT HUNGARY B.V.","AEGON ASSET MANAGEMENT HUNGARY B.V.","",,"","N","N","N","N","N","N","N","N","N","Y","N","N","N","N","N","N","N","Y","N","","","","","","","","N","","","N","N","N"
1926628,311374,"STARKILLER CAPITAL GP, LP","STARKILLER CAPITAL GP, LP","",,"","N","N","N","N","N","N","N","N","N","N","N","N","N","N","N","Y","N","Y","N","","","","","","","","N","","","N","Y","Y"
1926132,381845,"SAGAMORE CHINA GENERAL PARTNER V, L.P.","SAGAMORE CHINA GENERAL PARTNER V, L.P.","",,"","N","N","N","N","N","N","N","N","N","N","N","N","N","N","N","Y","N","Y","N","","","","","","","","N","","","Y","Y","N"
1926132,381846,"SAGAMORE CHINA GENERAL PARTNER VI, L.P.","SAGAMORE CHINA GENERAL PARTNER VI, L.P.","",,"","N","N","N","N","N","N","N","N","N","N","N","N","N","N","N","Y","N","Y","N","","","","","","","","N","","","N","Y","N"
1926132,381847,"SLIPSTREAM HOLDINGS LLC","SLIPSTREAM HOLDINGS LLC","",,"","N","N","N","N","N","N","N","N","N","N","N","N","N","N","N","Y","N","Y","N","","","","","","","","N","","","N","Y","Y"
1926132,381844,"SAGAMORE CHINA GENERAL PARTNER IV, L.P.","SAGAMORE CHINA GENERAL PARTNER IV, L.P.","",,"","N","N","N","N","N","N","N","N","N","N","N","N","N","N","N","Y","N","N","N","","","","","","","","N","","","N","Y","N"
1923025,122852,"KEYTONE CAPITAL PARTNERS, L.P.","KEYTONE CAPITAL PARTNERS, L.P.","",,"","N","N","N","N","N","N","N","N","N","N","N","N","N","N","N","Y","N","Y","N","","","","","","","","N","Y","ADVISER TO PRIVATE FUNDS (203(M))","N","Y","Y"
1923025,339532,"KEYTONE COLLABORARTION PARTNERS I, L.P.","KEYTONE COLLABORARTION PARTNERS I, L.P.","",,"","N","N","N","N","N","N","N","N","N","N","N","N","N","N","N","Y","N","Y","N","","","","","","","","N","Y","","N","Y","Y"
1923025,122868,"KEYTONE CAPITAL PARTNERS II, L.P.","KEYTONE CAPITAL PARTNERS II, L.P.","",,"","N","N","N","N","N","N","N","N","N","N","N","N","N","N","N","Y","N","Y","N","","","","","","","","N","Y","ADVISER TO PRIVATE FUNDS (203(M))","N","Y","Y"
1923025,339531,"KEYTONE CAPITAL PARTNERS III, L.P.","KEYTONE CAPITAL PARTNERS III, L.P.","",,"","N","N","N","N","N","N","N","N","N","N","N","N","N","N","N","Y","N","Y","N","","","","","","","","N","Y","ADVISOR TO PRIVATE FUNDS(203M)","N","Y","Y"
1923025,362013,"KEYTONE COLLABORATION PARTNERS II, L.P.","KEYTONE COLLABORATION PARTNERS II, L.P.","",,"","N","N","N","N","N","N","N","N","N","N","N","N","N","N","N","Y","N","Y","N","","","","","","","","N","Y","","N","Y","Y"
1932251,384486,"NEUBERGER BERMAN ASIA LIMITED","NEUBERGER BERMAN ASIA LIMITED","801-71669",154286,"","N","Y","N","N","N","Y","N","N","N","N","N","N","N","N","N","Y","N","Y","N","","","","","","","","N","N","","Y","Y","N"
1932251,384488,"NEUBERGER BERMAN EUROPE LIMITED","NEUBERGER BERMAN EUROPE LIMITED","801-78140",162267,"","N","Y","N","N","N","N","N","N","N","N","N","N","N","N","N","N","Y","N","N","","","","","","","","N","N","","Y","Y","N"
1932251,384482,"NEUBERGER BERMAN INVESTMENT ADVISERS LLC","NEUBERGER BERMAN INVESTMENT ADVISERS LLC","801-61757",124687,"","N","Y","N","N","N","Y","N","N","N","N","N","N","N","N","N","Y","N","Y","N","","","","","","","","N","N","","Y","Y","N"
1932251,384479,"NB ALTERNATIVES ADVISERS LLC","NB ALTERNATIVES ADVISERS LLC","801-70009",149822,"","N","Y","N","N","N","Y","N","N","N","N","N","N","N","N","N","Y","N","Y","N","","","","","","","","N","N","","Y","Y","N"
1932251,384480,"NEUBERGER BERMAN AIFM SARL","NEUBERGER BERMAN AIFM LUXEMBOURG SARL","802-118524",300813,"","N","Y","N","N","N","N","N","N","N","N","N","N","N","N","N","Y","Y","Y","N","","","","","","","","N","N","","Y","N","N"
1932251,384484,"NEUBERGER BERMAN LOAN ADVISERS II LLC","NEUBERGER BERMAN LOAN ADVISERS II LLC","801-118438",306601,"","N","Y","N","N","N","N","N","N","N","N","N","N","N","N","N","N","N","Y","N","","","","","","","","N","N","","N","N","N"
1932251,384485,"NEUBERGER BERMAN SINGAPORE PTE. LIMITED","NEUBERGER BERMAN SINGAPORE PTE. LIMITED","801-78988",167947,"","N","Y","N","N","N","Y","N","N","N","N","N","N","N","N","N","N","N","Y","N","","","","","","","","N","N","","Y","Y","N"
1932251,384483,"NEUBERGER BERMAN LOAN ADVISERS IV LLC","NEUBERGER BERMAN LOAN ADVISERS IV LLC","801-127324",324282,"","N","Y","N","N","N","N","N","N","N","N","N","N","N","N","N","N","N","Y","N","","","","","","","","N","N","","N","N","N"
1932251,384481,"NEUBERGER BERMAN CANADA ULC","NEUBERGER BERMAN CANADA ULC","801-284803",,"","N","Y","N","N","N","Y","N","N","N","N","N","N","N","N","N","Y","N","Y","N","","","","","","","","N","N","","Y","N","N"
1932251,384478,"NEUBERGER BERMAN BD LLC","NEUBERGER BERMAN BD LLC","801-3908",2908,"","Y","Y","N","N","N","Y","N","N","N","N","N","N","N","N","N","N","N","Y","N","","","","","","","","N","N","","Y","Y","N"
1932251,384487,"NEUBERGER BERMAN LOAN ADVISERS LLC","NEUBERGER BERMAN LOAN ADVISERS LLC","801-108750",285579,"","N","Y","N","N","N","N","N","N","N","N","N","N","N","N","N","N","N","Y","N","","","","","","","","N","N","","N","N","N"
1912927,384162,"ROYAL MUTUAL FUNDS INC.","ROYAL MUTUAL FUNDS INC.","",,"","Y","N","N","N","N","N","N","N","N","N","N","N","N","N","N","N","N","Y","N","","","","","","","","N","","","Y","N","N"
1912927,384161,"RBC DIRECT INVESTING INC.","RBC DIRECT INVESTING INC.","",,"","Y","N","N","N","N","N","N","N","N","N","N","N","N","N","N","N","N","Y","N","","","","","","","","N","","","Y","N","N"
1912927,376715,"THE ROYAL TRUST COMPANY","THE ROYAL TRUST COMPANY","",,"","N","N","N","N","N","N","N","N","Y","N","N","N","N","N","N","N","N","Y","N","","","","","","","","N","","","Y","N","N"
1912927,376719,"ROYAL BANK OF CANADA","ROYAL BANK OF CANADA","",,"","N","N","N","N","N","N","N","Y","N","N","N","N","N","N","N","N","Y","Y","N","","","","","","","","N","","","Y","N","N"
1912927,376712,"RBC GLOBAL ASSET MANAGEMENT INC.","RBC GLOBAL ASSET MANAGEMENT INC.","",,"","N","Y","N","N","N","Y","N","N","N","N","N","N","N","N","N","N","N","Y","N","","","","","","","","N","N","","Y","N","N"
1912927,376713,"RBC CAPITAL MARKETS, LLC","RBC CAPITAL MARKETS, LLC","801-13059",31194,"","Y","Y","Y","N","N","N","Y","N","N","N","N","Y","Y","N","N","N","N","Y","N","","","","","","","","N","N","","Y","N","N"
1912927,376716,"RBC PHILLIPS, HAGER & NORTH INVESTMENT COUNSEL INC.","RBC PHILLIPS, HAGER & NORTH INVESTMENT COUNSEL INC.","",,"","N","Y","N","N","N","N","N","N","N","N","N","N","N","N","N","N","N","Y","N","","","","","","","","N","N","","Y","N","N"
1912927,376708,"RBC DOMINION  SECURITIES INC.","RBC DOMINION  SECURITIES INC.","",,"","Y","N","N","N","N","N","Y","N","N","N","N","N","N","N","N","N","N","Y","N","","","","","","","","N","","","Y","N","N"
1925745,163020,"PEDDER STREET CAPITAL LIMITED","PEDDER STREET CAPITAL LIMITED","",,"","N","N","N","N","N","N","N","N","N","N","N","N","N","N","N","Y","N","Y","N","","","","","","","","N","N","","N","N","N"
1925745,163010,"CHEETAH INVESTMENT MANAGEMENT LIMITED","CHEETAH INVESTMENT MANAGEMENT LIMITED","802-77871",161532,"","Y","Y","N","N","N","Y","N","N","N","N","N","N","N","N","N","Y","N","Y","N","","","","","","","","N","Y","EXEMPT REPORTING ADVISER","Y","N","N"
1932266,355384,"MATTER VENTURE PARTNERS FUND I GP, LLC","MATTER VENTURE PARTNERS FUND I GP, LLC","",,"","N","N","N","N","N","N","N","N","N","N","N","N","N","N","N","Y","N","Y","N","","","","","","","","N","Y","SECTION 203(L)","N","Y","Y"
1932266,355388,"KPCB XVI ASSOCIATES, LLC","KPCB XVI ASSOCIATES, LLC","",,"","N","N","N","N","N","N","N","N","N","N","N","N","N","N","N","Y","N","Y","N","","","","","","","","N","Y","SECTION 203(L)","N","Y","N"
1932266,355389,"KPCB XV ASSOCIATES, LLC","KPCB XV ASSOCIATES, LLC","",,"","N","N","N","N","N","N","N","N","N","N","N","N","N","N","N","Y","N","Y","N","","","","","","","","N","Y","SECTION 203(L)","N","Y","N"
1933544,341860,"TAU VENTURES FUND II GP, LLC","TAU VENTURES FUND II GP, LLC","",,"","N","N","N","N","N","N","N","N","N","N","N","N","N","N","N","Y","Y","N","Y","","","","","","","","N","Y","VENTURE CAPITAL FUND EXEMPTION (ADVISER SOLELY TO VENTURE CAPITAL FUND); PRIVATE FUND ADVISER EXEMPTION","N","Y","Y"
1933544,274811,"TAU VENTURES FUND I GP, LLC","TAU VENTURES FUND I GP, LLC","",,"","N","N","N","N","N","N","N","N","N","N","N","N","N","N","N","Y","N","Y","N","","","","","","","","N","Y","VENTURE CAPITAL FUND EXEMPTION (ADVISER SOLELY TO VENTURE CAPITAL FUND); PRIVATE FUND ADVISER EXEMPTION","N","Y","Y"
1905663,382606,"PERCENT SECURITIES, LLC","PERCENT SECURITIES, LLC","8-70732",314782,"","Y","N","N","N","N","N","N","N","N","N","N","N","N","N","N","N","N","N","N","","","","","","","","N","","","N","N","N"
1905663,382607,"PURSUIT ALTERNATIVE INCOME FUND GP LLC","PURSUIT ALTERNATIVE INCOME FUND GP LLC","",,"","N","N","N","N","N","N","N","N","N","N","N","N","N","N","N","Y","Y","Y","N","","","","","","","","N","","","N","Y","Y"
1928283,384218,"HEALTHIER CAPITAL GP I, LLC","HEALTHIER CAPITAL GP I, LLC","",,"","N","N","N","N","N","N","N","N","N","N","N","N","N","N","N","Y","N","Y","N","","","","","","","","N","Y","VENTURE CAPITAL EXEMPTION","N","Y","Y"
1926080,364697,"BV AI GP, LLC","BV AI GP, LLC","",,"","N","N","N","N","N","N","N","N","N","N","N","N","N","N","N","Y","N","Y","N","","","","","","","","N","","","N","Y","Y"
1926080,314522,"BV I GP, LLC","BV I GP, LLC","",,"","N","N","N","N","N","N","N","N","N","N","N","N","N","N","N","Y","N","Y","N","","","","","","","","N","","","N","Y","Y"
1930667,382023,"URBANSTONE REAL ESTATE ADVISORS LLC","URBANSTONE REAL ESTATE ADVISORS","",,"","N","N","N","N","N","N","N","N","N","N","N","N","N","Y","N","N","N","Y","N","","","","","","","","N","","","N","Y","Y"
1930764,367562,"MORADO VENTURES, LLC","MORADO VENTURES, LLC","802-88201",168743,"","N","Y","N","N","N","N","N","N","N","N","N","N","N","N","N","N","N","N","N","","","","","","","","N","Y","VENTURE CAPITAL FUND AS DEFINED IN RULE 203(L)-1","N","N","Y"
1930764,367973,"MITSUI & CO. GLOBAL INVESTMENT, INC.","MITSUI & CO. GLOBAL INVESTMENT, INC.","802-128423",327084,"","N","Y","N","N","N","N","N","N","N","N","N","N","N","N","N","N","N","N","N","","","","","","","","N","Y","VENTURE CAPITAL FUND AS DEFINED IN RULE 203(L)-1","Y","N","N"
1930764,351230,"E12 VENTURE CAPITAL, LLC","E12 VENTURE CAPITAL, LLC","",,"","N","N","N","N","N","N","N","N","N","N","N","N","N","N","N","Y","N","Y","N","","","","","","","","N","","","N","Y","Y"
1932979,333814,"BLUESTEIN VENTURES FUND III GP, LLC","BLUESTEIN VENTURES FUND III GP, LLC","",,"","N","N","N","N","N","N","N","N","N","N","N","N","N","N","N","Y","N","Y","N","","","","","","","","N","","","N","Y","Y"
1933301,114157,"DENNIS P FERRY","DENNIS P FERRY","",,"","N","N","N","N","N","N","N","N","N","Y","N","N","N","N","N","N","Y","N","N","","","","","","","","N","","","N","Y","Y"
1933301,114164,"CHARLES C FREYER","CHARLES C FREYER","",,"","N","N","N","N","N","N","N","N","N","N","Y","N","N","N","N","N","Y","N","N","","","","","","","","N","","","N","N","Y"
1928333,333253,"BK GROWTH PARTNERS MANAGER 2 LLC","BK GROWTH PARTNERS MANAGER 2 LLC","",,"","N","N","N","N","N","N","N","N","N","N","N","N","N","N","N","Y","N","Y","N","","","","","","","","N","","","N","Y","Y"
1928333,333252,"BK GROWTH PARTNERS MANAGER LLC","BK GROWTH PARTNERS MANAGER LLC","",,"","N","N","N","N","N","N","N","N","N","N","N","N","N","N","N","Y","N","Y","N","","","","","","","","N","","","N","Y","Y"
1920705,383731,"CROSSPARADIGM CAPITAL MANAGEMENT LLC","CROSSPARADIGM CAPITAL MANAGEMENT LLC","",,"","N","N","N","N","N","N","N","N","N","N","N","N","N","N","N","Y","N","Y","N","","","","","","","","N","","","N","Y","Y"
1922610,325861,"NYLIFE SECURITIES LLC","NYLIFE SECURITIES LLC","8-15517",5167,"","Y","N","N","N","N","N","N","N","N","N","N","N","N","N","N","N","N","Y","N","","","","","","","","N","","","N","N","N"
1922610,325843,"EAGLE STRATEGIES LLC","EAGLE STRATEGIES LLC","801-32987",110826,"","N","Y","N","N","N","N","N","N","N","N","N","N","N","N","N","N","N","Y","N","","","","","","","","N","N","","N","N","N"
1922610,274953,"SEGUROS MONTERREY NEW YORK LIFE, S.A. DE C.V.","SEGUROS MONTERREY NEW YORK LIFE, S.A. DE C.V.","",,"","N","N","N","N","N","N","N","N","N","N","N","Y","N","N","N","N","N","Y","N","","","","","","","","N","N","","N","Y","N"
1922610,303989,"NYLIFE INSURANCE COMPANY OF ARIZONA","NYLIFE INSURANCE COMPANY OF ARIZONA","",,"","N","N","N","N","N","N","N","N","N","N","N","Y","N","N","N","N","N","Y","N","","","","","","","","N","","","N","Y","N"
1922610,325864,"NYLINK INSURANCE AGENCY INCORPORATED","NYLINK INSURANCE AGENCY INCORPORATED","",,"","N","N","N","N","N","N","N","N","N","N","N","Y","N","N","N","N","N","Y","N","","","","","","","","N","N","","N","N","N"
1922610,274952,"NEW YORK LIFE INVESTMENT MANAGEMENT ASIA LIMITED","NEW YORK LIFE INVESTMENT MANAGEMENT ASIA LIMITED","",,"","N","Y","N","N","N","N","N","N","N","N","N","N","N","N","N","N","N","Y","N","","","","","","","","N","N","","Y","Y","N"
1922610,274972,"NEW YORK LIFE INSURANCE COMPANY","NEW YORK LIFE INSURANCE COMPANY","",,"","N","N","N","N","N","Y","N","N","N","N","N","Y","N","N","N","N","Y","N","N","","","","","","","","N","","","N","Y","N"
1922610,274955,"NYL INVESTORS LLC","NYL INVESTORS LLC","801-78759",169553,"","N","Y","N","N","N","Y","N","N","N","N","N","N","N","N","Y","Y","N","Y","N","","","","","","","","N","N","","N","Y","N"
1922610,274975,"NYLIFE DISTRIBUTORS LLC","NYLIFE DISTRIBUTORS LLC","8-46655",35350,"","Y","N","N","N","N","N","N","N","N","N","N","N","N","N","N","N","N","Y","N","","","","","","","","N","","","Y","Y","N"
1922610,274989,"AUSBIL INVESTMENT MANAGEMENT LIMITED","AUSBIL INVESTMENT MANAGEMENT LIMITED","801-118742",289468,"","N","Y","N","N","N","N","N","N","N","N","N","N","N","N","N","Y","N","Y","N","","","","","","","","N","N","","Y","Y","N"
1922610,325845,"FLATIRON RR LLC, MANAGER SERIES","FLATIRON RR LLC, MANAGER SERIES","801-122074",314505,"","N","Y","N","N","N","N","N","N","N","N","N","N","N","N","N","N","N","Y","N","","","","","","","","N","N","","N","N","N"
1922610,364571,"BOW RIVER ADVISERS, LLC","BOW RIVER ADVISERS, LLC","801-127488",325285,"","N","Y","N","N","N","N","N","N","N","N","N","N","N","N","N","N","N","Y","N","","","","","","","","N","N","","N","N","N"
1922610,303984,"NEW YORK LIFE GROUP INSURANCE COMPANY OF NY","NEW YORK LIFE GROUP INSURANCE COMPANY OF NY","",,"","N","N","N","N","N","N","N","N","N","N","N","Y","N","N","N","N","N","Y","N","","","","","","","","N","","","N","Y","N"
1922610,274954,"CANDRIAM, SOCIT EN COMMANDITE PAR ACTIONS","CANDRIAM S.C.A.","801-80510",173355,"","N","Y","N","N","N","Y","N","N","N","N","N","N","N","N","N","Y","N","Y","N","","","","","","","","N","N","","Y","Y","N"
1922610,274974,"NEW YORK LIFE TRUST COMPANY","NEW YORK LIFE TRUST COMPANY","",,"","N","N","N","N","N","Y","N","N","Y","N","N","Y","N","N","N","Y","N","Y","N","","","","","","","","N","","","N","N","N"
1922610,303988,"APOGEM CAPITAL LLC","APOGEM CAPITAL LLC","801-118844",309234,"","N","Y","N","N","N","N","N","N","N","N","N","N","N","N","N","N","N","Y","N","","","","","","","","N","N","","N","Y","N"
1922610,274973,"NEW YORK LIFE INVESTMENT MANAGEMENT LLC","NEW YORK LIFE INVESTMENT MANAGEMENT LLC","801-57396",109591,"","N","Y","N","N","N","N","N","N","N","N","N","N","N","N","N","N","N","Y","N","","","","","","","","N","N","","Y","Y","N"
1922610,274970,"NEW YORK LIFE INSURANCE AND ANNUITY CORPORATION","NEW YORK LIFE INSURANCE AND ANNUITY CORPORATION","",,"","N","N","N","N","N","Y","N","N","N","N","N","Y","N","N","N","N","N","Y","N","","","","","","","","N","N","","N","Y","N"
1922610,303990,"TRISTAN CAPITAL PARTNERS LLP","TRISTAN CAPITAL PARTNERS LLP","",,"","N","Y","N","N","N","N","N","N","N","N","N","N","N","N","N","N","N","Y","N","","","","","","","","N","N","","Y","Y","N"
1922610,303986,"LIFE INSURANCE COMPANY OF NORTH AMERICA","LIFE INSURANCE COMPANY OF NORTH AMERICA","",,"","N","N","N","N","N","N","N","N","N","N","N","Y","N","N","N","N","N","Y","N","","","","","","","","N","","","N","Y","N"
1922610,303985,"KARTESIA MANAGEMENT SRL","KARTESIA MANAGEMENT S.A.","802-111039",289175,"","N","Y","N","N","N","N","N","N","N","N","N","N","N","N","N","Y","N","Y","N","","","","","","","","N","Y","SECTION 203(M)-1","Y","Y","N"
1922610,274982,"MACKAY SHIELDS LLC","MACKAY SHIELDS LLC","801-5594",107717,"","N","Y","N","N","N","Y","N","N","N","N","N","N","N","N","N","Y","Y","Y","N","","","","","","","","N","N","","Y","Y","N"
1922610,327424,"NYL INVESTMENTS UK LLP","NYL INVESTMENTS UK LLP","",,"","N","Y","N","N","N","N","N","N","N","N","N","N","N","N","N","N","N","Y","N","","","","","","","","N","Y","SECTION 203(B)(3)","Y","Y","N"
1931452,337025,"AQUAMARINE GP LTD.","AQUAMARINE GP LTD.","",,"","N","Y","N","N","N","N","N","N","N","N","N","N","N","N","N","N","N","Y","N","","","","","","","","N","N","","N","Y","N"
1929296,149374,"KELLNER GROUP, LLC","KELLNER GROUP, LLC","",,"","N","N","N","N","N","N","N","N","N","N","N","N","N","N","N","Y","N","Y","N","","","","","","","","N","","","N","Y","Y"
1928015,378328,"KULTURA SUMMIT MASTER FUND GP LLC","KULTURA SUMMIT MASTER FUND GP LLC","92-3339434",,"","N","N","N","N","N","N","N","N","N","N","N","N","N","N","N","Y","Y","Y","N","","","","","","","","N","","","N","Y","Y"
1919739,383601,"MSA-IIB VENTURE FUND I, GP","MSA-IIB VENTURE FUND I, GP","",,"","N","Y","N","N","N","N","N","N","N","N","N","N","N","N","N","Y","N","Y","N","","","","","","","","N","Y","PRIVATE FUND ADVISER EXEMPTION","N","Y","Y"
1919739,383602,"MSA CHINA VENTURE FUND III GP LLC","MSA CHINA VENTURE FUND III GP LLC","",,"","N","Y","N","N","N","N","N","N","N","N","N","N","N","N","N","Y","N","Y","N","","","","","","","","N","Y","PRIVATE FUND ADVISER EXEMPTION","N","Y","Y"
1919739,383598,"MAGIC STONE ALTERNATIVE PRIVATE EQUITY FUND GP, LTD.","MAGIC STONE ALTERNATIVE PRIVATE EQUITY FUND GP, LTD.","802-118698",308916,"","N","Y","N","N","N","N","N","N","N","N","N","N","N","N","N","Y","N","Y","N","","","","","","","","N","Y","PRIVATE FUND ADVISER EXEMPTION","N","Y","Y"
1919739,383599,"MSA CHINA GROWTH FUND II GP, LLC","MSA CHINA GROWTH FUND II GP, LLC","",,"","N","Y","N","N","N","N","N","N","N","N","N","N","N","N","N","Y","N","Y","N","","","","","","","","N","Y","PRIVATE FUND ADVISER EXEMPTION","N","Y","Y"
1919739,383600,"MSA ETM FUND I, GP","MSA ETM FUND I, GP","",,"","N","Y","N","N","N","N","N","N","N","N","N","N","N","N","N","Y","N","Y","N","","","","","","","","N","Y","PRIVATE FUND ADVISER EXEMPTION","Y","Y","Y"
1914743,383348,"SPC GP II, LLC","SPC GP II, LLC","",,"","N","N","N","N","N","N","N","N","N","N","N","N","N","N","N","Y","N","Y","N","","","","","","","","N","","","N","Y","Y"
1914743,383349,"SPC GP III LLC","SPC GP III LLC","",,"","N","N","N","N","N","N","N","N","N","N","N","N","N","N","N","Y","N","Y","N","","","","","","","","N","","","N","Y","Y"
1914743,383350,"SPC GP II 20211 LLC","SPC GP II 20211 LLC","",,"","N","N","N","N","N","N","N","N","N","N","N","N","N","N","N","Y","N","Y","N","","","","","","","","N","","","N","Y","Y"
1914743,246929,"SPC GP I, LLC","SPC GP I, LLC","",,"","N","N","N","N","N","N","N","N","N","N","N","N","N","N","N","Y","N","Y","N","","","","","","","","N","Y","","N","Y","Y"
1914743,383822,"FF3 DAO ADMIN LLC","FF3 DAO ADMIN LLC","",,"","N","N","N","N","N","N","N","N","N","N","N","N","N","N","N","Y","N","Y","N","","","","","","","","N","","","N","Y","Y"
1920505,383656,"AC VARDA I GP LLC","AC VARDA I GP LLC","",,"","N","N","N","N","N","N","N","N","N","N","N","N","N","N","N","Y","N","Y","N","","","","","","","","N","","","N","Y","Y"
1920505,383657,"ALSO CAPITAL II GP, LLC","ALSO CAPITAL II GP, LLC","",,"","N","N","N","N","N","N","N","N","N","N","N","N","N","N","N","Y","N","Y","N","","","","","","","","N","","","N","Y","Y"
1908521,381977,"2717 PARTNERS FUNDS GP LLC","2717 PARTNERS FUNDS GP LLC","",,"","N","N","N","N","N","N","N","N","N","N","N","N","N","N","N","Y","Y","Y","N","","","","","","","","N","","","N","Y","Y"
1908521,384470,"2717 PARTNERS SPV GP LLC","2717 PARTNERS SPV GP LLC","",,"","N","N","N","N","N","N","N","N","N","N","N","N","N","N","N","Y","Y","Y","N","","","","","","","","N","","","N","Y","Y"
1920949,314002,"EXCELL PARTNERS, INC.","EXCELL PARTNERS, INC.","",,"","N","N","N","N","N","N","N","N","N","N","N","N","N","N","Y","N","N","Y","N","","","","","","","","N","Y","15 U.S.C. 80B-3(I) - EXEMPTION OF VENTURE CAPITAL FUND ADVISERS","N","Y","Y"
