"FilingID","Name","Street 1","Street 2","City","State","Country","Postal Code","Private Residence","Phone","Fax","Type","Description"
1930486,"G4S SECURE SOLUTIONS (GUERNSEY) LIMITED","LOWLANDS INDUSTRIAL ESTATE","BRAYE ROAD","VALE","","Guernsey","GY3 5HX","N","+441481247477","","A third-party unaffiliated record keeper","OFFSITE DOCUMENT STORAGE."
1930486,"IRON MOUNTAIN","11333 E 53RD AVENUE","","DENVER","CO","United States","80239","N","833-476-2656","","A third-party unaffiliated record keeper","BACKUP DATA STORAGE."
1930486,"GLOBAL RELAY COMMUNICATION INC.","220 CAMBIE STREET","2ND FLOOR","VANCOUVER","","Canada","BC V6B 2M9","N","866-484-6630","","A third-party unaffiliated record keeper","ELECTRONIC COMMUNICATIONS ARCHIVING"
1930486,"EQUINIX","ALLMENDSTRASSE 13","","OBERENGSTRINGEN","","Switzerland","8102","N","+41443556900","","A third-party unaffiliated record keeper","HARDWARE INFRASTRUCTURE AND DATA CENTER THAT STORES ONLINE BACKUP DATA. EQUINIX IS A SUB-PROVIDER OF PG CONTRACTED PARTY UMB AG, SERVERS LOCATED IN BOTH ZURICH AND GENEVA. UMB AG ADDRESS: HINTERBERGSTRASSE 19, 6330 CHAM, SWITZERLAND"
1930486,"UBS AG","BAHNHOFSTRASSE 17","","ZURICH","","Switzerland","6300","N","+41443340828","+41417279333","A third-party unaffiliated record keeper","BACKUP DATA STORAGE."
1930486,"AMAZON WEB SERVICES (AWS) EMEA SARL","38 AVENUE JOHN F. KENNEDY","","LUXEMBOURG","","Luxembourg","1855","N","+352 26733000","","A third-party unaffiliated record keeper","CLOUD BACKUP DATA STORAGE. CONTACT ADDRESS LISTED. EXACT DATA CENTER LOCATIONS ARE CONFIDENTIAL FOR SECURITY PURPOSES BUT ARE IN FRANKFURT AREA. ALSO NO PHONE CONTACT NO FOR SECURITY PURPOSES."
1930486,"ALTER DOMUS LUXEMBOURG S.A.R.L.","15 BOULEVARD FRIEDRICH WILHELM RAIFFEISEN","","LUXEMBOURG","","Luxembourg","L-2411","N","+3524818281","","A third-party unaffiliated record keeper","ORIGINAL SUBSCRIPTION RELATED DOCUMENTS FOR CERTAIN ADVISORY CLIENT INVESTORS."
1930486,"PARTNERS GROUP (SINGAPORE) PTE. LTD.","8 MARINA VIEW","ASIA SQUARE TOWER 1 #37-01","SINGAPORE","","Singapore","018960","N","+6566713500","+6566713501","One of your branch offices or affiliates","ACCOUNTING AND REPORTING RECORDS."
1930486,"PARTNERS GROUP (GUERNSEY) LIMITED","TUDOR HOUSE, 2ND FLOOR","LE BORDAGE","ST. PETER PORT","","Guernsey","GY1 6BD","N","+441481711690","+441481730947","One of your branch offices or affiliates","ORIGINAL COPIES OF CERTAIN CLIENT DOCUMENTATION"
1930486,"CROWN WORLDWIDE PTE. LTD.","36 PIONEER ROAD","","SINGAPORE","","Singapore","628504","N","+6565937270","+6568611014","A third-party unaffiliated record keeper","BACKUP DATA STORAGE."
1930486,"RED OAK COMPLIANCE SOFTWARE, LLC","1320 ARROW POINT DRIVE","SUITE 411","CEDAR PARK","TX","United States","78613","N","888-302-4594","","A third-party unaffiliated record keeper","ELECTRONIC RECORDKEEPING SERVICES IN THE FORM OF ARCHIVED METADATA AND DOCUMENTATION."
1927229,"NAV CONSULTANTS","1 TRANS AM PLAZA DRIVE","400","OAKBROOK TERRACE","IL","United States","60181","N","6309541919","760-929-9637","Other","COPIES OF ALL STATEMENTS AND RECORDS ARE KEPT WITH THE FUND ADMINISTRATOR"
1920903,"OASIS DOCUMENT & DATA MANAGEMENT LIMITED","UNIT 4, NORTHERN CROSS BUSINESS PARK","FINGLAS, DUBLIN 11","DUBLIN","","Ireland","","N","+35319203237","","A third-party unaffiliated record keeper","ARCHIVED NON-CONFIDENTIAL FINANCE DOCUMENTATION AND ANCILLARY INVESTMENT DEAL DOCUMENTATION."
1920903,"OASIS DOCUMENT & DATA MANAGEMENT LIMITED","UNIT 100 NORTHWEST BUSINESS PARK","BLANCHARDSTOWN, DUBLIN 15","DUBLIN","","Ireland","","N","+35319203237","","A third-party unaffiliated record keeper","ARCHIVED NON-CONFIDENTIAL FINANCE DOCUMENTATION AND ANCILLARY INVESTMENT DEAL DOCUMENTATION."
1920903,"BRADWELL LIMITED","10 EARLSFORT TERRACE","DUBLIN 2","DUBLIN","","Ireland","","N","+35319201000","","A third-party unaffiliated record keeper","COMPANY SECRETARY - MAINTENANCE OF OFFICIAL BOOKS AND RECORDS, INCLUDING MINUTES OF BOARD MEETINGS, REGISTERS AND FINANCIAL STATEMENTS."
1919481,"CAPITAL Q MANAGEMENT","100 EAST FAITH TERRACE","SUITE 1016","MAITLAND","FL","United States","32751","N","407-307-2277","","Other","ALL BOOKS AND RECORDS"
1917376,"ADURO ADVISORS, LLC","2420 17TH STREET, SUITE 240","","DENVER","CO","United States","80202","N","(303) 482-7574","","A third-party unaffiliated record keeper","FINANCIAL RECORDS AND LEGAL AGREEMENTS"
1928540,"PINNACLE FUND ADMINISTRATION","800-333 SEYMOUR STREET","","VANCOUVER","","Canada","V6B 5A6","N","604-559-8920","","A third-party unaffiliated record keeper","ACCOUNTING RECORDS."
1928540,"LAWSON LUNDELL LLP","1600 - 925 WEST GEORGIA STREET","","VANCOUVER","","Canada","V6C 3L2","N","604-685-3456","604-669-1620","A third-party unaffiliated record keeper","RECORDS OFFICE."
1928540,"MNP LLP","2200-1021 WEST HASTINGS STREET","","VANCOUVER","","Canada","V6E0C3","N","6046858408","","A third-party unaffiliated record keeper","FUND BOOKKEEPING, TAX FILES."
1933240,"VISTRA NETHERLANDS","JUPITER GEBOUW","HERIKERBERGWEG 88","AMSTERDAM","","Netherlands","1101 CM","N","0031885609950","","A third-party unaffiliated record keeper","ALL FUND ADMINISTRATION FOR H2 EQUITY PARTNERS FUND V HAS BEEN OUTSOURCED TO PROFESSIONAL SERVICES FIRM VISTRA (NETHERLANDS). VISTRA REPORTS TO THE BOARD OF H2EP"
1924040,"NAV CONSULTING INC.","1 TRANSAM PLAZA DR.","SUITE 400","OAKBROOK TERRACE","IL","United States","60181","N","855-226-8388","","A third-party unaffiliated record keeper","THIRD PARTY ADMINISTRATOR"
1924040,"MICROSOFT INC.","1 MICROSOFT WAY","","REDMOND","WA","United States","98052","N","4258828080","","Other","CLOUD STORAGE PROVIDER"
1923892,"NAV CONSULTING","1 TRANS AM PLAZA DRIVE, SUITE 400","","OAKBROOK TERRACE","IL","United States","60181","N","630-954-1919","","A third-party unaffiliated record keeper","NAV CONSULTING KEEPS SUPPORTING DOCUMENTATION FOR NAV CALCULATIONS AND CUSTODIAL STATEMENTS"
1917807,"NAV FUND ADMINISTRATOR GROUP","1 TRANS AM PLAZA DRIVE","SUITE 400","OVERBROOK TERRACE","IL","United States","60181","N","630-954-1919","630-954-1945","A third-party unaffiliated record keeper","KYC DOCUMENTS, ACCOUNTING RECORDS"
1926749,"CITCO FUND ADMINISTRATION (CAYMAN ISLANDS) LIMITED","89 NEXUS WAY","CAMANA BAY, PO BOX 31106","GRAND CAYMAN","","Cayman Islands","KY1-1205","N","1 345 949 3977","","A third-party unaffiliated record keeper","CERTAIN BOOKS AND RECORDS RELATING TO MIDDLE- AND BACK-OFFICE SERVICES AS WELL AS FUND ADMINISTRATION SERVICES INCLUDING FUND INTERESTS, INVESTOR RECORDS, CERTAIN FINANCIAL STATEMENTS AND ACCOUNTING INFORMATION."
1926749,"CITCO FUND SERVICES (IRELAND) LIMITED","CUSTOM HOUSE PLAZA BLOCK 6","INTERNATIONAL FINANCIAL SERVICES CENTRE","DUBLIN 1","","Ireland","","N","+35316367300","","A third-party unaffiliated record keeper","CERTAIN BOOKS AND RECORDS RELATING TO MIDDLE- AND BACK-OFFICE SERVICES AS WELL AS FUND ADMINISTRATION SERVICES INCLUDING FUND INTERESTS, INVESTOR RECORDS, CERTAIN FINANCIAL STATEMENTS AND ACCOUNTING INFORMATION."
1924892,"ADURO ADVISORS","2420 17TH ST","","DENVER","CO","United States","80202","N","650-283-2679","","A third-party unaffiliated record keeper","ACCOUNTING SERVICES, REPORT GENERATION, CASH MANAGEMENT, DISTRIBUTION MANAGEMENT, INVESTOR COMMUNICATION, TAX REPORTING AND ASSISTING WITH INDEPENDENT AUDIT PROCESS"
1924170,"LAB LUXEMBOURG S.A.","2-4, RUE EDMOND REUTER","","CONTERN","","Luxembourg","5326","N","+352 350 222 9","","A third-party unaffiliated record keeper","ARCHIVING PROVIDER WHICH HANDLES ALL TYPES OF ARCHIVING RELEVANT DOCUMENTS (TRANSACTION RELEVANT DATA, FINANCIALS)"
1924170,"BRS ALADDIN","MIRCOSOFT CORPORATION, AZURE WEST US 2","1515 PORT INDUSTIAL WAY","QUINCY","WA","United States","98848","N","833-538-1100","","A third-party unaffiliated record keeper","ORDER MANAGEMENT, TRADING, RESEARCH AND INVESTMENT GUIDELINE MONITORING SYSTEM"
1932050,"MUFG ALTERNATIVE FUND SERVICES (IRELAND) LIMITED","15 GEORGE'S QUAY","","DUBLIN 2","","Ireland","","N","+35314363600","353 1 436 3601","A third-party unaffiliated record keeper","THIS IS THE LOCATION OF THE FUND ADMINISTRATOR. RECORDS KEPT WILL TYPICALLY BE: FUND ACCOUNTS FUND HOLDINGS FUND SUBSCRIPTIONS FUND PROSPECTUSES FUND INCORPORATION RECORDS FUND LEGAL PAPERS"
1924453,"GRASSI FUND SERVICES C/O GRASSI ADVISORY GROUP","50 JERICHO QUANDRANGLE","SUITE 200","JERICHO","NY","United States","11753","N","(516) 256-3500","516-256-3510","A third-party unaffiliated record keeper","BOOKS AND RECORDS RELATED TO THE ADVISORY ACTIVITIES OF STILL LAKE CAPITAL, LLC."
1924122,"MAPLES FUND SERVICES (CAYMAN) LIMITED","PO BOX 1093, BOUNDARY HALL, CRICKET SQUARE","GRAND CAYMAN KY1-1102, CAYMAN ISLANDS","GRAND CAYMAN","","Cayman Islands","","N","+852 3655 9000","","A third-party unaffiliated record keeper","RECORDS KEPT: (I) FUND LEGAL DOCUMENTS; (II) FUND INFORMATION; (III) INVESTOR SUBSCRIPTION DOCUMENTS; AND (IV) KYC DOCUMENTS"
1917528,"VERITAS TECHNOLOGIES LLC","350 ELLIS STREET","","MOUNTAIN VIEW","CA","United States","94043","N","800-721-3934","","A third-party unaffiliated record keeper","VERITAS TECHNOLOGIES LLC MAINTAINS CERTAIN BOOKS AND RECORDS OF CAXTON EUROPE LLP AND ITS AFFILIATES AND CLIENTS"
1917528,"CAXTON ASSOCIATES (USA) LLC","500 PARK AVENUE","9TH FLOOR","NEW YORK","NY","United States","10022","N","212 593-7700","","One of your branch offices or affiliates","CAXTON ASSOCIATES (USA) LLC IS A SUB-ADVISER OF CAXTON EUROPE LLP. AS A RESULT, CAXTON ASSOCIATES (USA) LLC MAY MAINTAIN CERTAIN BOOKS AND RECORDS AT THIS LOCATION ON ITS BEHALF AND ON BEHALF OF CAXTON EUROPE LLP AND ITS OTHER AFFILIATES AND CLIENTS."
1917528,"CAXTON ASSET MANAGEMENT (DIFC) LTD","UNIT 416, LEVEL 4","INDEX TOWER, DUBAI INTERNATIONAL FINANCIAL CENTRE","DUBAI","","United Arab Emirates","","N","+442076475901","","One of your branch offices or affiliates","CAXTON ASSET MANAGEMENT (DIFC) LTD IS A SUB-ADVISER OF CAXTON EUROPE LLP. AS A RESULT, CAXTON ASSET MANAGEMENT (DIFC) LTD MAY MAINTAIN CERTAIN BOOKS AND RECORDS AT THIS LOCATION ON ITS BEHALF AND ON BEHALF OF CAXTON EUROPE LLP AND ITS OTHER AFFILIATES AND CLIENTS."
1917528,"CITCO FUND SERVICES (CAYMAN ISLANDS) LIMITED","89 NEXUS WAY, 2ND FLOOR","CAMANA BAY, P.O. BOX 31106","GRAND CAYMAN","","Cayman Islands","KY1-1205","N","3459493977","","A third-party unaffiliated record keeper","CITCO FUND SERVICES (CAYMAN ISLANDS) LIMITED AND ITS AFFILIATES/SUB-ADMINISTRATORS (COLLECTIVELY, ""CITCO"") SERVE AS THE ADMINISTRATORS TO SEVERAL PRIVATE FUNDS TO WHICH CAXTON EUROPE LLP AND ITS AFFILIATES (""CAXTON"") SERVE AS TRADING ADVISOR. CITCO MAY MAINTAIN CERTAIN BOOKS AND RECORDS OF THESE FUNDS AND CAXTON IN SUCH CAPACITY"
1917528,"CAXTON (MONACO) S.A.M","GILDO PASTOR CENTER","7 RUE DU GABIAN","MONACO","","Monaco","MC 98000","N","442076470770","","One of your branch offices or affiliates","CAXTON (MONACO) S.A.M (""CAXTON MONACO"") IS A SUB-ADVISER OF CAXTON EUROPLE LLP. AS A RESULT, CAXTON MONACO MAY MAINTAIN CERTAIN BOOKS AND RECORDS AT THIS LOCATION ON ITS OWN BEHALF AND ON THE BEHALF OF CAXTON EUROPE LLP AND ITS OTHER AFFILIATES AND CLIENTS"
1917528,"CAXTON (SINGAPORE) PTE. LTD.","8 MARINA VIEW, UNIT # 14-05","ASIA TOWER SQUARE 1","SINGAPORE","","Singapore","018961","N","65-65138508","","One of your branch offices or affiliates","CAXTON (SINGAPORE) PTE. LTD. (""CAXTON SINGAPORE"") IS A SUB-ADVISER OF CAXTON EUROPE LLP. AS A RESULT, CAXTON SINGAPORE MAY MAINTAIN CERTAIN BOOKS AND RECORDS AT THIS LOCATION ON ITS BEHALF AND ON BEHALF OF CAXTON EUROPE LLP AND ITS OTHER AFFILIATES AND CLIENTS."
1919668,"CAXTON EUROPE LLP","40 BERKELEY SQUARE, 3RD FLOOR","","LONDON","","United Kingdom","W1J5AL","N","442076470770","","One of your branch offices or affiliates","CAXTON EUROPE LLP IS THE MAJORITY SHAREHOLDER OF CAXTON (MONACO) S.A.M. AS A RESULT, CAXTON EUROPE LLP MAINTAINS CERTAIN BOOKS AND RECORDS AT THIS LOCATION ON BEHALF OF CAXTON (MONACO) S.A.M."
1919668,"VERITAS TECHNOLOGIES LLC","350 ELLIS STREET","","MOUNTAIN VIEW","CA","United States","94043","N","800-721-3934","","A third-party unaffiliated record keeper","VERITAS TECHNOLOGIES LLC MAINTAINS CERTAIN BOOKS AND RECORDS OF CAXTON (MONACO) S.A.M."
1919668,"CITCO FUND SERVICES (CAYMAN ISLANDS) LIMITED","89 NEXUS WAY, 2ND FLOOR","CAMANA BAY, P.O. BOX 31106","GRAND CAYMAN","","Cayman Islands","KY1-1205","N","3459493977","","A third-party unaffiliated record keeper","CITCO FUND SERVICES (CAYMAN ISLANDS) LIMITED AND ITS AFFILIATES/SUB-ADMINISTRATORS (COLLECTIVELY 'CITCO')SERVE AS THE ADMINISTRATORS TO PRIVATE FUNDS TO WHICH CAXTON (MONACO) S.A.M SERVE AS TRADING ADVISOR.CITCO MAY MAINTAIN CERTAIN BOOKS AND RECORDS OF THESE FUNDS AND CAXTON (MONACO) S.A.M IN SUCH CAPACITY."
1924738,"E78 PARTNERS LLC","1301 W. 22ND STREET","STE 410","OAK BROOK","IL","United States","60523","N","310-806-6267","","A third-party unaffiliated record keeper","CERTAIN FINANCIAL RECORDS OF CLIENTS AND ADVISER."
1924738,"OPUS FUND SERVICES","12 CHURCH STREET","","HAMILTON","","Bermuda","HM12","N","312-256-9974","","A third-party unaffiliated record keeper","BOOKS AND RECORDS RELATED TO FUND ACCOUNTING, INVESTOR SERVICES, SUBSCRIPTION AND WITHDRAWALS."
1933275,"NAV CONSULTING, INC","1 TRANS AM PLAZA DRIVE","SUITE 400","OAK BROOK TERRACE","IL","United States","60181","N","630 954-1919","","A third-party unaffiliated record keeper","BUSINESS RECORDS"
1927879,"RBC EUROPE LTD","KESTREL WAY","RBC DATA HALL, DIGITAL REALTY, GOLDSWORTH PARK T.E","WOKING","","United Kingdom","GU21 3BA","N","02079549100","","Other","ELECTRONIC DOCUMENTS"
1927879,"RBC EUROPE LTD","630 AJAX AVE","RBC DATA CENTRE, CYXTERA LONDON DATA CENTRE","SLOUGH","","United Kingdom","SL1 4DG","N","18556998372","","Other","ELECTRONIC DOCUMENTS"
1927879,"LAB LUXEMBOURG S.A.","3 RUE DR ELVIRE ENGEL","DIGITAL TRANSITION HUB","GRASS","","Luxembourg","L-8346","N","+352350222","","A third-party unaffiliated record keeper","PHYSICAL CORPORATE DOCUMENTS - ARCHIVE"
1921045,"WAGNER, FERBER FINE & ACKERMAN","66 SOUTH TYSON AVENUE","","FLORAL PARK","NY","United States","11001-1805","N","(212) 576-1829","","A third-party unaffiliated record keeper","ACCOUNTANTS."
1921045,"CARTA INVESTOR SERVICES, INC.","333 BUSH STREET.","STE. 2300","SAN FRANCISCO","CA","United States","94104-2854","N","(801) 919-8273","","A third-party unaffiliated record keeper","FUND ADMINISTRATION."
1921045,"FTS ADMIN, LLC.","548 MARKET STREET","#91771","SAN FRANCISCO","CA","United States","94104-5401","N","(650) 503-4695","","A third-party unaffiliated record keeper","FUND ADMINISTRATION."
1921045,"SYDECAR LLC","2093 PHILADELPHIA PIKE","#5885","CLAYMONT","DE","United States","19703","N","8186428181","","A third-party unaffiliated record keeper","FUND ADMINISTRATION."
1933397,"UBS GROUP AG AND AFFILIATES","BAHNHOFSTRASSE 45","","ZURICH","","Switzerland","8001","N","0041848880840","","A third-party unaffiliated record keeper","PURSUANT TO THE SALE OF THE COMPANY BY UBS, CERTAIN BOOKS AND RECORDS RELATED TO THE COMPANY'S HISTORICAL OPERATIONS CONTINUE TO BE MAINTAINED BY UBS AND ITS AFFILIATES. THESE RECORDS PRIMARILY INCLUDE PRE-SALE COMPLIANCE RECORDS, FINANCIAL RECORDS, FUND AND INVESTMENT RECORDS AS WELL AS OTHER DOCUMENTS CREATED DURING THE PERIOD WHEN THE COMPANY OPERATED AS A SUBSIDIARY OF UBS GROUP AG RESPECTIVELY CREDIT SUISSE GROUP AG."
1930872,"IRON MOUNTAIN","200 COMMERCIAL DRIVE","","WATERTOWN","CT","United States","06975","N","(800) 899-4766","","A third-party unaffiliated record keeper","TAPE COPIES OF CERTAIN BOOKS AND RECORDS NOT REQUIRED TO BE HELD ONSITE BY THE ADVISER."
1930872,"CITCO FUND SERVICES (USA) INC","HARBORSIDE PLAZA 10","3 SECOND STREET, 6TH FLOOR","JERSEY CITY","NJ","United States","07311","N","12017935500","","A third-party unaffiliated record keeper","FUND ADMINISTRATOR"
1930872,"GLOBAL RELAY","286 MADISON AVENUE","7TH FL","NEW YORK","NY","United States","10017","N","18664846630","","A third-party unaffiliated record keeper","ELECTRONIC COMMUNICATIONS BOOKS & RECORDS RETENTION"
1930872,"CITCO FUND SERVICES (IRELAND) LIMITED","CUSTOM HOUSE PLAZA","BLOCK 6","DUBLIN","","Ireland","DUBLIN 1","N","353016367300","","A third-party unaffiliated record keeper","FUND ADMINISTRATOR"
1930872,"MARSHALL WACE LLP","GEORGE HOUSE","131 SLOANE STREET","LONDON","","United Kingdom","SW1X 9AT","N","44 20-7316-225","44 20-7925-761","One of your branch offices or affiliates","MASTER ACCOUNTING RECORDS ARE KEPT ONSITE AT THIS LOCATION. CERTAIN OF THESE RECORDS MAY ALSO BE ACCESSED ELECTRONICALLY FROM MARSHALL WACE NORTH AMERICA L.P.'S NEW YORK OFFICE."
1930872,"GL&M UK LIMITED","80 COLEMAN STREET","","LONDON","","United Kingdom","EC2R 5BJ","N","44 20 7653 880","","A third-party unaffiliated record keeper","PROXY VOTING RECORDS"
1922549,"GOODMANS LLP","333 BAY STREET","SUITE 3400","TORONTO, ONTARIO","","Canada","M5H 2S7","N","416-597-4195","","A third-party unaffiliated record keeper","CONSTATING DOCUMENTS, RESOLUTIONS, ANNUAL EXTRA PROVINCIAL RETURNS, ETC."
1929543,"MATSACK TRUST LIMITED","70 SIR JOHN ROGERSON'S QUAY","","DUBLIN","","Ireland","2","N","DO2R296","","A third-party unaffiliated record keeper","CLIENT RECORDS"
1929293,"TRIDENT TRUST COMPANY","1100 ABERNATHY ROAD NE","500 NORTHPARK BLDG., SUITE 300","ATLANTA","GA","United States","30328","N","404-364-2019","404-364-2013","A third-party unaffiliated record keeper","FUND ACCOUNTING RECORDS, PARTNER CAPITAL ACCOUNT INFORMATION."
1928005,"GOLDMAN SACHS AND CO LLC","200 WEST STREET","","NEW YORK","NY","United States","10282","N","2129021000","","A third-party unaffiliated record keeper","CUSTODIAN RECORDS"
1928005,"OPUS FUND SERVICES","500 E. DIEHL ROAD","SUITE 100","NAPERVILLE","IL","United States","60563","N","312-256-9974","","A third-party unaffiliated record keeper","ADMINISTRATOR RECORDS"
1928002,"WAYSTONE ADMINISTRATION SOLUTIONS (IE) LIMITED","4TH FLOOR, 35 SHELBOURNE ROAD","BALLSBRIDGE","DUBLIN 4","","Ireland","D04A4EO","N","+353 1 6192300","","A third-party unaffiliated record keeper","CERTAIN RECORDS RELATING TO THE ADMINISTRATION OF THE PRIVATE FUNDS MANAGED BY CAMROSE CAPITAL INVESTMENT PARTNERS LLP"
1908507,"IDRIVE INC.","26115, MUREAU ROAD","SUITE A","CALABASAS","CA","United States","91302","N","1-855-815-8706","EXT 1","A third-party unaffiliated record keeper","CLOUD-BASED SOFTWARE PROVIDER UTILIZE FOR MAINTAINING BOOKS AND RECORDS IN ACCORDANCE WITH SECTION 204 OF THE INVESTMENT ADVISERS ACT."
1925594,"FAS LIMITED","ROOM 902 WILSON HOUSE, 19-27 WYNDHAM STREET","","HONG KONG","","Hong Kong","","N","+85228517743","","A third-party unaffiliated record keeper","ACCOUNTING AND PAYROLL RECORDS"
1925594,"CITCO FUND SERVICES (SINGAPORE) PTE LTD","10 CHANGI BUSINESS PARK CENTRAL 2","01-02 HANSAPOINT @ CBP","SINGAPORE","","Singapore","486030","N","+6565711135","+6565711032","A third-party unaffiliated record keeper","PRIVATE FUND INVESTOR RECORDS"
1925594,"PCCW KWAI CHUNG DATA CENTRE","43 CONTAINER PORT ROAD, KWAI CHUNG","6F CARGO CONSOLIDATION COMPLEX","HONG KONG","","Hong Kong","","N","+85281080123","","A third-party unaffiliated record keeper","CLOUD BACKUP"
1925594,"DESTINATION PARTNERS LIMITED","UNIT 2902","HONGQIAO ROAD 183,XUJIAHUI CENTER III, TOWER A","SHANGHAI","","China","200030","N","+8615800924042","","One of your branch offices or affiliates","ACCOUNTING AND RESEARCH EXPENSE"
1927329,"VICKERS VENTURE PARTNERS (S) PTE LTD","1 HARBOURFRONT AVENUE","#16-06, KEPPEL BAY TOWER","SINGAPORE","","Singapore","098632","N","+6567176666","","One of your branch offices or affiliates","ALL RECORDS ARE KEPT AT THIS LOCATION."
1924276,"INTERTRUST FUND SERVICES (JERSEY) LIMITED","44 ESPLANADE","","ST HELIER","","Jersey","JE4 9WG","N","+44 1534504000","","A third-party unaffiliated record keeper","LIMITED PARTNERSHIP REGISTRY, LIMITED COMPANY REGISTRY, GENERAL LEDGER MATERIALS, ADMINISTRATIVE MATERIALS."
1924276,"MOURANT GOVERNANCE SERVICES (JERSEY) LIMITED","22 GRENVILLE STREET","","ST HELIER","","Jersey","JE4 8PX","N","+44 1534676459","","A third-party unaffiliated record keeper","CERTAIN AFFILIATE RECORDS; LIMITED PARTNERSHIP REGISTRY, LIMITED COMPANY REGISTRY, GENERAL LEDGER MATERIALS, ADMINISTRATIVE MATERIALS."
1922552,"JTC (LUXEMBOURG) S.A.","17, BOULEVARD RAIFFEISEIN","","LUXEMBOURG","","Luxembourg","L-2411","N","+35227172807","","A third-party unaffiliated record keeper","JTC IS THE ADMINISTRATOR FOR THE STONESHIELD SOUTHERN EUROPEAN REAL ESTATE"
1922552,"APEX FUND SERVICES S.A.","RUE GABRIEL LIPPMANN 3 5365 SCHUTTRANGE","","MUNSBACH","","Luxembourg","","N","+352 26 86 84","","A third-party unaffiliated record keeper","ADMINISTRATOR FOR THE GREATER SHARE EDUCATION FUND AND KEEPER OF THE BOOKS AND RECORDS"
1922552,"SOCIÉTÉ GÉNÉRALE SECURITIES SERVICES S.P.A","VIA CRESPI BENIGNO 19/A","","MILANO","","Italy","","N","+39 02 91781","","A third-party unaffiliated record keeper","ADMINISTRATOR FOR THE WHITE ITALY FUND AND KEEPER OF THE BOOKS AND RECORDS."
1925579,"EQUINIX (UK) LIMITED","352 BUCKINGHAM AVENUE","SLOUGH TRADING ESTATE","SLOUGH","","United Kingdom","SL1 4PF","N","+44845372900","","A third-party unaffiliated record keeper","DATA CENTER FOR ELECTRONIC STORAGE"
1925579,"SYMMETRY INVESTMENTS (HONG KONG) LIMITED","1301, THREE EXCHANGE SQUARE","8 CONNAUGHT PLACE","HONG KONG","","Hong Kong","","N","852 3698 9100","852 2303 5799","One of your branch offices or affiliates","LEGAL, REGULATORY AND BUSINESS RECORDS"
1925579,"SYMMETRY INVESTMENTS LP","10 LE CAPELAIN HOUSE, CASTLE QUAY","LA RUE DE L'ETAU","ST HELIER","","Jersey","JE2 3EH","N","+442070723100","","One of your branch offices or affiliates","LEGAL, REGULATORY AND BUSINESS RECORDS"
1925579,"SYMMETRY INVESTMENTS UK LLP","4TH FLOOR, 86 JERMYN STREET","","LONDON","","United Kingdom","SW1Y 6JD","N","+442070723100","","One of your branch offices or affiliates","LEGAL, REGULATORY AND BUSINESS RECORDS"
1925579,"STATE STREET FUND SERVICES (IRELAND) LIMITED","78 SIR JOHN ROGERSON'S QUAY","","DUBLIN","","Ireland","2","N","+3531 707 5000","+3531 707 5100","A third-party unaffiliated record keeper","LEGAL, REGULATORY AND BUSINESS RECORDS"
1925579,"SYMMETRY INVESTMENTS SINGAPORE PRIVATE LIMITED","3 CHURCH STREET, #27-03","SAMSUNG HUB","SINGAPORE","","Singapore","049483","N","+6565766000","","One of your branch offices or affiliates","LEGAL, REGULATORY AND BUSINESS RECORDS"
1925579,"STARCOMPLIANCE OPERATING, LLC","451 HUNGERFORD DRIVE","SUITE 515","ROCKVILLE","MD","United States","20850","N","(301)340-3900","(301)340-3906","A third-party unaffiliated record keeper","CERTAIN BOOKS AND RECORDS RELATING TO BUSINESS OPERATION"
1925579,"OPTIONS TECHNOLOGY LTD","LEVEL 3, 20 AYER RAJAH CRESCENT","","-","","Singapore","139964","N","+6531582175","","A third-party unaffiliated record keeper","DATA CENTER FOR ELECTRONIC STORAGE"
1925579,"OPTIONS TECHNOLOGY LTD","3 WAXLOW ROAD","","LONDON","","United Kingdom","NW10 7NU","N","000000000","","A third-party unaffiliated record keeper","DATA CENTER FOR ELECTRONIC STORAGE"
1925579,"GLOBAL RELAY COMMUNICATIONS INC.","4TH FLOOR, READING BRIDGE HOUSE","GEORGE STREET","READING","","United Kingdom","RG1 8 LS","N","866-484-6630","","A third-party unaffiliated record keeper","ELECTRONIC COMMUNICATIONS RECORD OF THE BUSINESS OPERATIONS"
1925579,"SYMMETRY INVESTMENTS CAYMAN LIMITED","OFFICE 1.20, THE WHITE HOUSE","20 GENESIS CL","GEORGE TOWN","","Cayman Islands","KY1-1208","N","+1 345 749 200","","One of your branch offices or affiliates","LEGAL, REGULATORY AND BUSINESS RECORDS"
1925583,"STARCOMPLIANCE OPERATING, LLC","451 HUNGERFORD DRIVE","SUITE 515","ROCKVILLE","MD","United States","20850","N","(301)340-3900","(301)340-3906","A third-party unaffiliated record keeper","CERTAIN BOOKS AND RECORDS RELATING TO BUSINESS OPERATION"
1925583,"OPTIONS TECHNOLOGY LTD","LEVEL 3, 20 AYER RAJAH CRESCENT","","SINGAPORE","","Singapore","139964","N","+6531582175","","A third-party unaffiliated record keeper","DATA CENTER FOR ELECTRONIC STORAGE"
1925583,"OPTIONS TECHNOLOGY LTD","3 WAXLOW ROAD","","LONDON","","United Kingdom","NW10 7NU","N","000000000","","A third-party unaffiliated record keeper","DATA CENTER FOR ELECTRONIC STORAGE"
1925583,"GLOBAL RELAY COMMUNICATIONS INC.","4TH FLOOR, READING BRIDGE HOUSE","GEORGE STREET","READING","","United Kingdom","RG1 8 LS","N","866-484-6630","","A third-party unaffiliated record keeper","ELECTRONIC COMMUNICATIONS RECORD OF THE BUSINESS OPERATIONS"
1925583,"SYMMETRY INVESTMENTS UK LLP","4TH FLOOR, 86 JERMYN STREET","","LONDON","","United Kingdom","SW1Y 6JD","N","+442070723100","","One of your branch offices or affiliates","LEGAL, REGULATORY AND BUSINESS RECORDS"
1925583,"STATE STREET FUND SERVICES (IRELAND) LIMITED","78 SIR JOHN ROGERSON'S QUAY","","DUBLIN","","Ireland","2","N","+3531 707 5000","+3531 707 5100","A third-party unaffiliated record keeper","LEGAL, REGULATORY AND BUSINESS RECORDS"
1925583,"SYMMETRY INVESTMENTS SINGAPORE PRIVATE LIMITED","3 CHURCH STREET, #27-03","SAMSUNG HUB","SINGAPORE","","Singapore","049483","N","+6565766000","","One of your branch offices or affiliates","LEGAL, REGULATORY AND BUSINESS RECORDS"
1925583,"SYMMETRY INVESTMENTS (HONG KONG) LIMITED","1301, THREE EXCHANGE SQUARE","8 CONNAUGHT PLACE","HONG KONG","","Hong Kong","","N","852 3698 9100","","One of your branch offices or affiliates","LEGAL, REGULATORY AND BUSINESS RECORDS"
1925583,"SYMMETRY INVESTMENTS JERSEY LIMITED","10 LE CAPELAIN HOUSE, CASTLE QUAY","LA RUE DE L'ETAU","ST HELIER","","Jersey","JE2 3EH","N","+44 2070723100","","One of your branch offices or affiliates","LEGAL, REGULATORY AND BUSINESS RECORDS"
1925583,"SYMMETRY INVESTMENTS LP","10 LE CAPELAIN HOUSE, CASTLE QUAY","LA RUE DE L'ETAU","ST HELIER","","Jersey","JE2 3EH","N","+44 2070723100","","One of your branch offices or affiliates","LEGAL, REGULATORY AND BUSINESS RECORDS"
1925583,"EQUINIX (UK) LIMITED","352 BUCKINGHAM AVENUE","SLOUGH TRADING ESTATE","SLOUGH","","United Kingdom","SL1 4PF","N","+44845372900","","A third-party unaffiliated record keeper","DATA CENTER FOR ELECTRONIC STORAGE"
1922159,"VECTOR AIS","447 SUTTER STREET","","SAN FRANCISCO","CA","United States","94108","N","415-449-4411","","A third-party unaffiliated record keeper","ACCOUNTING RECORDS STORED ELECTRONICALLY ON SERVER."
1922354,"MAPLES FUND SERVICES (CAYMAN) LIMITED","C/O MAPLES FUND SERVICES (ASIA) LIMITED","16/F CENTRAL PLAZA, 18 HARBOUR ROAD, WANCHAI","HONG KONG","","Hong Kong","","N","+852 3690 7677","","A third-party unaffiliated record keeper","THE ADMINISTRATOR WILL MAINTAIN RECORDS SUCH AS SUBSCRIPTION DOCUMENTS, CERTAIN FINANCIAL, ACCOUNTING AND ADMINISTRATIVE DOCUMENTS, NAV CALCULATIONS, MANAGEMENT AND PERFORMANCE FEES, AND AML/KYC DOCUMENTATION FOR THE FUNDS."
1922354,"MORGAN STANLEY FUND SERVICES (CAYMAN) LTD.","C/O MORGAN STANLEY FUND SERVICES (IRELAND) LIMITED","24-26 CITY QUAY","DUBLIN","","Ireland","D02 NY19","N","+852 3963 0300","","A third-party unaffiliated record keeper","THE ADMINISTRATOR WILL MAINTAIN RECORDS SUCH AS SUBSCRIPTION DOCUMENTS, CERTAIN FINANCIAL, ACCOUNTING AND ADMINISTRATIVE DOCUMENTS, NAV CALCULATIONS, MANAGEMENT AND PERFORMANCE FEES, AND AML/KYC DOCUMENTATION FOR THE FUNDS."
1914988,"TMF GROUP","790 SE CARY PARKWAY","SUITE 204","CARY","NC","United States","27511","N","(919) 459-4650","","A third-party unaffiliated record keeper","ACCOUNTING RECORDS, ACCOUNT STATEMENTS FOR INVESTORS AND RELATED SUPPORTING DOCUMENTS"
1920512,"ADURO ADVISORS, LLC","2420 17TH STREET, SUITE 240","","DENVER","CO","United States","80202","N","(720) 306-1466","","A third-party unaffiliated record keeper","FINANCIAL BOOKS AND RECORDS"
1921726,"WAYSTONE COMPLIANCE SOLUTIONS","LEVEL 2, GATE VILLAGE","DUBAI INTERNATIONAL FINANCIAL CENTRE (DIFC)","DUBAI","","United Arab Emirates","","N","971 4 323 0800","","A third-party unaffiliated record keeper","CORPORATE SECRETARIAL DOCUMENTS SUCH AS INCORPORATION DOCS, REGISTERS, ETC."
1921726,"DYMON ASIA CAPITAL (SINGAPORE) PTE. LTD.","ONE TEMASEK AVENUE","#11-01 MILLENIA TOWER","SINGAPORE","","Singapore","039192","N","(65) 6705 1666","","One of your branch offices or affiliates","BOOKS  AND RECORDS RELATING TO THE MANAGEMENT OF RELATED PRIVATE FUNDS."
1926242,"OPUS FUND SERVICES (USA) LLC","500 E DIEHL ROAD","SUITE 100","NAPERVILLE","IL","United States","60563","N","312-256-9974","","A third-party unaffiliated record keeper","OPUS PROVIDES FUND ADMINISTRATION SERVICES TO PINNACLE HILL HOLDINGS LP"
1924743,"APEX FUND AND CORPORATE SERVICES TEXAS LTD.","8750 N CENTRAL EXPY","SUITE 1825","DALLAS","TX","United States","75225","N","214 393 2988","","A third-party unaffiliated record keeper","INVESTOR RECORDS, FINANCIAL RECORDS."
1924472,"NAV CONSULTING, INC","1 TRANS AM PLAZA DRIVE, SUITE 400","","OAK BROOK TERRACE","IL","United States","60181","N","(630) 954-1919","(630) 954-1945","A third-party unaffiliated record keeper","NAV CONSULTING, INC MAINTAINS THE ACCOUNTING RECORDS FOR CERTAIN OF T2AM'S CLIENTS. SHADOW ACCOUNTING RECORDS ARE MAINTAINED AT T2AM'S OFFICES."
1924132,"MORGAN STANLEY FUND SERVICES (CAYMAN) LTD.","27 HOSPITAL ROAD","GEORGE TOWN","GRAND CAYMAN","","Cayman Islands","KY1-9008","N","+353 1 7998778","","A third-party unaffiliated record keeper","ADMINISTRATOR OF CERTAIN FUNDS; INFORMATION RELATING TO VALUATION, INVESTOR SUBSCRIPTIONS, FINANCIAL REPORTING, FUND ACCOUNTING."
1919870,"PROUD AMERICAN CAPITAL LLC","","","","","","","Y","6615829003","","One of your branch offices or affiliates","ELECTRONIC BOOKS AND PAPER FILES FOR THE BUSINESS"
1925577,"SYMMETRY INVESTMENTS (HONG KONG) LIMITED","1301, THREE EXCHANGE SQUARE","8 CONNAUGHT PLACE","HONG KONG","","Hong Kong","","N","852 3698 9100","","One of your branch offices or affiliates","LEGAL, REGULATORY AND BUSINESS RECORDS"
1925577,"SYMMETRY INVESTMENTS JERSEY LIMITED","10 LE CAPELAIN HOUSE, CASTLE QUAY","LA RUE DE L'ETAU","ST HELIER","","Jersey","JE2 3EH","N","+44 2070723100","","One of your branch offices or affiliates","LEGAL, REGULATORY AND BUSINESS RECORDS"
1925577,"SYMMETRY INVESTMENTS LP","10 LE CAPELAIN HOUSE, CASTLE QUAY","LA RUE DE L'ETAU","ST HELIER","","Jersey","JE2 3EH","N","+44 2070723100","","One of your branch offices or affiliates","LEGAL, REGULATORY AND BUSINESS RECORDS"
1925577,"STARCOMPLIANCE OPERATING, LLC","451 HUNGERFORD DRIVE","SUITE 515","ROCKVILLE","MD","United States","20850","N","(301)340-3900","(301)340-3906","A third-party unaffiliated record keeper","CERTAIN BOOKS AND RECORDS RELATING TO BUSINESS OPERATION"
1925577,"OPTIONS TECHNOLOGY LTD","LEVEL 3, 20 AYER RAJAH CRESCENT","","SINGAPORE","","Singapore","139964","N","+6531582175","","A third-party unaffiliated record keeper","DATA CENTER FOR ELECTRONIC STORAGE"
1925577,"OPTIONS TECHNOLOGY LTD","3 WAXLOW ROAD","","LONDON","","United Kingdom","NW10 7NU","N","000000000","","A third-party unaffiliated record keeper","DATA CENTER FOR ELECTRONIC STORAGE"
1925577,"GLOBAL RELAY COMMUNICATIONS INC.","4TH FLOOR, READING BRIDGE HOUSE","GEORGE STREET","READING","","United Kingdom","RG1 8 LS","N","866-484-6630","","A third-party unaffiliated record keeper","ELECTRONIC COMMUNICATIONS RECORD OF THE BUSINESS OPERATIONS"
1925577,"SYMMETRY INVESTMENTS UK LLP","4TH FLOOR, 86 JERMYN STREET","","LONDON","","United Kingdom","SW1Y 6JD","N","+442070723100","","One of your branch offices or affiliates","LEGAL, REGULATORY AND BUSINESS RECORDS"
1925577,"STATE STREET FUND SERVICES (IRELAND) LIMITED","78 SIR JOHN ROGERSON'S QUAY","","DUBLIN","","Ireland","2","N","+3531 707 5000","+3531 707 5100","A third-party unaffiliated record keeper","LEGAL, REGULATORY AND BUSINESS RECORDS"
1925577,"SYMMETRY INVESTMENTS SINGAPORE PRIVATE LIMITED","3 CHURCH STREET, #27-03","SAMSUNG HUB","SINGAPORE","","Singapore","049483","N","+6565766000","","One of your branch offices or affiliates","LEGAL, REGULATORY AND BUSINESS RECORDS"
1925577,"EQUINIX (UK) LIMITED","352 BUCKINGHAM AVENUE","SLOUGH TRADING ESTATE","SLOUGH","","United Kingdom","SL1 4PF","N","+44845372900","","A third-party unaffiliated record keeper","DATA CENTER FOR ELECTRONIC STORAGE"
1925482,"AUTUMN WIND ASSET MANAGEMENT, INC.","11911 FREEDOM DRIVE, SUITE 580","","RESTON","VA","United States","20190","N","703 757-3848","703 757-7620","One of your branch offices or affiliates","RECORDS OF ALL CLIENT RECORDS INCLUDING CORRESPONDECE, TRADE CONFIRMATIONS, AGREEMENTS."
1929720,"HEDGESERV (CAYMAN) LTD.","6TH FLOOR, SIX CRICKET SQUARE","PO BOX 261","GRAND CAYMAN","","Cayman Islands","KY1-1104","N","+646 472 8872","+646 378 6376","A third-party unaffiliated record keeper","RELEVANT DOCUMENT IN RESPECT OF EACH OF THE AM ASIA STRATEGIES MASTER FUND LP, AM ASIA STRATEGIES FUND LTD., AND AM ASIA STRATEGIES FUND LP."
1929107,"BLACKROCK, INC.","40 EAST","52ND STREET","NEW YORK","NY","United States","10022","N","212-810-5300","","A third-party unaffiliated record keeper","PROVIDER OF TRADING SYSTEM, ALADDIN. CONTAINS TRADE DATA FOR M&G USA"
1929107,"STATE STREET BANK AND TRUST COMPANY","20 CHURCHILL PLACE","","LONDON","","United Kingdom","E14 5HJ","N","4420 3395 2500","","A third-party unaffiliated record keeper","PROVIDES CERTAIN BACK OFFICE SERVICES"
1929107,"STAR COMPLIANCE","BROADGATE CIRCLE","2ND FLOOR, 1-2 BROADGATE","LONDON","","United Kingdom","EC2M 2QS","N","4402038415126","","A third-party unaffiliated record keeper","THIRD PARTY COMPLIANCE SOFTWARE; CODE OF ETHICS RECORDKEEPING"
1929107,"RESTORE RECORDS MANAGEMENT","CAMPFIELD ROAD","SOUTHEND ON SEA","SOUTHEND","","United Kingdom","SS3 9FL","N","44 7736 616659","","A third-party unaffiliated record keeper","THIRD PARTY ARCHIVE PROVIDER"
1929107,"STATE STREET FUND SERVICES (IRELAND) LIMITED","GUILD HOUSE, GUILD STREET","","DUBLIN","","Ireland","DUBLIN 1","N","353 1 776 3000","","A third-party unaffiliated record keeper","ADMINISTRATOR OF PRIVATE FUND:  EPISODE LP, M&G ALPHA OPPORTUNITIES FUND, LION CREDIT OPPORTUNITY FUND PLC"
1929107,"APEX GROUP FIDUCIARY SERVICES (UK) LIMITED","6 FLOOR, 125 LONDON WALL","","LONDON","","United Kingdom","EC2Y 5AS","N","442033279720","","A third-party unaffiliated record keeper","ADMINISTRATOR OF PRIVATE FUND: INFRACAPITAL PARTNERS I LP"
1929107,"APEX FUND AND CORPORATE PRODUCTS S.A.","3 RUE GABRIEL","LIPPMANN","LUXEMBOURG","","Luxembourg","L-5365","N","352 2761 6200","","A third-party unaffiliated record keeper","ADMINISTRATOR OF PRIVATE FUND:  INFRACAPITAL PARTNERS IV SCSP"
1929107,"OASIS RECORDS MANAGEMENT LTD","UNIT 2, CLEARWATER BUSINESS PARK","BLAGROVE, FRANKLAND ROAD","SWINDON","","United Kingdom","SN5 8YZ","N","07973 712432","","A third-party unaffiliated record keeper","THIRD PARTY ARCHIVE PROVIDER"
1929173,"STAR COMPLIANCE","BROADGATE CIRCLE","2ND FLOOR, 1-2 BROADGATE","LONDON","","United Kingdom","EC2M 2QS","N","4402038415126","","A third-party unaffiliated record keeper","THIRD PARTY COMPLIANCE SOFTWARE; CODE OF ETHICS RECORDKEEPING"
1929173,"RESTORE RECORDS MANAGEMENT","CAMPFIELD ROAD","","SOUTHEND ON SEA","","United Kingdom","SS3 9FL","N","+44 7736616659","","A third-party unaffiliated record keeper","THIRD PARTY ARCHIVE PROVIDER;UK HARD COPY STORAGE"
1929173,"OASIS RECORDS MANAGEMENT LTD","UNIT 2, CLEARWATER BUSINESS PARK","BLAGROVE, FRANKLAND ROAD","SWINDON","","United Kingdom","SN5 8YZ","N","+44 7973712432","","A third-party unaffiliated record keeper","THIRD PARTY ARCHIVE PROVIDER;UK HARD COPY STORAGE"
1929173,"STATE STREET BANK AND TRUST COMPANY","20 CHURCHILL PLACE","","LONDON","","United Kingdom","E14 5HJ","N","+442033952500","","A third-party unaffiliated record keeper","PROVIDES CERTAIN BACK OFFICE SERVICES; MAIN FUND ADMINISTRATOR"
1929173,"APEX GROUP FIDUCIARY SERVICES (UK) LIMITED","6 FLOOR, 125 LONDON WALL","","LONDON","","United Kingdom","EC2Y 5AS","N","+44 2033279720","","A third-party unaffiliated record keeper","ADMINISTRATOR OF PRIVATE FUND:  INFRACAPITAL GREENFIELD PARTNERS I LP, INFRACAPITAL PARTNERS II LP"
1929173,"APEX FUND AND CORPORATE PRODUCTS S.A.","3 RUE GABRIEL LIPPMANN","","LUXEMBOURG","","Luxembourg","L-5365 MUNS","N","+352 2761 6200","","A third-party unaffiliated record keeper","ADMINISTRATOR OF PRIVATE FUND: INFRACAPITAL PARTNERS I LP"
1929173,"BLACKROCK, INC.","40 EAST","52ND STREET","NEW YORK","NY","United States","10022","N","212-810-5300","","A third-party unaffiliated record keeper","PROVIDER OF TRADING SYSTEM, ALADDIN. CONTAINS TRADE DATA FOR M&G USA"
1928885,"PETRI DU PLESSIS","11 HARRIES ROAD","","SANDTON","","South Africa","2196","N","0824957081","","Other","ACCOUNTING RECORDS HELD AT THE OFFICE AT THE BEFORE MENTIONED ADDRESS, PREMISES FROM WHICH NITROGEN OPERATES"
1929085,"TRICOR SINGAPORE PTE LTD","80 ROBINSON ROAD #02-00","","SINGAPORE","","Singapore","068898","N","65 6236 3333","65 6236 4399","A third-party unaffiliated record keeper","ACCOUNTS AND INVOICES FOR ALBIZIA CAPITAL PTE LTD. PAYROLL AND HR RELATED RECORDS"
1929085,"DBS BANK","12 MARINA BOULEVARD","DBS ASIA CENTRAL, TOWER 3","SINGAPORE","","Singapore","018982","N","65-6878 2959","65-6338 0360","A third-party unaffiliated record keeper","DBS BANK IS THE INDEPENDENT FUND ADMINISTRATOR, CUSTODIAN AND TRANSFER AGENCY FOR THE 2 PRIVATE FUNDS. THE FUND'S ACCOUNTING BOOKS AND DOCUMENTS ARE KEPT AT DBS"
1923648,"UBS GROUP AG AND AFFILIATES","BAHNHOFSTRASSE 45","","ZURICH","","Switzerland","8001","N","0041848880840","","A third-party unaffiliated record keeper","PURSUANT TO THE SALE OF THE COMPANY BY UBS, CERTAIN BOOKS AND RECORDS RELATED TO THE COMPANY'S HISTORICAL OPERATIONS CONTINUE TO BE MAINTAINED BY UBS AND ITS AFFILIATES. THESE RECORDS PRIMARILY INCLUDE PRE-SALE COMPLIANCE RECORDS, FINANCIAL RECORDS, FUND AND INVESTMENT RECORDS AS WELL AS OTHER DOCUMENTS CREATED DURING THE PERIOD WHEN THE COMPANY OPERATED AS A SUBSIDIARY OF UBS GROUP AG RESPECTIVELY CREDIT SUISSE GROUP AG."
1929618,"PANGAEA VENTURES US INC.","6730 N SCOTTSDALE RD","SUITE 235","SCOTTSDALE","AZ","United States","85253","N","4808814602","","One of your branch offices or affiliates","ACCOUNTS, FINANCIAL STATEMENTS, QUICKBOOK FILES, INVESTOR INFORMATION"
1916776,"MIGUEL BACHRACH","20 COURTHOUSE SQUARE","","ROCKVILLE","MD","United States","20850","N","301 365-8880","","One of your branch offices or affiliates","ALL BOOKS AND RECORDS FOR THE FIRM, INCLUDING BUT NOT LIMITED TO CORPORATE, FINANCIAL, TRADING, CLIENTS, COMPLIANCE, ADMINISTRATION AND OPERATIONAL RECORDS."
1933289,"INTERNATIONAL FUND SERVICES (IRELAND) LIMITED","78 SIR JOHN ROGERSON'S QUAY","","DUBLIN","","Ireland","","N","3531 707 5000","","A third-party unaffiliated record keeper","CERTAIN BOOKS AND RECORDS RELATING TO CLIENT FUNDS INCLUDING DOCUMENTS PERTAINING TO PORTFOLIO RECONCILIATION AND NET ASSET VALUE CALCULATION."
1933289,"INTERNATIONAL FUND SERVICES (N.A.), L.L.C.","COPLEY PLAZA TOWER","","BOSTON","MA","United States","02206","N","(617) 662-9024","(212) 651-2394","A third-party unaffiliated record keeper","INVESTOR SUBSCRIPTION DOCUMENTATION AND FUND INVESTOR REGISTERS."
1933289,"CIRTIN COOPERMAN","325 COLUMBIA TURNPIKE","SUITE 202","FLORHAM PARK","NJ","United States","07932","N","973-805-7175","","A third-party unaffiliated record keeper","CERTAIN ACCOUNTING RECORDS OF INVESTMENT ADVISOR"
1933289,"NAV CONSULTING INC","1 TRANS AM PLAZA DRIVE, SUITE 400","","OAKBROOK TERRACE","IL","United States","60181","N","630-954-1919","630-954-1945","A third-party unaffiliated record keeper","CERTAIN BOOKS AND RECORDS RELATING TO CLIENT FUNDS INCLUDING DOCUMENTS PERTAINING TO PORTFOLIO RECONCILIATION AND NET ASSET VALUE CALCULATION AND  INVESTOR SUBSCRIPTION DOCUMENTATION AND FUND INVESTOR REGISTERS."
1929302,"LAB LUXEMBOURG S.A.","2-4, RUE EDMOND REUTER","","CONTERN","","Luxembourg","5326","N","+352 350 222 9","","A third-party unaffiliated record keeper","ARCHIVING PROVIDER WHICH HANDLES ALL TYPES OF ARCHIVING RELEVANT DOCUMENTS (TRANSACTION RELEVANT DATA, FINANCIALS)"
1929302,"BRS ALADDIN","MIRCOSOFT CORPORATION, AZURE WEST US 2","1515 PORT INDUSTIAL WAY","QUINCY","WA","United States","98848","N","833-538-1100","","A third-party unaffiliated record keeper","ORDER MANAGEMENT, TRADING, RESEARCH AND INVESTMENT GUIDELINE MONITORING SYSTEM"
1929754,"YULISH & ASSOCIATES","3600 S. HARBOR BLVD., SUITE 110 #118","","OXNARD","CA","United States","93035","N","4156418600","","A third-party unaffiliated record keeper","FUND BOOKS AND RECORDS"
1934061,"PRIVATE VALUE MANAGEMENT, LP","62 NORWOOD ROAD","PO BOX 1366","SOUTHWEST HARBOR","ME","United States","04679","N","410.268.2850","","One of your branch offices or affiliates","ELECTRONIC FILES AND BACKUPS OF THE COMPANY DATA"
1927639,"HC GLOBAL FUND SERVICES, LLC","2121 N CALIFORNIA BLVD","STE 290","WALNUT CREEK","CA","United States","94596","N","000-000-0000","","A third-party unaffiliated record keeper","HC GLOBAL FUND SERVICES IS A FUND ADMINISTRATOR AND MAINTAINS CERTAIN FINANCIAL INFORMATION AND BOOKS AND RECORDS RELATED TO THE FIRM'S ADVISORY BUSINESS."
1933359,"SS&C","675 3RD AVE","17TH FLOOR","NEW YORK","NY","United States","10017","N","212-319-9730","","A third-party unaffiliated record keeper","DOCUMENTS RELATING TO THE INVESTMENT ADVISER AND THE FUND, INCLUDING THE INVESTOR'S SUBSCRIPTION DOCUMENTS, PERFORMANCE INFORMATION, OFFERING DOCUMENTS, TAX RETURNS, FINANCIAL STATEMENTS AND ACCOUNTING RECORDS."
1928544,"CARTA INVESTOR SERVICES, INC.","333 BUSH STREET, SUITE 2300","","SAN FRANCISCO","CA","United States","94104","N","833-403-5468","","A third-party unaffiliated record keeper","CARTA INVESTOR SERVICES,INC. SERVES AS FUND ADMINISTRATOR AND MAINTAINS CERTAIN ACCOUNTING AND INVESTORS RECORDS AT ITS OFFICES."
1921370,"WESTBOURNE CREDIT MANAGEMENT LIMITED","LEVEL 2, 171 COLLINS STREET","","MELBOURNE, VICTORIA","","Australia","3000","N","613 9660 6900","613 9660 6999","One of your branch offices or affiliates","BOOKS AND RECORDS RELATED TO ADVISER AND FUND"
1921370,"CITCO FUND ADMINISTRATION (CAYMAN ISLANDS) LIMITED","89 NEXUS WAY, 2ND FLOOR","CAMANA BAY, PO BOX 31105","GRAND CAYMAN","","Cayman Islands","KY1-1205","N","1 345 949 3977","1 349 949 3877","A third-party unaffiliated record keeper","BOOKS AND RECORDS RELATED TO FUND"
1928336,"NORTHERN TRUST GLOBAL FUND SERVICES CAYMAN LIMITED","PO BOX 1348, 94 SOLARIS AVENUE, CAMANA BAY","","GRAND CAYMAN","","Cayman Islands","KY1-1108","N","345-943-5499","","A third-party unaffiliated record keeper","THE ADMINISTRATOR WILL MAINTAIN RECORDS SUCH AS SUBSCRIPTION DOCUMENTS, CERTAIN FINANCIAL, ACCOUNTING AND ADMINISTRATIVE DOCUMENTS"
1928344,"MAPLES FUND SERVICES (CAYMAN) LIMITED","UGLAND HOUSE","","GRAND CAYMAN","","Cayman Islands","KY1-1104","N","852 2293 2284","","A third-party unaffiliated record keeper","RELEVANT DOCUMENTATION IN RESPECT OF EACH OF THE DREAM PEAK CAPITAL MASTER FUND, DREAM PEAK CAPITAL ONSHORE FUND AND DREAM PEAK CAPITAL OFFSHORE FUND"
1924461,"ULTIMUS LEVERPOINT PRIVATE FUND SOLUTIONS","3 CORPORATE DRIVE","SUITE 100","CLIFTON PARK","NY","United States","12065","N","5183735500","","A third-party unaffiliated record keeper","FINANCIAL STATEMENTS AND RELATED INFORMATION"
1931127,"MORGAN STANLEY FUND SERVICES USA LLC","2000 WESTCHESTER AVENUE","","PURCHASE","NY","United States","10577","N","914-225-8885","","A third-party unaffiliated record keeper","MORGAN STANLEY FUND SERVICES USA LLC IS THE INDEPENDENT FUND ADMINISTRATOR TO THE PRIVATE FUNDS ADVISED BY BLUEGRASS CAPITAL PARTNERS LP AND MAINTAINS CERTAIN OF THE PRIVATE FUNDS' ACCOUNTING BOOKS AND RECORDS."
1931127,"MORGAN STANLEY FUND SERVICES (BERMUDA) LTD.","THE OBSERVATORY","7-11 SIR JOHN ROGERSON'S QUAY","DUBLIN","","Ireland","2","N","353-1-799-8778","","A third-party unaffiliated record keeper","MORGAN STANLEY FUND SERVICES (BERMUDA) LTD. IS THE INDEPENDENT FUND ADMINISTRATOR TO THE PRIVATE FUNDS ADVISED BY BLUEGRASS CAPITAL PARTNERS LP AND MAINTAINS CERTAIN OF THE PRIVATE FUNDS' ACCOUNTING BOOKS AND RECORDS."
1919626,"BELLTOWER FUND GROUP, LTD","119 SOUTH MAIN STREET, SUITE 220","","SEATTLE","WA","United States","98104","N","3603409337","","A third-party unaffiliated record keeper","FUND DOCUMENTS, TRANSACTION RECORDS, WRITTEN COMMUNICATIONS"
1926705,"PEF SERVICES LLC","300 EXECUTIVE DRIVE","SUITE 150","WEST ORANGE","NJ","United States","07052","N","2122034685","","A third-party unaffiliated record keeper","FULL SERVICE BOOK KEEPER AND FUND SERVICER WITH ENTIRE ACCOUNTING RECORDS OF THE FUND"
1926705,"JOSE A. TORT SAADE CPA","352 SAN CLAUDIO AVE","SUITE 219","SAN JUAN","PR","United States","00926","N","7877602080","","A third-party unaffiliated record keeper","ALL ACCOUNTING RECORDS FOR MOONSAIL CAPITAL LLC"
1922945,"TMF GROUP NEW YORK, LLC","48 WALL STREET","27TH FLOOR","NEW YORK","NY","United States","10005","N","(212) 346-9000","","A third-party unaffiliated record keeper","THE ADMINISTRATOR MAINTAINS ACCOUNTING BOOKS AND RECORDS OF THE FUND, SUIMEI LP."
1923756,"ARROWPOINT INVESTMENT PARTNERS (SINGAPORE) PTE. LTD.","9 STRAITS VIEW","#24-08 MARINA ONE WEST TOWER","SINGAPORE","","Singapore","018937","N","+65 6031 0883","","One of your branch offices or affiliates","CERTAIN BOOKS AND RECORDS RELATED TO OPERATIONS, PORTFOLIO MANAGEMENT, COMPLIANCE, RISK MANAGEMENT, ETC. OF THE ARROWPOINT INVESTMENT PARTNERS GROUP."
1923686,"ARROWPOINT INVESTMENT PARTNERS (HONG KONG) LIMITED","10TH FLOOR","200 HENNESSY ROAD","WANCHAI","","Hong Kong","000000","N","+852 3428 2764","","One of your branch offices or affiliates","CERTAIN BOOKS AND RECORDS RELATED TO OPERATIONS, PORTFOLIO MANAGEMENT, COMPLIANCE, RISK MANAGEMENT, ETC. OF THE ARROWPOINT INVESTMENT PARTNERS GROUP."
1926671,"CITCO FUND ADMINISTRATION (CAYMAN ISLANDS) LIMITED","89 NEXUS WAY, 2ND FLOOR, CAMANA BAY","PO BOX 31106","GRAND CAYMAN","","Cayman Islands","KY1-1205","N","+345-949-3977","","A third-party unaffiliated record keeper","RECORDS RELATING TO INVESTOR SUBSCRIPTIONS AND REDEMPTION, CERTAIN FINANCIAL, ACCOUNTING AND ADMINISTRATIVE DOCUMENTS, NAV CALCULATIONS, STATEMENTS OF TRANSACTIONS, MANAGEMENT AND PERFORMANCE FEES, AND AML/KYC DOCUMENTATION."
1926671,"CITCO FUND SERVICES (SINGAPORE) PTE. LTD.","10 CHANGI BUSINESS PARK CENTRAL 2","#01-02 HANSAPOINT @ CBP","SINGAPORE","","Singapore","486030","N","+65 6571 1000","","A third-party unaffiliated record keeper","RECORDS RELATING TO INVESTOR SUBSCRIPTIONS AND REDEMPTION, CERTAIN FINANCIAL, ACCOUNTING AND ADMINISTRATIVE DOCUMENTS, NAV CALCULATIONS, STATEMENTS OF TRANSACTIONS, MANAGEMENT AND PERFORMANCE FEES, AND AML/KYC DOCUMENTATION."
1919411,"VERITAS TECHNOLOGIES LLC","350 ELLIS STREET","","MOUNTAIN VIEW","CA","United States","94043","N","800-721-3934","","A third-party unaffiliated record keeper","VERITAS TECHNOLOGIES LLC MAINTAINS CERTAIN BOOKS AND RECORDS OF CAXTON SINGAPORE"
1919411,"CITCO FUND SERVICES (CAYMAN ISLANDS) LIMITED","89 NEXUS WAY, 2ND FLOOR","CAMANA BAY, P.O. BOX 31106","GRAND CAYMAN","","Cayman Islands","KY1-1205","N","3459493977","","A third-party unaffiliated record keeper","CITCO FUND SERVICES (CAYMAN ISLANDS) LIMITED AND ITS AFFILIATES/SUB-ADMINISTRATORS (COLLECTIVELY 'CITCO') SERVE AS THE ADMINISTRATORS TO PRIVATE FUNDS TO WHICH CAXTON SINGAPORE SERVE AS TRADING ADVISOR. CITCO MAY MAINTAIN CERTAIN BOOKS AND RECORDS OF THESE FUNDS AND CAXTON SINGAPORE IN SUCH CAPACITY."
1919411,"CAXTON EUROPE LLP","40 BERKELEY SQUARE, 3RD FLOOR","","LONDON","","United Kingdom","W1J5AL","N","442076470770","","One of your branch offices or affiliates","CAXTON EUROPE LLP IS THE SOLE SHAREHOLDER OF CAXTON SINGAPORE. AS A RESULT, CAXTON EUROPE LLP MAINTAINS CERTAIN BOOKS AND RECORDS AT THIS LOCATION ON BEHALF OF CAXTON SINGAPORE"
1924881,"LICCAR & CO.","222 S. RIVERSIDE PLAZA","SUITE 1500/15TH FLOOR","CHICAGO","IL","United States","60606","N","(312) 922-6600","","A third-party unaffiliated record keeper","ALL BOOKS & RECORDS RELATED TO THE MANAGEMENT OF ADVISORY BUSINESS - INCLUDING, BUT NOT LIMITED TO CLIENT AGREEMENTS, REPORTS, TRADING INFORMATION, BUSINESS/FINANCIAL RECORDS, EMAILS, CORRESPONDENCE, COMPLIANCE MATERIALS AND ALL OTHER RECORDS REQUIRED TO BE MAINTAINED."
1913926,"ASCERTIS INVESTMENT MANAGERS PRIVATE LIMITED","UNIT 1002B/1002C","10TH FLOOR, TIME TOWER, M.G. ROAD","GURUGRAM","","India","122002","N","+91 1246285400","+91 2261322806","One of your branch offices or affiliates","INVESTMENT-RELATED DOCUMENTATION"
1922195,"DFSA","LEVEL 13, WEST WING, THE GATE, DIFC","","DUBAI","","United Arab Emirates","","N","971 04 3621500","","Other","RECORDS REQUIRED BY DUBAI FINANCIAL SERVICES AUTHORITY"
1919666,"VERITAS TECHNOLOGIES LLC","350 ELLIS STREET","","MOUNTAIN VIEW","CA","United States","94043","N","800-721-3934","","A third-party unaffiliated record keeper","VERITAS TECHNOLOGIES LLC MAINTAINS CERTAIN BOOKS AND RECORDS OF CAXTON ASSET MANAGEMENT (DIFC) LIMITED"
1919666,"CITCO FUND SERVICES (CAYMAN ISLANDS) LIMITED","89 NEXUS WAY, 2ND FLOOR","","GRAND CAYMAN","","Cayman Islands","KY1-1205","N","3459493977","","A third-party unaffiliated record keeper","CITCO FUND SERVICES (CAYMAN ISLANDS) LIMITED AND ITS AFFILIATES/SUB-ADMINISTRATORS (COLLECTIVELY 'CITCO')SERVE AS THE ADMINISTRATORS TO PRIVATE FUNDS TO WHICH CAXTON ASSET MANAGEMENT (DIFC) LIMITED SERVE AS TRADING ADVISOR. CITCO MAY MAINTAIN CERTAIN BOOKS AND RECORDS OF THESE FUNDS AND CAXTON ASSET MANAGEMENT (DIFC) LIMITED IN SUCH CAPACITY"
1919666,"CAXTON EUROPE LLP","40 BERKELEY SQUARE, 3RD FLOOR","","LONDON","","United Kingdom","W1J5AL","N","442076470770","","One of your branch offices or affiliates","CAXTON EUROPE LLP IS THE SOLE SHAREHOLDER OF CAXTON ASSET MANAGEMENT (DIFC) LIMITED. AS A RESULT, CAXTON EUROPE LLP MAINTAINS CERTAIN BOOKS AND RECORDS AT THIS LOCATION ON BEHALF OF CAXTON ASSET MANAGEMENT(DIFC) LIMITED."
1933368,"WAGNER, FERBER FINE & ACKERMAN","66 SOUTH TYSON AVENUE","","FLORAL PARK","NY","United States","11001-1805","N","(212) 576-1829","","A third-party unaffiliated record keeper","ACCOUNTANTS."
1933368,"CARTA INVESTOR SERVICES, INC.","333 BUSH STREET.","STE. 2300","SAN FRANCISCO","CA","United States","94104-2854","N","(801) 919-8273","","A third-party unaffiliated record keeper","FUND ADMINISTRATION."
1933368,"FTS ADMIN, LLC.","548 MARKET STREET","#91771","SAN FRANCISCO","CA","United States","94104-5401","N","(650) 503-4695","","A third-party unaffiliated record keeper","FUND ADMINISTRATION."
1933368,"SYDECAR LLC","2093 PHILADELPHIA PIKE","#5885","CLAYMONT","DE","United States","19703","N","8186428181","","A third-party unaffiliated record keeper","FUND ADMINISTRATION."
1928388,"APEX FUND SERVICES (IOM) LTD.","54-58 ATHOL STREET","","DOUGLAS","","Isle of Man","","N","+44 1624630400","","A third-party unaffiliated record keeper","SERVES AS 3RD PARTY ADMINISTRATOR FOR THE LINIK MASTER FUND LIMITED AND MAINTAINS RECORDS IN RELATION THERETO."
1928388,"APEX FUND SERVICES (MALTA) LIMITED","QUAD CENTRAL, Q3 LEVEL 9, TRIQ L-ESPORTATURI","","BIRKIRKARA","","Malta","","N","+356 27922220","","A third-party unaffiliated record keeper","SERVES AS 3RD PARTY ADMINISTRATOR FOR THE AARO MARKET NEUTRAL CRYPTO MULTIFUND MASTER LIMITED AND MAINTAINS RECORDS IN RELATION THERETO."
1928388,"NAV FUND SERVICES (CAYMAN) LTD.","5TH FLOOR, HARBOUR PLACE","103 SOUTH CHURCH STREET","GEORGETOWN","","Cayman Islands","KY1-1202","N","+3459465006","","A third-party unaffiliated record keeper","SERVES AS 3RD PARTY ADMINISTRATOR FOR THE HIVEMIND LIQUID MASTER FUND LP AND MAINTAINS RECORDS IN RELATION THERETO."
1927419,"STONE COAST FUND SERVICES LLC","TWO PORTLAND SQUARE","","PORTLAND","ME","United States","04101","N","207-699-2680","","A third-party unaffiliated record keeper","STONE COAST FUND SERVICES LLC IS AN UNAFFILIATED THIRD PARTY FUND ADMINISTRATOR FOR CERTAIN PRIVATE FUNDS FOR WHICH REGISTRANT IS THE INVESTMENT ADVISER. STONE COAST FUND SERVICES MAINTAINS CERTAIN OF EACH SUCH FUND'S ACCOUNTING AND ADMINISTRATIVE BOOKS AND RECORDS, INCLUDING GENERAL LEDGERS."
1927419,"STONE COAST FUND SERVICES LTD.","27 HOSPITAL ROAD","","GEORGE TOWN","","Cayman Islands","KY1-9008","N","(345) 769-2680","(345) 769-2681","A third-party unaffiliated record keeper","STONE COAST FUND SERVICES LTD. IS AN UNAFFILIATED THIRD PARTY FUND ADMINISTRATOR FOR CERTAIN PRIVATE FUNDS FOR WHICH REGISTRANT IS THE INVESTMENT ADVISER. STONE COAST FUND SERVICES MAINTAINS CERTAIN OF EACH SUCH FUND'S ACCOUNTING AND ADMINISTRATIVE BOOKS AND RECORDS, INCLUDING GENERAL LEDGERS."
1927187,"SS&C TECHNOLOGIES, INC.","80 LAMBERTON ROAD","","WINDSOR","CT","United States","06095","N","860-298-4599","","A third-party unaffiliated record keeper","BOOKS AND RECORDS GENERATED IN THE REGULAR COURSE OF BUSINESS."
1928900,"AMAZON WEB SERVICES AB","MALMSKILLNADSGATAN","36","STOCKHOLM","","Sweden","111 57","N","+467380009976","","A third-party unaffiliated record keeper","ALL DOCUMENTATION FROM 2019 UNTIL TODAY. ALL FUTURE BOOKS AND RECORDS WILL BE KEPT HERE."
1929765,"OAKFORD ADVISORS LIMITED","THE BEE HOUSE, 140 EASTERN AVENUE","MILTON PARK, OXFORDSHIRE","OXFORD","","United Kingdom","OX14 4SB","N","441235933280","","A third-party unaffiliated record keeper","FIRM BOOKS AND RECORDS, COPIES OF WHICH ARE STORED BY THE FIRM."
1924312,"SHARENETT INVESTMENT ADVISORS, LLC","","","","","","","Y","1.646.793.3172","","Other","ALL BOOKS AND RECORDS OF THE FIRM"
1934275,"SHARENETT INVESTMENT ADVISORS, LLC","","","","","","","Y","1.646.793.3172","","Other","ALL BOOKS AND RECORDS OF THE FIRM"
1933426,"REYNOLDS & ROWELLA","51 LOCUST AVENUE","","NEW CANAAN","CT","United States","06840","N","203-438-0161","","A third-party unaffiliated record keeper","FINANCIAL RECORDS MAINTAINED BY FIRM AS ACCOUNTANT FOR CHECKETTS PARTNERS INVESTMENT MANAGEMENT LLC."
1922168,"CARTA INVESTOR SERVICES, INC.","333 BUSH ST.","","SAN FRANCISCO","CA","United States","94105","N","650-669-8381","","A third-party unaffiliated record keeper","ROSTER OF LIMITED PARTNERS, GENERAL LEDGER, AND FINANCIAL STATEMENTS FOR CLEO CAPITAL FUND I, LP, CLEO CAPITAL FUND II, LP, AND CLEO OPPORTUNITY FUND, LP."
1929624,"CARTA","333 BUSH STREET, SUITE 2300","","SAN FRANCISCO","CA","United States","94104","N","801-919-8273","","A third-party unaffiliated record keeper","CARTA IS A THIRD-PARTY FUND ADMINISTRATOR THAT HELPS PROVIDE ACCOUNTING AND TAX SERVICES."
1914383,"GEN II FUND SERVICES, LLC","805 THIRD AVENUE","24TH FLOOR","NEW YORK","NY","United States","10022","N","212-408-0501","","A third-party unaffiliated record keeper","BOOKS AND RECORDS RELATED TO THE FIRM'S FUNDS AND INVESTORS"
1925657,"GOOGLE","1600 AMPHITHEATRE PKWY","","MOUNTAIN VIEW","CA","United States","94043","N","650-253-0000","","A third-party unaffiliated record keeper","EMAIL AND FILE STORAGE."
1925657,"EGNYTE","1350 W. MIDDLEFIELD ROAD","","MOUNTAIN VIEW","CA","United States","94043","N","877-734-6983","","A third-party unaffiliated record keeper","FILE STORAGE."
1925657,"FAIRVIEW INVESTMENT SERVICES","1330 ST. MARY'S ST SUITE 400","","RALEIGH","NC","United States","27605","N","919-706-4100","","A third-party unaffiliated record keeper","ADDITIONAL COPIES OF COMPLIANCE RECORDS."
1925657,"CRYSTAL MARTIN","8240 W. CHARLESTON BLVD.","","LAS VEGAS","NV","United States","89148","N","702-240-3223","","A third-party unaffiliated record keeper","ACCOUNTING RECORDS"
1925657,"GRYPHON GROUP","3900 PARK EAST DR","","BEACHWOOD","OH","United States","44122","N","330-715-1948","","A third-party unaffiliated record keeper","ACCOUNTING RECORDS"
1925657,"24TH STREET ASSET MANAGEMENT LLC","3900 S. HUALAPAI WAY SUITE 200","","LAS VEGAS","NV","United States","89147","N","702-985-9934","","One of your branch offices or affiliates","INVESTOR RECORDS"
1925657,"JUNIPER SQUARE","555 MONTGOMERY STREET #1400","","SAN FRANCISCO","CA","United States","94111","N","415-841-2722","","A third-party unaffiliated record keeper","INVESTOR COMMUNICATIONS AND FUND DOCUMENTS."
1928549,"MACIAS, GINI & O'CONNELL LLP","445 BROADHOLLOW ROAD","SUITE 319","MELVILLE","NY","United States","11747","N","516.409.5000","","A third-party unaffiliated record keeper","MAINTAINS OFFICIAL BOOKS AND RECORDS OF PRIVATE FUND MANAGED BY HEALTHCARE VENTURE PARTNERS"
1928549,"MIRROR WEB","600 CONGRESS AVENUE","","AUSTIN","TX","United States","78701","N","302.597.7350","","A third-party unaffiliated record keeper","EMAIL ARCHIVES"
1928549,"JUSTWORKS EMPLOYMENT GROUP LLC","PO BOX 7119 CHURCH STREET STATION","","NEW YORK","NY","United States","10008","N","8885341711","","A third-party unaffiliated record keeper","HUMAN RESOURCES SERVICE PROVIDER MAINTAINS RECORDS RELATED TO EMPLOYEE PAYROLL AND BENEFITS."
1930258,"VMS GROUP","300 CARNEGIE CENTER","","PRINCETON","NJ","United States","08540","N","609-430-8422","","A third-party unaffiliated record keeper","ACCOUNTING RECORDS, TAX RETURNS AND K-1S."
1930310,"AMAZON.COM, INC.","410 TERRY AVENUE NORTH","","SEATTLE","WA","United States","98109","N","206-266-1000","","Other","STORAGE OF CLIENT AND OTHER FILES CONTAINING CONTRACTS, CORRESPONDENCE, RECOMMENDATIONS AND TRANSACTIONS, IN ADDITION TO PROGRAMMING CODE."
1930310,"THE VANGUARD GROUP, INC.","100 VANGUARD BOULEVARD","","MALVERN","PA","United States","19355","N","610-669-1000","610-669-6600","One of your branch offices or affiliates","STORAGE OF CLIENT AND OTHER FILES IN ADDITION TO PROGRAMMING CODE."
1930310,"IRON MOUNTAIN","2500 HENDERSON DRIVE","","SHARON HILL","PA","United States","19079","N","610-725-0200","","A third-party unaffiliated record keeper","STORAGE OF CLIENT AND OTHER FILES IN ADDITION TO PROGRAMMING CODE."
1924710,"E78 PARTNERS LLC","1301 W. 22ND STREET","SUITE 410","OAK BROOK","IL","United States","60523","N","310-806-6267","","A third-party unaffiliated record keeper","CERTAIN BOOKS AND RECORDS OF THE ADVISER AND THE PRIVATE FUND."
1924710,"SOUTH WATCH LLC","300 DAVENPORT AVE, SUITE 200","","CANTON","MA","United States","02021","N","781-615-9035","","A third-party unaffiliated record keeper","CERTAIN BOOKS AND RECORDS OF THE PRIVATE FUND"
1922348,"CROWN RECORD MANAGEMENT","36 PIONEER ROAD","","SINGAPORE","","Singapore","628504","N","+65 6861 6818","","A third-party unaffiliated record keeper","PAST YEARS BOOKS AND RECORDS"
1930817,"CITCO FUND ADMINISTRATION (CAYMAN ISLANDS) LIMITED","89 NEXUS WAY, 2ND FLOOR","CAMANA BAY","GRAND CAYMAN","","Cayman Islands","KY1-1205","N","+13459493977","","Other","ADMINISTRATOR, REGISTAR AND TRANSFER AGENT OF THE FUND; MAINTAINS, FOR EXAMPLE, RECORDS RELATING TO INVESTOR SUBSCRIPTIONS AND REDEMPTIONS, AML, TRADING STATEMENTS AND MATERIALS IN SUPPORT OF NAV."
1930086,"IQ EQ FUND SERVICES (LUXEMBOURG) S.A.","412F, ROUTE D'ESCH","","LUXEMBOURG","","Luxembourg","L-2086","N","+3524661111","","A third-party unaffiliated record keeper","PRIVATE FUND ADMINISTRATOR BOOKS AND RECORDS"
1908697,"APEX GROUP","8750 N. CENTRAL EXPRESSWAY","SUITE 1825","DALLAS","TX","United States","75231","N","214.393.2988","","A third-party unaffiliated record keeper","AS ADMINISTRATOR FOR THE ADVISER'S CLIENTS, APEX GROUP KEEPS SEVERAL TYPES OF BOOKS AND RECORDS INCLUDING BUT NOT LIMITED TO: REGISTER OF INVESTORS, THE RECORDS OF INVESTOR CONTRIBUTIONS; ORIGINAL CORRESPONDENCE OR OTHER COMMUNICATIONS WHICH ARE IN THE POSSESSION OF THE ADMINISTRATOR; ADVISORY CLIENT'S GENERAL LEDGER AND FINANCIAL STATEMENTS."
1921961,"ADURO ADVISORS","2420 17TH STREET SUITE 240","","DENVER","CO","United States","80202","N","650-283-2679","","A third-party unaffiliated record keeper","ACCOUNTING RECORDS STORED ELECTRONICALLY ON SERVER."
1921352,"ALTER DOMUS HONG KONG LIMITED","ROOM 1802, 18/F, LEE GARDEN TWO","28 YUN PING ROAD, CAUSEWAY BAY","HONG KONG","","Hong Kong","000000","N","+852-3579-5858","","A third-party unaffiliated record keeper","GENERAL ADMINISTRATIVE FILES, COPIES OF CORPORATE AND ORGANIZATIONAL DOCUMENTS, DOCUMENTS RELATING TO INVESTMENTS, COMPUTATION OF REGULATORY ASSETS UNDER MANAGEMENT, PORTFOLIO COMPANIES, AFFILIATED COMPANIES AND PRIVATE FUNDS"
1922412,"CRESCENT CAPITAL GROUP LP","299 PARK AVENUE","33RD FLOOR","NEW YORK","NY","United States","10171","N","212-364-0200","","One of your branch offices or affiliates","CERTAIN MARKETING RECORDS AND CERTAIN RECORDS OF INVESTMENT STRATEGIES MANAGED OUT OF THE NEW YORK OFFICE"
1922412,"CRESCENT CAPITAL GROUP LP","100 HIGH STREET","18TH FLOOR","BOSTON","MA","United States","02110","N","617-854-1500","","One of your branch offices or affiliates","CERTAIN MARKETING RECORDS AND CERTAIN RECORDS OF INVESTMENT STRATEGIES MANAGED OUT OF THE BOSTON OFFICE"
1922412,"CRESCENT CREDIT EUROPE","2 CAVENDISH SQUARE","","LONDON","","United Kingdom","W1G0PU","N","20-3696-5420","","One of your branch offices or affiliates","CERTAIN MARKETING RECORDS AND CERTAIN RECORDS OF INVESTMENT STRATEGIES MANAGED OUT OF THE LONDON OFFICE"
1922412,"CRESCENT CAPITAL GROUP LP","110 N. WACKER","25TH FLOOR","CHICAGO","IL","United States","60606","N","312-237-2100","","One of your branch offices or affiliates","ACCOUNTING RECORDS OF CERTAIN ADVISED ACCOUNTS"
1922412,"SS&C TECHNOLOGIES, INC.","80 LAMBERTON ROAD","","WINDSOR","CT","United States","06095","N","860-298-4500","","A third-party unaffiliated record keeper","ACCOUNTING AND LEGAL RECORDS PERTAINING TO ADVISED ACCOUNT"
1920519,"BELLTOWER FUND GROUP","119 SOUTH MAIN STREET","SUITE 220","SEATTLE","WA","United States","98104","N","206-623-1986","","A third-party unaffiliated record keeper","GENERAL LEDGER, FINANCIAL STATEMENTS, LP ROSTER, AND INVESTMENT DOCUMENTS."
1921396,"NAV CONSULTING, INC.","1 TRANS AM PLAZA DRIVE","SUITE 400","OAKBROOK TERRACE","IL","United States","60181","N","630-954-1919","","A third-party unaffiliated record keeper","FUND ADMINISTRATION AND OPERATIONAL BOOKS AND RECORDS."
1921495,"STONEGATE GLOBAL FUND SERVICES","3333 PIEDMONT RD NE","STE 2050","ATLANTA","GA","United States","30305","N","(404) 736-9255","","A third-party unaffiliated record keeper","THIS IS THE PRIVATE FUND'S THIRD-PARTY ADMINISTRATOR WHICH MAINTAINS CERTAIN BOOKS AND RECORDS FOR THE FUND."
1927073,"CORNERSTONE FUND SERVICES LLC","3300 ASHTON BOULEVARD","SUITE 240","LEHI","UT","United States","84043","N","385-722-4861","","A third-party unaffiliated record keeper","CORNERSTONE FUND SERVICES LLC IS AN UNAFFILIATED THIRD-PARTY FUND ADMINISTRATOR OF A PRIVATE FUND FOR WHICH THE FIRM IS THE INVESTMENT ADVISER. CORNERSTONE FUND SERVICES LLC MAINTAINS CERTAIN BOOKS AND RECORDS FOR THE PRIVATE FUND WHICH INCLUDES FINANCIAL STATEMENTS AND ACCOUNTING INFORMATION."
1923640,"WAYSTONE ADMINISTRATION SOLUTIONS (IE) LTD","35 SHELBOURNE ROAD","BALLSBRIDGE","DUBLIN","","Ireland","DO4A 4EO","N","353 1 899 2400","","A third-party unaffiliated record keeper","RECORDS RELATING TO THE ADMINISTRATION AND CORPORATE SERVICES OF THE TIG ZEBEDEE CORE FUND"
1923640,"IRON MOUNTAIN (UK) LIMITED","4 MORE LONDON PL","","LONDON","","United Kingdom","SE1 2AU","N","+448445607080","","A third-party unaffiliated record keeper","ARCHIVED FIRM RECORDS AND TRADING RECORDS"
1926132,"VIRIDIS FUND SOLUTIONS","100 PAINTERS MILL RD, SUITE 600","","OWING MILLS","MD","United States","21117","N","+14435371219","","Other","ADMINISTRATOR OF PRIVATE FUNDS: SAGAMORE CHINA PARTNERS IV, L.P., SAGAMORE CHINA PARTNERS V, L.P. AND SAGAMORE CHINA PARTNERS VI, L.P."
1926132,"LINNOVATE PARTNERS AFS PTE. LTD.","9 RAFFLES PLACE, #45-02, REPUBLIC PLAZA","","SINGAPORE","","Singapore","048619","N","+6568231261","","Other","ADMINISTRATOR OF PRIVATE FUND - SCP OPPORTUNITY FUND LLC"
1932251,"MFD SECRETARIES LIMITED","32 MOLESWORTH STREET","","DUBLIN","","Ireland","D02 Y512","N","+353 1 6973200","","A third-party unaffiliated record keeper","BOOKS AND RECORDS NECESSARY TO COMPLY WITH THE INVESTMENT ADVISERS ACT."
1932251,"GLOBAL RELAY COMMUNICATIONS INC.","220 CAMBIE STREET, 2ND FLOOR","","VANCOUVER BC","","Canada","V6B 2M9","N","866-484-6630","","A third-party unaffiliated record keeper","BOOKS AND RECORDS NECESSARY TO COMPLY WITH THE INVESTMENT ADVISERS ACT."
1932251,"IRON MOUNTAIN UK","NORMAN ROAD, PICKARDY MANOR WAY","BELVEDERE","KENT","","United Kingdom","DA17 6JY","N","+44 8445607080","","A third-party unaffiliated record keeper","BOOKS AND RECORDS NECESSARY TO COMPLY WITH THE INVESTMENT ADVISERS ACT."
1932251,"NEUBERGER BERMAN EUROPE LIMITED","ZIGZAG BUILDING","70 VICTORIA STREET","LONDON","","United Kingdom","SW1E 6SQ","N","+44 203-214-90","","A third-party unaffiliated record keeper","BOOKS AND RECORDS NECESSARY TO COMPLY WITH THE INVESTMENT ADVISERS ACT."
1928899,"HAGGARDS CROWTHER LLP","19 HEATHMANS ROAD","HEATHMANS HOUSE","LONDON","","United Kingdom","SW6 4TJ","N","0044207384092","","A third-party unaffiliated record keeper","BOOKS AND RECORDS FOR CUSANA CAPITAL LLP"
1912927,"IRON MOUNTAIN STORAGE LOCATION","8088 GLENWOOD DRIVE","","BURNABY, BC","","Canada","V3N 5E9","N","N/A","","A third-party unaffiliated record keeper","THIS IS AN ARCHIVAL STORAGE FACILITY THAT MAINTAINS HISTORICAL BOOKS AND RECORDS THAT ARE NO LONGER REQUIRED TO BE MAINTAINED ON-SITE UNDER SECTION 204 OF THE INVESTMENT ADVISORS ACT. RECORDS INCLUDE VARIOUS FINANCIAL, CLIENT AND TRANSACTION RECORDS."
1912927,"IRON MOUNTAIN STORAGE LOCATION","19159 22 AVE, UNIT 110","","SURREY, BC","","Canada","V3S 3S6","N","N/A","","A third-party unaffiliated record keeper","THIS IS AN ARCHIVAL STORAGE FACILITY THAT MAINTAINS HISTORICAL BOOKS AND RECORDS THAT ARE NO LONGER REQUIRED TO BE MAINTAINED ON-SITE UNDER SECTION 204 OF THE INVESTMENT ADVISORS ACT. RECORDS INCLUDE VARIOUS FINANCIAL, CLIENT AND TRANSACTION RECORDS."
1912927,"IRON MOUNTAIN STORAGE LOCATION","175 GOLDEN DRIVE","","COQUITLAM, BC","","Canada","V3K 6T1","N","N/A","","A third-party unaffiliated record keeper","THIS IS AN ARCHIVAL STORAGE FACILITY THAT MAINTAINS HISTORICAL BOOKS AND RECORDS THAT ARE NO LONGER REQUIRED TO BE MAINTAINED ON-SITE UNDER SECTION 204 OF THE INVESTMENT ADVISORS ACT. RECORDS INCLUDE VARIOUS FINANCIAL, CLIENT AND TRANSACTION RECORDS."
1912927,"IRON MOUNTAIN HEAD OFFICE","195 SUMMERLEA ROAD","","BRAMPTON, ON","","Canada","L6T 4P6","N","N/A","","A third-party unaffiliated record keeper","THIS IS AN ARCHIVAL STORAGE FACILITY THAT MAINTAINS HISTORICAL BOOKS AND RECORDS THAT ARE NO LONGER REQUIRED TO BE MAINTAINED ON-SITE UNDER SECTION 204 OF THE INVESTMENT ADVISORS ACT. RECORDS INCLUDE VARIOUS FINANCIAL, CLIENT AND TRANSACTION RECORDS."
1912927,"IRON MOUNTAIN STORAGE LOCATION","18822 24 AVE, UNIT 117","","SURREY, BC","","Canada","V3S 9V2","N","N/A","","A third-party unaffiliated record keeper","THIS IS AN ARCHIVAL STORAGE FACILITY THAT MAINTAINS HISTORICAL BOOKS AND RECORDS THAT ARE NO LONGER REQUIRED TO BE MAINTAINED ON-SITE UNDER SECTION 204 OF THE INVESTMENT ADVISORS ACT. RECORDS INCLUDE VARIOUS FINANCIAL, CLIENT AND TRANSACTION RECORDS."
1925745,"BNP PARIBAS BANK & TRUST CAYMAN LIMITED","BUCKINGHAM SQUARE, 3/F, 720 WEST BAY ROAD","P.O. BOX 2003","GRAND CAYMAN","","Cayman Islands","KY1-1104","N","1-345-949-7942","","A third-party unaffiliated record keeper","RELEVANT DOCUMENTATION IN RESPECT OF EACH OF PEDDER STREET ASIA ABSOLUTE RETURN MASTER FUND LIMITED AND PEDDER STREET ASIA ABSOLUTE RETURN FUND LIMITED"
1925745,"BNP PARIBAS, ACTING THROUGH IT HONG KONG BRANCH","21/F, PCCW TOWER, TAIKOO PLACE","979 KING'S ROAD, QUARRY BAY","HONG KONG","","Hong Kong","","N","852-2909-8888","852-2521-7653","A third-party unaffiliated record keeper","RELEVANT DOCUMENTATION IN RESPECT OF EACH OF PEDDER STREET ASIA ABSOLUTE RETURN MASTER FUND LIMITED, PEDDER STREET ASIA ABSOLUTE RETURN FUND LIMITED, THE FAR EAST VALUE MASTER FUND LIMITED AND THE FAR EAST VALUE FUND LIMITED"
1925121,"SS&C FUND SERVICES (ASIA) PTE. LTD.","1 RAFFLES QUAY #29-01 NORTH TOWER","","SINGAPORE","","Singapore","048583","N","65 6768 8226","","A third-party unaffiliated record keeper","FUND'S NAV INFORMATION, INVESTOR SUBSCRIPTION AND REDEMPTION."
1926080,"VECTOR AIS","447 SUTTER STREET","STE 405","SAN FRANCISCO","CA","United States","94108","N","719-793-9586","","A third-party unaffiliated record keeper","LEDGER, FUND HOLDINGS, INVESTMENT DOCUMENTS, FORMATION DOCUMENTS"
1926080,"GOODWIN PROCTOR","525 MARKET STREET","","SAN FRANCISCO","CA","United States","94105","N","617 570 1331","","A third-party unaffiliated record keeper","LIMITED PARTNER COMMITMENT CONTRACTS, CLOSING RECORDS, FUND FORMATION RECORDS"
1930667,"IDRIVE INC.","26115, MUREAU ROAD","SUITE A","CALABASAS","CA","United States","91302","N","1-855-815-8706","EXT 1","A third-party unaffiliated record keeper","CLOUD-BASED SOFTWARE PROVIDER UTILIZE FOR MAINTAINING BOOKS AND RECORDS IN ACCORDANCE WITH SECTION 204 OF THE INVESTMENT ADVISERS ACT."
1932979,"ESHARES, INC. DBA CARTA, INC.","821 2ND AVE","SUITE 700","SEATTLE","WA","United States","98104","N","650-669-8381","","A third-party unaffiliated record keeper","FINANCIAL RECORDS AND LEGAL AGREEMENTS"
1922610,"STATE STREET FUND SERVICES (IRELAND) LIMITED","78 SIR JOHN ROGERSON'S QUAY","","DUBLIN","","Ireland","2","N","353-1-242-5534","353-1-438-9537","A third-party unaffiliated record keeper","RECORD OF NAV CALCULATIONS, INVESTOR SUBSCRIPTION AND REDEMPTION RECORDS, AND OTHER INVESTOR AND ACCOUNTING RECORDS FOR CERTAIN PRIVATE FUNDS."
1922610,"SALESFORCE, INC.","1095 AVENUE OF THE AMERICAS","17TH FLOOR","NEW YORK","NY","United States","10036","N","18006676389","","A third-party unaffiliated record keeper","THE BOOKS AND RECORDS MAINTAINED AT THIS SITE ARE THOSE REQUIRED UNDER SECTION 204 OF THE ADVISERS ACT AND INCLUDE CLIENT RECORDS."
1922610,"AMAZON WEB SERVICES, INC.","410 TERRY AVENUE NORTH","","SEATTLE","WA","United States","98109-5210","N","9177154644","","A third-party unaffiliated record keeper","THE BOOKS AND RECORDS MAINTAINED AT THIS SITE ARE THOSE REQUIRED UNDER SECTION 204 OF THE ADVISERS ACT, AND INCLUDE, AMONG OTHER THINGS, VARIOUS FINANCIAL, TRADING AND PORTFOLIO ACCOUNTING RECORDS."
1931452,"SS&C FUND SERVICES (BERMUDA) LTD.","5 REID STREET","","HAMILTON","","Bermuda","HM 11","N","441-295-0329","441-295-3926","A third-party unaffiliated record keeper","CLIENT SUBSCRIPTION MATERIALS, OFFERING MEMORANDA, NAV CALCULATIONS AND CONFIRMATIONS, FATCA MATERIALS RELATING TO CLIENT INFORMATION AND FILINGS, RESOLUTIONS AND REPORTS."
1931452,"AQUAMARINE CAPITAL MANAGEMENT, LLC","1325 AVENUE OF THE AMERICAS","SUITE 2700","NEW YORK","NY","United States","10019","N","212-716-1350","212-716-1353","One of your branch offices or affiliates","COPIES OF INVESTOR DOCUMENTS AND CORPORATE RESOLUTIONS."
1931452,"CREDIT SUISSE AG","BANHOFSTRASSE 17","","ZUG","","Switzerland","6301","N","+41-41727-9427","+41-41727-9958","A third-party unaffiliated record keeper","TRADE REPORTS AND CONFIRMATIONS."
1931452,"NORTHERN TRUST","GEORGES COURT","54-62 TOWNSEND STREET","DUBLIN","","Ireland","2","N","+353-1-5422185","+44-2079823605","A third-party unaffiliated record keeper","TRADE REPORTS AND CONFIRMATIONS."
1931452,"IIFL INSTITUTIONAL EQUITIES","IIFL CENTRE, 9TH FLOOR, KAMALA CITY","SENAPATI BABAT MARG, LOWER PAREL, (W)","MUMBAI","","India","400013","N","+912246464600","+912246464700","A third-party unaffiliated record keeper","TRADE REPORTS AND CONFIRMATIONS."
1931452,"SANFORD C. BERNSTEIN & CO., LLC","1345 AVENUE OF THE AMERICAS","","NEW YORK","NY","United States","10105","N","212-969-2500","","A third-party unaffiliated record keeper","TRADE REPORTS AND CONFIRMATIONS."
1928015,"MORGAN STANLEY FUND SERVICES","2000 WESTCHESTER AVE","","PURCHASE","NY","United States","10577","N","914-225-0700","","A third-party unaffiliated record keeper","FUND ADMINISTRATOR MAINTAINS BOOKS AND RECORDS FOR THE PRIVATE FUNDS."
1928015,"GLOBAL RELAY COMMUNICATIONS INC.","220 CAMBIE STREET","","VANCOUVER","","Canada","V6B 2M9","N","604-484-6630","","A third-party unaffiliated record keeper","ELECTRONIC COMMUNICATIONS REQUIRED TO BE MAINTAINED UNDER RULE 204-2 OF THE INVESTMENT ADVISERS ACT OF 1940, AS AMENDED."
1928015,"MICROSOFT CORPORATION","15010 NE 36TH","","REDMOND","WA","United States","98052","N","425-882-8080","","A third-party unaffiliated record keeper","CERTAIN BOOKS AND RECORDS REQUIRED TO BE MAINTAINED UNDER RULE 204-2 OF THE INVESTMENT ADVISERS ACT OF 1940, AS AMENDED"
1919739,"MSA CHINA FUND II GP, LLC","SUITE 3102, FORTUNE FINANCIAL CENTER","NO. 5 EAST THIRD RING MIDDLE ROAD","BEIJING","","China","100020","N","8610 85187722","","One of your branch offices or affiliates","WRITTEN RECORDS OF THE INVESTMENT MANAGEMENT ACTIVITIES UNDERTAKEN BY MSA CHINA FUND II GP, LLC AT THE ABOVE ADDRESS."
1914743,"STANDISH MANAGEMENT","3300 N ASHTON BLVD","SUITE 240","LEHI","UT","United States","84043","N","(801) 326-6377","","A third-party unaffiliated record keeper","FUND ACCOUNTING RECORDS ARE KEPT BY WAY OF QUICKBOOKS DESKTOP SOFTWARE AT THIS LOCATION."
1908521,"NAV FUND ADMINISTRATION GROUP","1 TRANS AM PLAZA DRIVE","SUITE 400","OAKBROOK TERRACE","IL","United States","60181","N","630-954-1919","630-596-8555","A third-party unaffiliated record keeper","IN ITS CAPACITY AS THIRD-PARTY ADMINISTRATOR, NAV FUND ADMINISTRATION GROUP MAINTAINS CERTAIN BOOKS AND RECORDS FOR ADVISORY CLIENTS OF 2717 PARTNERS LP."
1922253,"SS&C FINANCIAL SERVICES LIMITED","THE REX BUILDING 62 QUEEN STREET","","LONDON","","United Kingdom","EC4R 1EB","N","0333 300 4121","","A third-party unaffiliated record keeper","BOOKS AND RECORDS RELATING TO THE FUND."
1922253,"SS&C FUND SERVICES (CAYMAN) LTD","39 MARKET STREET SUITE 3205","2ND FLOOR, GARDENIA COURT","GEORGE TOWN","","Cayman Islands","KY1-9003","N","+13459433330","","A third-party unaffiliated record keeper","BOOKS AND RECORDS RELATING TO THE FUND"
1922647,"CITCO FUND SERVICES (IRELAND) LIMITED","CUSTOM HOUSE PLAZA","BLOCK 6 INTERNATIONAL FINANCIAL SERVICES CENTRE","DUBLIN 1","","Ireland","","N","0035316367300","","A third-party unaffiliated record keeper","AS ADMINISTRATOR FOR THE PRIVATE FUNDS MANAGED BY AKO, CITCO IS RESPONSIBLE FOR KEEPING THE PRIVATE FUND INVESTOR KYC DOCUMENTS, SUBSCRIPTION AND REDEMPTION RECORDS,TRADING AND VALUATION RECORDS."
1922664,"DUNCAN HARVEY","CANNON STREET","60","LONDON","","United Kingdom","EC4N 6NP","N","02078560520","","","FINANCIAL ACCOUNTS, BANK ACCOUNTS, CORPORATE RECORDS INCLUDING MEMORANDUM AND ARTICLES OF ASSOCIATION, COMPLIANCE MANUALS AND PROCEDURES."
1922059,"SS&C TECHNOLOGIES, INC","580 CALIFORNIA STREET","SUITE 200","SAN FRANCISCO","CA","United States","94104","N","415-677-1500","","A third-party unaffiliated record keeper","FINANCIAL RECORDS"
1905663,"NAV FUND ADMINISTRATION","1 TRANS AM DRIVE","","OAK BROOK TERRACE","IL","United States","60181","N","630-954-1919","","A third-party unaffiliated record keeper","BOOKS AND RECORDS FOR THE POOLED INVESTMENT VEHICLE"
1914491,"MG STOVER LLC","1331 17TH STREET","SUITE 720","DENVER","CO","United States","80202","N","303-410-4400","","A third-party unaffiliated record keeper","CERTAIN BOOKS AND RECORDS OF THE FIRM AND ITS CLIENTS"
1914491,"LUCID FINANCE, INC.","102 RISING ROAD","","MILL VALLEY","CA","United States","94941","N","510-219-5606","","A third-party unaffiliated record keeper","CERTAIN BOOKS AND RECORDS OF THE FIRM AND ITS CLIENTS."
1904925,"CITCO FUND ADMINISTRATION (CAYMAN ISLANDS) LIMITED","89 NEXUS WAY, 2ND FLOOR","CAMANA BAY, PO BOX 31106","GRAND CAYMAN","","Cayman Islands","KY1-1205","N","+1 345 949 397","","A third-party unaffiliated record keeper","ACCOUNTING AND FUND BOOKS AND RECORDS"
