"FilingID","Name","Street 1","Street 2","City","State","Country","Postal Code","Private Residence","Phone","Fax","Type","Description"
1981548,"JARRED BASSETT","159 W 25TH ST.","SUITE 513","NEW YORK","NY","United States","10011","N","2698060201","","One of your branch offices or affiliates","THE BUSINESS AND CLIENT RECORDS OF THE ADVISOR."
1981548,"NAV FUND SERVICES","1 TRANS AM PLAZA DRIVE","","OAKBROOK TERRACE","IL","United States","60181","N","(630) 954-1919","","A third-party unaffiliated record keeper","PRIVATE FUND FINANCIAL STATEMENTS AND RELATED BOOKS AND RECORDS (SUCH AS KNOW-YOUR-CLIENT DOCUMENTS AND SUBSCRIPTION DOCUMENTS)"
2004033,"SISU CAPITAL LIMITED","96 KENSINGTON HIGH STREET","","LONDON","","United Kingdom","W8 4SG","N","+44 72905450","","One of your branch offices or affiliates","BOOKS AND RECORDS ARE MAINTAINED AND STORED BY THE FIRM, SISU CAPITAL LIMITED"
1985702,"STANDISH MANAGEMENT","3300 NORTH ASHTON BLVD","SUITE 240","LEHI","UT","United States","84043","N","385-722-4861","","A third-party unaffiliated record keeper","STANDISH MANAGEMENT IS THE INDEPENDENT FUND ADMINISTRATOR TO THE PRIVATE FUND ADVISED BY PILATUS CAPITAL LLC AND MAINTAINS CERTAIN OF THE PRIVATE FUND'S ACCOUNTING BOOKS AND RECORDS."
1996769,"CARTA","195 PAGE MILL RD #101","","PALO ALTO","CA","United States","94306","N","801-890-7542","","A third-party unaffiliated record keeper","CARTA IS AN UNAFFILIATED THIRD-PARTY FUND ADMINISTRATOR THAT IS THE ADMINISTRATOR FOR A FUND MANAGED BY THE ADVISER.  CARTA MAINTAINS SOME OF SUCH FUND'S ADMINISTRATIVE BOOKS AND RECORDS."
1996769,"AFI CAPITAL PARTNERS LLC","","","","","","","Y","8-817-6540","","One of your branch offices or affiliates","CERTAIN ORGANIZATIONAL AND INVESTOR INFORMATION RECORDS."
2005445,"WESPI & PARTNER AG","SEIDENSTRASSE 4","","WALLISELLEN","","Switzerland","8304","N","41432663620","","Other","UNAFFILIATED ACCOUNTANT"
2000501,"MGX FUND MANAGEMENT (US) LLC","ONE VANDERBILT AVENUE","51ST FLOOR","NEW YORK","NY","United States","10017","N","212-914-9400","","One of your branch offices or affiliates","BOOKS AND RECORDS RELATED TO U.S. ACTIVITIES, INCLUDING FINANCIAL, INVESTMENT, COMPLIANCE, CORPORATE GOVERNANCE, AND OPERATIONAL RECORDS."
2000501,"MICROSOFT CLOUD","ONE MICROSOFT WAY","","REDMOND","WA","United States","98052","N","877-696-7786","","A third-party unaffiliated record keeper","BOOKS AND RECORDS INCLUDE INVESTMENT- AND PORTFOLIO-RELATED DATA (STORED AND PROCESSED WITHIN AZURE AND MICROSOFT 365), SECURITY AND COMPLIANCE LOGS (AUDIT LOGS, ACCESS CONTROLS), OPERATIONAL RECORDS (INFRASTRUCTURE MONITORING, SYSTEM PERFORMANCE DATA, AND SERVICE HEALTH REPORTS), FINANCIAL AND BILLING RECORDS (SUBSCRIPTION DETAILS, INVOICES), AND REGULATORY AND LEGAL COMPLIANCE DOCUMENTATION."
2006694,"NX WANBISHI ARCHIVES","4-1-28 TORANOMON, MINATO-KU","","TOKYO","","Japan","105-0001","N","81 354255100","","A third-party unaffiliated record keeper","BOOKS AND RECORDS REQUIRED TO BE KEPT IN COMPLIANCE WITH THE INVESTMENT ADVISERS ACT OF 1940."
2006694,"SHRED IT DUBAI","10 SAN'A RD - RAS AL KHOR INDUSTRIAL AREA","","DUBAI","","United Arab Emirates","48852","N","97143403588","","A third-party unaffiliated record keeper","BOOKS AND RECORDS REQUIRED TO BE KEPT IN COMPLIANCE WITH THE INVESTMENT ADVISERS ACT OF 1940."
2006694,"EVENSONBEST LLC","55 5TH AVE FL 12","","NEW YORK","NY","United States","10003","N","212 5498000","","A third-party unaffiliated record keeper","BOOKS AND RECORDS REQUIRED TO BE KEPT IN COMPLIANCE WITH THE INVESTMENT ADVISERS ACT OF 1940."
2006694,"IRON MOUNTAIN DO BRASIL LTDA.","AV PREFEITO JOÃO VILALLOBO QUERO, 1200","","BARUERI- SÃO PAULO","","Brazil","06400-001","N","55 11 37670818","","A third-party unaffiliated record keeper","BOOKS AND RECORDS REQUIRED TO BE KEPT IN COMPLIANCE WITH THE INVESTMENT ADVISERS ACT OF 1940."
2006694,"IRON MOUNTAIN LTD","5443 S. 108TH E AVE","","TULSA","OK","United States","74146","N","918 280 0841","","A third-party unaffiliated record keeper","BOOKS AND RECORDS REQUIRED TO BE KEPT IN COMPLIANCE WITH THE INVESTMENT ADVISERS ACT OF 1940."
2006694,"CISCRA SPA","VIA SAN MICHELE, 36","","VILLANOVA DEL GHEBBO RO","","Italy","45020","N","390425651111","","A third-party unaffiliated record keeper","BOOKS AND RECORDS REQUIRED TO BE KEPT IN COMPLIANCE WITH THE INVESTMENT ADVISERS ACT OF 1940."
2006694,"MITSUI SOKO BUSINESS PARTNERS","5-1-1, OMAGARIKOGYODANCHI, KITAHIROSHIMA SHI","","HOKKAIDO","","Japan","061-1274","N","81 11 376 2801","","A third-party unaffiliated record keeper","CERTAIN BOOKS AND RECORDS REQUIRED TO BE KEPT IN COMPLIANCE WITH APPROPRIATE REGULATORY REQUIREMENTS."
2006694,"JANNEY MONTGOMERY SCOTT, LLC","1717 ARCH STREET","","PHILADELPHIA","PA","United States","19103","N","2156656000","","A third-party unaffiliated record keeper","BOOKS AND RECORDS REQUIRED TO BE KEPT IN COMPLIANCE WITH THE INVESTMENT ADVISERS ACT OF 1940."
2006694,"UBS FINANCIAL SERVICES, INC","1000 HARBOR BOULEVARD","","WEEHAWKEN","NJ","United States","07086","N","2013523000","","A third-party unaffiliated record keeper","BOOKS AND RECORDS REQUIRED TO BE KEPT IN COMPLIANCE WITH THE INVESTMENT ADVISERS ACT OF 1940."
2006694,"MYCOMPLIANCEOFFICE","535 5TH AVENUE, 4TH FLOOR","","NEW YORK","NY","United States","10017","N","8669512280","","A third-party unaffiliated record keeper","BOOKS AND RECORDS REQUIRED TO BE KEPT IN COMPLIANCE WITH THE INVESTMENT ADVISERS ACT OF 1940."
2006694,"CROWN WORLDWIDE PTE LTD","MALLARDS ROAD","","PETERBOROUGH","","United Kingdom","PE3 8YN","N","020 7510 9892","","A third-party unaffiliated record keeper","BOOKS AND RECORDS REQUIRED TO BE KEPT IN COMPLIANCE WITH THE INVESTMENT ADVISERS ACT OF 1940."
2006694,"AMAZON WEB SERVICES, INC","410 TERRY AVENUE NORTH","","SEATTLE","WA","United States","98109","N","2062661000","","A third-party unaffiliated record keeper","BOOKS AND RECORDS KEPT WITH ACCORDANCE OF STATE REGULATORS"
2006694,"CROWN RECORDS MANAGEMENT LTD","UNIT D, PROLOGIS BUSINESS PARK","","LONDON","","United Kingdom","E3 3JG","N","4410000000000","","A third-party unaffiliated record keeper","BOOKS AND RECORDS REQUIRED TO BE KEPT IN COMPLIANCE WITH THE INVESTMENT ADVISERS ACT OF 1940."
2006694,"IRON MOUNTAIN LTD","175 BEARFOOT RD.","","NORTHBOROUGH","MA","United States","01532","N","800 934 3453","","A third-party unaffiliated record keeper","BOOKS AND RECORDS REQUIRED TO BE KEPT IN COMPLIANCE WITH THE INVESTMENT ADVISERS ACT OF 1940."
2006694,"MICROSOFT CORPORATION","6880 SIERRA CENTER PKWY","","RENO","NV","United States","89511","N","7758235600","","A third-party unaffiliated record keeper","BOOKS AND RECORDS KEPT IN ACCORDANCE WITH THE STATE REGULATORS"
2006694,"FIDELITY INSTITUTIONAL WEALTH ADVISER LLC","245 SUMMER STREET","","BOSTON","MA","United States","02210","N","8003433548","","A third-party unaffiliated record keeper","BOOKS AND RECORDS REQUIRED TO BE KEPT IN COMPLIANCE WITH THE INVESTMENT ADVISERS ACT OF 1940."
2006694,"IRON MOUNTAIN CANADA CORPORATION","70 TALMAN COURT","","CONCORD","","Canada","L4K 4L5","N","905 695 0564","","A third-party unaffiliated record keeper","BOOKS AND RECORDS REQUIRED TO BE MAINTAINED IN ACCORDANCE WITH CANADIAN LAWS AND REGULATIONS."
2006694,"CROWN WORLDWIDE (HK) LTD.","1 LEUNG YIP STREET","","HONG KONG","","China","","N","852 2636 8388","","A third-party unaffiliated record keeper","BOOKS AND RECORDS REQUIRED TO BE KEPT IN COMPLIANCE WITH THE INVESTMENT ADVISERS ACT OF 1940."
2006694,"IRON MOUNTAIN MEXICO S DE RL DE CV","PARQUE INDUSTRIAL TOLUCA 2000","","TOLUCA","","Mexico","50200","N","800 5526246","","A third-party unaffiliated record keeper","BOOKS AND RECORDS REQUIRED TO BE KEPT IN COMPLIANCE WITH THE INVESTMENT ADVISERS ACT OF 1940."
2006694,"IRON MOUNTAIN NEDERLAND B.V.","J. KEPLERWEG 2","","ALPHEN AAN DEN RIJN","","Netherlands","2408 AC","N","317 204 60070","","One of your branch offices or affiliates","BOOKS AND RECORDS REQUIRED TO BE KEPT IN COMPLIANCE WITH THE INVESTMENT ADVISERS ACT OF 1940."
2006694,"UNE PIECE EN PLUS","1 RUE FRANCOIS JACOB","","RUEIL-MALMAISON","","France","92500","N","33 1 4137 9500","","A third-party unaffiliated record keeper","BOOKS AND RECORDS REQUIRED TO BE KEPT IN COMPLIANCE WITH THE INVESTMENT ADVISERS ACT OF 1940."
2006694,"IRON MOUNTAIN INDIA PVT LTD","B-13B-15B PANDURANG BUDHKAR MARG, 1ST FL","","MUMBAI","","India","400 013","N","91 22 24988416","","A third-party unaffiliated record keeper","CERTAIN BOOKS AND RECORDS REQUIRED TO BE KEPT IN COMPLIANCE WITH APPROPRIATE REGULATORY REQUIREMENTS."
2006694,"AKTENEINLAGERUNG","STROOFSTRAßE 27","","FRANKFURT","","Germany","65933","N","4.9616E+11","","A third-party unaffiliated record keeper","BOOKS AND RECORDS REQUIRED TO BE KEPT IN COMPLIANCE WITH THE INVESTMENT ADVISERS ACT OF 1940."
2006694,"IRON MOUNTAIN ESPANA SAU","CALLE DE LOS REYES CATÓLICOS, 6","","MADRID","","Spain","28108","N","34 958200697","","A third-party unaffiliated record keeper","BOOKS AND RECORDS REQUIRED TO BE KEPT IN COMPLIANCE WITH THE INVESTMENT ADVISERS ACT OF 1940."
2006694,"CROWN WORLDWIDE KOREA","2201 GWANGHWAMOON OFFICIA 163","","SEOUL","","Korea, South","110-999","N","82 2 796 5717","","A third-party unaffiliated record keeper","CERTAIN BOOKS AND RECORDS REQUIRED TO BE KEPT IN COMPLIANCE WITH APPROPRIATE REGULATORY REQUIREMENTS."
2006694,"IRON MOUNTAIN SWITZERLAND LTD","GRUBENSTRASSE 11","","URTENEN-SCHÖNBÜHL","","Switzerland","3322","N","41800002424","","A third-party unaffiliated record keeper","BOOKS AND RECORDS REQUIRED TO BE KEPT IN COMPLIANCE WITH THE INVESTMENT ADVISERS ACT OF 1940."
2006694,"IRON MOUNTAIN LTD","600 DISTRIBUTION DRIVE","","ATLANTA","GA","United States","30336","N","800 899 4766","","A third-party unaffiliated record keeper","BOOKS AND RECORDS REQUIRED TO BE KEPT IN COMPLIANCE WITH THE INVESTMENT ADVISERS ACT OF 1940."
2006694,"VERTIV INFRASTRUCTURE LIMITED","STONEHAM PLACE, STONEHAM LN.","","SOUTHAMPTON","","United Kingdom","SO50 9NW","N","442380610311","","A third-party unaffiliated record keeper","BOOKS AND RECORDS REQUIRED TO BE KEPT IN COMPLIANCE WITH THE INVESTMENT ADVISERS ACT OF 1940."
2006694,"ORION PORTOLIO SOLUTIONS","17605 WRIGHT STREET","","OMAHA","NE","United States","68130","N","4028951600","","A third-party unaffiliated record keeper","BOOKS AND RECORDS REQUIRED TO BE KEPT IN COMPLIANCE WITH THE INVESTMENT ADVISERS ACT OF 1940."
2006694,"STIFEL","501 NORTH BROADWAY","","ST. LOUIS","MO","United States","63102","N","3143422000","","A third-party unaffiliated record keeper","BOOKS AND RECORDS REQUIRED TO BE KEPT IN COMPLIANCE WITH THE INVESTMENT ADVISERS ACT OF 1940."
2006694,"SNOWFLAKE INC","450 CONCAR DR","","SAN MATEO","CA","United States","94402","N","8447669355","","A third-party unaffiliated record keeper","BOOKS AND RECORDS KEPT IN ACCORDANCE WITH THE STATE REGULATORS"
2006694,"MITSUI SOKO CO LTD KANTO BRANCH OFFICE","MSC CENTER BUILDING, 3-22-23 KAIGAN, MINATO-KU","","TOKYO","","Japan","108-0022","N","81364008300","","A third-party unaffiliated record keeper","BOOKS AND RECORDS REQUIRED TO BE KEPT IN COMPLIANCE WITH THE INVESTMENT ADVISERS ACT OF 1940."
2006694,"MICROSOFT CORPORATION","NUMBER AND STREET","","RENO","NV","United States","89511-1137","N","7758235600","","A third-party unaffiliated record keeper","BOOKS AND RECORDS REQUIRED TO BE KEPT IN COMPLIANCE WITH THE INVESTMENT ADVISERS ACT OF 1940."
2006694,"PNC","300 FIFTH AVENUE, 26TH FLOOR","","PITTSBURGH","PA","United States","15222","N","8887262265","","A third-party unaffiliated record keeper","BOOKS AND RECORDS REQUIRED TO BE KEPT IN COMPLIANCE WITH THE INVESTMENT ADVISERS ACT OF 1940."
2006694,"FIS EMPLOYEE COMPLIANCE MANAGER","347 RIVERSIDE AVE","","JACKSONVILLE","FL","United States","32202","N","9074386000","","A third-party unaffiliated record keeper","BOOKS AND RECORDS REQUIRED TO BE KEPT IN COMPLIANCE WITH THE INVESTMENT ADVISERS ACT OF 1940."
2006694,"ASSET MARK, INC","1655 GRANT STREET","","CONCORD","CA","United States","94520","N","8006645345","","A third-party unaffiliated record keeper","BOOKS AND RECORDS REQUIRED TO BE KEPT IN COMPLIANCE WITH THE INVESTMENT ADVISERS ACT OF 1940."
2006694,"IRON MOUNTAIN LTD","100 HARBOR DRIVE","","JERSEY CITY","NJ","United States","07305","N","800 934 3453","","A third-party unaffiliated record keeper","BOOKS AND RECORDS REQUIRED TO BE KEPT IN COMPLIANCE WITH THE INVESTMENT ADVISERS ACT OF 1940."
2006694,"IRON MOUNTAIN COLOMBIA SAS","69B - 57, FONTIBÓN","","BOGOTÁ","","Colombia","110110","N","57 1 742 19 04","","A third-party unaffiliated record keeper","BOOKS AND RECORDS REQUIRED TO BE KEPT IN COMPLIANCE WITH THE INVESTMENT ADVISERS ACT OF 1940."
2006694,"IRON MOUNTAIN LTD","19826 RUSSELL ROAD","","KENT","WA","United States","98032","N","800 899 4766","","A third-party unaffiliated record keeper","BOOKS AND RECORDS REQUIRED TO BE KEPT IN COMPLIANCE WITH THE INVESTMENT ADVISERS ACT OF 1940."
2006694,"IRON MOUNTAIN LTD","6935 FLANDERS DRIVE","","SAN DIEGO","CA","United States","92121","N","800 899 4766","","A third-party unaffiliated record keeper","BOOKS AND RECORDS REQUIRED TO BE KEPT IN COMPLIANCE WITH THE INVESTMENT ADVISERS ACT OF 1940."
2006694,"FDM BUSINESS SERVICES SRL","VIA DEI VALTORTA, 47","","MILANO MI","","Italy","20127","N","3902905921","","A third-party unaffiliated record keeper","BOOKS AND RECORDS REQUIRED TO BE KEPT IN COMPLIANCE WITH THE INVESTMENT ADVISERS ACT OF 1940."
2006694,"IRON MOUNTAIN","195 SUMMERLEA RD","","BRAMPTON","","Canada","L6T 4P6","N","18008994766","","A third-party unaffiliated record keeper","BOOKS AND RECORDS REQUIRED TO BE MAINTAINED IN ACCORDANCE WITH CANADIAN LAWS AND REGULATIONS."
2006694,"IRON MOUNTAIN (DEUTSCHLAND) SERVICE GMBH","HUGO-JUNKERS-STRASSE 4","","FURSTENFELDBRUCK","","Germany","82256","N","49 8141 527860","","A third-party unaffiliated record keeper","CERTAIN BOOKS AND RECORDS REQUIRED TO BE KEPT IN COMPLIANCE WITH APPROPRIATE REGULATORY REQUIREMENTS."
2006694,"IRON MOUNTAIN LTD","1201 FREEDOM ROAD","","CRANBERRY TWP","PA","United States","16066","N","800 899 4766","","A third-party unaffiliated record keeper","BOOKS AND RECORDS REQUIRED TO BE KEPT IN COMPLIANCE WITH THE INVESTMENT ADVISERS ACT OF 1940."
2006694,"SHRED IT SINGAPORE PTE LTD","51 UBI AVENUE 1 #03-11 PAYA UBI INDUSTRIAL PARK","","SINGAPORE","","Singapore","408933","N","6567877777","","A third-party unaffiliated record keeper","BOOKS AND RECORDS REQUIRED TO BE KEPT IN COMPLIANCE WITH THE INVESTMENT ADVISERS ACT OF 1940."
2006694,"IRON MOUNTAIN LTD","6933 PRESTON AVE.","","LIVERMORE","CA","United States","94551","N","800 899 4766","","A third-party unaffiliated record keeper","BOOKS AND RECORDS REQUIRED TO BE KEPT IN COMPLIANCE WITH THE INVESTMENT ADVISERS ACT OF 1940."
2006694,"IRON MOUNTAIN LTD","8150 SIGNAL CT.","","SACRAMENTO","CA","United States","95824","N","833 630 7484","","A third-party unaffiliated record keeper","BOOKS AND RECORDS REQUIRED TO BE KEPT IN COMPLIANCE WITH THE INVESTMENT ADVISERS ACT OF 1940."
2006694,"DATASITE UK LTD","15 BONHILL STREET","","LONDON","","United Kingdom","EC2A 4DN","N","2039280300","","A third-party unaffiliated record keeper","BOOKS AND RECORDS REQUIRED TO BE KEPT IN COMPLIANCE WITH THE INVESTMENT ADVISERS ACT OF 1940."
2006694,"IRON MOUNTAIN AUSTRALIA GROUP PTY LTD","465 PLUMMER STREET PORT","","MELBOURNE","","Australia","3207","N","61 1300 476668","","A third-party unaffiliated record keeper","CERTAIN BOOKS AND RECORDS REQUIRED TO BE KEPT IN COMPLIANCE WITH APPROPRIATE REGULATORY REQUIREMENTS."
2006694,"TONG IN","32, INSADONG-GIL, JONGNO-GU","","SEOUL","","Korea, South","03148","N","8223857551","","A third-party unaffiliated record keeper","BOOKS AND RECORDS REQUIRED TO BE KEPT IN COMPLIANCE WITH THE INVESTMENT ADVISERS ACT OF 1940."
2006694,"IRON MOUNTAIN FRANCE SAS","ZONE INDUSTRIELLE DES SABLES N 6 12 6 AVENUE DESCA","","MORANGIS","","France","91420","N","33 800 21 5218","","A third-party unaffiliated record keeper","BOOKS AND RECORDS REQUIRED TO BE KEPT IN COMPLIANCE WITH THE INVESTMENT ADVISERS ACT OF 1940."
2006694,"IRON MOUNTAIN RECORDS MANAGEMENT SHANGHAI COMPANY LIMITED","STE 702 JIANFA INTL BLD, 288 YANGSHUPU RD","","SHANGHAI","","China","200000","N","4001664766","","A third-party unaffiliated record keeper","BOOKS AND RECORDS REQUIRED TO BE KEPT IN COMPLIANCE WITH THE INVESTMENT ADVISERS ACT OF 1940."
2006694,"SHRED IT USA LLC","81 WALSH DRIVE PARSIPPANY","","PARSIPPANY","NJ","United States","07054","N","877 542 3992","","A third-party unaffiliated record keeper","BOOKS AND RECORDS REQUIRED TO BE KEPT IN COMPLIANCE WITH THE INVESTMENT ADVISERS ACT OF 1940."
2006694,"VESTMARK ADVISORY SERVICES","1 EVERTRUST PLACE, 1ST FLOOR","","JERSEY CITY","NJ","United States","07302","N","8883550477","","A third-party unaffiliated record keeper","BOOKS AND RECORDS REQUIRED TO BE KEPT IN COMPLIANCE WITH THE INVESTMENT ADVISERS ACT OF 1940."
2006694,"MERRILL LYNCH","101 HUDSON STREET, 9TH FLOOR","","JERSEY CITY","NJ","United States","07302","N","2019464000","","A third-party unaffiliated record keeper","BOOKS AND RECORDS REQUIRED TO BE KEPT IN COMPLIANCE WITH THE INVESTMENT ADVISERS ACT OF 1940."
2006704,"CROWN WORLDWIDE KOREA","2201 GWANGHWAMOON OFFICIA 163","","SEOUL","","Korea, South","110-999","N","82 2 796 5717","","A third-party unaffiliated record keeper","CERTAIN BOOKS AND RECORDS REQUIRED TO BE KEPT IN COMPLIANCE WITH APPROPRIATE REGULATORY REQUIREMENTS."
2006704,"IRON MOUNTAIN SWITZERLAND LTD","GRUBENSTRASSE 11","","URTENEN-SCHÖNBÜHL","","Switzerland","3322","N","41800002424","","A third-party unaffiliated record keeper","BOOKS AND RECORDS REQUIRED TO BE KEPT IN COMPLIANCE WITH THE INVESTMENT ADVISERS ACT OF 1940."
2006704,"IRON MOUNTAIN LTD","600 DISTRIBUTION DRIVE","","ATLANTA","GA","United States","30336","N","800 899 4766","","A third-party unaffiliated record keeper","BOOKS AND RECORDS REQUIRED TO BE KEPT IN COMPLIANCE WITH THE INVESTMENT ADVISERS ACT OF 1940."
2006704,"VERTIV INFRASTRUCTURE LIMITED","STONEHAM PLACE, STONEHAM LN.","","SOUTHAMPTON","","United Kingdom","SO50 9NW","N","442380610311","","A third-party unaffiliated record keeper","BOOKS AND RECORDS REQUIRED TO BE KEPT IN COMPLIANCE WITH THE INVESTMENT ADVISERS ACT OF 1940."
2006704,"ORION PORTOLIO SOLUTIONS","17605 WRIGHT STREET","","OMAHA","NE","United States","68130","N","4028951600","","A third-party unaffiliated record keeper","BOOKS AND RECORDS REQUIRED TO BE KEPT IN COMPLIANCE WITH THE INVESTMENT ADVISERS ACT OF 1940."
2006704,"STIFEL","501 NORTH BROADWAY","","ST. LOUIS","MO","United States","63102","N","3143422000","","A third-party unaffiliated record keeper","BOOKS AND RECORDS REQUIRED TO BE KEPT IN COMPLIANCE WITH THE INVESTMENT ADVISERS ACT OF 1940."
2006704,"SNOWFLAKE INC","450 CONCAR DR","","SAN MATEO","CA","United States","94402","N","8447669355","","A third-party unaffiliated record keeper","BOOKS AND RECORDS KEPT IN ACCORDANCE WITH THE STATE REGULATORS"
2006704,"IRON MOUNTAIN CANADA CORPORATION","70 TALMAN COURT","","CONCORD","","Canada","L4K 4L5","N","905 695 0564","","A third-party unaffiliated record keeper","BOOKS AND RECORDS REQUIRED TO BE MAINTAINED IN ACCORDANCE WITH CANADIAN LAWS AND REGULATIONS."
2006704,"IRON MOUNTAIN NEDERLAND B.V.","J. KEPLERWEG 2","","ALPHEN AAN DEN RIJN","","Netherlands","2408 AC","N","317 204 60070","","One of your branch offices or affiliates","BOOKS AND RECORDS REQUIRED TO BE KEPT IN COMPLIANCE WITH THE INVESTMENT ADVISERS ACT OF 1940."
2006704,"UNE PIECE EN PLUS","1 RUE FRANCOIS JACOB","","RUEIL-MALMAISON","","France","92500","N","33 1 4137 9500","","A third-party unaffiliated record keeper","BOOKS AND RECORDS REQUIRED TO BE KEPT IN COMPLIANCE WITH THE INVESTMENT ADVISERS ACT OF 1940."
2006704,"CROWN WORLDWIDE (HK) LTD.","1 LEUNG YIP STREET","","HONG KONG","","China","","N","852 2636 8388","","A third-party unaffiliated record keeper","BOOKS AND RECORDS REQUIRED TO BE KEPT IN COMPLIANCE WITH THE INVESTMENT ADVISERS ACT OF 1940."
2006704,"IRON MOUNTAIN INDIA PVT LTD","B-13B-15B PANDURANG BUDHKAR MARG, 1ST FL","","MUMBAI","","India","400 013","N","91 22 24988416","","A third-party unaffiliated record keeper","CERTAIN BOOKS AND RECORDS REQUIRED TO BE KEPT IN COMPLIANCE WITH APPROPRIATE REGULATORY REQUIREMENTS."
2006704,"AKTENEINLAGERUNG","STROOFSTRAßE 27","","FRANKFURT","","Germany","65933","N","4.9616E+11","","A third-party unaffiliated record keeper","BOOKS AND RECORDS REQUIRED TO BE KEPT IN COMPLIANCE WITH THE INVESTMENT ADVISERS ACT OF 1940."
2006704,"IRON MOUNTAIN MEXICO S DE RL DE CV","PARQUE INDUSTRIAL TOLUCA 2000","","TOLUCA","","Mexico","50200","N","800 5526246","","A third-party unaffiliated record keeper","BOOKS AND RECORDS REQUIRED TO BE KEPT IN COMPLIANCE WITH THE INVESTMENT ADVISERS ACT OF 1940."
2006704,"IRON MOUNTAIN ESPANA SAU","CALLE DE LOS REYES CATÓLICOS, 6","","MADRID","","Spain","28108","N","34 958200697","","A third-party unaffiliated record keeper","BOOKS AND RECORDS REQUIRED TO BE KEPT IN COMPLIANCE WITH THE INVESTMENT ADVISERS ACT OF 1940."
2006704,"IRON MOUNTAIN LTD","5443 S. 108TH E AVE","","TULSA","OK","United States","74146","N","918 280 0841","","A third-party unaffiliated record keeper","BOOKS AND RECORDS REQUIRED TO BE KEPT IN COMPLIANCE WITH THE INVESTMENT ADVISERS ACT OF 1940."
2006704,"EVENSONBEST LLC","55 5TH AVE FL 12","","NEW YORK","NY","United States","10003","N","212 5498000","","A third-party unaffiliated record keeper","BOOKS AND RECORDS REQUIRED TO BE KEPT IN COMPLIANCE WITH THE INVESTMENT ADVISERS ACT OF 1940."
2006704,"CISCRA SPA","VIA SAN MICHELE, 36","","VILLANOVA DEL GHEBBO RO","","Italy","45020","N","390425651111","","A third-party unaffiliated record keeper","BOOKS AND RECORDS REQUIRED TO BE KEPT IN COMPLIANCE WITH THE INVESTMENT ADVISERS ACT OF 1940."
2006704,"MITSUI SOKO BUSINESS PARTNERS","5-1-1, OMAGARIKOGYODANCHI, KITAHIROSHIMA SHI","","HOKKAIDO","","Japan","061-1274","N","81 11 376 2801","","A third-party unaffiliated record keeper","CERTAIN BOOKS AND RECORDS REQUIRED TO BE KEPT IN COMPLIANCE WITH APPROPRIATE REGULATORY REQUIREMENTS."
2006704,"JANNEY MONTGOMERY SCOTT, LLC","1717 ARCH STREET","","PHILADELPHIA","PA","United States","19103","N","2156656000","","A third-party unaffiliated record keeper","BOOKS AND RECORDS REQUIRED TO BE KEPT IN COMPLIANCE WITH THE INVESTMENT ADVISERS ACT OF 1940."
2006704,"UBS FINANCIAL SERVICES, INC","1000 HARBOR BOULEVARD","","WEEHAWKEN","NJ","United States","07086","N","2013523000","","A third-party unaffiliated record keeper","BOOKS AND RECORDS REQUIRED TO BE KEPT IN COMPLIANCE WITH THE INVESTMENT ADVISERS ACT OF 1940."
2006704,"IRON MOUNTAIN DO BRASIL LTDA.","AV PREFEITO JOÃO VILALLOBO QUERO, 1200","","BARUERI- SÃO PAULO","","Brazil","06400-001","N","55 11 37670818","","A third-party unaffiliated record keeper","BOOKS AND RECORDS REQUIRED TO BE KEPT IN COMPLIANCE WITH THE INVESTMENT ADVISERS ACT OF 1940."
2006704,"MYCOMPLIANCEOFFICE","535 5TH AVENUE, 4TH FLOOR","","NEW YORK","NY","United States","10017","N","8669512280","","A third-party unaffiliated record keeper","BOOKS AND RECORDS REQUIRED TO BE KEPT IN COMPLIANCE WITH THE INVESTMENT ADVISERS ACT OF 1940."
2006704,"CROWN WORLDWIDE PTE LTD","MALLARDS ROAD","","PETERBOROUGH","","United Kingdom","PE3 8YN","N","020 7510 9892","","A third-party unaffiliated record keeper","BOOKS AND RECORDS REQUIRED TO BE KEPT IN COMPLIANCE WITH THE INVESTMENT ADVISERS ACT OF 1940."
2006704,"CROWN RECORDS MANAGEMENT LTD","UNIT D, PROLOGIS BUSINESS PARK","","LONDON","","United Kingdom","E3 3JG","N","4410000000000","","A third-party unaffiliated record keeper","BOOKS AND RECORDS REQUIRED TO BE KEPT IN COMPLIANCE WITH THE INVESTMENT ADVISERS ACT OF 1940."
2006704,"NX WANBISHI ARCHIVES","4-1-28 TORANOMON, MINATO-KU","","TOKYO","","Japan","105-0001","N","81 354255100","","A third-party unaffiliated record keeper","BOOKS AND RECORDS REQUIRED TO BE KEPT IN COMPLIANCE WITH THE INVESTMENT ADVISERS ACT OF 1940."
2006704,"SHRED IT DUBAI","10 SAN'A RD - RAS AL KHOR INDUSTRIAL AREA","","DUBAI","","United Arab Emirates","48852","N","97143403588","","A third-party unaffiliated record keeper","BOOKS AND RECORDS REQUIRED TO BE KEPT IN COMPLIANCE WITH THE INVESTMENT ADVISERS ACT OF 1940."
2006704,"AMAZON WEB SERVICES, INC","410 TERRY AVENUE NORTH","","SEATTLE","WA","United States","98109","N","2062661000","","A third-party unaffiliated record keeper","BOOKS AND RECORDS KEPT WITH ACCORDANCE OF STATE REGULATORS"
2006704,"IRON MOUNTAIN LTD","175 BEARFOOT RD.","","NORTHBOROUGH","MA","United States","01532","N","800 934 3453","","A third-party unaffiliated record keeper","BOOKS AND RECORDS REQUIRED TO BE KEPT IN COMPLIANCE WITH THE INVESTMENT ADVISERS ACT OF 1940."
2006704,"MICROSOFT CORPORATION","6880 SIERRA CENTER PKWY","","RENO","NV","United States","89511","N","7758235600","","A third-party unaffiliated record keeper","BOOKS AND RECORDS KEPT IN ACCORDANCE WITH THE STATE REGULATORS"
2006704,"FIDELITY INSTITUTIONAL WEALTH ADVISER LLC","245 SUMMER STREET","","BOSTON","MA","United States","02210","N","8003433548","","A third-party unaffiliated record keeper","BOOKS AND RECORDS REQUIRED TO BE KEPT IN COMPLIANCE WITH THE INVESTMENT ADVISERS ACT OF 1940."
2006704,"IRON MOUNTAIN FRANCE SAS","ZONE INDUSTRIELLE DES SABLES N 6 12 6 AVENUE DESCA","","MORANGIS","","France","91420","N","33 800 21 5218","","A third-party unaffiliated record keeper","BOOKS AND RECORDS REQUIRED TO BE KEPT IN COMPLIANCE WITH THE INVESTMENT ADVISERS ACT OF 1940."
2006704,"IRON MOUNTAIN RECORDS MANAGEMENT SHANGHAI COMPANY LIMITED","STE 702 JIANFA INTL BLD, 288 YANGSHUPU RD","","SHANGHAI","","China","200000","N","4001664766","","A third-party unaffiliated record keeper","BOOKS AND RECORDS REQUIRED TO BE KEPT IN COMPLIANCE WITH THE INVESTMENT ADVISERS ACT OF 1940."
2006704,"SHRED IT USA LLC","81 WALSH DRIVE PARSIPPANY","","PARSIPPANY","NJ","United States","07054","N","877 542 3992","","A third-party unaffiliated record keeper","BOOKS AND RECORDS REQUIRED TO BE KEPT IN COMPLIANCE WITH THE INVESTMENT ADVISERS ACT OF 1940."
2006704,"VESTMARK ADVISORY SERVICES","1 EVERTRUST PLACE, 1ST FLOOR","","JERSEY CITY","NJ","United States","07302","N","8883550477","","A third-party unaffiliated record keeper","BOOKS AND RECORDS REQUIRED TO BE KEPT IN COMPLIANCE WITH THE INVESTMENT ADVISERS ACT OF 1940."
2006704,"MERRILL LYNCH","101 HUDSON STREET, 9TH FLOOR","","JERSEY CITY","NJ","United States","07302","N","2019464000","","A third-party unaffiliated record keeper","BOOKS AND RECORDS REQUIRED TO BE KEPT IN COMPLIANCE WITH THE INVESTMENT ADVISERS ACT OF 1940."
2006704,"IRON MOUNTAIN LTD","19826 RUSSELL ROAD","","KENT","WA","United States","98032","N","800 899 4766","","A third-party unaffiliated record keeper","BOOKS AND RECORDS REQUIRED TO BE KEPT IN COMPLIANCE WITH THE INVESTMENT ADVISERS ACT OF 1940."
2006704,"IRON MOUNTAIN LTD","6935 FLANDERS DRIVE","","SAN DIEGO","CA","United States","92121","N","800 899 4766","","A third-party unaffiliated record keeper","BOOKS AND RECORDS REQUIRED TO BE KEPT IN COMPLIANCE WITH THE INVESTMENT ADVISERS ACT OF 1940."
2006704,"MITSUI SOKO CO LTD KANTO BRANCH OFFICE","MSC CENTER BUILDING, 3-22-23 KAIGAN, MINATO-KU","","TOKYO","","Japan","108-0022","N","81364008300","","A third-party unaffiliated record keeper","BOOKS AND RECORDS REQUIRED TO BE KEPT IN COMPLIANCE WITH THE INVESTMENT ADVISERS ACT OF 1940."
2006704,"MICROSOFT CORPORATION","NUMBER AND STREET","","RENO","NV","United States","89511-1137","N","7758235600","","A third-party unaffiliated record keeper","BOOKS AND RECORDS REQUIRED TO BE KEPT IN COMPLIANCE WITH THE INVESTMENT ADVISERS ACT OF 1940."
2006704,"PNC","300 FIFTH AVENUE, 26TH FLOOR","","PITTSBURGH","PA","United States","15222","N","8887262265","","A third-party unaffiliated record keeper","BOOKS AND RECORDS REQUIRED TO BE KEPT IN COMPLIANCE WITH THE INVESTMENT ADVISERS ACT OF 1940."
2006704,"FIS EMPLOYEE COMPLIANCE MANAGER","347 RIVERSIDE AVE","","JACKSONVILLE","FL","United States","32202","N","9074386000","","A third-party unaffiliated record keeper","BOOKS AND RECORDS REQUIRED TO BE KEPT IN COMPLIANCE WITH THE INVESTMENT ADVISERS ACT OF 1940."
2006704,"ASSET MARK, INC","1655 GRANT STREET","","CONCORD","CA","United States","94520","N","8006645345","","A third-party unaffiliated record keeper","BOOKS AND RECORDS REQUIRED TO BE KEPT IN COMPLIANCE WITH THE INVESTMENT ADVISERS ACT OF 1940."
2006704,"IRON MOUNTAIN LTD","100 HARBOR DRIVE","","JERSEY CITY","NJ","United States","07305","N","800 934 3453","","A third-party unaffiliated record keeper","BOOKS AND RECORDS REQUIRED TO BE KEPT IN COMPLIANCE WITH THE INVESTMENT ADVISERS ACT OF 1940."
2006704,"IRON MOUNTAIN COLOMBIA SAS","69B - 57, FONTIBÓN","","BOGOTÁ","","Colombia","110110","N","57 1 742 19 04","","A third-party unaffiliated record keeper","BOOKS AND RECORDS REQUIRED TO BE KEPT IN COMPLIANCE WITH THE INVESTMENT ADVISERS ACT OF 1940."
2006704,"FDM BUSINESS SERVICES SRL","VIA DEI VALTORTA, 47","","MILANO MI","","Italy","20127","N","3902905921","","A third-party unaffiliated record keeper","BOOKS AND RECORDS REQUIRED TO BE KEPT IN COMPLIANCE WITH THE INVESTMENT ADVISERS ACT OF 1940."
2006704,"IRON MOUNTAIN","195 SUMMERLEA RD","","BRAMPTON","","Canada","L6T 4P6","N","18008994766","","A third-party unaffiliated record keeper","BOOKS AND RECORDS REQUIRED TO BE MAINTAINED IN ACCORDANCE WITH CANADIAN LAWS AND REGULATIONS."
2006704,"IRON MOUNTAIN (DEUTSCHLAND) SERVICE GMBH","HUGO-JUNKERS-STRASSE 4","","FURSTENFELDBRUCK","","Germany","82256","N","49 8141 527860","","A third-party unaffiliated record keeper","CERTAIN BOOKS AND RECORDS REQUIRED TO BE KEPT IN COMPLIANCE WITH APPROPRIATE REGULATORY REQUIREMENTS."
2006704,"IRON MOUNTAIN LTD","1201 FREEDOM ROAD","","CRANBERRY TWP","PA","United States","16066","N","800 899 4766","","A third-party unaffiliated record keeper","BOOKS AND RECORDS REQUIRED TO BE KEPT IN COMPLIANCE WITH THE INVESTMENT ADVISERS ACT OF 1940."
2006704,"SHRED IT SINGAPORE PTE LTD","51 UBI AVENUE 1 #03-11 PAYA UBI INDUSTRIAL PARK","","SINGAPORE","","Singapore","408933","N","6567877777","","A third-party unaffiliated record keeper","BOOKS AND RECORDS REQUIRED TO BE KEPT IN COMPLIANCE WITH THE INVESTMENT ADVISERS ACT OF 1940."
2006704,"IRON MOUNTAIN LTD","6933 PRESTON AVE.","","LIVERMORE","CA","United States","94551","N","800 899 4766","","A third-party unaffiliated record keeper","BOOKS AND RECORDS REQUIRED TO BE KEPT IN COMPLIANCE WITH THE INVESTMENT ADVISERS ACT OF 1940."
2006704,"IRON MOUNTAIN LTD","8150 SIGNAL CT.","","SACRAMENTO","CA","United States","95824","N","833 630 7484","","A third-party unaffiliated record keeper","BOOKS AND RECORDS REQUIRED TO BE KEPT IN COMPLIANCE WITH THE INVESTMENT ADVISERS ACT OF 1940."
2006704,"DATASITE UK LTD","15 BONHILL STREET","","LONDON","","United Kingdom","EC2A 4DN","N","2039280300","","A third-party unaffiliated record keeper","BOOKS AND RECORDS REQUIRED TO BE KEPT IN COMPLIANCE WITH THE INVESTMENT ADVISERS ACT OF 1940."
2006704,"IRON MOUNTAIN AUSTRALIA GROUP PTY LTD","465 PLUMMER STREET PORT","","MELBOURNE","","Australia","3207","N","61 1300 476668","","A third-party unaffiliated record keeper","CERTAIN BOOKS AND RECORDS REQUIRED TO BE KEPT IN COMPLIANCE WITH APPROPRIATE REGULATORY REQUIREMENTS."
2006704,"TONG IN","32, INSADONG-GIL, JONGNO-GU","","SEOUL","","Korea, South","03148","N","8223857551","","A third-party unaffiliated record keeper","BOOKS AND RECORDS REQUIRED TO BE KEPT IN COMPLIANCE WITH THE INVESTMENT ADVISERS ACT OF 1940."
2006705,"MERRILL LYNCH","101 HUDSON STREET, 9TH FLOOR","","JERSEY CITY","NJ","United States","07302","N","2019464000","","A third-party unaffiliated record keeper","BOOKS AND RECORDS REQUIRED TO BE KEPT IN COMPLIANCE WITH THE INVESTMENT ADVISERS ACT OF 1940."
2006705,"ASSET MARK, INC","1655 GRANT STREET","","CONCORD","CA","United States","94520","N","8006645345","","A third-party unaffiliated record keeper","BOOKS AND RECORDS REQUIRED TO BE KEPT IN COMPLIANCE WITH THE INVESTMENT ADVISERS ACT OF 1940."
2006705,"VESTMARK ADVISORY SERVICES","1 EVERTRUST PLACE, 1ST FLOOR","","JERSEY CITY","NJ","United States","07302","N","8883550477","","A third-party unaffiliated record keeper","BOOKS AND RECORDS REQUIRED TO BE KEPT IN COMPLIANCE WITH THE INVESTMENT ADVISERS ACT OF 1940."
2006705,"CROWN WORLDWIDE PTE LTD","MALLARDS ROAD","","PETERBOROUGH","","United Kingdom","PE3 8YN","N","020 7510 9892","","A third-party unaffiliated record keeper","BOOKS AND RECORDS REQUIRED TO BE KEPT IN COMPLIANCE WITH THE INVESTMENT ADVISERS ACT OF 1940."
2006705,"SHRED IT USA LLC","81 WALSH DRIVE PARSIPPANY","","PARSIPPANY","NJ","United States","07054","N","8554974733","","A third-party unaffiliated record keeper","BOOKS AND RECORDS REQUIRED TO BE KEPT IN COMPLIANCE WITH THE INVESTMENT ADVISERS ACT OF 1940."
2006705,"AMAZON WEB SERVICES, INC","410 TERRY AVENUE NORTH","","SEATTLE","WA","United States","98109","N","2062661000","","A third-party unaffiliated record keeper","BOOKS AND RECORDS KEPT WITH ACCORDANCE OF STATE REGULATORS"
2006705,"MYCOMPLIANCEOFFICE","535 5TH AVENUE, 4TH FLOOR","","NEW YORK","NY","United States","10017","N","8669512280","","A third-party unaffiliated record keeper","BOOKS AND RECORDS REQUIRED TO BE KEPT IN COMPLIANCE WITH THE INVESTMENT ADVISERS ACT OF 1940."
2006705,"ORION PORTOLIO SOLUTIONS","17605 WRIGHT STREET","","OMAHA","NE","United States","68130","N","4028951600","","A third-party unaffiliated record keeper","BOOKS AND RECORDS REQUIRED TO BE KEPT IN COMPLIANCE WITH THE INVESTMENT ADVISERS ACT OF 1940."
2006705,"MITSUI SOKO BUSINESS PARTNERS","5-1-1, OMAGARIKOGYODANCHI, KITAHIROSHIMA SHI","","HOKKAIDO","","Japan","061-1274","N","81 11 376 2801","","A third-party unaffiliated record keeper","CERTAIN BOOKS AND RECORDS REQUIRED TO BE KEPT IN COMPLIANCE WITH APPROPRIATE REGULATORY REQUIREMENTS."
2006705,"IRON MOUNTAIN LTD","100 HARBOR DRIVE","","JERSEY CITY","NJ","United States","07305","N","800 934 3453","","A third-party unaffiliated record keeper","BOOKS AND RECORDS REQUIRED TO BE KEPT IN COMPLIANCE WITH THE INVESTMENT ADVISERS ACT OF 1940."
2006705,"NX WANBISHI ARCHIVES","4-1-28 TORANOMON, MINATO-KU","","TOKYO","","Japan","105-0001","N","81 354255100","","A third-party unaffiliated record keeper","BOOKS AND RECORDS REQUIRED TO BE KEPT IN COMPLIANCE WITH THE INVESTMENT ADVISERS ACT OF 1940."
2006705,"SNOWFLAKE INC","450 CONCAR DR","","SAN MATEO","CA","United States","94402","N","8447669355","","A third-party unaffiliated record keeper","BOOKS AND RECORDS KEPT IN ACCORDANCE WITH THE STATE REGULATORS"
2006705,"UBS FINANCIAL SERVICES, INC","1000 HARBOR BOULEVARD","","WEEHAWKEN","NJ","United States","07086","N","2013523000","","A third-party unaffiliated record keeper","BOOKS AND RECORDS REQUIRED TO BE KEPT IN COMPLIANCE WITH THE INVESTMENT ADVISERS ACT OF 1940."
2006705,"JANNEY MONTGOMERY SCOTT, LLC","1717 ARCH STREET","","PHILADELPHIA","PA","United States","19103","N","2156656000","","A third-party unaffiliated record keeper","BOOKS AND RECORDS REQUIRED TO BE KEPT IN COMPLIANCE WITH THE INVESTMENT ADVISERS ACT OF 1940."
2006705,"FIDELITY INSTITUTIONAL WEALTH ADVISER LLC","245 SUMMER STREET","","BOSTON","MA","United States","02210","N","8003433548","","A third-party unaffiliated record keeper","BOOKS AND RECORDS REQUIRED TO BE KEPT IN COMPLIANCE WITH THE INVESTMENT ADVISERS ACT OF 1940."
2006705,"STIFEL","501 NORTH BROADWAY","","ST. LOUIS","MO","United States","63102","N","3143422000","","A third-party unaffiliated record keeper","BOOKS AND RECORDS REQUIRED TO BE KEPT IN COMPLIANCE WITH THE INVESTMENT ADVISERS ACT OF 1940."
2006705,"MICROSOFT CORPORATION","6880 SIERRA CENTER PKWY","","RENO","NV","United States","89511","N","7758235600","","A third-party unaffiliated record keeper","BOOKS AND RECORDS KEPT IN ACCORDANCE WITH THE STATE REGULATORS"
2006705,"FIS EMPLOYEE COMPLIANCE MANAGER","347 RIVERSIDE AVE","","JACKSONVILLE","FL","United States","32202","N","9074386000","","A third-party unaffiliated record keeper","BOOKS AND RECORDS REQUIRED TO BE KEPT IN COMPLIANCE WITH THE INVESTMENT ADVISERS ACT OF 1940."
2006705,"PNC","300 FIFTH AVENUE, 26TH FLOOR","","PITTSBURGH","PA","United States","15222","N","8887262265","","A third-party unaffiliated record keeper","BOOKS AND RECORDS REQUIRED TO BE KEPT IN COMPLIANCE WITH THE INVESTMENT ADVISERS ACT OF 1940."
1994809,"BOX, INC.","900 JEFFERSON AVE.","","REDWOOD CITY","CA","United States","94063","N","8777294269","","A third-party unaffiliated record keeper","GENERAL BOOKS AND RECORDS GENERATED DURING THE NORMAL COURSE OF BUSINESS AND REQUIRED TO BE MAINTAINED UNDER THE INVESTMENT ADVISERS ACT OF 1940, AS AMENDED."
2003317,"CARTA INVESTOR SERVICES, INC.","333 BUSH STREET, FLOOR 23, STE. 2300","","SAN FRANCISCO","CA","United States","94104","N","(650) 669-8381","","A third-party unaffiliated record keeper","CARTA SERVES AS THE FUND ADMINISTRATOR. IN THIS CAPACITY, CARTA MAINTAINS CERTAIN FUND DOCUMENTS AND OTHER BOOKS AND RECORDS."
2005569,"RACKSPACE","10 EXCHANGE PLACE","","JERSEY CITY","NJ","United States","07302","N","201-792-1918","","A third-party unaffiliated record keeper","RACKSPACE IS OUR VENDOR FOR EMAIL RETENTION."
2005569,"SS&C TECHNOLOGIES, INC","4 TIMES SQUARE","","NEW YORK","NY","United States","10036","N","646-713-0601","","A third-party unaffiliated record keeper","SS&C TECHNOLOGIES IS A THIRD PARTY ADMINISTRATOR TO CERTAIN OF OUR CLIENTS.  IN THAT CAPACITY, SS&C TECHNOLOGIES MAINTAINS INVESTOR AND FINANCIAL RECORDS."
2006759,"IQEQ","250 WEST 57TH STREET","10TH FLOOR","NEW YORK","NY","United States","10107","N","212-532-1140","","Other","IQEQ RECONCILES AND MAINTAINS NORBURY PARTNERS LP'S ACCOUNTING SYSTEM."
2006759,"SS&C TECHNOLOGIES INC.","151 W. 42ND ST.","6TH FLOOR","NEW YORK","NY","United States","10036","N","646-971-5000","","A third-party unaffiliated record keeper","SS&C TECHNOLOGIES INC. SERVES AS THE FUND ADMINISTRATOR FOR THE PRIVATE FUND ADVISED BY NORBURY PARTNERS LP."
2001811,"10,000 DAYS CAPITAL MANAGEMENT LLC","305 12TH STREET","","CARRIZOZO","NM","United States","88301","N","(646) 504-6550","","One of your branch offices or affiliates","RESEARCH MATERIALS AND CERTAIN OTHER FUND-RELATED RECORDS STORED ELECTRONICALLY."
2001811,"TMF SAN DIEGO LLC","6005 HIDDEN VALLEY RD.","SUITE 200","CARLSBAD","CA","United States","92011","N","310-321-7665","","A third-party unaffiliated record keeper","OFFICIAL BOOKS AND RECORDS PERTAINING TO THE FUND'S FINANCIAL INFORMATION, PERFORMANCE INFORMATION, ETC."
2001811,"10,000 DAYS CAPITAL MANAGEMENT LLC","1300 AVENIDA DE MESILLA","SUITE 225","LAS CRUCES","NM","United States","88005","N","(646) 504-6550","","One of your branch offices or affiliates","RESEARCH MATERIALS AND CERTAIN OTHER FUND-RELATED RECORDS STORED ELECTRONICALLY."
1977797,"AZTEC FINANCIAL SERVICES (JERSEY) LIMITED","AZTEC GROUP HOUSE","IFC6, THE ESPLANADE","ST HELIER","","Jersey","JE4 0QH","N","00441534833000","00441534833033","A third-party unaffiliated record keeper","MINUTE BOOKS AND STATUTORY RECORDS"
1977797,"ACCESSION CAPITAL PARTNERS GMBH","KOHLMARKT 5/6","","VIENNA","","Austria","A-1010","N","00431532899022","00431532899020","One of your branch offices or affiliates","COPIES OF FINANCIAL STATEMENTS, COPIES OF INVESTOR CORRESPONDENCE AND COPIES OF FUND DOCUMENTS"
1998812,"AMAZON.COM INC.","410 TERRY AVENUE NORTH","","SEATTLE","WA","United States","98109","N","206-266-1000","","A third-party unaffiliated record keeper","THE FIRM PROVIDES CLOUD STORAGE SERVICES FOR CLIENT FILES."
1998812,"SMARSH, INC.","851 SW 6TH AVE, SUITE 800","","PORTLAND","OR","United States","97204","N","866-762-7741","","Other","RETENTION OF ELECTRONIC MESSAGES"
1991659,"AZTEC FINANCIAL SERVICES (GUERNSEY) LTD","TRAFALGAR COURT LES BANQUES","","ST PETER PORT","","Guernsey","GY1 3PP","N","+44 1481 74970","","A third-party unaffiliated record keeper","FUND BOOKS AND RECORDS"
2001853,"LICCAR FUND SERVICES C/O WEWORK","222 S RIVERSIDE PLAZA","SUITE 1500","CHICAGO","IL","United States","60606","N","312-922-6600","","A third-party unaffiliated record keeper","BOOKS AND RECORDS RELATED TO FINANCIAL INFORMATION IN RESPECT OF POOLED INVESTMENT VEHICLES, HELD BY THE ADMINISTRATOR."
2001853,"MAPLES FUND SERVICES (CAYMAN) LIMITED","P.O. BOX 309","UGLAND HOUSE, SOUTH CHURCH STREET","GRAND CAYMAN","","Cayman Islands","KY1-1104","N","345-945-7099","345-945-7100","A third-party unaffiliated record keeper","BOOKS AND RECORDS RELATED TO REGISTERED OFFICE AND CAYMAN ISLANDS REGULATORY INFORMATION FOR CERTAIN OF THE OFFSHORE POOLED INVESTMENT VEHICLES."
2001853,"AIR T, INC. IT SERVICES","5000 WEST 36TH STREET","SUITE 200","MINNEAPOLIS","MN","United States","55416","N","800-752-1382","","One of your branch offices or affiliates","LOCATION OF ADVISER'S ELECTRONIC FILES AND COMMUNICATIONS ARCHIVING SERVICE MANAGED BY THIRD PARTY PROVIDER."
1992519,"IRON MOUNTAIN SINGAPORE PTE LTD","22 TUAS AVENUE 2","","SINGAPORE","","Singapore","639453","N","+6568623933","+6568620060","A third-party unaffiliated record keeper","ARCHIVED BOOKS AND RECORDS UNDER RULE 204-2"
1992519,"IRON MOUNTAIN","3576 MOLINE STREET","","AURORA","CO","United States","80010","N","(303) 373-0557","(720) 374-8104","A third-party unaffiliated record keeper","ARCHIVED BOOKS AND RECORDS UNDER RULE 204-2"
1992519,"WILMINGTON TRUST NA","350 PARK AVENUE","9TH FLOOR","NEW YORK","NY","United States","10022","N","(877) 566-3022","","A third-party unaffiliated record keeper","BOOKS AND RECORDS UNDER RULE 204-2"
1992519,"IRON MOUNTAIN","3500 N. WINDSOR DRIVE","3500 N. WINDSOR DRIVE","AURORA","CO","United States","80011","N","3033730557","7203748104","A third-party unaffiliated record keeper","BOOKS AND RECORDS UNDER RULE 204-2"
1992519,"JANUS HENDERSON INVESTORS US LLC","100 BAYVIEW CIRCLE","SUITE 505","NEWPORT BEACH","CA","United States","92660","N","(303) 336-7535","(949) 706-0375","One of your branch offices or affiliates","BOOKS AND RECORDS UNDER RULE 204-2"
1992519,"JANUS HENDERSON INVESTORS US LLC","152 W. 57TH STREET","FLOOR 43 SUITE B","NEW YORK","NY","United States","10019-3310","N","800.525.3713","","One of your branch offices or affiliates","BOOKS AND RECORDS UNDER RULE 204-2"
1992519,"STATE STREET BANK AND TRUST COMPANY","JOSIAH QUINCY BUILDING","200 NEWPORT AVENUE","NORTH QUINCY","MA","United States","02171","N","617-786-3000","","A third-party unaffiliated record keeper","ARCHIVED BOOKS AND RECORDS UNDER RULE 204-2"
1992519,"CHICAGO RECORDS MANAGEMENT","3815 CARNATION STREET","","FRANKLIN PARK","IL","United States","60131","N","(847) 678-0002","(847) 678-0065","A third-party unaffiliated record keeper","BOOKS AND RECORDS UNDER RULE 204-2"
1992519,"BNP PARIBAS","787 SEVENTH AVENUE","","NEW YORK","NY","United States","10014","N","(212) 841-3000","","A third-party unaffiliated record keeper","ARCHIVED BOOKS AND RECORDS UNDER RULE 204-2"
1992519,"STATE STREET KANSAS CITY","801 PENNSYLVANIA AVENUE","TOWER I","KANSAS CITY","MO","United States","64105","N","(816) 871-4100","","A third-party unaffiliated record keeper","ARCHIVED BOOKS AND RECORDS UNDER RULE 204-2"
1992519,"HENDERSON MANAGEMENT SA","2 RUE DE BITBOURG","","LUXEMBOURG","","Luxembourg","L-1273","N","+3522615061","","One of your branch offices or affiliates","BOOKS AND RECORDS UNDER RULE 204-2"
1992519,"NORTHEAST RETIREMENT SERVICES, LLC","12 GILL STREET","SUITE 2600","WOBURN","MA","United States","01801","N","781-838-9595","","A third-party unaffiliated record keeper","BOOKS AND RECORDS UNDER RULE 204-2"
1992519,"IRON MOUNTAIN","3900 NOME STREET","UNITS A&J","DENVER","CO","United States","80239","N","3033730557","7203748104","A third-party unaffiliated record keeper","BOOKS AND RECORDS UNDER RULE 204-2"
1992519,"BNP PARIBAS FINANCIAL SERVICES","720 S. COLORADO BOULEVARD","SUITE 8005","DENVER","CO","United States","80246","N","(303) 782-4200","","A third-party unaffiliated record keeper","ARCHIVED BOOKS AND RECORDS UNDER RULE 204-2"
1992519,"JANUS HENDERSON INVESTORS US LLC","71 S. WACKER DR.","STE 3410","CHICAGO","IL","United States","60606","N","1(800) 525 371","","One of your branch offices or affiliates","BOOKS AND RECORDS UNDER RULE 204-2"
1992519,"STATE STREET AUSTRALIA LIMITED","420 GEORGE STREET","","SYDNEY, NEW SOUTH WALES","","Australia","2000","N","+61282491100","","A third-party unaffiliated record keeper","ARCHIVED BOOKS AND RECORDS UNDER RULE 204-2"
1992519,"BNP PARIBAS ACTING THROUGH THE NEW YORK BRANCH C/O BNP RCC","525 WASHINGTON BOULEVARD","7TH FLOOR","JERSEY CITY","NJ","United States","07310","N","(201) 850-4689","","A third-party unaffiliated record keeper","ARCHIVED BOOKS AND RECORDS UNDER RULE 204-2"
1992519,"JP MORGAN","NEWENHAM HOUSE, NORTHERN CROSS","MALAHIDE ROAD","DUBLIN","","Ireland","17","N","+35316123038","35318458634","A third-party unaffiliated record keeper","BOOKS AND RECORDS UNDER RULE 204-2"
1992519,"JANUS HENDERSON INVESTORS US LLC","17 OLD KINGS HIGHWAY SOUTH","SUITE 100","DARIEN","CT","United States","06820","N","(800) 624-5906","","One of your branch offices or affiliates","BOOKS AND RECORDS UNDER RULE 204-2"
1992519,"IRON MOUNTAIN","11333 E. 53RD AVENUE","","DENVER","CO","United States","80239","N","(303) 373-0557","(720) 374-8104","A third-party unaffiliated record keeper","ARCHIVED BOOKS AND RECORDS UNDER RULE 204-2"
1992519,"ALPS PRICE MEADOWS, A DIVISION OF ALPS FUND SERVICES, INC.","11747 NE FIRST STREET","SUITE 202","BELLEVUE","WA","United States","98005","N","(425) 454-3770","(425) 646-3440","A third-party unaffiliated record keeper","BOOKS AND RECORDS UNDER RULE 204-2"
1992519,"STATE STREET CORPORATION, STATE STREET GLOBAL ADVISORS, INC., STATE STREET GLOBAL MARKETS, LLC CORPORATEHEADQUARTERS","STATE STREET FINANCIAL CENTER","ONE LINCOLN STREET","BOSTON","MA","United States","02111","N","(617) 786-3000","","A third-party unaffiliated record keeper","ARCHIVED BOOKS AND RECORDS UNDER RULE 204-2"
1992519,"IRON MOUNTAIN","5151 E. 46TH AVENUE","","DENVER","CO","United States","80216","N","(303) 373-0557","(720) 374-8104","A third-party unaffiliated record keeper","ARCHIVED BOOKS AND RECORDS UNDER RULE 204-2"
1992519,"JP MORGAN","200 CAPITAL DOCK","79 SIR JOHN ROGERSON'S QUAY","DUBLIN","","Ireland","2","N","+35316123000","+35318458634","A third-party unaffiliated record keeper","BOOKS AND RECORDS UNDER RULE 204-2"
1992519,"BNP PARIBAS","55 MOORGATE","","LONDON","","United Kingdom","EC2R 6PA","N","+442041104265","+442074775849","A third-party unaffiliated record keeper","BOOKS AND RECORDS UNDER RULE 204-2"
1992519,"IRON MOUNTAIN","3344 MOLINE STREET","","AURORA","CO","United States","80010","N","3033730557","7203748104","A third-party unaffiliated record keeper","BOOKS AND RECORDS UNDER RULE 204-2"
1992519,"SEI TRUST COMPANY","1 FREEDOM VALLEY DRIVE","","OAKS","PA","United States","19456","N","(610) 676-2081","(484) 676-2081","A third-party unaffiliated record keeper","BOOKS AND RECORDS UNDER RULE 204-2"
1992519,"STATE STREET BANK AND TRUST COMPANY","JOHN ADAMS BUILDING","1776 HERITAGE DRIVE","NORTH QUINCY","MA","United States","02171","N","617-786-3000","","A third-party unaffiliated record keeper","ARCHIVED BOOKS AND RECORDS UNDER RULE 204-2"
1992519,"JANUS HENDERSON INVESTORS (SINGAPORE) LIMITED","138 MARKET STREET","#34-03/04","SINGAPORE","","Singapore","048946","N","+6568131000","+6562210039","One of your branch offices or affiliates","BOOKS AND RECORDS UNDER RULE 204-2"
1992519,"STATE STREET TRUST COMPANY CANADA","18 KING STREET EAST","","TORONTO, ONTARIO","","Canada","M5C 1C4","N","416-362-1100","","A third-party unaffiliated record keeper","ARCHIVED BOOKS AND RECORDS UNDER RULE 204-2"
1992519,"JANUS HENDERSON INVESTORS US LLC","53 STATE STREET","SUITE 2104","BOSTON","MA","United States","02109","N","(800) 525-3713","(877) 319-3852","One of your branch offices or affiliates","BOOKS AND RECORDS UNDER RULE 204-2"
1992519,"JANUS HENDERSON INVESTORS UK LIMITED","201 BISHOPSGATE","","LONDON","","United Kingdom","EC2M 3AE","N","+442078181818","+442078187284","One of your branch offices or affiliates","BOOKS AND RECORDS UNDER RULE 204-2"
1992519,"JANUS HENDERSON INVESTORS INTERNATIONAL LIMITED","201 BISHOPSGATE","","LONDON","","United Kingdom","EC2M 3AE","N","+442078181818","+442078181819","One of your branch offices or affiliates","BOOKS AND RECORDS UNDER RULE 204-2"
2001729,"CAPITAL Q MANAGEMENT","100 EAST FAITH TERRACE","SUITE 1016","MAITLAND","FL","United States","32751","N","407-307-2277","","Other","ALL BOOKS AND RECORDS"
2000375,"(GEN II SERVICES (UK) LIMITED)","8 SACKVILLE STREET","","LONDON","","United Kingdom","W1S 3DG","N","4420301909000","","A third-party unaffiliated record keeper","FUND ADMINISTRATOR - HISTORICAL FUND RECORDS INCLUDING PERFORMANCE AND FEE CALCULATION INFORMATION, SUBSCRIPTION DOCUMENTS AND CAPITAL CALLS AND DISTRIBUTION INFORMATION."
2000375,"LANGHAM HALL LUXEMBOURG S.ÀR.L.","42-44 AVENUE DE LA GARE","","LUXEMBOURG","","Luxembourg","L-1610","N","352 27 85 1527","","A third-party unaffiliated record keeper","FUND ADMINISTRATOR - HISTORICAL FUND RECORDS INCLUDING PERFORMANCE AND FEE CALCULATION INFORMATION, SUBSCRIPTION DOCUMENTS AND CAPITAL CALLS AND DISTRIBUTION INFORMATION."
1995312,"NAV FUND ADMNISTRATION GROUP","1 TRANS AM PLAZA DRIVE","SUITE 400","OAKBROOK TERRACE","IL","United States","60181","N","1.630.954.1919","1.630.596.8555","A third-party unaffiliated record keeper","GENERAL LEDGER, FINANCIAL STATEMENTS, INVESTMENT DOCUMENTS AND FORMATION DOCUMENTS."
2002120,"PRICE BAILEY LLP","ANGLIA HOUSE, 6 CENTRAL AVENUE","ST ANDREWS BUSINESS PARK THORPE","ST ANDREW","","United Kingdom","NR7 0HR","N","441603567845","","Other","CLIENT ADMINISTRATIVE AND ACCOUNTING RECORDS, COPIES OF WHICH WILL BE MADE AVAILABLE PROMPTLY UPON REQUEST OF THE APPLICANT IN RESPONSE TO ANY REQUEST BY THE STAFF OF THE SECURITIES AND EXCHANGE COMMISSION."
2002120,"ADURO ADVISORS LLC","2420, 17TH STREET, SUITE 240","","DENVER","CO","United States","80202","N","6502832679","","Other","CLIENT ADMINISTRATIVE AND ACCOUNTING RECORDS, COPIES OF WHICH WILL BE MADE AVAILABLE PROMPTLY UPON REQUEST OF THE APPLICANT IN RESPONSE TO ANY REQUEST BY THE STAFF OF THE SECURITIES AND EXCHANGE COMMISSION."
2002199,"CARTA, INC.","333 BUSH STREET","SUITE 2300","SAN FRANCISCO","CA","United States","94104","N","801-890-7542","","A third-party unaffiliated record keeper","FUND ADMINISTRATOR"
2002861,"STANDISH MANAGEMENT LLC","1676 N. CALIFORNIA BLVD.","SUITE 400","WALNUT CREEK","CA","United States","94596","N","858-869-1099","","Other","BOOKS AND RECORDS OF CLIENT ACCOUNT AND DOCUMENTS."
2002013,"NORTHERN TRUST GLOBAL FUND SERVICES CAYMAN LIMITED","BOX 1348","","GRAND CAYMAN","","Cayman Islands","KY1-1108","N","3459435499","","A third-party unaffiliated record keeper","RECORD OF THE FUNDS' VALUATION AND INVESTORS' DEALING RELATED DOCUMENTS"
2002013,"SS&C FUND SERVICES (ASIA) PTE. LTD.","1 RAFFLES QUAY","#29-01 NORTH TOWER","SINGAPORE","","Singapore","048583","N","+65 8001014051","","A third-party unaffiliated record keeper","RECORD OF THE FUNDS' VALUATION AND INVESTORS' DEALING RELATED DOCUMENTS"
2002012,"NORTHERN TRUST GLOBAL FUND SERVICES CAYMAN LIMITED","BOX 1348","","GRAND CAYMAN","","Cayman Islands","KY1-1108","N","3459435499","","A third-party unaffiliated record keeper","RECORD OF THE FUNDS' VALUATION AND INVESTORS' DEALING RELATED DOCUMENTS"
2002012,"SS&C FUND SERVICES (ASIA) PTE. LTD.","1 RAFFLES QUAY","#29-01 NORTH TOWER","SINGAPORE","","Singapore","048583","N","+65 8001014051","","A third-party unaffiliated record keeper","RECORD OF THE FUNDS' VALUATION AND INVESTORS' DEALING RELATED DOCUMENTS"
2000192,"MIRAE ASSET GLOBAL INVESTMENTS (USA) LLC","1212 AVENUE OF THE AMERICAS","10TH FLOOR","NEW YORK","NY","United States","10036","N","212-205-8300","212-205-8388","One of your branch offices or affiliates","CERTAIN RECORDS RELATED TO VENTURE CAPITAL FUND OPERATIONS"
2003413,"OASIS GROUP","UNIT 20 ASHBOURNE BUSINESS PARK","CO. MEATH","ASHBOURNE","","Ireland","A84 YE03","N","+35318358840","","A third-party unaffiliated record keeper","DOCUMENTATION KEPT AT THE FILE STORES IN NON-CRITICAL INFORMATION THAT IS OVER THREE YEARS OLD."
2003413,"KEFRON LIMITED","53 PARK WEST ROAD","","DUBLIN 12","","Ireland","D12 F8RK","N","353 1 438 0200","","A third-party unaffiliated record keeper","DOCUMENTATION KEPT AT THE FILE STORES IN NON-CRITICAL INFORMATION THAT IS OVER THREE YEARS OLD."
2004023,"GESTADOR SA","ROUTE D'ARLON","19-21 8009","STRASSEN","","Luxembourg","","N","+352 44 30 64","","One of your branch offices or affiliates","FIRM RECORDS"
2005066,"EMERALD DEVELOPMENT MANAGERS LP","FLOOR 18","909 THIRD AVENUE","NEW YORK","NY","United States","10022-4745","N","212-317-2250","212-317-2255","A third-party unaffiliated record keeper","ALL RECORDS OF REGISTRANT ARE HELD IN SECURE FORM ON MICROSOFT ONEDRIVE, WHICH IS MANAGED BY REGISTRANT'S TECH SUPPORT CONTRACTOR WHOSE ADDRESS IS SET FORTH HERE"
2004048,"LAB LUXEMBOURG S.A.","2-4, RUE EDMOND REUTER","","CONTERN","","Luxembourg","5326","N","+352 350 222 9","","A third-party unaffiliated record keeper","ARCHIVING PROVIDER WHICH HANDLES ALL TYPES OF ARCHIVING RELEVANT DOCUMENTS (TRANSACTION RELEVANT DATA, FINANCIALS)"
2004048,"BRS ALADDIN","MIRCOSOFT CORPORATION, AZURE WEST US 2","1515 PORT INDUSTIAL WAY","QUINCY","WA","United States","98848","N","833-538-1100","","A third-party unaffiliated record keeper","ORDER MANAGEMENT, TRADING, RESEARCH AND INVESTMENT GUIDELINE MONITORING SYSTEM"
2004547,"PAUL HASTINGS LLP","200 PARK AVENUE","","NEW YORK","NY","United States","10166","N","2123186000","2123194090","A third-party unaffiliated record keeper","EXTERNAL FUND COUNSEL; CLIENT/INVESTOR SUBSCRIPTION RELATED MATERIALS"
2004547,"DEBEVOISE & PLIMPTON LLP","65 GRESHAM STREET","","LONDON","","United Kingdom","EC2V 7NQ","N","02077869000","","A third-party unaffiliated record keeper","EXTERNAL LAW FIRM; INVESTMENT/TRANSACTION DOCUMENTATION"
2004547,"INTERTRUST GROUP","77 ROBINSON ROAD","","SINGAPORE","","Singapore","068896","N","65 6500 6400","","A third-party unaffiliated record keeper","ADMINISTRATION SERVICES"
2004547,"SIMMONS & SIMMONS LLP","QUARRY BAY, ONE TAIKOO PLACE","979 KING'S ROAD, 30TH FLOOR","HONG KONG","","Hong Kong","","N","85228681131","","A third-party unaffiliated record keeper","COUNSEL FOR MATTERS IN HK"
2004547,"THE ID REGISTER","5TH FLOOR, MARKET BUILDING, FOUNTAIN STREET","","ST. PETER PORT","","Guernsey","GY1 1BX","N","+447781102893","","A third-party unaffiliated record keeper","OUTSOURCED AML PROVIDER"
2004547,"SIMMONS & SIMMONS LLP","168 ROBINSON ROAD","CAPITAL TOWER","SINGAPORE","","Singapore","068912","N","65 6831 5600","","A third-party unaffiliated record keeper","COUNSEL FOR MATTERS IN SINGAPORE"
2004547,"HANNES SNELLMAN ATTORNEYS LTD","KUNGSTRÄDGÅRDSGATAN 20","P.O. BOX 7801","STOCKHOLM","","Sweden","11147-10396","N","46760000000","46086798511","A third-party unaffiliated record keeper","EXTERNAL FUND COUNSEL; CLIENT/INVESTOR SUBSCRIPTION RELATED MATERIALS"
2004547,"HOGAN LOVELLS (LUXEMBOURG) LLP","52 BOULEVARD MARCEL CAHEN","","LUXEMBOURG CITY","","Luxembourg","L-1311","N","352264260","35226426999","A third-party unaffiliated record keeper","EXTERNAL FUND COUNSEL; CLIENT/INVESTOR SUBSCRIPTION RELATED MATERIALS"
2004547,"JONES DAY","77 WEST WACKER DRIVE","","CHICAGO","IL","United States","60601","N","13127823939","","A third-party unaffiliated record keeper","EXTERNAL LAW FIRM; INVESTMENT/TRANSACTION DOCUMENTATION"
2004547,"KELLY'S STORAGE LTD","WESTFIELD ROAD","","GUILDFORD","","United Kingdom","GU1 1SB","N","+44 1483447259","","A third-party unaffiliated record keeper","VARIOUS GENERAL BUSINESS RECORDS APPROPRIATE FOR OFF-SITE STORAGE UNDER APPLICABLE LAW"
2004547,"HOGAN LOVELLS US LLP","555 13TH STREET NW","","WASHINGTON","DC","United States","20004","N","12026375600","","A third-party unaffiliated record keeper","EXTERNAL LAW FIRM; INVESTMENT/TRANSACTION DOCUMENTATION"
2004547,"KIM & CHANG","39, SAJIK-RO 8-GIL, JONGNO-GU","","SEOUL","","Korea, South","03170","N","+82237031114","+8227379091","A third-party unaffiliated record keeper","EXTERNAL LAW FIRM; KOREAN REGISTRATION MATTERS"
2004547,"PANTHEON VENTURES (IRELAND) DESIGNATED ACTIVITY COMPANY","ELLA HOUSE","39-43 MERRION SQUARE EAST","DUBLIN 2","","Ireland","D02 NP96","N","353(1)6426566","","One of your branch offices or affiliates","VARIOUS GENERAL BUSINESS RECORDS APPROPRIATE FOR OFF-SITE STORAGE UNDER APPLICABLE LAW"
2004547,"HOGAN LOVELLS INTERNATIONAL LLP","ATLANTIC HOUSE","HOLBORN VIADUCT","LONDON","","United Kingdom","EC1A 2FG","N","+442072962000","","A third-party unaffiliated record keeper","EXTERNAL LAW FIRM; INVESTMENT/TRANSACTION DOCUMENTATION"
2004547,"PANTHEON VENTURES (US) LP","555 CALIFORNIA STREET","SUITE 3450","SAN FRANCISCO","CA","United States","94104","N","4152496200","","One of your branch offices or affiliates","VARIOUS GENERAL BUSINESS RECORDS APPROPRIATE FOR OFF-SITE STORAGE UNDER APPLICABLE LAW"
2004547,"K&L GATES LLP","9 RAFFLES PLACE","#32-00 REPUBLIC PLAZA","SINGAPORE","","Singapore","048619","N","+6567130200","","A third-party unaffiliated record keeper","VARIOUS GENERAL BUSINESS RECORDS APPROPRIATE FOR OFF-SITE STORAGE UNDER APPLICABLE LAW"
2004547,"MORGAN LEWIS & BOCKIUS LLP","ONE MARKET, SPEAR STREET TOWER","","SAN FRANCISCO","CA","United States","94105-1596","N","415-442-1000","415-442-1001","A third-party unaffiliated record keeper","VARIOUS GENERAL BUSINESS RECORDS APPROPRIATE FOR OFF-SITE STORAGE UNDER APPLICABLE LAW"
2004547,"MILBANK LLP","55 HUDSON YARDS","","NEW YORK","NY","United States","10001","N","2125305000","","A third-party unaffiliated record keeper","EXTERNAL LAW FIRM; INVESTMENT/TRANSACTION DOCUMENTATION"
2004547,"LOYENS & LOEFF LUXEMBOURG S.À R.L","18-20, RUE EDWARD STEICHEN","","LUXEMBOURG CITY","","Luxembourg","L-2540","N","352 46 62 30","","A third-party unaffiliated record keeper","VARIOUS GENERAL BUSINESS RECORDS APPROPRIATE FOR OFF-SITE STORAGE UNDER APPLICABLE LAW"
2004547,"GLOBAL RELAY","2 ROBERT SPECK PARKWAY","SUITE 500","MISSISSAUGA","","Canada","L4Z 1H8","N","866.484.6630","","A third-party unaffiliated record keeper","VARIOUS GENERAL BUSINESS RECORDS APPROPRIATE FOR OFF-SITE STORAGE UNDER APPLICABLE LAW"
2004547,"TMF GROUP","P.O. BOX 406","GROUND FLOOR, MILL COURT, LA CHARROTERIE","ST PETER PORT","","Guernsey","GY1 3GG","N","4401481742400","4401481715602","A third-party unaffiliated record keeper","VARIOUS GENERAL BUSINESS RECORDS APPROPRIATE FOR OFF-SITE STORAGE UNDER APPLICABLE LAW"
2004547,"COVINGTON & BURLING LLP","620 EIGHTH AVENUE","THE NEW YORK TIMES BUILDING","NEW YORK","NY","United States","10018-1405","N","212.841.1000","","A third-party unaffiliated record keeper","VARIOUS GENERAL BUSINESS RECORDS APPROPRIATE FOR OFF-SITE STORAGE UNDER APPLICABLE LAW"
2004547,"BURNESS PAULL LLP","50 LOTHIAN ROAD","","EDINBURGH","","United Kingdom","EH3 9WJ","N","44131 473 6000","","A third-party unaffiliated record keeper","VARIOUS GENERAL BUSINESS RECORDS APPROPRIATE FOR OFF-SITE STORAGE UNDER APPLICABLE LAW"
2004547,"ACA GROUP","8401 COLESVILLE ROAD","SUITE 700","SILVER SPRING","MD","United States","20910-6340","N","301 495 7850","","A third-party unaffiliated record keeper","CLOUD-BASED STORAGE OF COMPLIANCE DOCUMENTATION RELATING TO CODE OF ETHICS COMPLIANCE ACTIVITIES"
2004547,"WAYSTONE","BROADWALK HOUSE","SOUTHERNHAY WEST","EXETER","","United Kingdom","EX1 1TS","N","+44 (0)1392 47","","A third-party unaffiliated record keeper","EXTERNAL FUND ADMINISTRATOR"
2004547,"MORGAN LEWIS & BOCKIUS LLP","CONDOR HOUSE","5-10 ST. PAUL'S CHURCHYARD","LONDON","","United Kingdom","EC4M 8AL","N","+442032015000","","A third-party unaffiliated record keeper","VARIOUS GENERAL BUSINESS RECORDS APPROPRIATE FOR OFF-SITE STORAGE UNDER APPLICABLE LAW"
2004547,"LUXEMBOURG FUND SERVICES","10 RUE ANTOINE JANS","","LUXEMBOURG CITY","","Luxembourg","L-1820","N","352 27 85 80 5","","A third-party unaffiliated record keeper","EXTERNAL FUND ADMINISTRATOR"
2004547,"MAYER BROWN INTERNATIONAL LLP","201 BISHOPSGATE","","LONDON","","United Kingdom","EC2M 3AF","N","44 2031303000","","A third-party unaffiliated record keeper","EXTERNAL FUND COUNSEL; CLIENT/INVESTOR SUBSCRIPTION RELATED MATERIALS"
2004547,"GRANT THORNTON (GUERNSEY)","LEFEBVRE HOUSE","LEFEBVRE STREET","ST. PETER PORT","","Guernsey","GY1 3TF","N","01481 753400","","A third-party unaffiliated record keeper","EXTERNAL LIQUIDATOR"
2004547,"GOODWIN PROCTOR (UK) LLP","100 CHEAPSIDE","","LONDON","","United Kingdom","EC2V 6DY","N","+442074474200","","A third-party unaffiliated record keeper","EXTERNAL LAW FIRM; CLIENT/INVESTOR SUBSCRIPTION RELATED MATERIALS"
2004547,"ÖZOK LAW","SULEYMAN SEBA CAD. BJK PLAZA","FLOOR: 7 OFFICES: 73/74","BESIKTAS, ISTANBUL","","Turkey","NO:48 BLK A","N","02127038000","","A third-party unaffiliated record keeper","EXTERNAL FUND COUNSEL; CLIENT/INVESTOR SUBSCRIPTION RELATED MATERIALS"
2004547,"COVINGTON & BURLING LLP","22 BISHOPSGATE","","LONDON","","United Kingdom","EC2N 4BQ","N","+442070672000","","A third-party unaffiliated record keeper","VARIOUS GENERAL BUSINESS RECORDS APPROPRIATE FOR OFF-SITE STORAGE UNDER APPLICABLE LAW"
2004547,"BNP PARIBAS","10 HAREWOOD AVENUE","","LONDON","","United Kingdom","NW1 6AA","N","+44 20 7595 20","","A third-party unaffiliated record keeper","EXTERNAL CUSTODIAN AND DEPOSITORY"
2004547,"PROSKAUER ROSE LLP","110 BISHOPGATE","","LONDON","","United Kingdom","EC2N 4AY","N","02072802000","","A third-party unaffiliated record keeper","EXTERNAL LAW FIRM; INVESTMENT/TRANSACTION DOCUMENTATION"
2004547,"MOURANT OZANNES IN GUERNSEY","1 LE MARCHANT STREET","","ST PETER PORT","","Guernsey","GY1 4HP","N","44 1481 723 46","","A third-party unaffiliated record keeper","VARIOUS GENERAL BUSINESS RECORDS APPROPRIATE FOR OFF-SITE STORAGE UNDER APPLICABLE LAW"
2004547,"IRON MOUNTAIN LTD","COWLEY VAULT, ZODIAC BUSINESS PARK","HIGH RD, COWLEY","UXBRIDGE","","United Kingdom","UB8 2GU","N","0844 560 7080","","A third-party unaffiliated record keeper","VARIOUS GENERAL BUSINESS RECORDS APPROPRIATE FOR OFF-SITE STORAGE UNDER APPLICABLE LAW"
2004547,"PAUL HASTINGS LLP","100 BISHOPSGATE","","LONDON","","United Kingdom","EC2N 4AG","N","44 2030235100","44 2030235109","A third-party unaffiliated record keeper","EXTERNAL FUND COUNSEL CLIENT/INVESTOR SUBSCRIPTION RELATED MATERIALS"
2004547,"MICROSOFT AZURE CLOUD SERVICES","1 MICROSOFT WAY","","REDMOND","WA","United States","98052-6399","N","4258828080","4259367329","A third-party unaffiliated record keeper","CLOUD-BASED STORAGE PROVIDER - VARIOUS GENERAL BUSINESS RECORDS APPROPRIATE FOR OFF-SITE STORAGE UNDER APPLICABLE LAW"
2004547,"GOODWIN PROCTER LLP","THE NEW YORK TIMES BUILDING, 620 EIGHTH AVENUE","","NEW YORK","NY","United States","10018","N","12124597462","","A third-party unaffiliated record keeper","EXTERNAL LAW FIRM; INVESTMENT/TRANSACTION DOCUMENTATION"
2004547,"MORGAN LEWIS STAMFORD LLC","10 COLLYER QUAY","#27-00 OCEAN FINANCIAL CENTRE","SINGAPORE","","Singapore","049315","N","+6563893000","","A third-party unaffiliated record keeper","EXTERNAL LAW FIRM; INVESTMENT/TRANSACTION DOCUMENTATION"
2004547,"BAMBOOHR","42 FUTURE WAY","","DRAPER","UT","United States","84020","N","1-866-387-9595","","A third-party unaffiliated record keeper","HR CORE DATA SYSTEM"
2004547,"ELVINGER HOSS PRUSSEN","2, PLACE WINSTON CHURCHILL","","LUXEMBOURG CITY","","Luxembourg","L-1340","N","3524466440","352442255","A third-party unaffiliated record keeper","EXTERNAL FUND COUNSEL CLIENT/INVESTOR SUBSCRIPTION RELATED MATERIALS"
2004547,"STATE STREET BANK INTERNATIONAL GMBH, LUXEMBOURG BRANCH","49 AVE JOHN F. KENNEDY","","LUXEMBOURG CITY","","Luxembourg","1855","N","+352 46 40 101","352464010001","A third-party unaffiliated record keeper","VARIOUS GENERAL BUSINESS RECORDS APPROPRIATE FOR OFF-SITE STORAGE UNDER APPLICABLE LAW"
2004547,"MINTER ELLISON LLP","GOVERNOR MACQUARIE TOWER, 1 FARRER PLACE","LEVEL 40","SYDNEY","","Australia","2000","N","61 299218888","61 299218123","A third-party unaffiliated record keeper","EXTERNAL FUND COUNSEL; CLIENT/INVESTOR SUBSCRIPTION RELATED MATERIALS"
2004547,"GLOBAL RELAY","22 GOSTICK PLACE","","NORTH VANCOUVER","","Canada","V7M 3N2","N","866.484.6630","","A third-party unaffiliated record keeper","VARIOUS GENERAL BUSINESS RECORDS APPROPRIATE FOR OFF-SITE STORAGE UNDER APPLICABLE LAW"
2004547,"STATE STREET GLOBAL SERVICES","1255 BROAD STREET","","CLIFTON","NJ","United States","07013","N","201-703-2600","","A third-party unaffiliated record keeper","VARIOUS GENERAL BUSINESS RECORDS APPROPRIATE FOR OFF-SITE STORAGE UNDER APPLICABLE LAW"
2004547,"MAPLES AND CALDER LLP","SIR WALTER RALEIGH HOUSE, 48-50 ESPLANADE","2ND FLOOR","ST. HELIER","","Jersey","JE2 3QB","N","44 1534671300","44 1534671301","A third-party unaffiliated record keeper","EXTERNAL FUND COUNSEL; CLIENT/INVESTOR SUBSCRIPTION RELATED MATERIALS"
2004547,"AVANTIA LAW LIMITED","21 LOMBARD STREET","CANDLEWICK","LONDON","","United Kingdom","EC3V 9AH","N","+447843497114","","A third-party unaffiliated record keeper","EXTERNAL LAW FIRM; NDAS AND ENGAGEMENT LETTERS"
2004547,"CLIFFORD CHANCE LLP","10 UPPER BANK STREET","","LONDON","","United Kingdom","E14 5JJ","N","+442070061000","","A third-party unaffiliated record keeper","EXTERNAL LAW FIRM; INVESTMENT/TRANSACTION DOCUMENTATION"
2004547,"MATHESON","70 SIR JOHN ROGERSON'S QUAY","DUBLIN DOCKLANDS, DUBLIN 2","DUBLIN","","Ireland","D02 R296","N","353 1 232 2000","353 1 232 3333","A third-party unaffiliated record keeper","COUNSEL FOR MATTERS RELATED TO IRELAND"
2004547,"LINK GROUP - MARKET SERVICES","51 LIME STREET","","LONDON","","United Kingdom","EC3M 7DQ","N","+48 698 201 26","","A third-party unaffiliated record keeper","EXTERNAL MARKET SERVICES"
2004547,"MUFG CORPORATE MARKETS","51 LIME STREET","19TH FLOOR","LONDON","","United Kingdom","EC3M 7DQ","N","+44 0870 402","","A third-party unaffiliated record keeper","EXTERNAL COMPANY MATTERS"
2004547,"SIMPSON THACHER & BARTLETT LLP","425 LEXINGTON AVENUE","","NEW YORK","NY","United States","10017","N","+1-212-455-200","","A third-party unaffiliated record keeper","EXTERNAL FUND COUNSEL"
2003663,"NAV FUND ADMINISTRATION GROUP","1 TRANS AM PLAZA DRIVE","SUITE 400","OAKBROOK TERRACE","IL","United States","60181","N","630-954-1919","630-596-8555","A third-party unaffiliated record keeper","IN ITS CAPACITY AS THIRD-PARTY ADMINISTRATOR, NAV FUND ADMINISTRATION GROUP MAINTAINS CERTAIN BOOKS AND RECORDS FOR ADVISORY CLIENTS OF 2717 PARTNERS LP."
2005022,"BNP PARIBAS BANK & TRUST CAYMAN LIMITED","BUCKINGHAM SQUARE, 3/F, 720 WEST BAY ROAD","P.O. BOX 2003","GRAND CAYMAN","","Cayman Islands","KY1-1104","N","1-345-949-7942","","A third-party unaffiliated record keeper","RELEVANT DOCUMENTATION IN RESPECT OF EACH OF PEDDER STREET ASIA ABSOLUTE RETURN MASTER FUND LIMITED AND PEDDER STREET ASIA ABSOLUTE RETURN FUND LIMITED"
2005022,"BNP PARIBAS, ACTING THROUGH IT HONG KONG BRANCH","21/F, PCCW TOWER, TAIKOO PLACE","979 KING'S ROAD, QUARRY BAY","HONG KONG","","Hong Kong","","N","852-2909-8888","852-2521-7653","A third-party unaffiliated record keeper","RELEVANT DOCUMENTATION IN RESPECT OF EACH OF PEDDER STREET ASIA ABSOLUTE RETURN MASTER FUND LIMITED, PEDDER STREET ASIA ABSOLUTE RETURN FUND LIMITED, THE FAR EAST VALUE MASTER FUND LIMITED AND THE FAR EAST VALUE FUND LIMITED"
2004728,"CORODATA","740 NATIONAL CT.","","POINT RICHMOND","CA","United States","94804","N","510-307-7800","510-307-4431","Other","OFFSITE STORAGE FOR CERTAIN REQUIRED BOOKS AND RECORDS RELATED TO THE ADVISER"
2004728,"DISCOVIA","100 CALIFORNIA STREET","SUITE 800","SAN FRANCISCO","CA","United States","94111","N","415-392-2900","415-392-2902","Other","OFFSITE STORAGE FOR CERTAIN REQUIRED BOOKS AND RECORDS RELATED TO THE ADVISER"
2004728,"HEDGEOP COMPLIANCE, LLC","8401 COLESVILLE ROAD, SUITE 700","","SILVER SPRING","MD","United States","20910-6340","N","3014957850","","A third-party unaffiliated record keeper","CLOUD-BASED STORAGE OF COMPLIANCE DOCUMENTATION RELATING TO CODE OF ETHICS COMPLIANCE ACTIVITIES."
2004728,"GLOBAL RELAY COMMUNICATIONS, INC.","220 CAMBIE STREET","2ND FLOOR","VANCOUVER","","Canada","BC V6B 2M9","N","604-484-6630","604-608-2941","Other","RECORD RETENTION AND BACKUP SERVICES WITH RESPECT TO EMAILS AND INSTANT MESSAGES."
2004728,"HC GLOBAL FUND SERVICES, LLC","312 SUTTER STREET","SUITE 601","SAN FRANCISCO","CA","United States","94108","N","415-796-7521","415-796-7698","A third-party unaffiliated record keeper","HC GLOBAL FUND SERVICES, LLC IS AN UNAFFILIATED THIRD PARTY ADMINISTRATOR FOR CERTAIN OF THE ADVISER'S PRIVATE FUND(S).  HC GLOBAL FUND SERVICES, LLC MAINTAINS THE ACCOUNTING AND ADMINISTRATIVE BOOKS AND RECORDS, INCLUDING THE GENERAL LEDGER, FOR THOSE PRIVATE FUND(S)."
1997006,"ATOZ SERVICES","1A, HEIENHAFF","","LUXEMBOURG","","Luxembourg","L-1736","N","+352 26 94 67","","Other","INDEPENDENT FUND ADMINISTRATOR MAINTAINING CERTAIN BOOKS AND RECORDS"
2000784,"MORGAN STANLEY FUND SERVICES (CAYMAN) LTD.","27 HOSPITAL ROAD","","GEORGE TOWN","","Cayman Islands","KY1-9008","N","(914) 225-8885","(914) 729-7361","A third-party unaffiliated record keeper","MORGAN STANLEY FUND SERVICES (CAYMAN) LTD. IS THE INDEPENDENT FUND ADMINISTRATOR TO THE PRIVATE FUNDS ADVISED BY IMMERSION CAPITAL LLP AND MAINTAINS CERTAIN OF THE PRIVATE FUNDS' ACCOUNTING BOOKS AND RECORDS."
2002055,"SS&C GLOBEOP","1301 6TH AVE.","","NEW YORK","NY","United States","10019","N","(212)403-9500","","A third-party unaffiliated record keeper","INVESTOR-FACING RECORDS AS ADMINISTRATOR TO FORUM'S PRIVATE FUNDS."
2002055,"ONESECURE TECHNOLOGY LLC","111 PENN STREET","SUITE 202","EL SEGUNDO","CA","United States","90254","N","8008519195","","Other","CLOUD BACKUP OF ALL CT (MAIN OFFICE) SERVER DATA."
1999867,"TRICOR SINGAPORE PTE LTD","9 RAFFLES PLACE","#26-01 REPUBLIC PLAZA","SINGAPORE","","Singapore","048619","N","(65) 62363333","(65) 62364399","A third-party unaffiliated record keeper","GENERAL LEDGER, INCOME STATEMENTS, BALANCE SHEET DETAILS AND JOURNAL VOUCHERS"
2003750,"AVANZ CAPITAL MANAGEMENT LLC","","","","","","","Y","202-536-2410","","Other","EXECUTIVE RESIDENCE."
2005137,"MORGAN STANLEY FUND SERVICES (IRELAND) LIMITED","24 - 26 CITY QUAY","","DUBLIN","","Ireland","D02 NY19","N","+353 1799 8700","","A third-party unaffiliated record keeper","MORGAN STANLEY FUND SERVICES (IRELAND) LIMITED IS THE INDEPENDENT FUND ADMINISTRATOR TO THE PRIVATE FUND MANAGED BY PARDINUS CAPITAL LLP AND MAINTAINS CERTAIN OF THE PRIVATE FUND'S ACCOUNTING BOOKS AND RECORDS."
2005521,"SS&C FUND SERVICES (CAYMAN) LIMITED","39 MARKET STREET SUITE 3205, 2ND FLOOR","GARDENIA COURT, CAMANA BAY","GRAND CAYMAN","","Cayman Islands","KY1-9003","N","+1345943330","","A third-party unaffiliated record keeper","ACCOUNTING BOOKS AND RECORDS AND INVESTOR REGISTRY FOR FUND"
2005521,"SS&C FUND SERVICES (ASIA) PTE LTD","1 RAFFLES QUAY","#29-01 NORTH TOWER","SINGAPORE","","Singapore","048583","N","+65 6768 8283","+65 6768 8298","A third-party unaffiliated record keeper","ACCOUNTING BOOKS AND RECORDS AND INVESTOR REGISTRY FOR FUND"
2005521,"REGAL FUNDS MANAGEMENT PTY LTD","LEVEL 46, GATEWAY","1 MACQUARIE PLACE","SYDNEY","","Australia","2000","N","+61281974333","","One of your branch offices or affiliates","ACCOUNTING BOOKS AND RECORDS FOR FUNDS."
2005521,"APEX FUND SERVICES PTY LTD","LEVEL 10","12 SHELLEY STREET","SYDNEY","","Australia","2000","N","+6128259888","","A third-party unaffiliated record keeper","ACCOUNTING BOOKS AND RECORDS AND INVESTOR REGISTRY FOR FUND"
2005521,"REGAL PARTNERS LIMITED","LEVEL 46, GATEWAY","1 MACQUARIE PLACE","SYDNEY","","Australia","2000","N","+61281974333","","One of your branch offices or affiliates","ACCOUNTING BOOKS AND RECORDS FOR FUNDS."
2005546,"MIMECAST","1 FINSBURY AVE","","LONDON","","United Kingdom","EC2M 2PF","N","+442078478700","","A third-party unaffiliated record keeper","EMAIL ARCHIVE IS STORED IN MIMECAST"
2005696,"VECTOR AIS, LLC","447 SUTTER ST.","STE. 405","SAN FRANCISCO","CA","United States","94108","N","857-957-7773","","A third-party unaffiliated record keeper","FUND ADMINISTRATOR MAINTAINS FINANCIAL RECORDS AND INVESTOR REPORTING INFORMATION"
2005695,"BRASIL CAPITAL USA LLC","19505 BISCAYNE BLVD, SUITE 2350","ROOM 084","AVENTURA","FL","United States","33180","N","+16465658844","","One of your branch offices or affiliates","BC GESTÃO DE RECURSOS LTDA. HAS THIS AFFILIATE THAT MAINTAINS IN ITS OFFICE IN FLORIDA A DUPLICATE SET OF RECORDS ON A CONTRACTUAL BASIS."
2000183,"JUNIPER SQUARE","555 MONTGOMERY ST #1400","","SAN FRANCISCO","CA","United States","94111","N","4158412722","","A third-party unaffiliated record keeper","FINANCIAL RECORDS"
2000183,"GLOBAL RELAY COMMUNICATIONS INC","121 W WACKER","33RD FLOOR","CHICAGO","IL","United States","60601","N","8664846630","","A third-party unaffiliated record keeper","THIRD PARTY ELECTRONIC COMMUNICATIONS RETENTION PROVIDER"
2001100,"MUFG  FUND SERVICES  (CAYMAN) LIMITED","P.O. BOX 609","","GRAND CAYMAN","","Cayman Islands","KY1-1107","N","3457457617","3457457699","A third-party unaffiliated record keeper","MANAGED PRIVATE FUND RECORDS"
2005030,"SYMMETRY INVESTMENTS JERSEY LIMITED","10 LE CAPELAIN HOUSE, CASTLE QUAY","LA RUE DE L'ETAU","ST HELIER","","Jersey","JE2 3EH","N","+442070723100","","One of your branch offices or affiliates","LEGAL, REGULATORY AND BUSINESS RECORDS"
2005030,"STATE STREET FUND SERVICES (IRELAND) LIMITED","78 SIR JOHN ROGERSON'S QUAY","","DUBLIN","","Ireland","2","N","+3531 707 5000","+3531 707 5100","A third-party unaffiliated record keeper","LEGAL, REGULATORY AND BUSINESS RECORDS"
2005030,"SYMMETRY INVESTMENTS SINGAPORE PRIVATE LIMITED","#34-61 ONE RAFFLES PLACE","","SINGAPORE","","Singapore","048616","N","+6565766000","","One of your branch offices or affiliates","LEGAL, REGULATORY AND BUSINESS RECORDS"
2005030,"SYMMETRY INVESTMENTS (HONG KONG) LIMITED","1301, THREE EXCHANGE SQUARE","8 CONNAUGHT PLACE","HONG KONG","","Hong Kong","","N","852 3698 9100","852 2303 5799","One of your branch offices or affiliates","LEGAL, REGULATORY AND BUSINESS RECORDS"
2005030,"SYMMETRY INVESTMENTS LP","10 LE CAPELAIN HOUSE, CASTLE QUAY","LA RUE DE L'ETAU","ST HELIER","","Jersey","JE2 3EH","N","+442070723100","","One of your branch offices or affiliates","LEGAL, REGULATORY AND BUSINESS RECORDS"
2005030,"GLOBAL RELAY COMMUNICATIONS INC.","220 CAMBIE STREET","","VANCOUVER, BC","","Canada","V6B 2M9","N","866-484-6630","","A third-party unaffiliated record keeper","ELECTRONIC COMMUNICATIONS RECORD OF THE BUSINESS OPERATIONS"
2005030,"EQUINIX (UK) LIMITED","COMPUTERSHARE GOVERNANCE SERVICES THE PAVILIONS","BRIDGWATER ROAD","BRISTOL","","United Kingdom","BS13 8FD","N","+44845372900","","A third-party unaffiliated record keeper","DATA CENTER FOR ELECTRONIC STORAGE"
2005030,"SYMMETRY INVESTMENTS CAYMAN LIMITED","OFFICE 1.20, THE WHITE HOUSE","20 GENESIS CL","GEORGE TOWN","","Cayman Islands","KY1-1208","N","+1 345 749 200","","One of your branch offices or affiliates","LEGAL, REGULATORY AND BUSINESS RECORDS"
2005030,"STARCOMPLIANCE OPERATING, LLC","9200 CORPORATE BLVD.","SUITE 440","ROCKVILLE","MD","United States","20850","N","(301)340-3900","(301)340-3906","A third-party unaffiliated record keeper","CERTAIN BOOKS AND RECORDS RELATING TO BUSINESS OPERATION"
2005030,"OPTIONS FINANCIAL TECHNOLOGY PTE LTD","#10-13 & 14, 100 PECK SEAH STREET","PS100 BUILDING","-","","Singapore","079333","N","+6565795000","","A third-party unaffiliated record keeper","DATA CENTER FOR ELECTRONIC STORAGE"
2005030,"OPTIONS TECHNOLOGY LTD","5TH FLOOR, 50 PAUL MALL","","LONDON","","United Kingdom","SW1Y 5JH","N","+442070705000","","A third-party unaffiliated record keeper","DATA CENTER FOR ELECTRONIC STORAGE"
2005030,"SOCIAL MEDIA COMPLIANCE LIMITED D/B/A DEEPVIEW SOLUTIONS","82 STATION ROAD","BISHOPS CLEEVE","CHELTENHAM","","United Kingdom","GL52 8HJ","N","+442033930633","","A third-party unaffiliated record keeper","ELECTRONIC COMMUNICATIONS REQUIRED TO BE MAINTAINED UNDER RULE 204-2 OF THE INVESTMENT ADVISERS ACT OF 1940, AS AMENDED"
2005030,"OPTIONS TECHNOLOGY (ASIA) LTD","UNIT 2202, 100QRC","100 QUEEN'S ROAD CENTRAL","HONG KONG","","Hong Kong","","N","+85231665000","","A third-party unaffiliated record keeper","DATA CENTER FOR ELECTRONIC STORAGE"
1998834,"EAST WEST BANK","","","","","","","Y","929-232-0912","","A third-party unaffiliated record keeper","BOOKS AND RECORDS OF CERTAIN PRIVATE FUNDS ADVISED BY MEIXIN."
1998834,"SMARSH INC.","11 TIMES SQUARE","31ST FLOOR","NEW YORK","NY","United States","10036","N","866-762-7741","","A third-party unaffiliated record keeper","ELECTRONIC MAIL STORAGE"
1998834,"HC GLOBAL FUND SERVICES LLC","312 SUTTER ST","SUITE 601","SAN FRANCISCO","CA","United States","94108","N","4157967520","","A third-party unaffiliated record keeper","BOOKS AND RECORDS OF CERTAIN PRIVATE FUNDS ADVISED BY MEIXIN."
2003061,"NAV CONSULTING INC.","1 TRANS AM PLAZA DRIVE","","OAKBROOK TERRACE","IL","United States","60181","N","(630) 954-1919","","A third-party unaffiliated record keeper","BOOKS AND RECORDS OF CLIENT ACCOUNTS AND DOCUMENTS."
1995793,"MICROSOFT OFFICE 365","ONE MICROSOFT WAY","","REDMOND","WA","United States","98052","N","14258828080","","A third-party unaffiliated record keeper","EMAIL RECORDS AND RETENTION AND OTHER REQUIRED BOOKS AND RECORDS"
1995849,"VIRIDIS FUND SOLUTIONS","100 PAINTERS MILL ROAD","SUITE 600","OWINGS MILLS","MD","United States","21117","N","443-537-1234","410-826-3781","A third-party unaffiliated record keeper","ACCOUNTING AND FINANCIAL RECORDS"
1994370,"CARPEDIEM ADVISORS PRIVATE LIMITED","GB-16, PRAGYA ACCELERATOR PROCESSING AREA GIFT SEZ","GIFT CITY","GANDHINAGAR","","India","382355","N","+9199679740000","","One of your branch offices or affiliates","INVESTOR RECORDS, FINANCIAL RECORDS"
1994370,"CARPEDIEM ADVISORS PRIVATE LIMITED","2ND FLOOR, PARAS DOWNTOWN CENTRE","GOLF COURSE ROAD, SECTOR 53","GURUGRAM","","India","122002","N","+911244249006","","One of your branch offices or affiliates","INVESTOR RECORDS, FINANCIAL RECORDS"
2004017,"GESTADOR SA","ROUTE D'ARLON","19-21 8009","STRASSEN","","Luxembourg","","N","+352 44 30 64","","One of your branch offices or affiliates","FIRM RECORDS"
2001959,"ALLIANZ REAL ESTATE GMBH","CHARLOTTENSTRASSE 3","","STUTTGART","","Germany","70182","N","+4989380068991","","One of your branch offices or affiliates","GENERAL LEDGER, SUB-LEDGERS AND SUPPORTING INFORMATION"
2002622,"NAV CONSULTING, INC.","1 TRANS AM PLAZA DRIVE","SUITE 400","OAKBROOK TERRACE","IL","United States","60181","N","630-954-1919","","Other","FUND BOOKS AND RECORDS"
2001614,"MORGAN STANLEY FUND SERVICES USA LLC","2000 WESTCHESTER AVE.","","PURCHASE","NY","United States","10577","N","(914) 225-8885","","A third-party unaffiliated record keeper","MORGAN STANLEY FUND SERVICES USA LLC IS THE FUND ADMINISTRATOR TO CERTAIN PRIVATE FUND CLIENTS MANAGED BY DAVERN CAPITAL AND MAINTAINS ACCOUNTING BOOKS AND RECORDS FOR SUCH PRIVATE FUND CLIENTS."
2001614,"GLOBAL RELAY","1155 AVENUE OF THE AMERICAS","FLOORS 38-42","NEW YORK","NY","United States","10036","N","1.866.484.6630","","A third-party unaffiliated record keeper","E-MAIL ARCHIVES"
2000680,"STANDISH MANAGEMENT","101 N WACKER DRIVE","SUITE 220","CHICAGO","IL","United States","60606","N","312-548-9799","","A third-party unaffiliated record keeper","STANDISH MANAGEMENT IS THE FUND ADMINISTRATOR. QUICKBOOK FILES AND OTHER FINANCIAL SUPPORT ARE LOCATED HERE."
2006600,"SELF SERVE MINI STORAGE CENTER LIMITED","156 WAI YIP STREET","","KWUN TONG","","Hong Kong","","N","+852 2797 8998","","Other","ARCHIVE OF COPIES OF CERTAIN LIM FUNDS TRADING AND FUND VALUATION RECORDS AND ALSO THE EXEMPT REPORTING ADVISOR'S COMPLIANCE & FINANCE RECORDS."
1998291,"THE BANK OF NEW YORK MELLON","LEVEL 26, THREE PACIFIC PLACE","1 QUEEN'S ROAD EAST","HONG KONG","","Hong Kong","","N","852-28409742","852-25283816","A third-party unaffiliated record keeper","THE INVESTORS' RECORDS OF THE FUNDS MANAGED BY ASIA DEBT MANAGEMENT HONG KONG LIMITED"
1998291,"VISTRA ALTERNATIVE INVESTMENT SERVICES (HONG KONG) LIMITED","19TH FLOOR, LEE GARDEN ONE","33 HYSAN AVENUE","HONG KONG","","Hong Kong","","N","85228484531","85228459198","A third-party unaffiliated record keeper","THE INVESTORS' RECORD FOR THE FUNDS MANAGED BY ASIA DEBT MANAGEMENT HONG KONG LIMITED"
2001296,"SUJITH KALMADI","","","","","","","Y","4802857638","","One of your branch offices or affiliates","ELECTRONIC BOOKS & RECORDS"
2000469,"LANGHAM HALL S.A.R.L.","42-44 AVENUE DE LA GARE","","LUXEMBOURG","","Luxembourg","L-1610","N","+352 2785 1527","","A third-party unaffiliated record keeper","BOOKS AND RECORDS OF PRIVATE FUNDS."
2000469,"PI ACCOUNTING (C/O ANDREW MAY)","44 RUSSELL SQUARE","","LONDON","","United Kingdom","WC1B 4JP","N","+4402036424994","","A third-party unaffiliated record keeper","ACCOUNTING RECORDS OF THE ADVISER."
2000469,"GLOBAL SERVE SA","RUE ADOLPHE FISCHER 7","","LUXEMBOURG","","Luxembourg","1520","N","+352 2880 2897","","A third-party unaffiliated record keeper","BOOKS AND RECORDS OF PRIVATE FUNDS."
2000469,"ALTER DOMUS ALTERNATIVE ASSET FUND ADMINISTRATION SARL","15, BOULEVARD FRIEDRICH WILHELM RAIFFEISEN","","LUXEMBOURG","","Luxembourg","L-2411","N","+35 248 18281","","A third-party unaffiliated record keeper","BOOKS AND RECORDS OF PRIVATE FUNDS."
2000469,"CF FUND SERVICES SA","1B RUE JEAN PIRET","","LUXEMBOURG","","Luxembourg","L-2350","N","+35 245 123777","","A third-party unaffiliated record keeper","BOOKS AND RECORDS OF PRIVATE FUNDS."
2000957,"MUFG FUND SERVICES (CAYMAN) LIMITED","MUFG HOUSE, 227 ELGIN AVENUE","PO BOX 852","GRAND CAYMAN","","Cayman Islands","KY1-1103","N","00 1 345914100","","Other","CLIENT ADMINISTRATIVE AND ACCOUNTING RECORDS, COPIES OF WHICH WILL BE MADE AVAILABLE PROMPTLY IN RESPONSE TO ANY REQUEST BY THE STAFF OF THE U.S. SECURITIES AND EXCHANGE COMMISSION."
2000957,"SS&C PRIVATE EQUITY SERVICES","4 TIMES SQUARE","6TH FLOOR","NEW YORK","NY","United States","10036","N","00 1 914670380","","Other","CLIENT ADMINISTRATIVE AND ACCOUNTING RECORDS, COPIES OF WHICH WILL BE MADE AVAILABLE PROMPTLY IN RESPONSE TO ANY REQUEST BY THE STAFF OF THE U.S. SECURITIES AND EXCHANGE COMMISSION."
2000948,"CITCO FUND ADMINISTRATION (CAYMAN ISLANDS) LIMITED","89 NEXUS WAY, SECOND FLOOR","PO. BOX: 31105","GRAND CAYMAN","","Cayman Islands","KY1-1205","N","1 345 949 3977","","Other","CLIENT ADMINISTRATIVE AND ACCOUNTING RECORDS, COPIES OF WHICH WILL BE MADE AVAILABLE PROMPTLY UPON REQUEST OF THE APPLICANT IN RESPONSE TO ANY REQUEST BY THE STAFF OF THE SECURITIES AND EXCHANGE COMMISSION."
2000948,"MAPLES AND CALDER","UGLAND HOUSE, P.O. BOX 309","","GRAND CAYMAN","","Cayman Islands","K1Y-1104","N","1 345 814 5639","","A third-party unaffiliated record keeper","EVERY CAYMAN COMPANY MUST MAINTAIN A REGISTERED OFFICE IN THE CAYMAN ISLANDS. THE REGISTERED OFFICE USUALLY KEEPS ORIGINALS OF THE INCORPORATION DOCUMENTS, A REGISTER OF DIRECTORS AND OFFICERS, A REGISTER OF MORTGAGES, USUALLY A REGISTER OF MEMBERS AND A MINUTE BOOK IN WHICH ORIGINALS OR COPIES OF ALL MINUTES AND RESOLUTIONS OF DIRECTORS AND SHAREHOLDERS SHOULD BE FILED."
2000948,"SS&C PRIVATE EQUITY SERVICES","4 TIMES SQUARE","6TH FLOOR","NEW YORK","NY","United States","10036","N","1 914 670 3800","","Other","CLIENT ADMINISTRATIVE AND ACCOUNTING RECORDS, COPIES OF WHICH WILL BE MADE AVAILABLE PROMPTLY UPON REQUEST OF THE APPLICANT IN RESPONSE TO ANY REQUEST BY THE STAFF OF THE SECURITIES AND EXCHANGE COMMISSION."
2000948,"MUFG FUND SERVICES CAYMAN LIMITED","227 ELGIN AVENUE, PO BOX 852","","GRAND CAYMAN","","Cayman Islands","KY1-1103","N","1 345 947 3229","","A third-party unaffiliated record keeper","CLIENT ADMINISTRATIVE AND ACCOUNTING RECORDS, COPIES OF WHICH WILL BE MADE AVAILABLE PROMPTLY UPON REQUEST OF THE APPLICANT IN RESPONSE TO ANY REQUEST BY THE STAFF OF THE SECURITIES AND EXCHANGE COMMISSION."
1996777,"BELLTOWER FUND GROUP, LTD","119 SOUTH MAIN STREET","SUITE 220","SEATTLE","WA","United States","98104","N","3603409337","","A third-party unaffiliated record keeper","FUND DOCUMENTS, TRANSACTION RECORDS, WRITTEN COMMUNICATIONS"
1996777,"STANDISH MANAGEMENT, LLC","545 BOYLSTON ST","6TH FLOOR","BOSTON","MA","United States","02116","N","4152736810","","A third-party unaffiliated record keeper","FUND ADMINISTRATOR FOR CERTAIN CLIENTS OF MCJ. ACCOUNTING AND FINANCE RECORDS PRIMARILY MAINTAINED IN THE ARK ACCOUNTING SYSTEM."
2001818,"ALTER DOMUS DEPOSITARY SERVICES S.A.R.L","15, BOULEVARD F.W. RAIFFEISEN","","LUXEMBOURG","","Luxembourg","L-2411","N","352-48-18-28-1","352-48-18-63","Other","DEPOSITARY AND ADMINISTRATOR RECORDS FOR CERTAIN LUXEMBOURG PRIVATE FUNDS"
2001761,"AZTEC FINANCIAL SERVICES (GUERNSEY) LIMITED","EAST WING, TRAFALGAR COURT","LES BANQUES","ST PETER PORT","","Guernsey","GY1 3PP","N","01481749700","01481749749","A third-party unaffiliated record keeper","BOOKS AND RECORDS RELATING TO THE TASK OF FUND ADMINISTRATION.  INFORMATION RELATING TO THE FUND AND ITS INVESTORS."
2002484,"THE STAGWELL GROUP LLC","1808 I STREET NW","FLOOR 6","WASHINGTON","DC","United States","20006","N","(202) 478-4916","","One of your branch offices or affiliates","THIS LOCATION MAINTAINS COMPLETE FINANCIAL BOOKS AND RECORDS, INCLUDING GENERAL LEDGERS, JOURNAL ENTRIES, BANK STATEMENTS, INVESTMENT DOCUMENTATION, TAX FILINGS, SUPPORTING SCHEDULES, AND COMPLIANCE REPORTS. RECORDS ARE ORGANIZED AND RETAINED IN ACCORDANCE WITH APPLICABLE REGULATORY AND INTERNAL POLICY REQUIREMENTS."
2000904,"MORGAN STANLEY FUND SERVICES (CAYMAN) LTD.","THE OBSERVATORY","7-11 SIR JOHN ROGERSON'S QUAY","DUBLIN 2","","Ireland","","N","353-1-799-8777","353-1-518-6334","A third-party unaffiliated record keeper","MORGAN STANLEY FUND SERVICES (CAYMAN) LTD. IS THE INDEPENDENT FUND ADMINISTRATOR TO THE PRIVATE FUNDS ADVISED BY HARBOR SPRING CAPITAL, LLC AND MAINTAINS OFFICIAL BOOKS AND RECORDS FOR THE OFFSHORE FUNDS."
2000904,"MORGAN STANLEY FUND SERVICES USA LLC","2000 WESTCHESTER AVENUE","","PURCHASE","NY","United States","10577","N","914-225-5510","","A third-party unaffiliated record keeper","MORGAN STANLEY FUND SERVICES SERVES AS THE ADMINISTRATOR TO THE PRIVATE INVESTMENT FUNDS MANAGED BY THE APPLICANT AND IN THAT CAPACITY MAINTAINS CERTAIN RECORDS OF THE APPLICANT."
2000809,"PONTIS GLOBAL","WINDWARD 3, REGATTA OFFICE PARK, WEST BAY ROAD","SUITE 115, 1ST FLOOR","GRAND CAYMAN","","Cayman Islands","KY1-9006","N","908 882-0624","","A third-party unaffiliated record keeper","LEDGERS, OTHER BOOKS OF ACCOUNT, AND RECORDS OF RECEIPTS AND DISBURSEMENTS, OTHER FINANCIAL ACTIVITIES, AND THE INTERNAL AFFAIRS OF DRI HEALTHCARE GP, LLC, DRI HEALTHCARE LP, DRC MANAGEMENT III LLC 2, DRC MANAGEMENT III LLC 2, DRI HEALTHCARE ACQUISITIONS LP, AND DRI HEALTHCARE ACQUISITIONS LP 1, OR COPIES THEREOF."
2000809,"INTERTRUST GROUP","2ND FLOOR, VICTORIA BUILDING, 1-2 HADDINGTON ROAD","","DUBLIN 4","","Ireland","D04 XN32","N","353-1-668-6152","","A third-party unaffiliated record keeper","LEDGERS, OTHER BOOKS OF ACCOUNT, AND RECORDS OF RECEIPTS AND DISBURSEMENTS, OTHER FINANCIAL ACTIVITIES, AND THE INTERNAL AFFAIRS OF DRI HEALTHCARE ICAV, OR COPIES THEREOF."
2000809,"HAWKSFORD GOVERNANCE SERVICES CAYMAN LIMITED","3RD FLOOR, ONE CAPITAL PLACE, SHEDDEN ROAD","","GEORGE TOWN","","Cayman Islands","KY1-9006","N","345-769-0297","","A third-party unaffiliated record keeper","LEDGERS, OTHER BOOKS OF ACCOUNT, AND RECORDS OF RECEIPTS AND DISBURSEMENTS, OTHER FINANCIAL ACTIVITIES, AND THE INTERNAL AFFAIRS OF DRI HEALTHCARE GP, LLC, DRI HEALTHCARE LP, DRC MANAGEMENT III LLC 2, DRC MANAGEMENT III LLC 2, DRI HEALTHCARE ACQUISITIONS LP, AND DRI HEALTHCARE ACQUISITIONS LP 1, OR COPIES THEREOF."
2000809,"OSLER, HOSKIN & HARCOURT LLP","FIRST CANADIAN PLACE, P.O. BOX 50","","TORONTO","","Canada","M5X 1B8","N","416-362-2111","416-862-6666","A third-party unaffiliated record keeper","CORPORATE MINUTE BOOKS"
2000809,"BLAKE, CASSELS & GRAYDON LLP","1133 MELVILLE STREET, SUITE 2500 THE STACK","","VANCOUVER","","Canada","V6E 4E5","N","6046313300","604-631-3309","A third-party unaffiliated record keeper","CORPORATE MINUTE BOOKS"
2005119,"NAV FUND ADMINISTRATION GROUP","1 TRANS AM PLAZA DRIVE","SUITE 400","OAKBROOK TERRACE","IL","United States","60181","N","630-954-1919","630-596-8555","A third-party unaffiliated record keeper","IN ITS CAPACITY AS THIRD-PARTY ADMINISTRATOR, NAV FUND ADMINISTRATION GROUP MAINTAINS CERTAIN BOOKS AND RECORDS FOR ADVISORY CLIENTS OF 2717 PARTNERS LP."
1996614,"TREASURYSPRING INC","1230 AVENUE OF THE AMERICAS","","NEW YORK","NY","United States","10020","N","+1(646)8380074","","One of your branch offices or affiliates","OWN CORPORATE RECORDS  AND  CLIENT  COMMUNICATIONS (EMAIL), NO TRADE RELATED DATA"
2002896,"IRON MOUNTAIN","4 NETTLEHILL ROAD","HOUSTON INDUSTRIAL ESTATE","LIVINGSTON","","United Kingdom","EH54 5DL","N","+44 8445607080","+44 8445608090","A third-party unaffiliated record keeper","CERTAIN BOOKS AND RECORDS REQUIRED BY SECTION 204 OF THE INVESTMENT ADVISERS ACT ARE ARCHIVED AT AN EXTERNAL DOCUMENT STORAGE COMPANY. DOCUMENTS CAN BE RETRIEVED (DURING WORKING DAYS) WITHIN 2 HOURS FROM THIS FACILITY."
2002635,"RBC EUROPE LTD","KESTREL WAY","RBC DATA HALL, DIGITAL REALTY, GOLDSWORTH PARK T.E","WOKING","","United Kingdom","GU21 3BA","N","02079549100","","Other","ELECTRONIC DOCUMENTS"
2002635,"RBC EUROPE LTD","630 AJAX AVE","RBC DATA CENTRE, CYXTERA LONDON DATA CENTRE","SLOUGH","","United Kingdom","SL1 4DG","N","18556998372","","Other","ELECTRONIC DOCUMENTS"
2002635,"LAB LUXEMBOURG S.A.","3 RUE DR ELVIRE ENGEL","DIGITAL TRANSITION HUB","GRASS","","Luxembourg","L-8346","N","+352350222","","A third-party unaffiliated record keeper","PHYSICAL CORPORATE DOCUMENTS - ARCHIVE"
2001110,"APEX FUND SERVICES S.A.","3, RUE GABRIEL LIPPMANN","","MUNSBACH","","Luxembourg","5365","N","00352 24 870","","A third-party unaffiliated record keeper","APEX KEEPS VARIOUS DOCUMENTATION (E.G. INVESTOR INFORMATION, KYC, ETC.)FOR EMH GROWTH FUND II SCSP."
2003007,"AVANZ CAPITAL MANAGEMENT LLC","","","","","","","Y","202-536-2410","","Other","EXECUTIVE RESIDENCE."
2002641,"CROWN WORLDWIDE (HK) LIMITED","CROWN WORLDWIDE BUILDING, 9-11 YUEN ON STREET","SIU LEK YUEN, SHA TIN","HONG KONG","","China","","N","+852 2636 8360","","A third-party unaffiliated record keeper","ARCHIVED RECORDS"
1999144,"MAPLES CORPORATE SERVICES LIMITED","PO BOX 309, UGLAND HOUSE","","GRAND CAYMAN","","Cayman Islands","KY1-1104","N","1 345-949-8066","","A third-party unaffiliated record keeper","BOOKS AND RECORDS RELATED TO PRIVATE FUNDS."
1999144,"CITCO FUND ADMINISTRATION (CAYMAN ISLANDS) LIMITED","89 NEXUS WAY, 2ND FLOOR","CAMANA BAY, P.O. BOX 31105","GRAND CAYMAN","","Cayman Islands","KY1-1205","N","1 345 949 3977","","A third-party unaffiliated record keeper","BOOKS AND RECORDS RELATED TO PRIVATE FUNDS."
1999144,"CITCO FUND SERVICES (GUERNSEY) LIMITED","PO BOX 273,  ARNOLD HOUSE","ST JULIAN'S AVENUE","ST PETER PORT","","Guernsey","GY1 3RD","N","44 1481 758200","","A third-party unaffiliated record keeper","BOOKS AND RECORDS RELATED TO PRIVATE FUNDS."
1999144,"CITCO FUND SERVICES (USA) INC.","HARBOURSIDE PLAZE 10","2 SECOND STREET, 6TH FLOOR","JERSEY CITY","NJ","United States","07311","N","2017935500","","A third-party unaffiliated record keeper","BOOKS AND RECORDS RELATED TO PRIVATE FUNDS."
2005479,"JSQ ADMINISTRATIVE SERVICES LLC","555 MONTGOMERY STREET","SUITE 1400","SAN FRANCISCO","CA","United States","94111","N","415-841-2722","","A third-party unaffiliated record keeper","FUND ACCOUNTING RECORDS / 3RD PARTY UNAFFILIATED RECORDKEEPER"
1981988,"NAV ADMINISTRATION GROUP","1 TRANS AM PLAZA DRIVE","","OAKBROOK TERRACE","IL","United States","60181","N","630-954-1919","","A third-party unaffiliated record keeper","BOOKS AND RECORDS WHICH ARE MAINTAINED BY FUND ADMINISTRATOR."
2002913,"BELLTOWER FUND GROUP, LTD","119 SOUTH MAIN STREET, SUITE 220","","SEATTLE","WA","United States","98104","N","360-340-9337","","A third-party unaffiliated record keeper","FUND DOCUMENTS, TRANSACTION RECORDS, WRITTEN COMMUNICATIONS"
1995231,"OPUS FUND SERVICES (BERMUDA), LTD","12 CHURCH STREET 2103","","HAMILTON","","Bermuda","HM12","N","4412340004","","A third-party unaffiliated record keeper","THIS IS THE ADMINISTRATOR TO THE POOLED INVESTMENT VEHICLES THAT WE MANAGE"
2006713,"MITSUI SOKO BUSINESS PARTNERS","5-1-1, OMAGARIKOGYODANCHI, KITAHIROSHIMA SHI","","HOKKAIDO","","Japan","061-1274","N","81 11 376 2801","","A third-party unaffiliated record keeper","CERTAIN BOOKS AND RECORDS REQUIRED TO BE KEPT IN COMPLIANCE WITH APPROPRIATE REGULATORY REQUIREMENTS."
2006713,"IRON MOUNTAIN LTD","100 HARBOR DRIVE","","JERSEY CITY","NJ","United States","07305","N","800 934 3453","","A third-party unaffiliated record keeper","BOOKS AND RECORDS REQUIRED TO BE KEPT IN COMPLIANCE WITH THE INVESTMENT ADVISERS ACT OF 1940."
2006713,"ASSET MARK, INC","1655 GRANT STREET","","CONCORD","CA","United States","94520","N","8006645345","","A third-party unaffiliated record keeper","BOOKS AND RECORDS REQUIRED TO BE KEPT IN COMPLIANCE WITH THE INVESTMENT ADVISERS ACT OF 1940."
2006713,"VESTMARK ADVISORY SERVICES","1 EVERTRUST PLACE, 1ST FLOOR","","JERSEY CITY","NJ","United States","07302","N","8883550477","","A third-party unaffiliated record keeper","BOOKS AND RECORDS REQUIRED TO BE KEPT IN COMPLIANCE WITH THE INVESTMENT ADVISERS ACT OF 1940."
2006713,"CROWN WORLDWIDE PTE LTD","MALLARDS ROAD","","PETERBOROUGH","","United Kingdom","PE3 8YN","N","020 7510 9892","","A third-party unaffiliated record keeper","BOOKS AND RECORDS REQUIRED TO BE KEPT IN COMPLIANCE WITH THE INVESTMENT ADVISERS ACT OF 1940."
2006713,"SHRED IT USA LLC","81 WALSH DRIVE PARSIPPANY","","PARSIPPANY","NJ","United States","07054","N","8554974733","","A third-party unaffiliated record keeper","BOOKS AND RECORDS REQUIRED TO BE KEPT IN COMPLIANCE WITH THE INVESTMENT ADVISERS ACT OF 1940."
2006713,"AMAZON WEB SERVICES, INC","410 TERRY AVENUE NORTH","","SEATTLE","WA","United States","98109","N","2062661000","","A third-party unaffiliated record keeper","BOOKS AND RECORDS KEPT WITH ACCORDANCE OF STATE REGULATORS"
2006713,"MYCOMPLIANCEOFFICE","535 5TH AVENUE, 4TH FLOOR","","NEW YORK","NY","United States","10017","N","8669512280","","A third-party unaffiliated record keeper","BOOKS AND RECORDS REQUIRED TO BE KEPT IN COMPLIANCE WITH THE INVESTMENT ADVISERS ACT OF 1940."
2006713,"ORION PORTOLIO SOLUTIONS","17605 WRIGHT STREET","","OMAHA","NE","United States","68130","N","4028951600","","A third-party unaffiliated record keeper","BOOKS AND RECORDS REQUIRED TO BE KEPT IN COMPLIANCE WITH THE INVESTMENT ADVISERS ACT OF 1940."
2006713,"MERRILL LYNCH","101 HUDSON STREET, 9TH FLOOR","","JERSEY CITY","NJ","United States","07302","N","2019464000","","A third-party unaffiliated record keeper","BOOKS AND RECORDS REQUIRED TO BE KEPT IN COMPLIANCE WITH THE INVESTMENT ADVISERS ACT OF 1940."
2006713,"NX WANBISHI ARCHIVES","4-1-28 TORANOMON, MINATO-KU","","TOKYO","","Japan","105-0001","N","81 354255100","","A third-party unaffiliated record keeper","BOOKS AND RECORDS REQUIRED TO BE KEPT IN COMPLIANCE WITH THE INVESTMENT ADVISERS ACT OF 1940."
2006713,"SNOWFLAKE INC","450 CONCAR DR","","SAN MATEO","CA","United States","94402","N","8447669355","","A third-party unaffiliated record keeper","BOOKS AND RECORDS KEPT IN ACCORDANCE WITH THE STATE REGULATORS"
2006713,"UBS FINANCIAL SERVICES, INC","1000 HARBOR BOULEVARD","","WEEHAWKEN","NJ","United States","07086","N","2013523000","","A third-party unaffiliated record keeper","BOOKS AND RECORDS REQUIRED TO BE KEPT IN COMPLIANCE WITH THE INVESTMENT ADVISERS ACT OF 1940."
2006713,"JANNEY MONTGOMERY SCOTT, LLC","1717 ARCH STREET","","PHILADELPHIA","PA","United States","19103","N","2156656000","","A third-party unaffiliated record keeper","BOOKS AND RECORDS REQUIRED TO BE KEPT IN COMPLIANCE WITH THE INVESTMENT ADVISERS ACT OF 1940."
2006713,"FIDELITY INSTITUTIONAL WEALTH ADVISER LLC","245 SUMMER STREET","","BOSTON","MA","United States","02210","N","8003433548","","A third-party unaffiliated record keeper","BOOKS AND RECORDS REQUIRED TO BE KEPT IN COMPLIANCE WITH THE INVESTMENT ADVISERS ACT OF 1940."
2006713,"STIFEL","501 NORTH BROADWAY","","ST. LOUIS","MO","United States","63102","N","3143422000","","A third-party unaffiliated record keeper","BOOKS AND RECORDS REQUIRED TO BE KEPT IN COMPLIANCE WITH THE INVESTMENT ADVISERS ACT OF 1940."
2006713,"MICROSOFT CORPORATION","6880 SIERRA CENTER PKWY","","RENO","NV","United States","89511","N","7758235600","","A third-party unaffiliated record keeper","BOOKS AND RECORDS KEPT IN ACCORDANCE WITH THE STATE REGULATORS"
2006713,"FIS EMPLOYEE COMPLIANCE MANAGER","347 RIVERSIDE AVE","","JACKSONVILLE","FL","United States","32202","N","9074386000","","A third-party unaffiliated record keeper","BOOKS AND RECORDS REQUIRED TO BE KEPT IN COMPLIANCE WITH THE INVESTMENT ADVISERS ACT OF 1940."
2006713,"PNC","300 FIFTH AVENUE, 26TH FLOOR","","PITTSBURGH","PA","United States","15222","N","8887262265","","A third-party unaffiliated record keeper","BOOKS AND RECORDS REQUIRED TO BE KEPT IN COMPLIANCE WITH THE INVESTMENT ADVISERS ACT OF 1940."
1995438,"DICKSON MINTO LLP","16 CHARLOTTE SQUARE","","EDINBURGH","","United Kingdom","EH2 4DF","N","44 131 225 445","","Other","CLIENT ADMINISTRATIVE AND LEGAL RECORDS, COPIES OF WHICH WILL BE MADE AVAILABLE PROMPTLY UPON REQUEST OF THE APPLICANT IN RESPONSE TO ANY REQUEST BY THE STAFF OF THE SECURITIES AND EXCHANGE COMMISSION."
2004549,"PAUL HASTINGS (EUROPE) LLP","100 BISHOPSGATE","","LONDON","","United Kingdom","EC2N 4AG","N","+442030235100","+442030235109","A third-party unaffiliated record keeper","EXTERNAL FUND COUNSEL CLIENT/INVESTOR SUBSCRIPTION RELATED MATERIALS"
2004549,"MATHESON","70 SIR JOHN ROGERSON QUAY","DUBLIN DOCKLANDS, DUBLIN 2","DUBLIN","","Ireland","D02 R296","N","353 1 232 2000","","A third-party unaffiliated record keeper","EXTERNAL COUNSEL FOR IRISH REGULATORY MATTERS - VARIOUS GENERAL BUSINESS RECORDS APPROPRIATE FOR OFF-SITE STORAGE UNDER APPLICABLE LAW"
2004549,"ALTER DOMUS","15, BOULEVARD F.W. RAIFFEISEN, L-2411","BP 2501","LUXEMBOURG CITY","","Luxembourg","L-1025","N","3524818281","","A third-party unaffiliated record keeper","EXTERNAL FUND ADMINISTRATOR AND EXTERNAL DEPOSITORY"
2004549,"PANTHEON VENTURES (IRELAND) DAC","39-43 MERRION SQUARE EAST","DUBLIN 2","DUBLIN","","Ireland","NP96","N","35316426566","","One of your branch offices or affiliates","AFFILIATE OFFICE"
2004549,"AVANTIA LAW LIMITED","21 LOMBARD STREET","CANDLEWICK","LONDON","","United Kingdom","EC3V 9AH","N","+447843497114","","A third-party unaffiliated record keeper","EXTERNAL LAW FIRM; NDAS AND ENGAGEMENT LETTERS"
2004549,"MLL MEYERLUSTENBERGER LACHENAL FRORIEP LLP","17 GODLIMAN STREET","","LONDON","","United Kingdom","EC4V 5BD","N","+442072366000","","A third-party unaffiliated record keeper","VARIOUS GENERAL BUSINESS RECORDS APPROPRIATE FOR OFF-SITE STORAGE UNDER APPLICABLE LAW"
2004549,"GLOBAL RELAY","22 GOSTICK PLACE","","NORTH VANCOUVER","","Canada","V7M 3N2","N","8664846630","","A third-party unaffiliated record keeper","VARIOUS GENERAL BUSINESS RECORDS APPROPRIATE FOR OFF-SITE STORAGE UNDER APPLICABLE LAW"
2004549,"CLIFFORD CHANCE LLP","10 UPPER BANK STREET","","LONDON","","United Kingdom","E14 5JJ","N","+442070061000","","A third-party unaffiliated record keeper","EXTERNAL LAW FIRM; INVESTMENT/TRANSACTION DOCUMENTATION"
2004549,"MICROSOFT AZURE CLOUD SERVICES","1 MICROSOFT WAY","","REDMOND","WA","United States","98052-6399","N","425-882-8080","425-936-7329","A third-party unaffiliated record keeper","CLOUD-BASED STORAGE PROVIDER - VARIOUS GENERAL BUSINESS RECORDS APPROPRIATE FOR OFF-SITE STORAGE UNDER APPLICABLE LAW"
2004549,"JONES DAY","77 WEST WACKER DRIVE","","CHICAGO","IL","United States","60601","N","312-782-3939","","A third-party unaffiliated record keeper","EXTERNAL LAW FIRM; INVESTMENT/TRANSACTION DOCUMENTATION"
2004549,"GOODWIN PROCTER LLP","THE NEW YORK TIMES BUILDING, 620 EIGHTH AVENUE","","NEW YORK","NY","United States","10018","N","2124597462","","A third-party unaffiliated record keeper","EXTERNAL LAW FIRM; INVESTMENT/TRANSACTION DOCUMENTATION"
2004549,"K&L GATES LLP","9 RAFFLES PLACE","#32-00 REPUBLIC PLAZA","SINGAPORE","","Singapore","048619","N","+6567130200","","A third-party unaffiliated record keeper","VARIOUS GENERAL BUSINESS RECORDS APPROPRIATE FOR OFF-SITE STORAGE UNDER APPLICABLE LAW"
2004549,"LOYENS & LOEFF LUXEMBOURG S.À R.L","18-20, RUE EDWARD STEICHEN","","LUXEMBOURG CITY","","Luxembourg","L-2540","N","352466230","352466234","A third-party unaffiliated record keeper","EXTERNAL COUNSEL - VARIOUS GENERAL BUSINESS RECORDS APPROPRIATE FOR OFF-SITE STORAGE UNDER APPLICABLE LAW"
2004549,"GLOBAL RELAY","2 ROBERT SPECK PARKWAY","SUITE 500","MISSISSAUGA","","Canada","L4Z 1H8","N","8664846630","","A third-party unaffiliated record keeper","VARIOUS GENERAL BUSINESS RECORDS APPROPRIATE FOR OFF-SITE STORAGE UNDER APPLICABLE LAW"
2004549,"PANTHEON VENTURES (IRELAND) DAC, BERLIN BRANCH OFFICE","LEIPZIGER PLATZ 16","","BERLIN","","Germany","10117","N","+353(1)6426566","","One of your branch offices or affiliates","VARIOUS GENERAL BUSINESS RECORDS APPROPRIATE FOR OFF-SITE STORAGE UNDER APPLICABLE LAW"
2004549,"PAUL HASTINGS LLP","200 PARK AVENUE","","NEW YORK","NY","United States","10166","N","212-318-6000","","A third-party unaffiliated record keeper","EXTERNAL FUND COUNSEL CLIENT/INVESTOR SUBSCRIPTION RELATED MATERIALS"
2004549,"MORGAN LEWIS & BOCKIUS LLP","CONDOR HOUSE, 5-10 ST. PAUL'S CHURCHYARD","","LONDON","","United Kingdom","EC4M 8AL","N","442032015000","442032015001","A third-party unaffiliated record keeper","EXTERNAL COUNSEL - VARIOUS GENERAL BUSINESS RECORDS APPROPRIATE FOR OFF-SITE STORAGE UNDER APPLICABLE LAW"
2004549,"STATE STREET BANK INTERNATIONAL GMBH, LUXEMBOURG BRANCH","49 AVE JOHN F. KENNEDY","","LUXEMBOURG CITY","","Luxembourg","L-1885","N","3524640101","352464010001","A third-party unaffiliated record keeper","VARIOUS GENERAL BUSINESS RECORDS APPROPRIATE FOR OFF-SITE STORAGE UNDER APPLICABLE LAW"
2004549,"PANTHEON VENTURES (UK) LLP","10 FINSBURY SQUARE","4TH FLOOR","LONDON","","United Kingdom","EC2A 1AF","N","442033561800","442033561801","One of your branch offices or affiliates","AFFILIATE OFFICE - VARIOUS GENERAL BUSINESS RECORDS APPROPRIATE FOR OFF-SITE STORAGE UNDER APPLICABLE LAW"
2004549,"PANTHEON VENTURES (US) LP","555 CALIFORNIA STREET","SUITE 3450","SAN FRANCISCO","CA","United States","94104","N","4152496200","","One of your branch offices or affiliates","AFFILIATE OFFICE - VARIOUS GENERAL BUSINESS RECORDS APPROPRIATE FOR OFF-SITE STORAGE UNDER APPLICABLE LAW"
2004549,"DEBEVOISE & PLIMPTON LLP","65 GRESHAM STREET","","LONDON","","United Kingdom","EC2V 7NQ","N","02077869000","","A third-party unaffiliated record keeper","EXTERNAL LAW FIRM; INVESTMENT/TRANSACTION DOCUMENTATION"
2004549,"HOGAN LOVELLS INTERNATIONAL LLP","ATLANTIC HOUSE","HOLBORN VIADUCT","LONDON","","United Kingdom","EC1A 2FG","N","+442072962000","","A third-party unaffiliated record keeper","EXTERNAL LAW FIRM; INVESTMENT/TRANSACTION DOCUMENTATION"
2004549,"HOGAN LOVELLS US LLP","555 13TH STREET NW","","WASHINGTON","DC","United States","20004","N","2026375600","","A third-party unaffiliated record keeper","EXTERNAL LAW FIRM; INVESTMENT/TRANSACTION DOCUMENTATION"
2004549,"ACA GROUP","8401 COLESVILLE ROAD","SUITE 700","SILVER SPRING","MD","United States","20910-6340","N","301 495 7850","","A third-party unaffiliated record keeper","CLOUD-BASED STORAGE OF COMPLIANCE DOCUMENTATION RELATING TO CODE OF ETHICS COMPLIANCE ACTIVITIES"
2004549,"KIM & CHANG","39, SAJIK-RO 8-GIL, JONGNO-GU","","SEOUL","","Korea, South","03170","N","+82237031114","+8227379091","A third-party unaffiliated record keeper","EXTERNAL LAW FIRM; KOREAN REGISTRATION MATTERS"
2004549,"BAMBOOHR","42 FUTURE WAY","","DRAPER","UT","United States","84020","N","1-866-387-9595","","A third-party unaffiliated record keeper","HR CORE DATA SYSTEM - VARIOUS GENERAL BUSINESS RECORDS APPROPRIATE FOR OFF-SITE STORAGE UNDER APPLICABLE LAW"
2004549,"MILBANK LLP","55 HUDSON YARDS","","NEW YORK","NY","United States","10001","N","212-530-5000","","A third-party unaffiliated record keeper","EXTERNAL LAW FIRM; INVESTMENT/TRANSACTION DOCUMENTATION"
2004549,"PROSKAUER ROSE LLP","110 BISHOPGATE","","LONDON","","United Kingdom","EC2N 4AY","N","02072802000","","A third-party unaffiliated record keeper","EXTERNAL LAW FIRM; INVESTMENT/TRANSACTION DOCUMENTATION"
2004549,"MORGAN LEWIS & BOCKIUS LLP","ONE MARKET","SPEAR STREET TOWER","SAN FRANCISCO","CA","United States","94105-1596","N","415 442 1000","415 442 1001","A third-party unaffiliated record keeper","EXTERNAL COUNSEL - VARIOUS GENERAL BUSINESS RECORDS APPROPRIATE FOR OFF-SITE STORAGE UNDER APPLICABLE LAW"
2004549,"MORGAN LEWIS STAMFORD LLC","10 COLLYER QUAY","#27-00 OCEAN FINANCIAL CENTRE","SINGAPORE","","Singapore","049315","N","+6563893000","","A third-party unaffiliated record keeper","EXTERNAL LAW FIRM; INVESTMENT/TRANSACTION DOCUMENTATION"
2004549,"VISTRA (LUXEMBOURG) S.A.R.L.","16 RUE EUGÈNE RUPPERT","","LUXEMBOURG CITY","","Luxembourg","2453","N","352 42 22 29","","A third-party unaffiliated record keeper","EXTERNAL FUND ADMINISTRATOR"
2004549,"LUXEMBOURG FUND SERVICES","10 RUE ANTOINE JANS","","LUXEMBOURG CITY","","Luxembourg","L-1820","N","352 27 85 80 5","","A third-party unaffiliated record keeper","EXTERNAL FUND ADMINISTRATOR"
2004549,"PANTHEON VENTURES (US) LP","11 TIMES SQUARE","35TH FLOOR","NEW YORK","NY","United States","10036","N","212 205 2000","","One of your branch offices or affiliates","AFFILIATE OFFICE - VARIOUS GENERAL BUSINESS RECORDS APPROPRIATE FOR OFF-SITE STORAGE UNDER APPLICABLE LAW"
2004549,"THE ID REGISTER","5TH FLOOR, MARKET BUILDING, FOUNTAIN STREET","","ST. PETER PORT","","Guernsey","GY1 1BX","N","447781102893","","A third-party unaffiliated record keeper","OUTSOURCED AML PROVIDER"
2004549,"PANTHEON VENTURES (IRELAND) DAC, GENEVA REPRESENTATIVE OFFICE","RUE DU COMMERCE 4","RHÔNE 8 BUILDING, 2ND FLOOR","GENEVA","","Switzerland","CH-1204","N","41223482326","","One of your branch offices or affiliates","PANTHEON VENTURES (IRELAND) DAC, GENEVA REPRESENTATIVE OFFICE"
2004549,"ALTER DOMUS FINANCIAL SERVICES (UK) LIMITED","30 SAINT MARY AXE","10TH FLOOR","LONDON","","United Kingdom","EC3A 8BF","N","+44 207 645 48","","A third-party unaffiliated record keeper","EXTERNAL LOAN ADMINISTRATOR"
2004549,"BANK OF NEW YORK SA/NV LUXEMBOURG BRANCH","2-4 RUE EUGENE RUPPERT","","LUXEMBOURG","","Luxembourg","L-2453","N","352 24 524 1","","A third-party unaffiliated record keeper","EXTERNAL ADMINISTRATOR AND DEPOSITARY"
2004549,"SIMPSON THACHER & BARTLETT LLP","425 LEXINGTON AVENUE","","NEW YORK","NY","United States","10017","N","(212) 455-2000","","A third-party unaffiliated record keeper","EXTERNAL FUND COUNSEL FOR 40 ACT FUND"
2004549,"CITYPOINT","ONE ROPEMAKER STREET","","LONDON","","United Kingdom","EC2Y 9HU","N","+44 20 7588 42","","A third-party unaffiliated record keeper","EXTERNAL FUND COUNSEL FOR 40 ACT FUND"
2002250,"ASA ASSET 2 GESTÃO DE RECURSOS LTDA (""ASA INVESTMENTS"")","2159 - 5º, 8º E 9º ANDARES - CERQUEIRA CÉSAR","ED. SANTOS AUGUSTA - ALAMEDA SANTOS","SÃO PAULO","","Brazil","01419-100","N","+55 1139005581","","One of your branch offices or affiliates","COMPLIANCE AND TRAINNING RECORDS"
1998051,"E78 PARTNERS LLC","1301 W. 22ND STREET","SUITE 410","OAK BROOK","IL","United States","60523","N","310-806-6267","","A third-party unaffiliated record keeper","CERTAIN BOOKS AND RECORDS OF THE ADVISER AND THE PRIVATE FUND."
1998051,"SOUTH WATCH LLC","300 DAVENPORT AVE, SUITE 200","","CANTON","MA","United States","02021","N","781-615-9035","","A third-party unaffiliated record keeper","CERTAIN BOOKS AND RECORDS OF THE PRIVATE FUND"
2005026,"SYMMETRY INVESTMENTS CAYMAN LIMITED","OFFICE 1.20, THE WHITE HOUSE","20 GENESIS CL","GEORGE TOWN","","Cayman Islands","KY1-1208","N","+1 345 749 200","","One of your branch offices or affiliates","LEGAL, REGULATORY AND BUSINESS RECORDS"
2005026,"OPTIONS TECHNOLOGY LTD","5TH FLOOR, 50 PAUL MALL","","LONDON","","United Kingdom","SW1Y 5JH","N","+442070705000","","A third-party unaffiliated record keeper","DATA CENTER FOR ELECTRONIC STORAGE"
2005026,"GLOBAL RELAY COMMUNICATIONS INC.","220 CAMBIE STREET","","VANCOUVER, BC","","Canada","V6B 2M9","N","866-484-6630","","A third-party unaffiliated record keeper","ELECTRONIC COMMUNICATIONS RECORD OF THE BUSINESS OPERATIONS"
2005026,"EQUINIX (UK) LIMITED","COMPUTERSHARE GOVERNANCE SERVICES THE PAVILIONS","BRIDGWATER ROAD","BRISTOL","","United Kingdom","BS13 8FD","N","+44845372900","","A third-party unaffiliated record keeper","DATA CENTER FOR ELECTRONIC STORAGE"
2005026,"SYMMETRY INVESTMENTS LP","10 LE CAPELAIN HOUSE, CASTLE QUAY","LA RUE DE L'ETAU","ST HELIER","","Jersey","JE2 3EH","N","+442070723100","","One of your branch offices or affiliates","LEGAL, REGULATORY AND BUSINESS RECORDS"
2005026,"SYMMETRY INVESTMENTS JERSEY LIMITED","10 LE CAPELAIN HOUSE, CASTLE QUAY","LA RUE DE L'ETAU","ST HELIER","","Jersey","JE2 3EH","N","+442070723100","","One of your branch offices or affiliates","LEGAL, REGULATORY AND BUSINESS RECORDS"
2005026,"STATE STREET FUND SERVICES (IRELAND) LIMITED","78 SIR JOHN ROGERSON'S QUAY","","DUBLIN","","Ireland","","N","+35317075000","+35317075100","A third-party unaffiliated record keeper","LEGAL, REGULATORY AND BUSINESS RECORDS"
2005026,"STARCOMPLIANCE OPERATING, LLC","9200 CORPORATE BLVD.","SUITE 440","ROCKVILLE","MD","United States","20850","N","(301)340-3900","(301)340-3906","A third-party unaffiliated record keeper","CERTAIN BOOKS AND RECORDS RELATING TO BUSINESS OPERATION"
2005026,"OPTIONS FINANCIAL TECHNOLOGY PTE LTD","#10-13 & 14, 100 PECK SEAH STREET","PS100 BUILDING","-","","Singapore","079333","N","+6565765000","","A third-party unaffiliated record keeper","DATA CENTER FOR ELECTRONIC STORAGE"
2005026,"SYMMETRY INVESTMENTS UK LLP","4TH FLOOR, 31 ST JAMES'S SQUARE","","LONDON","","United Kingdom","SW1Y 4JR","N","+442070723100","","One of your branch offices or affiliates","LEGAL, REGULATORY AND BUSINESS RECORDS"
2005026,"SYMMETRY INVESTMENTS (HONG KONG) LIMITED","1301 THREE EXCHANGE SQUARE","8 CONNAUGHT PLACE","HONG KONG","","Hong Kong","","N","+852 3698 9100","+852 3698 5799","One of your branch offices or affiliates","LEGAL, REGULATORY AND BUSINESS RECORDS"
2005026,"SOCIAL MEDIA COMPLIANCE LIMITED D/B/A DEEPVIEW SOLUTIONS","82 STATION ROAD","BISHOPS CLEEVE","CHELTENHAM","","United Kingdom","GL52 8HJ","N","+442033930633","","A third-party unaffiliated record keeper","ELECTRONIC COMMUNICATIONS REQUIRED TO BE MAINTAINED UNDER RULE 204-2 OF THE INVESTMENT ADVISERS ACT OF 1940, AS AMENDED"
2005026,"OPTIONS TECHNOLOGY (ASIA) LTD","UNIT 2202, 100QRC","100 QUEEN'S ROAD CENTRAL","HONG KONG","","Hong Kong","","N","+85231665000","","A third-party unaffiliated record keeper","DATA CENTER FOR ELECTRONIC STORAGE"
2005027,"OPTIONS TECHNOLOGY LTD","5TH FLOOR, 50 PAUL MALL","","LONDON","","United Kingdom","SW1Y 5JH","N","+442070705000","","A third-party unaffiliated record keeper","DATA CENTER FOR ELECTRONIC STORAGE"
2005027,"GLOBAL RELAY COMMUNICATIONS INC.","220 CAMBIE STREET","","VANCOUVER, BC","","Canada","V6B 2M9","N","866-484-6630","","A third-party unaffiliated record keeper","ELECTRONIC COMMUNICATIONS RECORD OF THE BUSINESS OPERATIONS"
2005027,"EQUINIX (UK) LIMITED","COMPUTERSHARE GOVERNANCE SERVICES THE PAVILIONS","BRIDGWATER ROAD","BRISTOL","","United Kingdom","BS13 8FD","N","+44845372900","","A third-party unaffiliated record keeper","DATA CENTER FOR ELECTRONIC STORAGE"
2005027,"SYMMETRY INVESTMENTS CAYMAN LIMITED","OFFICE 1.20, THE WHITE HOUSE","20 GENESIS CL","GEORGE TOWN","","Cayman Islands","KY1-1208","N","+1 345 749 200","","One of your branch offices or affiliates","LEGAL, REGULATORY AND BUSINESS RECORDS"
2005027,"STARCOMPLIANCE OPERATING, LLC","9200 CORPORATE BLVD.","SUITE 440","ROCKVILLE","MD","United States","20850","N","(301)340-3900","(301)340-3906","A third-party unaffiliated record keeper","CERTAIN BOOKS AND RECORDS RELATING TO BUSINESS OPERATION"
2005027,"SYMMETRY INVESTMENTS JERSEY LIMITED","10 LE CAPELAIN HOUSE, CASTLE QUAY","LA RUE DE L'ETAU","ST HELIER","","Jersey","JE2 3EH","N","+442070723100","","One of your branch offices or affiliates","LEGAL, REGULATORY AND BUSINESS RECORDS"
2005027,"STATE STREET FUND SERVICES (IRELAND) LIMITED","78 SIR JOHN ROGERSON'S QUAY","","DUBLIN","","Ireland","","N","+3531 707 5000","+3531 707 5100","A third-party unaffiliated record keeper","LEGAL, REGULATORY AND BUSINESS RECORDS"
2005027,"OPTIONS FINANCIAL TECHNOLOGY PTE LTD","#10-13 & 14, 100 PECK SEAH STREET","PS100 BUILDING","-","","Singapore","079333","N","+6565795000","","A third-party unaffiliated record keeper","DATA CENTER FOR ELECTRONIC STORAGE"
2005027,"SYMMETRY INVESTMENTS UK LLP","4TH FLOOR, 31 ST JAMES'S SQUARE","","LONDON","","United Kingdom","SW1Y 4JR","N","+442070723100","","One of your branch offices or affiliates","LEGAL, REGULATORY AND BUSINESS RECORDS"
2005027,"SYMMETRY INVESTMENTS LP","10 LE CAPELAIN HOUSE, CASTLE QUAY","LA RUE DE L'ETAU","ST HELIER","","Jersey","JE2 3EH","N","+442070723100","","One of your branch offices or affiliates","LEGAL, REGULATORY AND BUSINESS RECORDS"
2005028,"SOCIAL MEDIA COMPLIANCE LIMITED D/B/A DEEPVIEW SOLUTIONS","82 STATION ROAD","BISHOPS CLEEVE","CHELTENHAM","","United Kingdom","GL52 8HJ","N","+442033930633","","A third-party unaffiliated record keeper","ELECTRONIC COMMUNICATIONS REQUIRED TO BE MAINTAINED UNDER RULE 204-2 OF THE INVESTMENT ADVISERS ACT OF 1940, AS AMENDED"
2003711,"SOUTH BAY PARTNERS LLC","867 BOYLSTON STREET","5TH FLOOR","BOSTON","MA","United States","02116","N","(628) 216-5529","","One of your branch offices or affiliates","CERTAIN RECORDS RELATED TO INVESTMENT MANAGEMENT"
2003711,"PIEDMONT FUND SERVICES","2201 COOPERATIVE WAY","SUITE 100","HERNDON","VA","United States","20171","N","(703) 570-5400","(703) 570-5410","A third-party unaffiliated record keeper","FIRM AND CLIENT RECORDS"
2005027,"SYMMETRY INVESTMENTS SINGAPORE PRIVATE LIMITED","#34-61 ONE RAFFLES PLACE","","SINGAPORE","","Singapore","048616","N","+6565766000","","One of your branch offices or affiliates","LEGAL, REGULATORY AND BUSINESS RECORDS"
2005027,"SOCIAL MEDIA COMPLIANCE LIMITED D/B/A DEEPVIEW SOLUTIONS","82 STATION ROAD","BISHOPS CLEEVE","CHELTENHAM","","United Kingdom","GL52 8HJ","N","+442033930633","","A third-party unaffiliated record keeper","ELECTRONIC COMMUNICATIONS REQUIRED TO BE MAINTAINED UNDER RULE 204-2 OF THE INVESTMENT ADVISERS ACT OF 1940, AS AMENDED"
2005027,"OPTIONS TECHNOLOGY (ASIA) LTD","UNIT 2202, 100QRC","100 QUEEN'S ROAD CENTRAL","HONG KONG","","Hong Kong","","N","+85231665000","","A third-party unaffiliated record keeper","DATA CENTER FOR ELECTRONIC STORAGE"
2005028,"SYMMETRY INVESTMENTS JERSEY LIMITED","10 LE CAPELAIN HOUSE, CASTLE QUAY","LA RUE DE L'ETAU","ST HEILER","","Jersey","JE2 3EH","N","+442070723100","","One of your branch offices or affiliates","LEGAL, REGULATORY AND BUSINESS RECORDS"
2005028,"SYMMETRY INVESTMENTS UK LLP","4TH FLOOR, 31 ST JAMES'S SQUARE","","LONDON","","United Kingdom","SW1Y 4JR","N","+442070723100","","One of your branch offices or affiliates","LEGAL, REGULATORY AND BUSINESS RECORDS"
2005028,"STARCOMPLIANCE OPERATING, LLC","9200 CORPORATE BLVD.","SUITE 440","ROCKVILLE","MD","United States","20850","N","(301)340-3900","(301)340-3906","A third-party unaffiliated record keeper","CERTAIN BOOKS AND RECORDS RELATING TO BUSINESS OPERATION"
2005028,"EQUINIX (UK) LIMITED","COMPUTERSHARE GOVERNANCE SERVICES THE PAVILIONS","BRIDGWATER ROAD","BRISTOL","","United Kingdom","BS13 8FD","N","+44845372900","","A third-party unaffiliated record keeper","DATE CENTER FOR ELECTRONIC STORAGE"
2005028,"OPTIONS TECHNOLOGY LTD","5TH FLOOR, 50 PAUL MALL","","LONDON","","United Kingdom","SW1Y 5JH","N","+442070705000","","A third-party unaffiliated record keeper","DATA CENTER FOR ELECTRONIC STORAGE"
2005028,"SYMMETRY INVESTMENTS CAYMAN LIMITED","OFFICE 1.20, THE WHITE HOUSE","20 GENESIS CL","GEORGE TOWN","","Cayman Islands","KY1-1208","N","+1 345 749 200","","One of your branch offices or affiliates","LEGAL, REGULATORY AND BUSINESS RECORDS"
2005028,"GLOBAL RELAY COMMUNICATIONS INC.","220 CAMBIE STREET","","VANCOUVER, BC","","Canada","V6B 2M9","N","866-484-6630","","A third-party unaffiliated record keeper","ELECTRONIC COMMUNICATIONS RECORD OF THE BUSINESS OPERATIONS"
2005028,"OPTIONS FINANCIAL TECHNOLOGY PTE LTD","#10-13 & 14, 100 PECK SEAH STREET","PS100 BUILDING","-","","Singapore","079333","N","+6565765000","","A third-party unaffiliated record keeper","DATA CENTER FOR ELECTRONIC STORAGE"
2005028,"SYMMETRY INVESTMENTS (HONG KONG) LIMITED","1301, THREE EXCHANGE SQUARE","8 CONNAUGHT PLACE","HONG KONG","","Hong Kong","","N","852 3698 9100","852 2303 5799","One of your branch offices or affiliates","LEGAL, REGULATORY AND BUSINESS RECORDS"
2005028,"SYMMETRY INVESTMENTS SINGAPORE PRIVATE LIMITED","#34-61 ONE RAFFLES PLACE","","SINGAPORE","","Singapore","048616","N","+6565766000","","One of your branch offices or affiliates","LEGAL, REGULATORY AND BUSINESS RECORDS"
2005028,"STATE STREET FUND SERVICES (IRELAND) LIMITED","78 SIR JOHN ROGERSON'S QUAY","","DUBLIN","","Ireland","2","N","+1 35317075000","+1 35317075100","A third-party unaffiliated record keeper","LEGAL, REGULATORY AND BUSINESS RECORDS"
2005028,"OPTIONS TECHNOLOGY (ASIA) LTD","UNIT 2202, 100QRC","100 QUEEN'S ROAD CENTRAL","HONG KONG","","Hong Kong","","N","+85231665000","","A third-party unaffiliated record keeper","DATA CENTER FOR ELECTRONIC STORAGE"
2005031,"EQUINIX (UK) LIMITED","COMPUTERSHARE GOVERNANCE SERVICES THE PAVILIONS","BRIDGWATER ROAD","BRISTOL","","United Kingdom","BS13 8FD","N","+44845372900","","A third-party unaffiliated record keeper","DATA CENTER FOR ELECTRONIC STORAGE"
2005031,"SYMMETRY INVESTMENTS (HONG KONG) LIMITED","1301, THREE EXCHANGE SQUARE","8 CONNAUGHT PLACE","HONG KONG","","Hong Kong","","N","852 3698 9100","852 2303 5799","One of your branch offices or affiliates","LEGAL, REGULATORY AND BUSINESS RECORDS"
2005031,"SYMMETRY INVESTMENTS LP","10 LE CAPELAIN HOUSE, CASTLE QUAY","LA RUE DE L'ETAU","ST HELIER","","Jersey","JE2 3EH","N","+442070723100","","One of your branch offices or affiliates","LEGAL, REGULATORY AND BUSINESS RECORDS"
2005031,"SYMMETRY INVESTMENTS UK LLP","4TH FLOOR, 31 ST JAMES'S SQUARE","","LONDON","","United Kingdom","SW1Y 4JR","N","+442070723100","","One of your branch offices or affiliates","LEGAL, REGULATORY AND BUSINESS RECORDS"
2005031,"STATE STREET FUND SERVICES (IRELAND) LIMITED","78 SIR JOHN ROGERSON'S QUAY","","DUBLIN","","Ireland","2","N","+3531 707 5000","+3531 707 5100","A third-party unaffiliated record keeper","LEGAL, REGULATORY AND BUSINESS RECORDS"
2005031,"OPTIONS FINANCIAL TECHNOLOGY PTE LTD","#10-13 & 14, 100 PECK SEAH STREET","PS100 BUILDING","-","","Singapore","079333","N","+6565765000","","A third-party unaffiliated record keeper","DATA CENTER FOR ELECTRONIC STORAGE"
2005031,"SYMMETRY INVESTMENTS SINGAPORE PRIVATE LIMITED","#34-61 ONE RAFFLES PLACE","","SINGAPORE","","Singapore","048616","N","+6565766000","","One of your branch offices or affiliates","LEGAL, REGULATORY AND BUSINESS RECORDS"
2005031,"STARCOMPLIANCE OPERATING, LLC","9200 CORPORATE BLVD.","SUITE 440","ROCKVILLE","MD","United States","20850","N","(301)340-3900","(301)340-3906","A third-party unaffiliated record keeper","CERTAIN BOOKS AND RECORDS RELATING TO BUSINESS OPERATION"
2005031,"OPTIONS TECHNOLOGY LTD","5TH FLOOR, 50 PAUL MALL","","LONDON","","United Kingdom","SW1Y 5JH","N","+442070705000","","A third-party unaffiliated record keeper","DATA CENTER FOR ELECTRONIC STORAGE"
2005031,"GLOBAL RELAY COMMUNICATIONS INC.","220 CAMBIE STREET","","VANCOUVER, BC","","Canada","V6B 2M9","N","866-484-6630","","A third-party unaffiliated record keeper","ELECTRONIC COMMUNICATIONS RECORD OF THE BUSINESS OPERATIONS"
2005031,"SYMMETRY INVESTMENTS CAYMAN LIMITED","OFFICE 1.20, THE WHITE HOUSE","20 GENESIS CL","GEORGE TOWN","","Cayman Islands","KY1-1208","N","+1 345 749 200","","One of your branch offices or affiliates","LEGAL, REGULATORY AND BUSINESS RECORDS"
2005031,"OPTIONS TECHNOLOGY (ASIA) LTD","UNIT 2202, 100QRC","100 QUEEN'S ROAD CENTRAL","HONG KONG","","Hong Kong","","N","+85231665000","","A third-party unaffiliated record keeper","DATA CENTER FOR ELECTRONIC STORAGE"
2005031,"SOCIAL MEDIA COMPLIANCE LIMITED D/B/A DEEPVIEW SOLUTIONS","82 STATION ROAD","BISHOPS CLEEVE","CHELTENHAM","","United Kingdom","GL52 8HJ","N","+442033930633","","A third-party unaffiliated record keeper","ELECTRONIC COMMUNICATIONS REQUIRED TO BE MAINTAINED UNDER RULE 204-2 OF THE INVESTMENT ADVISERS ACT OF 1940, AS AMENDED"
2005032,"SOCIAL MEDIA COMPLIANCE LIMITED D/B/A DEEPVIEW SOLUTIONS","82 STATION ROAD","BISHOPS CLEEVE","CHELTENHAM","","United Kingdom","GL52 8HJ","N","+442033930633","","A third-party unaffiliated record keeper","ELECTRONIC COMMUNICATIONS REQUIRED TO BE MAINTAINED UNDER RULE 204-2 OF THE INVESTMENT ADVISERS ACT OF 1940, AS AMENDED"
2005032,"EQUINIX (UK) LIMITED","COMPUTERSHARE GOVERNANCE SERVICES THE PAVILIONS","BRIDGWATER ROAD","BRISTOL","","United Kingdom","BS13 8FD","N","+44845372900","","A third-party unaffiliated record keeper","DATA CENTER FOR ELECTRONIC STORAGE"
2005032,"SYMMETRY INVESTMENTS SINGAPORE PRIVATE LIMITED","#34-61 ONE RAFFLES PLACE","","SINGAPORE","","Singapore","048616","N","+6565766000","","One of your branch offices or affiliates","LEGAL, REGULATORY AND BUSINESS RECORDS"
2005032,"SYMMETRY INVESTMENTS (HONG KONG) LIMITED","1301, THREE EXCHANGE SQUARE","8 CONNAUGHT PLACE","HONG KONG","","Hong Kong","","N","852 3698 9100","","One of your branch offices or affiliates","LEGAL, REGULATORY AND BUSINESS RECORDS"
2005032,"SYMMETRY INVESTMENTS LP","10 LE CAPELAIN HOUSE, CASTLE QUAY","LA RUE DE L'ETAU","ST HELIER","","Jersey","JE2 3EH","N","+44 2070723100","","One of your branch offices or affiliates","LEGAL, REGULATORY AND BUSINESS RECORDS"
2005032,"STARCOMPLIANCE OPERATING, LLC","9200 CORPORATE BLVD.","SUITE 440","ROCKVILLE","MD","United States","20850","N","(301)340-3900","(301)340-3906","A third-party unaffiliated record keeper","CERTAIN BOOKS AND RECORDS RELATING TO BUSINESS OPERATION"
2005032,"OPTIONS FINANCIAL TECHNOLOGY PTE LTD","#10-13 & 14, 100 PECK SEAH STREET","PS100 BUILDING","SINGAPORE","","Singapore","079333","N","+6565765000","","A third-party unaffiliated record keeper","DATA CENTER FOR ELECTRONIC STORAGE"
2005032,"OPTIONS TECHNOLOGY (ASIA) LTD","UNIT 2202, 100QRC","100 QUEEN'S ROAD CENTRAL","HONG KONG","","Hong Kong","","N","+85231665000","","A third-party unaffiliated record keeper","DATA CENTER FOR ELECTRONIC STORAGE"
2005032,"SYMMETRY INVESTMENTS UK LLP","4TH FLOOR, 31 ST JAMES'S SQUARE","","LONDON","","United Kingdom","SW1Y 4JR","N","+442070723100","","One of your branch offices or affiliates","LEGAL, REGULATORY AND BUSINESS RECORDS"
2005032,"OPTIONS TECHNOLOGY LTD","5TH FLOOR, 50 PAUL MALL","","LONDON","","United Kingdom","SW1Y 5JH","N","000000000","","A third-party unaffiliated record keeper","DATA CENTER FOR ELECTRONIC STORAGE"
2005032,"SYMMETRY INVESTMENTS JERSEY LIMITED","10 LE CAPELAIN HOUSE, CASTLE QUAY","LA RUE DE L'ETAU","ST HELIER","","Jersey","JE2 3EH","N","+44 2070723100","","One of your branch offices or affiliates","LEGAL, REGULATORY AND BUSINESS RECORDS"
2005032,"GLOBAL RELAY COMMUNICATIONS INC.","220 CAMBIE STREET","","VANCOUVER, BC","","Canada","V6B 2M9","N","866-484-6630","","A third-party unaffiliated record keeper","ELECTRONIC COMMUNICATIONS RECORD OF THE BUSINESS OPERATIONS"
2005032,"STATE STREET FUND SERVICES (IRELAND) LIMITED","78 SIR JOHN ROGERSON'S QUAY","","DUBLIN","","Ireland","2","N","+3531 707 5000","+3531 707 5100","A third-party unaffiliated record keeper","LEGAL, REGULATORY AND BUSINESS RECORDS"
2000975,"BRL TRUST INVESTIMENTOS LTDA","R. IGUATEMI, 151 - ITAIM BIBI","","SAO PAULO","","Brazil","01451-011","N","55113133035","","Other","CLIENT ADMINISTRATIVE AND ACCOUNTING RECORDS, COPIES OF WHICH WILL BE MADE AVAILABLE PROMPTLY UPON REQUEST OF THE APPLICANT IN RESPONSETO ANY REQUEST BY THE STAFF OF THE U.S. SECURITIES AND EXCHANGE COMMISSION"
2000975,"OLIVEIRA TRUST DTVM S.A.","RUA JOAQUIM FLORIANO 1052 ITAIM BIBI","13TH FLOOR","SAO PAULO","","Brazil","04534-004","N","55113504 8100","","Other","CLIENT ADMINISTRATIVE AND ACCOUNTING RECORDS, COPIES OF WHICH WILL BE MADE AVAILABLE PROMPTLY UPON REQUEST OF THE APPLICANT IN RESPONSETO ANY REQUEST BY THE STAFF OF THE U.S. SECURITIES AND EXCHANGE COMMISSION"
2000975,"BANCO GENIAL S.A.","AV. BRIGADEIRO FARIA LIMA, 3400","ITAIM BIBI","SAO PAULO","","Brazil","04538-132","N","55113206800","","Other","CLIENT ADMINISTRATIVE AND ACCOUNTING RECORDS, COPIES OF WHICH WILL BE MADE AVAILABLE PROMPTLY UPON REQUEST OF THE APPLICANT IN RESPONSETO ANY REQUEST BY THE STAFF OF THE U.S. SECURITIES AND EXCHANGE COMMISSION"
2006919,"LAB SERVICES PSF S.A.","LAB DATA CENTRE","ZONE INDUSTRIELLE","MUNSBACH","","Luxembourg","L-5366","N","+352 350 222 1","+352350222350","A third-party unaffiliated record keeper","A PORTION OF THE ORIGINAL BOOKS AND RECORDS ARE MAINTAINED BY LAB SERVICES PSF S.A."
2006919,"FRANKLIN RESOURCES, INC.","ONE FRANKLIN PARKWAY","BUILDING 970, 1ST FLOOR","SAN MATEO","CA","United States","94403","N","(650) 312-2000","","One of your branch offices or affiliates","SEE ""MISCELLANEOUS SECTION""."
2006919,"FRANKLIN TEMPLETON SERVICES, LLC","140 FOUNTAIN PARKWAY","","ST. PETERSBURG","FL","United States","33716","N","954-527-7500","954-527-7329","One of your branch offices or affiliates","A PORTION OF THE ORIGINAL BOOKS AND RECORDS ARE MAINTAINED BY FRANKLIN TEMPLETON SERVICES, LLC."
2006644,"NAV CONSULTING INC.","1 TRANS AM PLAZA DR","","OAKBROOK TERRACE","IL","United States","60181","N","6309541919","","A third-party unaffiliated record keeper","PRIVATE FUND RECORDS"
2001762,"IQEQ FUND SERVICES (GUERNSEY) LTD","4TH FLOOR, PLAZA HOUSE","ADMIRAL PARK","ST PETER PORT","","Guernsey","GY1 2HU","N","441481211000","441481211001","A third-party unaffiliated record keeper","CERTAIN BOOKS AND RECORDS RELATED TO ADP II GP LIMITED, AFRICAN DEVELOPMENT PARTNERS II L.P., ADP II GP COMMITMENT L.P., ADP II HOLDING 4 L.P., ADP II HOLDING 7 L.P., ADP II HOLDING 8 L.P., ADP II HOLDING 10 L.P., ADP III GP LIMITED, AFRICAN DEVELOPMENT PARTNERS III L.P., ADP III HOLDING 1 L.P., ADP III EQUITY L.P. INC., ADP III EQUITY GP LIMITED"
2001762,"IQEQ","33 EDITH CAVELL STREET","","PORT LOUIS","","Mauritius","11324","N","441534504000","441534504444","A third-party unaffiliated record keeper","CERTAIN BOOKS AND RECORDS RELATED TO  ADP I GP LIMITED AND ADP I LP."
2001762,"APEX MAURITIUS","APEXCOURT, BANK STREET","TWENTYEIGHT, CYBERCITY","EBENE","","Mauritius","72201","N","2304673000","2304674000","A third-party unaffiliated record keeper","CERTAIN BOOKS AND RECORDS RELATED TO DPI MANAGEMENT LTD, AFRICAN DEVELOPMENT PARTNERS I, LLC, ADP III GP MAURITIUS LIMITED, AFRICAN DEVELOPMENT PARTNERS III MAURITIUS L.P., ADP III MAURITIUS FEEDER 1 L.P. AND ADP III GP HOLDING 3 LIMITED"
2004018,"GESTADOR SA","19-21 RTE D'ARLON","8009 STRASSEN","LUXEMBOURG","","Luxembourg","","N","+352 44 30 64","","One of your branch offices or affiliates","FIRM RECORDS."
2004512,"ALTER DOMUS NORTH AMERICA","257 E. 200 S. SUITE 1300","","SALT LAKE CITY","UT","United States","84111","N","8018694300","","A third-party unaffiliated record keeper","THIS IS THE FUND ADMINISTRATOR."
2003155,"HAYSMACINTYRE LLP","10 QUEEN ST PLACE","","LONDON","","United Kingdom","EC4R 1AG","N","+442079695500","","A third-party unaffiliated record keeper","FINANCIAL RECORDS"
2003155,"APEX FUND AND CORPORATE SERVICES (UK) LTD","6TH FLOOR","125 LONDON WALL","LONDON","","United Kingdom","EC2Y 5AS","N","+447721149638","","A third-party unaffiliated record keeper","INVESTOR RECORDS"
2002388,"AZTEC FINANCIAL SERVICES (GUERNSEY) LIMITED","EAST WING, TRAFALGAR COURT","LES BANQUES","ST PETER PORT","","Guernsey","GY1 3PP","N","01481749700","01481749749","A third-party unaffiliated record keeper","BOOKS AND RECORDS RELATING TO THE TASK OF FUND ADMINISTRATION. INFORMATION RELATING TO THE FUND AND ITS INVESTORS."
2003000,"NAV FUND SERVICES (CAYMAN) LTD.","103 SOUTH CHURCH STREET","HARBOUR PLACE 5TH FLOOR","GEORGE TOWN","","Cayman Islands","KY1-1202","N","630-954-1919","","A third-party unaffiliated record keeper","BOOKS AND RECORDS OF CLIENT ACCOUNTS AND DOCUMENTS."
2003000,"HERMES CORPORATE SERVICES LTD.","FIFTH FLOOR, ZEPHYR HOUSE","122 MARY STREET, PO BOX 31493","GEORGE TOWN","","Cayman Islands","KY1-1206","N","345-749-7591","","A third-party unaffiliated record keeper","BOOKS AND RECORDS OF CLIENT ACCOUNTS AND DOCUMENTS."
2002277,"SS&C TECHNOLOGIES, INC.","80 LAMBERTON ROAD","","WINDSOR","CT","United States","06095","N","860-298-4599","860-371-2503","A third-party unaffiliated record keeper","FUND ACCOUNTING AND ADMINISTRATION RECORDS FOR THE PRIVATE FUNDS."
2002277,"SMARSH","851 SW 6TH AVE.","SUITE 800","PORTLAND","OR","United States","97204","N","8667627741","","A third-party unaffiliated record keeper","ELECTRONIC COMMUNICATIONS ARCHIVE."
2003070,"CARTA, INC.","333 BUSH STREET","FLOOR 23, SUITE 2300","SAN FRANCISCO","CA","United States","94104","N","801-890-7542","","A third-party unaffiliated record keeper","FINANCIAL RECORDS AND LEGAL AGREEMENTS"
2003510,"NAV CONSULTING, INC","1 TRANS AM PLAZA DRIVE","SUITE 400","OAKBROOK TERRACE","IL","United States","60183","N","630-954-1919","","A third-party unaffiliated record keeper","NAV IS THE ADMINISTRATOR FOR THE PRIVATE FUND AND MAINTAINS BOOKS AND RECORDS GENERATED BY NAV RELATED TO THE FUND."
2000615,"LANGHAM HALL (GUERNSEY) LIMITED","2ND FLOOR, DOREY COURT","ELIZABETH AVENUE","ST PETER PORT","","Guernsey","GY1 2HT","N","44 1481 731750","","A third-party unaffiliated record keeper","LANGHAM HALL ARE OUR FUND ADMINISTRATOR, THEY HAVE ACCESS TO ALL DOCUMENTS IN THE FUNDS NAV PACK."
1997068,"MATSACK TRUST LIMITED","70 SIR JOHN ROGERSON'S QUAY","","DUBLIN","","Ireland","2","N","DO2R296","","A third-party unaffiliated record keeper","CLIENT RECORDS"
1997068,"AMAZON.COM INC.","410 TERRY AVENUE NORTH","","SEATTLE","WA","United States","98109","N","206-266-1000","","A third-party unaffiliated record keeper","STORAGE OF CLIENT AND OTHER FILES CONTAINING CONTRACTS, CORRESPONDENCE, RECOMMENDATIONS AND TRANSACTIONS, IN ADDITION TO PROGRAMMING CODE."
1997068,"SMARSH, INC.","851 SW 6TH AVENUE SUITE 800","","PORTLAND","OR","United States","97204","N","866-762-7741","","Other","RETENTION OF ELECTRONIC MESSAGES"
2004405,"INTERNATIONAL FUND MANAGEMENT CORP.","NASSAU PARK SUITES 221/222","111 US HIGHWAY 31","FLEMINGTON","NJ","United States","08822","N","+44 1481 73760","","A third-party unaffiliated record keeper","CERTAIN BOOKS AND RECORDS MAINTAINED BY ADMINISTRATOR."
2001071,"ESHARES","195 PAGE MILL RD","SUITE 101","PALO ALTO","CA","United States","94306","N","650-669-8381","","A third-party unaffiliated record keeper","FUND POSITIONS, FINANCIAL STATEMENTS, HISTORICAL TRANSACTIONS"
2003684,"SMW INVESTMENTS I, LLC","600 TRAVIS, SUITE 5900","","HOUSTON","TX","United States","77002","N","713-224-3100","","One of your branch offices or affiliates","ACCOUNTING RECORDS"
1997726,"JTC FUND SOLUTIONS (IRELAND) LIMITED","45 MESPIL ROAD","DUBLIN 4","DUBLIN","","Ireland","D04 W2F1","N","+35315848450","","A third-party unaffiliated record keeper","MAINTAINS BOOKS AND RECORDS FOR CERTAIN CLIENTS OF THE ADVISER."
2005518,"UMB FUND SERVICES INC.","2225 WASHINGTON BLVD., SUITE 400","","OGDEN","UT","United States","84401","N","801-737-4000","","A third-party unaffiliated record keeper","RELEVANT DOCUMENTATION IN RESPECT OF EACH OF FUNDS IN SECTION 7.(B).(1)."
2001478,"NORTHERN TRUST GLOBAL FUND SERVICES CAYMAN LIMITED","C/O MOURANT GOVERNANCE SERVICES (CAYMAN) LIMITED","94 SOLARIS AVENUE, P.O. BOX 1348","CAMANA BAY, GRAND CAYMAN","","Cayman Islands","KY1-1108","N","+44 20798220","","A third-party unaffiliated record keeper","THE ADMINISTRATOR WILL MAINTAIN RECORDS SUCH AS SUBSCRIPTION DOCUMENTS, CERTAIN FINANCIAL, ACCOUNTING AND ADMINISTRATIVE DOCUMENTS, NAV CALCULATIONS, MANAGEMENT AND PERFORMANCE FEES, AND AML / KYC DOCUMENTATION."
2001478,"GLOBAL RELAY","22 GOSTICK PLACE","","NORTH VANCOUVER","","Canada","V7M 3G3","N","85235895094","","A third-party unaffiliated record keeper","EMAILS & MESSAGES"
2001478,"GLOBAL RELAY","7445 TRANMERE DRIVE","","MISSISSAUGA","","Canada","L5S 1L4","N","85235895094","","A third-party unaffiliated record keeper","EMAILS & MESSAGES"
1999151,"PT ORIENTAL VENTURA INDONESIA","SEQUIS TOWER, 41F","JL JENDERAL SUDIRMAN KAV. 71","SOUTH JAKARTA","","Indonesia","12190","N","+622151015800","","One of your branch offices or affiliates","OPERATIONAL RECORDS"
1999151,"PT. CROWN WORLDWIDE INDONESIA","TAMAN TEKNO, BLOCK D/20","BUMI SERPONG DAMAI","TANGERANG","","Indonesia","15314","N","+622151015800","","A third-party unaffiliated record keeper","LEGAL & INVESTMENT RECORDS"
1999151,"EAST VENTURES ADVISORY PTE. LTD.","22 SIN MING LANE, #08-75","MIDVIEW CITY","SINGAPORE","","Singapore","573969","N","6566848131","","One of your branch offices or affiliates","COMPLIANCE & REGULATORY RECORDS"
2000342,"SS&C TECHNOLOGIES, INC","80 LAMBERTON ROAD","","WINDSOR","CT","United States","06095","N","8002340556","8002340556","A third-party unaffiliated record keeper","SS&C TECHNOLOGIES, INC IS THE INDEPENDENT FUND ADMINISTRATOR TO THE PRIVATE FUND ADVISED BY EMERGING VARIANT CAPITAL MANAGEMENT LP AND MAINTAINS CERTAIN OF THE FUND'S ACCOUNTING BOOKS AND RECORDS."
2000342,"GLOBAL RELAY","220 CAMBIE STREET","2ND FLOOR","VANCOUVER","","Canada","V6B 2M9","N","866.484.6630","","A third-party unaffiliated record keeper","GLOBAL RELAY IS THE EMAIL ARCHIVING SYSTEM OF THE FIRM"
2000572,"C/O JOANNA LOIZIDOU, GERALD EDELMAN LLP","73 CORNHILL","","LONDON","","United Kingdom","EC3V 3QQ","N","4402039208800","","A third-party unaffiliated record keeper","ALL FIRM BOOKS AND RECORDS."
2000572,"LANGHAM HALL (GUERNSEY) LIMITED","2ND FLOOR, DOREY COURT","ELIZABETH AVENUE","ST PETER PORT","","Guernsey","GY1 2HT","N","44 1481 731750","","A third-party unaffiliated record keeper","LANGHAM HALL ARE OUR FUND ADMINISTRATOR, THEY HAVE ACCESS TO ALL DOCUMENTS IN THE FUNDS NAV PACK."
1997880,"THE VANGUARD GROUP, INC.","100 VANGUARD BOULEVARD","","MALVERN","PA","United States","19355","N","610-669-1000","610-669-6600","One of your branch offices or affiliates","STORAGE OF CLIENT AND OTHER FILES IN ADDITION TO PROGRAMMING CODE."
1997880,"IRON MOUNTAIN","2500 HENDERSON DRIVE","","SHARON HILL","PA","United States","19079","N","610-725-0200","","A third-party unaffiliated record keeper","STORAGE OF CLIENT AND OTHER FILES IN ADDITION TO PROGRAMMING CODE."
1997880,"SMARSH, INC.","851 SW 6TH AVE, SUITE 800","","PORTLAND","OR","United States","97204","N","866-762-7741","","Other","RETENTION OF ELECTRONIC MESSAGES"
1997880,"AMAZON.COM, INC.","410 TERRY AVENUE NORTH","","SEATTLE","WA","United States","98109","N","206-266-1000","","Other","STORAGE OF CLIENT AND OTHER FILES CONTAINING CONTRACTS, CORRESPONDENCE, RECOMMENDATIONS AND TRANSACTIONS, IN ADDITION TO PROGRAMMING CODE."
2001189,"ALTER DOMUS NORTH AMERICA","257 E. 200 S. SUITE 1300","","SALT LAKE CITY","UT","United States","84111","N","8018694300","","A third-party unaffiliated record keeper","THIS IS THE FUND ADMINISTRATOR."
2001880,"RIVINGTON PIKE","THE LE GALLAIS BUILDING, 2ND FLOOR","54 BATH STREET","ST. HELIER","","Jersey","JE1 1FW","N","44 7797896675","","A third-party unaffiliated record keeper","BOARD MINUTES AND OTHER INTESTOR INFORMATION."
2001880,"GEN II (JERSEY) LIMITED","THE ESPLANADE","","ST. HELIER","","Jersey","JE1 0BD","N","+44 1534835633","","A third-party unaffiliated record keeper","ACCOUNTING AND INVESTOR RECORDS, INCLUDING BOARD MINUTES."
2002342,"AZTEC FINANCIAL SERVICES (GUERNSEY) LIMITED","EAST WING, TRAFALGAR COURT","LES BANQUES","ST PETER PORT","","Guernsey","GY1 3PP","N","01481749700","01481749749","A third-party unaffiliated record keeper","BOOKS AND RECORDS RELATING TO THE TASK OF FUND ADMINISTRATION. INFORMATION RELATING TO THE FUND AND ITS INVESTORS."
1975568,"HFL LIMITED","SUITE 1, FIRST FLOOR, THE ENERGY CENTRE","ADMIRAL PARK","ST PETER PORT","","Guernsey","GY1 2BB","N","44 1481 722066","","One of your branch offices or affiliates","FINANCIAL RECORDS, INVESTOR RECORDS"
