"FilingID","ReferenceID","Legal Name","Business Name","SEC Number or Other","CRD Number","Type","5a","5b","5c","5d","5e","5f","5g","5h","5i","5j","5k","5l","5m","5n","5o","5p","Control/Controlled","Common Control","Custodian","Exam Exempt","Street 1","Street 2","City","State","Country","Postal Code","Private Residence","IA Exempt","Exemption","Foreign Registered","Share Persons","Share Location"
1999631,294357,"DARWIN GLOBAL FUND GP, LLC","DARWIN GLOBAL FUND GP, LLC","",,"","N","N","N","N","N","Y","N","N","N","N","N","N","N","N","N","Y","N","Y","N","","","","","","","","N","","","N","Y","Y"
1995264,399171,"ABBOT MILL JV LLC","ABBOT MILL JV LLC","",,"","N","N","N","N","N","N","N","N","N","N","N","N","N","N","N","Y","Y","N","N","","","","","","","","N","","","N","Y","Y"
1995264,399172,"EVP MEMBER LLC","EVP MEMBER LLC","",,"","N","N","N","N","N","N","N","N","N","N","N","N","N","N","N","Y","Y","N","N","","","","","","","","N","","","N","Y","Y"
1995264,399173,"LANDINGS MANAGER LLC","LANDINGS MANAGER LLC","",,"","N","N","N","N","N","N","N","N","N","N","N","N","N","N","N","Y","Y","N","N","","","","","","","","N","","","N","Y","Y"
1995264,399174,"CARRIAGE HOUSE JV LLC","CARRIAGE HOUSE JV LLC","",,"","N","N","N","N","N","N","N","N","N","N","N","N","N","N","N","Y","Y","N","N","","","","","","","","N","","","N","Y","Y"
1995264,399175,"STELLAR MEMBER LLC","STELLAR MEMBER LLC","",,"","N","N","N","N","N","N","N","N","N","N","N","N","N","N","N","Y","Y","N","N","","","","","","","","N","","","N","Y","Y"
1995264,399176,"TOP GRAPE HOLDINGS LLC","TOP GRAPE HOLDINGS LLC","",,"","N","N","N","N","N","N","N","N","N","N","N","N","N","N","N","Y","Y","N","N","","","","","","","","N","","","N","Y","Y"
1995264,399168,"TOP BERRY HOLDINGS LLC","TOP BERRY HOLDINGS LLC","",,"","N","N","N","N","N","N","N","N","N","N","N","N","N","N","N","Y","Y","N","N","","","","","","","","N","","","N","Y","Y"
1995264,399167,"VALLEY CENTRE JV LLC","VALLEY CENTRE JV LLC","",,"","N","N","N","N","N","N","N","N","N","N","N","N","N","N","N","Y","Y","N","N","","","","","","","","N","","","N","Y","Y"
1995264,399169,"JSB EXCHANGE MEMBER LLC","JSB EXCHANGE MEMBER LLC","",,"","N","N","N","N","N","N","N","N","N","N","N","N","N","N","N","Y","Y","N","N","","","","","","","","N","","","N","Y","Y"
1995264,399177,"13J BROWARD SOUTH MANAGER, LLC","13J BROWARD SOUTH MANAGER, LLC","",,"","N","N","N","N","N","N","N","N","N","N","N","N","N","N","N","Y","Y","N","N","","","","","","","","N","","","N","Y","Y"
1995264,399178,"JSB HALDEN MANAGER LLC","JSB HALDEN MANAGER LLC","",,"","N","N","N","N","N","N","N","N","N","N","N","N","N","N","N","Y","Y","N","N","","","","","","","","N","","","N","Y","Y"
1995264,399179,"BSLN-FL-1 VO JV LLC","BSLN-FL-1 VO JV LLC","",,"","N","N","N","N","N","N","N","N","N","N","N","N","N","N","N","Y","Y","N","N","","","","","","","","N","","","N","Y","Y"
1995264,399180,"VIVA MEMBER LLC","VIVA MEMBER LLC","",,"","N","N","N","N","N","N","N","N","N","N","N","N","N","N","N","Y","Y","N","N","","","","","","","","N","","","N","Y","Y"
1995264,399170,"ENCLAVE JV LLC","ENCLAVE JV LLC","",,"","N","N","N","N","N","N","N","N","N","N","N","N","N","N","N","Y","Y","N","N","","","","","","","","N","","","N","Y","Y"
2007887,399286,"ENEA GP II, LLC","ENEA GP II, LLC","",,"","N","N","N","N","N","N","N","N","N","N","N","N","N","N","N","Y","N","Y","N","","","","","","","","N","Y","VENTURE CAPITAL FUND ADVISER EXEMPTION","N","Y","Y"
2012117,399972,"PROGRESSION FUND I GP, LLC","PROGRESSION FUND I GP, LLC","",,"","N","N","N","N","N","N","N","N","N","N","N","N","N","N","N","Y","Y","N","N","","","","","","","","N","","","N","Y","Y"
2012117,399973,"PROGRESSION FUND II GP, LLC","PROGRESSION FUND II GP, LLC","",,"","N","N","N","N","N","N","N","N","N","N","N","N","N","N","N","Y","Y","N","N","","","","","","","","N","","","N","Y","Y"
2013131,256789,"DL PARTNERS A FUND GP LTD","DL PARTNERS A FUND GP LTD","",,"","N","Y","N","N","N","Y","N","N","N","N","N","N","N","N","N","Y","N","Y","N","","","","","","","","N","Y","JANUARY 18. 2012 SEC NO ACTION LETTER","N","Y","N"
2013131,256785,"DAVIDE LEONE AND PARTNERS GP LTD","DAVIDE LEONE AND PARTNERS GP LTD","",,"","N","Y","N","N","N","Y","N","N","N","N","N","N","N","N","N","Y","N","Y","N","","","","","","","","N","Y","JANUARY 18. 2012 SEC NO ACTION LETTER","N","N","N"
2013131,397012,"DL PARTNERS F FUND GP LLC","DL PARTNERS F FUND GP LLC","",,"","N","Y","N","N","N","Y","N","N","N","N","N","N","N","N","N","Y","N","Y","N","","","","","","","","N","Y","JANUARY 18. 2012 SEC NO ACTION LETTER","N","N","N"
2013257,125023,"ATV ASSOCIATES VII, LLC","ATV ASSOCIATES VII, LLC","",,"","N","N","N","N","N","N","N","N","N","N","N","N","N","N","N","Y","N","Y","N","","","","","","","","N","","","N","Y","Y"
2013257,125028,"ATV ASSOCIATES VIII, LLC","ATV ASSOCIATES VIII, LLC","",,"","N","N","N","N","N","N","N","N","N","N","N","N","N","N","N","Y","N","Y","N","","","","","","","","N","","","N","Y","Y"
2010625,226607,"BTG PACTUAL PERU S.A SOCIEDAD AGENTE DE BOLSA","BTG PACTUAL PERU S.A SOCIEDAD AGENTE DE BOLSA","",,"","Y","N","N","N","N","N","N","N","N","N","N","N","N","N","N","N","N","Y","N","","","","","","","","N","","","Y","N","N"
2010625,226606,"BTG PACTUAL CASA DE BOLSA S.A., DE C.V","BTG PACTUAL CASA DE BOLSA S.A., DE C.V","",,"","Y","N","N","N","N","N","N","N","N","N","N","N","N","N","N","N","N","Y","N","","","","","","","","N","","","Y","N","N"
2010625,103166,"BANCO BTG PACTUAL S.A.","BANCO BTG PACTUAL S.A.","",,"","N","N","N","N","N","N","N","Y","N","N","N","N","N","N","N","N","Y","Y","N","","","","","","","","N","","","Y","N","Y"
2010625,331684,"BTG PACTUAL ARGENTINA S.A.U.","BTG PACTUAL ARGENTINA S.A.U.","",,"","Y","N","N","N","N","N","N","N","N","N","N","N","N","N","N","N","N","Y","N","","","","","","","","N","","","Y","N","N"
2010625,331693,"BTG PACTUAL PROP GP, LTD","BTG PACTUAL PROP GP, LTD","",,"","N","N","N","N","N","N","N","N","N","N","N","N","N","N","N","Y","N","Y","N","","","","","","","","N","","","N","N","N"
2010625,226609,"BTG PACTUAL TIMBERLAND INVESTMENT GROUP LLC","BTG PACTUAL TIMBERLAND INVESTMENT GROUP LLC","",,"","N","Y","N","N","N","N","N","N","N","N","N","N","N","N","N","N","N","Y","N","","","","","","","","N","N","THE RELYING ADVISER EXEMPTION","N","N","N"
2010625,103170,"BTG PACTUAL ASSET MANAGEMENT US , LLC","BTG PACTUAL ASSET MANAGEMENT US , LLC","801-71004",152538,"","N","Y","N","N","N","N","N","N","N","N","N","N","N","N","N","N","N","Y","N","","","","","","","","N","N","","N","N","N"
2010625,103171,"BTG PACTUAL CTVM S.A.","BTG PACTUAL CTVM S.A.","",,"","Y","N","N","N","N","N","N","N","N","N","N","N","N","N","N","N","N","Y","N","","","","","","","","N","","","Y","N","Y"
2010625,264836,"BANCO BTG PACTUAL S.A. - CAYMAN BRANCH","BANCO BTG PACTUAL S.A. - CAYMAN BRANCH","",,"","N","N","N","N","N","N","N","Y","N","N","N","N","N","N","N","N","N","Y","N","","","","","","","","N","","","Y","N","N"
2010625,226604,"BTG PACTUAL CORRETORA DE RESSEGUROS LTDA","BTG PACTUAL CORRETORA DE RESSEGUROS LTDA","",,"","Y","N","N","N","N","N","N","N","N","N","N","N","N","N","N","N","N","Y","N","","","","","","","","N","","","Y","N","Y"
2010625,148449,"BTG PACTUAL GEST?O DE INV. ALTERNATIVOS LTDA.","BTG PACTUAL GEST?O DE INV. ALTERNATIVOS LTDA.","",,"","N","Y","N","N","N","N","N","N","N","N","N","N","N","N","N","N","N","Y","N","","","","","","","","N","Y","PRIVATE FUND ADVISER EXEMPTION","Y","N","Y"
2010625,103172,"BTG PACTUAL (UK) LIMITED","BTG PACTUAL (UK) LIMITED","",,"","N","Y","N","N","N","N","N","N","N","N","N","N","N","N","N","N","N","Y","N","","","","","","","","N","Y","PRIVATE FUND ADVISER EXEMPTION","Y","N","N"
2010625,331689,"BTG PACTUAL CORRETORA DE TITULOS E VALORES MOBILIARIUS S.A","BTG PACTUAL CORRETORA DE TITULOS E VALORES MOBILIARIUS S.A","",,"","Y","N","N","N","N","N","N","N","N","N","N","N","N","N","N","N","N","Y","N","","","","","","","","N","","","Y","N","N"
2010625,331697,"KAWA CAPITAL MANAGEMENT, INC.","KAWA CAPITAL MANAGEMENT, INC.","",,"","N","Y","N","N","N","N","N","N","N","N","N","N","N","N","N","N","N","Y","N","","","","","","","","N","N","","N","N","N"
2010625,331696,"FXC CORRETORA DE VALORES S.A.","FXC CORRETORA DE VALORES S.A.","",,"","Y","N","N","N","N","N","N","N","N","N","N","N","N","N","N","N","N","Y","N","","","","","","","","N","","","Y","N","N"
2010625,331700,"VITREO DTVM S.A","VITREO DTVM S.A","",,"","N","Y","N","N","N","N","N","N","N","N","N","N","N","N","N","N","N","Y","N","","","","","","","","N","Y","FOREIGN PRIVATE ADVISER","Y","N","N"
2010625,148450,"BTG PACTUAL WM GEST?O DE RECURSOS LTDA.","BTG PACTUAL WM GEST?O DE RECURSOS LTDA.","",,"","N","Y","N","N","N","N","N","N","N","N","N","N","N","N","N","N","N","Y","N","","","","","","","","N","Y","PRIVATE FUND ADVISER EXEMPTION","Y","N","Y"
2010625,331695,"ENGELHART CTP (US) LLC","ENGELHART CTP (US) LLC","",,"","N","N","N","N","N","Y","N","N","N","N","N","N","N","N","N","N","N","Y","N","","","","","","","","N","","","N","N","N"
2010625,264757,"BTG PACTUAL US CAPITAL, LLC","BTG PACTUAL US CAPITAL, LLC","8-68148",149486,"","Y","N","N","N","N","N","N","N","N","N","N","N","N","N","N","N","N","Y","N","","","","","","","","N","","","N","N","N"
2010625,331687,"BTG PACTUAL CHILE S.A. ADMINISTRADORA GENERAL DE FONDOS","BTG PACTUAL CHILE S.A. ADMINISTRADORA GENERAL DE FONDOS","",,"","N","Y","N","N","N","N","N","N","N","N","N","N","N","N","N","N","N","Y","N","","","","","","","","N","Y","FOREIGN PRIVATE ADVISER","Y","N","N"
2010625,331688,"BTG PACTUAL CONSUMER ASSET BACKED INVESTMENT GP LTD","BTG PACTUAL CONSUMER ASSET BACKED INVESTMENT GP LTD","",,"","N","N","N","N","N","N","N","N","N","N","N","N","N","N","N","Y","N","Y","N","","","","","","","","N","","","N","N","N"
2010625,331701,"VITREO GESTAO DE RECURSOS LTDA.","VITREO GESTAO DE RECURSOS LTDA.","",,"","N","Y","N","N","N","N","N","N","N","N","N","N","N","N","N","N","N","Y","N","","","","","","","","N","Y","FOREIGN PRIVATE ADVISER","Y","N","N"
2010625,331694,"BTG PACTUAL RATES GP LTD","BTG PACTUAL RATES GP LTD","",,"","N","N","N","N","N","N","N","N","N","N","N","N","N","N","N","Y","N","Y","N","","","","","","","","N","","","N","N","N"
2010625,331691,"BTG PACTUAL GLOBAL RATES GP LTD","BTG PACTUAL GLOBAL RATES GP LTD","",,"","N","N","N","N","N","N","N","N","N","N","N","N","N","N","N","Y","N","Y","N","","","","","","","","N","","","N","N","N"
2010625,331692,"BTG PACTUAL PORTUGAL UNIPESSOAL, LDA.","BTG PACTUAL PORTUGAL UNIPESSOAL, LDA.","",,"","N","Y","N","N","N","N","N","N","N","N","N","N","N","N","N","N","N","Y","N","","","","","","","","N","Y","FOREIGN PRIVATE ADVISER","Y","N","N"
2010625,331685,"BTG PACTUAL CARRY LP","BTG PACTUAL CARRY LP","",,"","N","N","N","N","N","N","N","N","N","N","N","N","N","N","N","Y","N","Y","N","","","","","","","","N","","","N","N","N"
2010625,331686,"BTG PACTUAL CHILE S.A. ADMINISTRADORA DE FONDOS DE INVESSION DE CAPITAL EXTRANJERO","BTG PACTUAL CHILE S.A. ADMINISTRADORA DE FONDOS DE INVESSION DE CAPITAL EXTRANJERO","",,"","N","Y","N","N","N","N","N","N","N","N","N","N","N","N","N","N","N","Y","N","","","","","","","","N","Y","FOREIGN PRIVATE ADVISER","Y","N","N"
2010625,331698,"OURINVEST S.A. DTVM","OURINVEST S.A. DTVM","",,"","N","Y","N","N","N","N","N","N","N","N","N","N","N","N","N","N","N","Y","N","","","","","","","","N","Y","FOREIGN PRIVATE ADVISER","Y","N","N"
2010625,331699,"PERFIN ADMINISTRACAO DE RECURSOS LTDA.","PERFIN ADMINISTRACAO DE RECURSOS LTDA.","",,"","N","Y","N","N","N","N","N","N","N","N","N","N","N","N","N","N","N","Y","N","","","","","","","","N","Y","FOREIGN PRIVATE ADVISER","Y","N","N"
2010625,103175,"BTG PACTUAL ASSET MANAGEMENT S.A. DTVM","BTG PACTUAL ASSET MANAGEMENT S.A. DTVM","",,"","N","Y","N","N","N","N","N","N","N","N","N","N","N","N","N","N","Y","Y","N","","","","","","","","N","Y","PRIVATE FUND ADVISER EXEMPTION","Y","N","Y"
2010625,226608,"BTG PACTUAL S.A COMISIONISTA DE BOLSA","BTG PACTUAL S.A COMISIONISTA DE BOLSA","",,"","Y","N","N","N","N","N","N","N","N","N","N","N","N","N","N","N","N","Y","N","","","","","","","","N","","","Y","N","N"
2010625,103173,"BTG PACTUAL GLOBAL ASSET MANAGEMENT LTD.","BTG PACTUAL GLOBAL ASSET MANAGEMENT LTD.","",,"","N","Y","N","N","N","Y","N","N","N","N","N","N","N","N","N","N","N","Y","N","","","","","","","","N","Y","PRIVATE FUND ADVISER EXEMPTION","Y","N","N"
2010625,226601,"BTG PACTUAL CHILE S.A. CORREDORES DE BOLSA","BTG PACTUAL CHILE S.A. CORREDORES DE BOLSA","",,"","Y","N","N","N","N","N","N","N","N","N","N","N","N","N","N","N","N","Y","N","","","","","","","","N","","","Y","N","N"
2008356,396027,"JESSE FULTON","JESSE FULTON","",,"","N","N","N","N","N","N","N","N","N","N","Y","N","N","N","N","N","Y","N","N","","","","","","","","N","","","N","N","N"
2008743,223369,"GESTORA NYALA LIMITADA","GESTORA NYALA LIMITADA","",,"","N","N","N","N","N","N","N","N","N","N","N","N","N","N","N","Y","N","Y","N","","","","","","","","N","","","N","Y","N"
2008743,223368,"GESTORA CADMO LIMITADA","GESTORA CADMO LIMITADA","",,"","N","N","N","N","N","N","N","N","N","N","N","N","N","N","N","Y","N","Y","N","","","","","","","","N","","","N","Y","N"
2008743,191892,"GESTORA ANGRA LIMITADA","GESTORA ANGRA LIMITADA","",,"","N","N","N","N","N","N","N","N","N","N","N","N","N","N","N","Y","N","Y","N","","","","","","","","N","","","N","Y","N"
2008743,191904,"SCG MEXICO ASESORES DE NEGOCIOS, S.C.","SCG MEXICO ASESORES DE NEGOCIOS, S.C.","",,"","N","Y","N","N","N","N","N","N","N","N","N","N","N","N","N","N","N","N","N","","","","","","","","N","Y","SEE "MISCELLANEOUS"","N","Y","N"
2008743,198383,"SOUTHERN CROSS CAPITAL PARTNERS","SOUTHERN CROSS CAPITAL PARTNERS","",,"","N","N","N","N","N","N","N","N","N","N","N","N","N","N","N","Y","N","Y","N","","","","","","","","N","","","N","Y","N"
2008743,191890,"ADMINISTRACION DE INVERSIONES LIMITADA","ADMINISTRACION DE INVERSIONES LIMITADA","",,"","N","N","N","N","N","N","N","N","N","N","N","N","N","N","N","Y","N","Y","N","","","","","","","","N","","","N","Y","N"
2008743,191887,"GESTORA METEVCO HOLDING LIMITADA","GESTORA METEVCO HOLDING LIMITADA","",,"","N","N","N","N","N","N","N","N","N","N","N","N","N","N","N","Y","N","Y","N","","","","","","","","N","","","N","Y","N"
2008743,191894,"GESTORA OMEGA LIMITADA","GESTORA OMEGA LIMITADA","",,"","N","N","N","N","N","N","N","N","N","N","N","N","N","N","N","Y","N","Y","N","","","","","","","","N","","","N","Y","N"
2008743,191906,"SOUTHERN CROSS DO BRASIL ADMINISTRADORA DE RECURSOS LTDA.","SOUTHERN CROSS DO BRASIL ADMINISTRADORA DE RECURSOS LTDA.","",,"","N","Y","N","N","N","N","N","N","N","N","N","N","N","N","N","N","N","N","N","","","","","","","","N","Y","SEE MISCELLANEOUS","N","Y","N"
2008743,191878,"SOUTHERN CROSS CAPITAL PARTNERS III, L.P.","SOUTHERN CROSS CAPITAL PARTNERS III, L.P.","",,"","N","N","N","N","N","N","N","N","N","N","N","N","N","N","N","Y","N","Y","N","","","","","","","","N","","","N","Y","N"
2008743,198384,"SOUTHERN CROSS CAPITAL PARTNERS II","SOUTHERN CROSS CAPITAL PARTNERS II","",,"","N","N","N","N","N","N","N","N","N","N","N","N","N","N","N","Y","N","Y","N","","","","","","","","N","","","N","Y","N"
2008743,191900,"LATIN AMERICAN CONSULTING, L.P.","LATIN AMERICAN CONSULTING, L.P.","",,"","N","Y","N","N","N","N","N","N","N","N","N","N","N","N","N","N","N","N","N","","","","","","","","N","Y","SEE "MISCELLANEOUS"","N","Y","N"
2008743,191915,"SCGM S.A.","SCGM S.A.","",,"","N","N","N","N","N","N","N","N","N","N","N","N","N","N","Y","N","Y","Y","N","","","","","","","","N","","","N","Y","N"
2008743,191914,"SBA CAPITAL S.A.","SBA CAPITAL S.A.","",,"","N","N","N","N","N","N","N","N","N","N","N","N","N","N","N","Y","N","Y","N","","","","","","","","N","","","Y","Y","N"
2008743,191899,"SOUTHERN CROSS INVESTMENTS, L.P.","SOUTHERN CROSS INVESTMENTS, L.P.","",,"","N","Y","N","N","N","N","N","N","N","N","N","N","N","N","N","N","N","Y","N","","","","","","","","N","Y","SEE "MISCELLANEOUS"","N","Y","N"
2008743,327156,"CYPRUS SCG CAPITAL PARTNERS, L.P.","CYPRUS SCG CAPITAL PARTNERS, L.P.","",,"","N","N","N","N","N","N","N","N","N","N","N","N","N","N","N","Y","N","Y","N","","","","","","","","N","","","N","Y","N"
2008743,191916,"SOUTHERN CROSS CAPITAL PARTNERS V, L.P.","SOUTHERN CROSS CAPITAL PARTNERS V, L.P.","",,"","N","N","N","N","N","N","N","N","N","N","N","N","N","N","N","Y","N","Y","N","","","","","","","","N","","","N","Y","N"
2008743,191903,"LAC CHILE SPA","LAC CHILE SPA","",,"","N","Y","N","N","N","N","N","N","N","N","N","N","N","N","N","N","N","N","N","","","","","","","","N","Y","SEE "MISCELLANEOUS"","N","Y","Y"
2008743,221857,"SCGMX ADMINISTRADOR DE FIDEICOMISOS SA DE CV","SCGMX ADMINISTRADOR DE FIDEICOMISOS SA DE CV","",,"","N","N","N","N","N","N","N","N","N","N","N","N","N","N","N","Y","N","Y","N","","","","","","","","N","","","N","Y","N"
2008743,191896,"GESTORA EPSILON LIMITADA","GESTORA EPSILON LIMITADA","",,"","N","N","N","N","N","N","N","N","N","N","N","N","N","N","N","Y","N","Y","N","","","","","","","","N","","","N","Y","N"
2008743,205123,"ENERGIA ANDES SUR LIMITADA","ENERGIA ANDES SUR LIMITADA","",,"","N","N","N","N","N","N","N","N","N","N","N","N","N","N","N","Y","N","Y","N","","","","","","","","N","","","N","Y","N"
2008743,293020,"SOUTHERN CROSS CAPITAL PARTNERS EXTENSION IV, L.P.","SOUTHERN CROSS CAPITAL PARTNERS EXTENSION IV, L.P.","",,"","N","N","N","N","N","N","N","N","N","N","N","N","N","N","N","Y","N","Y","N","","","","","","","","N","","","N","Y","N"
2006901,399296,"EVOLUTION JAPAN SECURITIES CO. LTD.","EVOLUTION JAPAN SECURITIES CO. LTD.","",,"","Y","N","N","N","N","N","N","N","N","N","N","N","N","N","N","N","N","Y","Y","","","","","","","","N","","","Y","N","N"
2006901,399295,"EVO CAPITAL MANAGEMENT ASIA LIMITED","EVO CAPITAL MANAGEMENT ASIA LIMITED","",,"","N","Y","N","N","N","N","N","N","N","N","N","N","N","N","N","N","N","Y","N","","","","","","","","N","Y","FAMILY OFFICE EXEMPTION","Y","Y","N"
2009722,399561,"TECH PIONEERS FUND GP-XII, LLC","TECH PIONEERS FUND GP-XII, LLC","",,"","N","N","N","N","N","N","N","N","N","N","N","N","N","N","N","Y","N","Y","N","","","","","","","","N","","","N","Y","Y"
2009722,399539,"TECH PIONEERS FUND GP, LLC","TECH PIONEERS FUND GP, LLC","",,"","N","N","N","N","N","N","N","N","N","N","N","N","N","N","N","Y","N","Y","N","","","","","","","","N","","","N","Y","Y"
2009690,381351,"HALSTED GP, LLC","HALSTED GP, LLC","",,"","N","N","N","N","N","N","N","N","N","N","N","N","N","N","N","Y","Y","Y","N","","","","","","","","N","Y","2005 ABA NO ACTION LETTER","N","Y","Y"
2009690,394903,"MSCP PJL GP, LP","MSCP PJL GP, LP","",,"","N","N","N","N","N","N","N","N","N","N","N","N","N","N","N","Y","Y","Y","N","","","","","","","","N","Y","","N","Y","Y"
2009690,381353,"MSCP FUND I GP, LP","MSCP FUND I GP, LP","",,"","N","N","N","N","N","N","N","N","N","N","N","N","N","N","N","Y","Y","Y","N","","","","","","","","N","Y","2005 ABA NO ACTION LETTER","N","Y","Y"
2009485,399453,"QUANTUMEDGE VENTURES FUND I GP, LLC","QUANTUMEDGE VENTURES FUND I GP, LLC","",,"","N","N","N","N","N","N","N","N","N","N","N","N","N","N","N","Y","Y","Y","N","","","","","","","","N","Y","VENTURE CAPITAL EXEMPTION","N","Y","Y"
2009010,360974,"VIDIA CLIMATE FUND I GP COMMITMENT GMBH & CO. KG","VIDIA CLIMATE FUND I GP COMMITMENT GMBH & CO. KG","",,"","N","N","N","N","N","N","N","N","N","N","N","N","N","N","N","Y","Y","Y","N","","","","","","","","N","","","N","Y","Y"
2009010,360658,"VIDIA CLIMATE FUND I GP GMBH","VIDIA CLIMATE FUND I GP GMBH","",,"","N","N","N","N","N","N","N","N","N","N","N","N","N","N","N","Y","Y","Y","N","","","","","","","","N","","","N","Y","Y"
2009010,365180,"VIDIA VENTURES GMBH","VIDIA VENTURES GMBH","",,"","N","N","N","N","N","N","N","N","N","N","N","N","N","N","N","Y","Y","Y","N","","","","","","","","N","","","N","Y","Y"
2009010,360975,"VIDIA CLIMATE FUND I CARRY GMBH & CO. KG","VIDIA CLIMATE FUND I CARRY GMBH & CO. KG","",,"","N","N","N","N","N","N","N","N","N","N","N","N","N","N","N","Y","Y","Y","N","","","","","","","","N","","","N","Y","Y"
2006909,396030,"RED DOOR CAPITAL MANAGEMENT LIMITED","RED DOOR CAPITAL MANAGEMENT LIMITED","802-119027",305874,"","N","Y","N","N","N","Y","N","N","N","N","N","N","N","N","N","N","N","Y","N","","","","","","","","N","N","","Y","Y","N"
2005923,398930,"MULL HUGOTON FUND I, GP, LLC","MULL HUGOTON FUND I, GP, LLC","",,"","N","N","N","N","N","N","N","N","N","N","N","N","N","N","N","Y","N","Y","N","","","","","","","","N","","","N","Y","N"
1999079,398065,"VERANCE CAPITAL PARTNERS II GP LLC","VERANCE CAPITAL PARTNERS II GP LLC","",,"","N","Y","N","N","N","N","N","N","N","N","N","N","N","N","N","Y","N","Y","N","","","","","","","","N","Y","203(L), VENTURE CAPITAL FUND ADVISER EXEMPTION","N","Y","Y"
2006356,154922,"CITIC SECURITIES INTERNATIONAL GLOBAL MARKETS LIMITED","CITIC SECURITIES INTERNATIONAL GLOBAL MARKETS LIMITED","",,"","Y","N","N","N","N","N","N","N","N","N","N","N","N","N","N","N","N","Y","N","","","","","","","","N","","","Y","Y","N"
2006356,298824,"SUNRISE MANAGEMENT LIMITED III","SUNRISE MANAGEMENT LIMITED III","",,"","N","N","N","N","N","N","N","N","N","N","N","N","N","N","N","Y","N","Y","N","","","","","","","","N","","","N","Y","N"
2006356,113048,"CLSA LIMITED","CLSA LIMITED","",,"","Y","Y","N","N","N","N","N","N","N","N","N","N","N","N","N","N","N","Y","Y","","18/F, ONE PACIFIC PLACE","88 QUEENSWAY","HONG KONG","","Hong Kong","","N","Y","FOREIGN PRIVATE ADVISER","Y","Y","N"
2006356,113057,"CLSA SECURITIES MALAYSIA SDN BHD","CLSA SECURITIES MALAYSIA SDN BHD","",,"","Y","Y","N","N","N","N","N","N","N","N","N","N","N","N","N","N","N","Y","N","","","","","","","","N","Y","FOREIGN PRIVATE ADVISER","Y","N","N"
2006356,113056,"CLSA SECURITIES KOREA LTD","CLSA SECURITIES KOREA LTD","",,"","Y","N","N","N","N","N","N","N","N","N","N","N","N","N","N","N","N","Y","N","","","","","","","","N","N","","Y","N","N"
2006356,322109,"CITIC SECURITIES ASSET MANAGEMENT (HK) LIMITED","CITIC SECURITIES ASSET MANAGEMENT (HK) LIMITED","",,"","N","Y","N","N","N","N","N","N","N","N","N","N","N","N","N","N","N","Y","N","","","","","","","","N","Y","FOREIGN PRIVATE ADVISER","Y","Y","N"
2006356,154924,"CLSA SECURITIES JAPAN CO., LTD.","CLSA SECURITIES JAPAN CO., LTD.","",,"","Y","N","N","N","N","N","N","N","N","N","N","N","N","N","N","N","N","Y","N","","","","","","","","N","","","Y","N","N"
2006356,322108,"CITIC SECURITIES BROKERAGE (HK) LIMITED","CITIC SECURITIES BROKERAGE (HK) LIMITED","",,"","Y","N","N","N","N","N","N","N","N","N","N","Y","N","N","N","N","N","Y","Y","","26/F CITIC TOWER,","1 TIM MEI AVENUE, CENTRAL,","HONG KONG","","Hong Kong","","N","","","Y","Y","N"
2006356,322119,"CLSA CAPITAL PARTNERS (SINGAPORE) PTE. LTD","CLSA CAPITAL PARTNERS (SINGAPORE) PTE. LTD","",,"","N","Y","N","N","N","N","N","N","N","N","N","N","N","N","N","N","Y","Y","N","","","","","","","","N","Y","FOREIGN PRIVATE ADVISER","Y","Y","N"
2006356,322126,"SUNRISE CAPITAL KK","SUNRISE CAPITAL KK","",,"","N","Y","N","N","N","N","N","N","N","N","N","N","N","N","N","N","Y","Y","N","","","","","","","","N","Y","FOREIGN PRIVATE ADVISER","Y","Y","N"
2006356,325207,"CITIC SECURITIES FUTURES (HK) LIMITED","CITIC SECURITIES FUTURES (HK) LIMITED","",,"","Y","N","N","N","N","N","N","N","N","N","N","N","N","N","N","N","N","Y","N","","","","","","","","N","","","Y","Y","N"
2006356,126027,"CLSA SINGAPORE PTE LTD","CLSA SINGAPORE PTE LTD","",,"","Y","Y","N","N","N","N","N","N","N","N","N","N","N","N","N","N","N","Y","N","","","","","","","","N","Y","FOREIGN PRIVATE ADVISER","Y","Y","N"
2006356,288867,"CLSA EUROPE BV","CLSA EUROPE BV","",,"","Y","N","N","N","N","N","N","N","N","N","N","N","N","N","N","N","N","Y","N","","","","","","","","N","N","","Y","Y","N"
2006356,322117,"CITIC SECURITIES INTERNATIONAL USA, LLC","CITIC SECURITIES INTERNATIONAL USA, LLC","8-68887",158266,"","Y","N","N","N","N","N","N","N","N","N","N","N","N","N","N","N","N","Y","N","","","","","","","","N","","","N","N","N"
2006356,322106,"CITIC SECURITIES (HONG KONG) LIMITED","CITIC SECURITIES (HONG KONG) LIMITED","",,"","N","Y","N","N","N","N","N","N","N","N","N","N","N","N","N","N","N","Y","N","","","","","","","","N","Y","FOREIGN PRIVATE ADVISER","Y","N","N"
2006356,298822,"CLSA CLEAN RESOURCES ASIA GROWTH MANAGEMENT LIMITED","CLSA CLEAN RESOURCES ASIA GROWTH MANAGEMENT LIMITED","",,"","N","N","N","N","N","N","N","N","N","N","N","N","N","N","N","Y","N","Y","N","","","","","","","","N","","","N","Y","N"
2006356,113060,"CLSA INDIA PRIVATE LTD","CLSA INDIA PRIVATE LTD","",,"","Y","N","N","N","N","N","Y","N","N","N","N","N","N","N","N","N","N","Y","N","","","","","","","","N","","","Y","Y","N"
2006356,322129,"CLSA CAPITAL PARTNERS KOREA LIMITED","CLSA CAPITAL PARTNERS KOREA LIMITED","",,"","N","Y","N","N","N","N","N","N","N","N","N","N","N","N","N","N","Y","Y","N","","","","","","","","N","Y","FOREIGN PRIVATE ADVISER","Y","Y","N"
2006356,298826,"CLSA SUNRISE MANAGEMENT LIMITED II","CLSA SUNRISE MANAGEMENT LIMITED II","",,"","N","N","N","N","N","N","N","N","N","N","N","N","N","N","N","Y","N","Y","N","","","","","","","","N","","","N","Y","N"
2006356,298819,"CLSA PRIVATE EQUITY MANAGEMENT LIMITED","CLSA PRIVATE EQUITY MANAGEMENT LIMITED","",,"","N","N","N","N","N","N","N","N","N","N","N","N","N","N","N","Y","N","Y","N","","","","","","","","N","","","N","Y","N"
2006356,298825,"LENDING ARK ASIA SECURED PRIVATE DEBT GP LIMITED","LENDING ARK ASIA SECURED PRIVATE DEBT GP LIMITED","",,"","N","N","N","N","N","N","N","N","N","N","N","N","N","N","N","Y","N","Y","N","","","","","","","","N","","","N","Y","N"
2006356,298828,"SUNRISE MANAGEMENT (NON-US) LIMITED IV","SUNRISE MANAGEMENT (NON-US) LIMITED IV","",,"","N","N","N","N","N","N","N","N","N","N","N","N","N","N","N","Y","N","Y","N","","","","","","","","N","","","N","Y","N"
2006356,298823,"CLSA REAL ESTATE CAPITAL PARTNERS LIMITED","CLSA REAL ESTATE CAPITAL PARTNERS LIMITED","",,"","N","N","N","N","N","N","N","N","N","N","N","N","N","N","N","Y","N","Y","N","","","","","","","","N","","","N","Y","N"
2006356,120861,"CLSA AUSTRALIA PTY LTD","CLSA AUSTRALIA PTY LTD","",,"","Y","N","N","N","N","N","N","N","N","N","N","N","N","N","N","N","N","Y","N","","","","","","","","N","","","Y","N","N"
2006356,298827,"SUNRISE MANAGEMENT LIMITED IV","SUNRISE MANAGEMENT LIMITED IV","",,"","N","N","N","N","N","N","N","N","N","N","N","N","N","N","N","Y","N","Y","N","","","","","","","","N","","","N","Y","N"
2006356,120865,"CLSA PHILIPPINES INC.","CLSA PHILIPPINES INC.","",,"","Y","N","N","N","N","N","N","N","N","N","N","N","N","N","N","N","N","Y","N","","","","","","","","N","","","Y","Y","N"
2006356,120860,"CLSA (UK)","CLSA (UK)","",,"","Y","Y","N","N","N","N","N","N","N","N","N","N","N","N","N","N","N","Y","N","","","","","","","","N","Y","FOREIGN PRIVATE ADVISER","Y","Y","N"
2006356,298818,"LENDING ARK ASIA SECURED PRIVATE DEBT MANAGEMENT LIMITED","LENDING ARK ASIA SECURED PRIVATE DEBT MANAGEMENT LIMITED","802-119033",309441,"","N","Y","N","N","N","N","N","N","N","N","N","N","N","N","N","N","N","Y","N","","","","","","","","N","Y","PRIVATE FUND ADVISER","Y","Y","N"
2006356,154923,"CLSA EXCHANGE CAPITAL, INC.","CLSA EXCHANGE CAPITAL, INC.","",,"","N","Y","N","N","N","N","N","N","N","N","N","N","N","N","N","N","N","Y","N","","","","","","","","N","Y","FOREIGN PRIVATE ADVISER","Y","N","N"
2006356,120859,"CLSA GLOBAL MARKETS PTE LTD","CLSA GLOBAL MARKETS PTE LTD","",,"","Y","N","N","N","N","N","N","N","N","N","N","N","N","N","N","N","N","Y","N","","","","","","","","N","","","Y","Y","N"
2006356,154921,"PT CLSA SEKURITAS INDONESIA","PT CLSA SEKURITAS INDONESIA","",,"","Y","N","N","N","N","N","N","N","N","N","N","N","N","N","N","N","N","Y","N","","","","","","","","N","","","Y","Y","N"
2006356,288868,"GOLDSTONE INVESTMENT CO., LTD.","GOLDSTONE INVESTMENT CO., LTD.","",,"","N","Y","N","N","N","N","N","N","N","N","N","N","N","N","N","N","N","Y","N","","","","","","","","N","Y","FOREIGN PRIVATE ADVISER","Y","Y","N"
2006356,298820,"CLSA PRIVATE EQUITY GP LIMITED","CLSA PRIVATE EQUITY GP LIMITED","",,"","N","N","N","N","N","N","N","N","N","N","N","N","N","N","N","Y","N","Y","N","","","","","","","","N","","","N","Y","N"
2006356,154925,"CLSA AMERICAS, LLC","CLSA AMERICAS, LLC","",165533,"","Y","Y","N","N","N","N","N","N","N","N","N","N","N","N","N","N","N","Y","N","","","","","","","","N","N","","N","N","N"
2006356,113062,"CLSA SECURITIES (THAILAND) LTD","CLSA SECURITIES (THAILAND) LTD","",,"","Y","N","N","N","N","N","Y","N","N","N","N","N","N","N","N","N","N","Y","N","","","","","","","","N","","","Y","Y","N"
2006356,298821,"CLSA PRIVATE EQUITY GP V LIMITED","CLSA PRIVATE EQUITY GP V LIMITED","",,"","N","N","N","N","N","N","N","N","N","N","N","N","N","N","N","Y","N","Y","N","","","","","","","","N","","","N","Y","N"
2006356,385970,"SUNRISE MANAGEMENT LIMITED V","SUNRISE MANAGEMENT LIMITED V","",,"","N","N","N","N","N","N","N","N","N","N","N","N","N","N","N","Y","N","Y","N","","","","","","","","N","","","N","Y","N"
2006356,385971,"SUNRISE MANAGEMENT (NON-US) LIMITED V","SUNRISE MANAGEMENT (NON-US) LIMITED V","",,"","N","N","N","N","N","N","N","N","N","N","N","N","N","N","N","Y","N","Y","N","","","","","","","","N","","","N","Y","N"
2002442,398624,"EVAN BUHLER","EVAN BUHLER","",,"","N","N","N","N","N","N","N","N","N","N","Y","N","N","N","N","N","N","Y","N","","","","","","","","N","","","N","Y","Y"
2004883,398850,"ROHATI PRIVATE STRATEGIES I GP, LLC","ROHATI PRIVATE STRATEGIES I GP, LLC","",,"","N","N","N","N","N","N","N","N","N","N","N","N","N","N","N","Y","N","N","N","","","","","","","","N","Y","","N","N","N"
2007644,381007,"FINCH BAY CAPITAL GP LIMITED","FINCH BAY CAPITAL GP LIMITED","",,"","N","N","N","N","N","N","N","N","N","N","N","N","N","N","N","Y","Y","Y","N","","","","","","","","N","","","N","N","N"
2007300,399262,"LOVE GP","LOVE GP","",,"","N","N","N","N","N","N","N","N","N","N","N","N","N","N","N","Y","N","Y","N","","","","","","","","N","","","N","Y","Y"
2011831,299540,"SLIPC (GENERAL PARTNER INFRASTRUCTURE III) SARL","SLIPC (GENERAL PARTNER INFRASTRUCTURE III) SARL","",,"","N","N","N","N","N","N","N","N","N","N","N","N","N","N","N","Y","N","Y","N","","","","","","","","N","","","N","Y","Y"
2011831,299542,"ABRDN INVESTMENTS IRELAND LIMITED","ABRDN INVESTMENTS IRELAND LIMITED","802-116839",304189,"","N","Y","N","N","N","N","N","N","N","N","N","N","N","N","N","N","N","Y","N","","","","","","","","N","Y","ADVISER TO PRIVATE FUNDS IN US OF AUM LESS THAN US$150 MILLION","Y","N","N"
2011831,299539,"SLIPC (GENERAL PARTNER INFRASTRUCTURE II) SARL","SLIPC (GENERAL PARTNER INFRASTRUCTURE II) SARL","",,"","N","N","N","N","N","N","N","N","N","N","N","N","N","N","N","Y","N","Y","N","","","","","","","","N","","","N","Y","Y"
2011831,299288,"ABRDN INVESTMENTS SWITZERLAND AG","ABRDN INVESTMENTS SWITZERLAND AG","",,"","Y","N","N","N","N","N","N","N","N","N","N","N","N","N","N","N","N","Y","N","","","","","","","","N","","","N","N","N"
2011831,299541,"STANDARD LIFE INVESTMENTS (GENERAL PARTNER ELIREF) S.A R.L.","STANDARD LIFE INVESTMENTS (GENERAL PARTNER ELIREF) S.A R.L.","",,"","N","N","N","N","N","N","N","N","N","N","N","N","N","N","N","Y","N","Y","N","","","","","","","","N","","","N","Y","Y"
2011831,124476,"ABRDN INVESTMENTS LIMITED","ABRDN INVESTMENTS LIMITED","801-75074",162309,"","N","Y","N","N","N","N","N","N","N","N","N","N","N","N","N","N","N","Y","N","","","","","","","","N","N","","Y","Y","N"
2011831,140038,"ABRDN INVESTMENTS DEUTSCHLAND AG","ABRDN INVESTMENTS DEUTSCHLAND AG","",,"","N","Y","N","N","N","N","N","N","N","N","N","N","N","N","N","N","N","Y","N","","","","","","","","N","Y","NON-US ADVISER, NO US CLIENTS","Y","N","N"
2011831,242200,"AEROF (LUXEMBOURG) GP S.A.R.L.","AEROF (LUXEMBOURG) GP S.A.R.L.","",,"","N","N","N","N","N","N","N","N","N","N","N","N","N","N","N","Y","N","Y","N","","","","","","","","N","","","N","Y","Y"
2011831,124451,"ABRDN ASIA LIMITED","ABRDN ASIA LIMITED","801-62020",124509,"","N","Y","N","N","N","N","N","N","N","N","N","N","N","N","N","N","N","Y","N","","","","","","","","N","N","","Y","Y","N"
2011831,124229,"ABRDN INC.","ABRDN INC.","801-49966",111069,"","N","Y","N","N","N","Y","N","N","N","N","N","N","N","N","N","N","N","Y","N","","","","","","","","N","N","","Y","Y","N"
2011831,124502,"ABERDEEN FUND DISTRIBUTORS, LLC","ABERDEEN FUND DISTRIBUTORS, LLC","8-67799",146230,"","Y","N","N","N","N","N","N","N","N","N","N","N","N","N","N","N","N","Y","N","","","","","","","","N","N","","N","N","N"
2011831,299291,"ABRDN INVESTMENTS LUXEMBOURG CORPORATE MANAGER S.A R.L.","ABRDN INVESTMENTS LUXEMBOURG CORPORATE MANAGER S.A R.L.","",,"","N","N","N","N","N","N","N","N","N","N","N","N","N","N","N","Y","N","Y","N","","","","","","","","N","","","N","Y","Y"
2011831,284332,"ABRDN (GENERAL PARTNER PFF 2018) S.A.R.L","ABRDN (GENERAL PARTNER PFF 2018) S.A.R.L","",,"","N","N","N","N","N","N","N","N","N","N","N","N","N","N","N","Y","N","Y","N","","","","","","","","N","","","N","Y","Y"
2011831,261553,"ABERDEEN POOLING II GP AB","ABERDEEN POOLING II GP AB","",,"","N","N","N","N","N","N","N","N","N","N","N","N","N","N","N","Y","N","Y","N","","","","","","","","N","","","N","N","N"
2011831,162366,"ABRDN ALTERNATIVE INVESTMENTS LIMITED","ABRDN ALTERNATIVE INVESTMENTS LIMITED","",,"","N","Y","N","N","N","N","N","N","N","N","N","N","N","N","N","N","N","Y","N","","","","","","","","N","Y","NON-US ADVISER, NO US CLIENTS","Y","Y","N"
2011831,345358,"ABERDEEN ASIA IV (GENERAL PARTNER) SARL","ABERDEEN ASIA IV (GENERAL PARTNER) SARL","",,"","N","N","N","N","N","N","N","N","N","N","N","N","N","N","N","Y","N","Y","N","","","","","","","","N","","","N","Y","N"
2011831,140027,"ABRDN HONG KONG LIMITED","ABRDN HONG KONG LIMITED","",,"","N","Y","N","N","N","N","N","N","N","N","N","N","N","N","N","N","N","Y","N","","","","","","","","N","Y","NON-US ADVISER, NO US CLIENTS","Y","Y","N"
2011831,284320,"ABRDN MSPC GENERAL PARTNER S.A.R.L","ABRDN MSPC GENERAL PARTNER S.A.R.L","",,"","N","N","N","N","N","N","N","N","N","N","N","N","N","N","N","Y","N","Y","N","","","","","","","","N","","","N","Y","Y"
2011831,326106,"ABRDN INVESTMENT MANAGEMENT LIMITED","ABRDN INVESTMENT MANAGEMENT LIMITED","",,"","N","Y","N","N","N","N","N","N","N","N","N","N","N","N","N","N","N","Y","N","","","","","","","","N","Y","NON-US ADVISER, NO US CLIENTS","Y","Y","N"
2011831,240809,"ABERDEEN SECONDARIES II GP SARL","ABERDEEN SECONDARIES II GP SARL","",,"","N","N","N","N","N","N","N","N","N","N","N","N","N","N","N","Y","N","Y","N","","","","","","","","N","","","N","Y","Y"
2011831,263213,"ASPER (LUXEMBOURG) GP SARL","ASPER (LUXEMBOURG) GP SARL","",,"","N","N","N","N","N","N","N","N","N","N","N","N","N","N","N","Y","N","Y","N","","","","","","","","N","","","N","Y","Y"
2011831,323102,"ABRDN INVESTMENTS MIDDLE EAST LIMITED","ABRDN INVESTMENTS MIDDLE EAST LIMITED","",,"","Y","N","N","N","N","N","N","N","N","N","N","N","N","N","N","N","N","Y","N","","","","","","","","N","","","Y","N","N"
2012392,120409,"VICTORIA SOUTH AMERICAN PARTNERS II LLC","VICTORIA CAPITAL PARTNERS","801-121817",162188,"","N","Y","N","N","N","Y","N","N","N","N","N","N","N","N","N","Y","N","Y","N","","","","","","","","N","N","","N","Y","Y"
2012392,289910,"VICTORIA CAPITAL PARTNERS SERVICES CO. LLC","VICTORIA CAPITAL PARTNERS","61-1679088",,"","N","N","N","N","N","N","N","N","N","N","Y","N","N","N","N","N","N","Y","N","","","","","","","","N","","","N","Y","Y"
2012392,249376,"VICTORIA SOUTH AMERICAN PARTNERS III LLC","VICTORIA CAPITAL PARTNERS","802-113793",297307,"","N","Y","N","N","N","Y","N","N","N","N","N","N","N","N","N","Y","N","Y","N","","","","","","","","N","Y","PRIVATE FUND ADVISER EXEMPTION (SECTION 203(M))","N","Y","Y"
2008611,380870,"C/M GLOBAL GP, LLC","C/M GLOBAL GP, LLC","",,"","N","N","N","N","N","N","N","N","N","N","N","N","N","N","N","Y","N","Y","N","","","","","","","","N","","","N","Y","Y"
2008611,381033,"NFSO, LLC","NFSO, LLC","",,"","N","N","N","N","N","N","N","N","N","N","N","N","N","N","N","Y","N","Y","N","","","","","","","","N","","","N","Y","Y"
2008611,381032,"MERCER STREET CAPITAL PARTNERS, LLC","MERCER STREET CAPITAL PARTNERS, LLC","802-120419",312786,"","N","Y","N","N","N","N","N","N","N","N","N","N","N","N","N","N","N","Y","N","","","","","","","","N","Y","EXEMPT REPORTING ADVISER; 203(M)-1","N","Y","Y"
2008611,388250,"CAVALRY FUND I MANAGEMENT, LLC","CAVALRY FUND I MANAGEMENT, LLC","",,"","N","Y","N","N","N","N","N","N","N","N","N","N","N","N","N","Y","N","Y","N","","","","","","","","N","Y","ASSETS UNDER MANAGEMENT UNDER $25 MILLION","N","Y","Y"
2008611,388251,"CAVALRY FUND GP, LLC","CAVALRY FUND GP, LLC","",,"","N","N","N","N","N","N","N","N","N","N","N","N","N","N","N","Y","N","Y","N","","","","","","","","N","","","N","Y","Y"
2008611,388006,"SEA OTTER GLOBAL VENTURES, LLC","SEA OTTER GLOBAL VENTURES, LLC","",,"","N","Y","N","N","N","N","N","N","N","N","N","N","N","N","N","N","N","Y","N","","","","","","","","N","Y","EXEMPT REPORTING ADVISER; 203(M)-1","N","Y","Y"
2004963,384900,"HALO CAPITAL GP LLC","HALO CAPITAL  GP LLC","",,"","N","N","N","N","N","N","N","N","N","N","N","N","N","N","N","Y","Y","N","N","","","","","","","","N","N","","N","Y","Y"
2012137,382014,"MONOGRAPH CAPITAL PARTNERS I GENPAR, L.P.","MONOGRAPH CAPITAL PARTNERS I GENPAR, L.P.","",,"","N","N","N","N","N","Y","N","N","N","N","N","N","N","N","N","Y","N","Y","N","","","","","","","","N","","","N","Y","Y"
2012137,310655,"MONOGRAPH CAPITAL ADVISORS (UK), LLP","MONOGRAPH CAPITAL ADVISORS (UK), LLP","802-122326",315848,"","N","Y","N","N","N","N","N","N","N","N","N","N","N","N","N","N","N","Y","N","","","","","","","","N","Y","VC FUND ADVISER EXEMPTION","N","Y","Y"
2012137,310654,"MONOGRAPH CAPITAL PARTNERS II GENPAR, L.P.","MONOGRAPH CAPITAL PARTNERS II GENPAR, L.P.","",,"","N","N","N","N","N","Y","N","N","N","N","N","N","N","N","N","Y","N","Y","N","","","","","","","","N","","","N","Y","Y"
2012140,310785,"MONOGRAPH CAPITAL ADVISORS, L.P.","MONOGRAPH CAPITAL ADVISORS, L.P.","802-122325",315988,"","N","Y","N","N","N","N","N","N","N","N","N","N","N","N","N","N","N","Y","N","","","","","","","","N","Y","VC FUND ADVISER EXEMPTION","N","Y","Y"
2012140,382015,"MONOGRAPH CAPITAL PARTNERS II GENPAR, L.P.","MONOGRAPH CAPITAL PARTNERS II GENPAR, L.P.","",,"","N","N","N","N","N","Y","N","N","N","N","N","N","N","N","N","Y","N","Y","N","","","","","","","","N","","","N","Y","N"
2012140,310827,"MONOGRAPH CAPITAL PARTNERS I GENPAR, L.P.","MONOGRAPH CAPITAL PARTNERS I GENPAR, L.P.","",,"","N","N","N","N","N","Y","N","N","N","N","N","N","N","N","N","Y","N","Y","N","","","","","","","","N","","","N","Y","N"
2011357,399908,"CLEARGATE CAPITAL PARTNERS FUND I GP, LP","CLEARGATE CAPITAL PARTNERS FUND I GP, LP","",,"","N","N","N","N","N","N","N","N","N","N","N","N","N","N","N","Y","N","Y","N","","","","","","","","N","","","N","Y","Y"
2009171,315568,"SPACE SUMMIT CAPITAL GP LLC","SPACE SUMMIT CAPITAL GP LLC","",,"","N","N","N","N","N","N","N","N","N","N","N","N","N","N","N","Y","N","Y","N","","","","","","","","N","","","N","Y","Y"
2008669,399407,"CLOUDFORM STRATEGIES FUND, LP","CLOUDFORM STRATEGIES FUND, LP","",,"","N","N","N","N","N","N","N","N","N","N","N","N","N","N","N","Y","Y","Y","N","","","","","","","","N","","","N","N","Y"
2011030,400058,"ACCRETE CAPITAL HOLDINGS, LLC","ACCRETE CAPITAL HOLDINGS, LLC","",,"","N","N","N","N","N","N","N","N","N","N","N","N","N","N","N","Y","N","Y","N","","","","","","","","N","","","N","N","Y"
2011030,400057,"ACCRETE HOLDING SCSP","ACCRETE HOLDING SCSP","",,"","N","N","N","N","N","N","N","N","N","N","N","N","N","N","N","Y","N","Y","N","","","","","","","","N","","","N","N","Y"
2011030,399869,"ACCRETE GP, LLC","ACCRETE GP, LLC","",,"","N","N","N","N","N","N","N","N","N","N","N","N","N","N","N","Y","N","Y","N","","","","","","","","N","","","N","N","Y"
2011030,399870,"ACCRETE MANAGEMENT LIMITED","ACCRETE MANAGEMENT LIMITED","",,"","N","N","N","N","N","N","N","N","N","N","N","N","N","N","N","Y","N","Y","N","","","","","","","","N","N","","N","N","Y"
2002573,339372,"LGVP CARRY LLC","LGVP CARRY LLC","",,"","N","N","N","N","N","N","N","N","N","N","N","N","N","N","N","Y","N","Y","N","","","","","","","","N","","","N","Y","Y"
2002573,339374,"LGVP PARTNERS, LLC","LGVP PARTNERS, LLC","",,"","N","N","N","N","N","N","N","N","N","N","N","N","N","N","N","Y","N","Y","N","","","","","","","","N","","","N","Y","Y"
2002573,339369,"LGVP PARTNERS II, LLC","LGVP PARTNERS II, LLC","",,"","N","N","N","N","N","N","N","N","N","N","N","N","N","N","N","Y","N","Y","N","","","","","","","","N","","","N","Y","Y"
2013238,352941,"LIGHTSTONE SINGAPORE ASSOCIATES, LLC","LIGHTSTONE SINGAPORE ASSOCIATES, LLC","",,"","N","N","N","N","N","N","N","N","N","N","N","N","N","N","N","Y","N","Y","N","","","","","","","","N","","","N","Y","Y"
2013238,202090,"LSV ASSOCIATES, LLC","LSV ASSOCIATES, LLC","",,"","N","N","N","N","N","N","N","N","N","N","N","N","N","N","N","Y","N","Y","N","","","","","","","","N","","","N","Y","Y"
2013238,245277,"LSV ASSOCIATES II, LLC","LSV ASSOCIATES II, LLC","",,"","N","N","N","N","N","N","N","N","N","N","N","N","N","N","N","Y","N","Y","N","","","","","","","","N","","","N","Y","Y"
2013238,322092,"LSV ASSOCIATES III, LLC","LSV ASSOCIATES III, LLC","",,"","N","N","N","N","N","N","N","N","N","N","N","N","N","N","N","Y","N","Y","N","","","","","","","","N","","","N","Y","Y"
2006081,398990,"NAYA CAPITAL MANAGEMENT UK LIMITED","NAYA CAPITAL MANAGEMENT UK LIMITED","801-113859",166159,"","N","Y","N","N","N","N","N","N","N","N","N","N","N","N","N","N","Y","N","N","","","","","","","","N","N","","Y","Y","N"
2006081,398991,"NAYA (GP) LIMITED","NAYA (GP) LIMITED","EIN: 98-1049102",,"","N","N","N","N","N","N","N","N","N","N","N","N","N","N","N","Y","N","Y","N","","","","","","","","N","N","","N","Y","N"
2006384,399010,"TECHNEXUS VENTURES LLC","JV PARTNERS","",,"","N","N","N","N","N","N","N","N","N","N","N","N","N","N","N","Y","Y","Y","N","","","","","","","","N","","","N","Y","Y"
2006384,399011,"TN-BC HOLDINGS LLC","JV PARTNERS","",,"","N","N","N","N","N","N","N","N","N","N","N","N","N","N","N","Y","Y","Y","N","","","","","","","","N","","","N","Y","Y"
2006384,399012,"TN-GR HOLDINGS LLC","JV PARTNERS","",,"","N","N","N","N","N","N","N","N","N","N","N","N","N","N","N","Y","Y","Y","N","","","","","","","","N","","","N","Y","Y"
2006384,399013,"TN-SH HOLDINGS LLC","JV PARTNERS","",,"","N","N","N","N","N","N","N","N","N","N","N","N","N","N","N","Y","Y","Y","N","","","","","","","","N","","","N","Y","Y"
2006384,399014,"TN-SH HOLDINGS LLC","JV PARTNERS","",,"","N","N","N","N","N","N","N","N","N","N","N","N","N","N","N","Y","Y","Y","N","","","","","","","","N","","","N","Y","Y"
2006384,399015,"TN-LF HOLDINGS LLC","JV PARTNERS","",,"","N","N","N","N","N","N","N","N","N","N","N","N","N","N","N","Y","Y","Y","N","","","","","","","","N","","","N","Y","Y"
2006384,399016,"PODFUND, INC.","JV PARTNERS","",,"","N","N","N","N","N","N","N","N","N","N","N","N","N","N","N","Y","Y","Y","N","","","","","","","","N","","","N","Y","Y"
2006384,399017,"TN-AR HOLDINGS LLC","JV PARTNERS","",,"","N","N","N","N","N","N","N","N","N","N","N","N","N","N","N","Y","Y","Y","N","","","","","","","","N","","","N","Y","Y"
2006384,399002,"TN-TH HOLDINGS LLC","JV PARTNERS","",,"","N","N","N","N","N","N","N","N","N","N","N","N","N","N","N","Y","Y","Y","N","","","","","","","","N","","","N","Y","Y"
2006160,120972,"DAC VALUE GP LP","DAC VALUE GP LP","",,"","N","N","N","N","N","N","N","N","N","N","N","N","N","N","N","Y","N","Y","N","","","","","","","","N","","","N","Y","Y"
2008243,399405,"SUPERNATURAL VENTURES FUND GP, LLC","SUPERNATURAL VENTURES FUND GP, LLC","",,"","N","Y","N","N","N","N","N","N","N","N","N","N","N","N","N","Y","N","Y","N","","","","","","","","N","Y","VENTURE CAPITAL FUND ADVISER EXEMPTION","N","Y","Y"
2012375,307205,"H VENTURE PARTNERS I GP, LLC","H VENTURE PARTNERS I GP, LLC","",,"","N","N","N","N","N","N","N","N","N","N","N","N","N","N","N","Y","N","Y","N","","","","","","","","N","","","N","Y","Y"
2012375,319260,"H VENTURE PARTNERS II GP, LLC","H VENTURE PARTNERS II GP, LLC","",,"","N","N","N","N","N","N","N","N","N","N","N","N","N","N","N","Y","N","Y","N","","","","","","","","N","","","N","Y","Y"
2007544,399257,"AQUEDUCT CAPITAL GROUP, LLC","AQUEDUCT CAPITAL GROUP, LLC","8-66464",131452,"","Y","N","N","N","N","N","N","N","N","N","N","N","N","N","N","N","N","Y","N","","","","","","","","N","","","N","N","Y"
2007544,365238,"HARRIS WILLIAMS & CO. CORPORATE FINANCE ADVISORS GMBH","HARRIS WILLIAMS & CO. CORPORATE FINANCE ADVISORS GMBH","",,"","Y","N","N","N","N","N","N","N","N","N","N","N","N","N","N","N","N","Y","N","","","","","","","","N","","","N","N","N"
2007544,327094,"PNC STEEL CITY ADVISORS, LLC","PNC STEEL CITY ADVISORS, LLC","801-80567",172658,"","N","Y","N","N","N","N","N","N","N","N","N","N","N","N","N","N","N","Y","N","","","","","","","","N","N","","N","N","N"
2007544,287287,"HARRIS WILLIAMS PRIVATE CAPITAL ADVISORY, LTD.","HARRIS WILLIAMS PRIVATE CAPITAL ADVISORY, LTD.","N/A",,"","Y","N","N","N","N","N","N","N","N","N","N","N","N","N","N","N","N","Y","N","","","","","","","","N","","","Y","Y","N"
2007544,327279,"ALLEGHENY CAPITAL PARTNERS II, LLC","ALLEGHENY CAPITAL PARTNERS II, LLC","",,"","N","Y","N","N","N","N","N","N","N","N","N","N","N","N","N","N","N","Y","N","","","","","","","","N","N","","N","N","N"
2007544,327237,"PNC MEZZANINE MANAGEMENT CORP","PNC MEZZANINE MANAGEMENT CORP","802-108652",157565,"","N","Y","N","N","N","N","N","N","N","N","N","N","N","N","N","N","N","Y","N","","","","","","","","N","N","","N","N","N"
2007544,327072,"PNC CAPITAL ADVISORS LLC","PNC CAPITAL ADVISORS LLC","801-70684",151829,"","N","Y","N","N","N","N","N","N","N","N","N","N","N","N","N","N","N","Y","N","","","","","","","","N","N","","N","N","N"
2007544,365237,"HARRIS WILLIAMS & CO. LTD","HARRIS WILLIAMS & CO. LTD","",,"","Y","N","N","N","N","N","N","N","N","N","N","N","N","N","N","N","N","Y","N","","","","","","","","N","","","Y","N","N"
2007544,327273,"PNC MANAGED ACCOUNT SOLUTIONS, INC.","PNC MANAGED ACCOUNT SOLUTIONS, INC.","801-56131",110476,"","N","Y","N","N","N","N","N","N","N","N","N","N","N","N","N","N","N","Y","N","","","","","","","","N","N","","N","N","N"
2007544,327073,"PNC CAPITAL MARKETS LLC","PNC CAPITAL MARKETS LLC","8-32493",15647,"","Y","N","N","N","N","N","N","N","N","N","N","N","N","N","N","N","N","Y","N","","","","","","","","N","","","N","N","N"
2007544,273402,"HARRIS WILLIAMS LLC","HARRIS WILLIAMS","8-53380",113930,"","Y","N","N","N","N","N","N","N","N","N","N","N","N","N","N","N","N","Y","N","","","","","","","","N","N","","N","Y","Y"
2007544,273403,"PNC BANK, NATIONAL ASSOCIATION","PNC BANK, NATIONAL ASSOCIATION","",,"","N","N","N","N","N","N","N","Y","N","N","N","N","N","N","N","N","N","Y","N","","","","","","","","N","N","","N","N","N"
2007544,327096,"SOLEBURY CAPITAL LLC","SOLEBURY CAPITAL LLC","8-67548",143299,"","Y","N","N","N","N","N","N","N","N","N","N","N","N","N","N","N","N","Y","N","","","","","","","","N","N","","N","N","N"
2007544,246911,"SP CAPITAL FUND GP, LLC","SP CAPITAL FUND GP, LLC","",,"","N","N","N","N","N","N","N","N","N","N","N","N","N","N","N","Y","N","Y","N","","","","","","","","N","","","N","Y","Y"
2007544,327077,"PNC INVESTMENTS LLC","PNC INVESTMENTS","801-66195",129052,"","Y","Y","N","N","N","N","N","N","N","N","N","N","N","N","N","N","N","Y","N","","","","","","","","N","N","","N","N","N"
2007544,327095,"PNC TC, LLC","PNC REAL ESTATE","801-80546",172753,"","N","Y","N","N","N","N","N","N","N","N","N","N","N","N","N","N","N","Y","N","","","","","","","","N","N","","N","N","N"
2010799,370546,"ALGEBRIS STRATEGIES HOLDCO LIMITED","ALGEBRIS STRATEGIES HOLDCO LIMITED","",,"","N","N","N","N","N","N","N","N","N","N","N","N","N","N","N","Y","N","Y","N","","","","","","","","N","N","","N","Y","Y"
2010799,215257,"ALGEBRIS INVESTMENTS (ASIA) PTE. LTD","ALGEBRIS INVESTMENTS (ASIA) PTE. LTD","",,"","N","Y","N","N","N","N","N","N","N","N","N","N","N","N","N","N","N","Y","N","","","","","","","","N","Y","FOREIGN ADVISER WITH NO U.S. CLIENTS","Y","Y","N"
2010799,215260,"ALGEBRIS INVESTMENTS (US) INC.","ALGEBRIS INVESTMENTS (US) INC.","801-78692",169236,"","N","Y","N","N","N","N","N","N","N","N","N","N","N","N","N","N","N","Y","N","","","","","","","","N","N","","N","Y","N"
2010799,266253,"ALGEBRIS INVESTMENTS K.K.","ALGEBRIS INVESTMENTS K.K.","",,"","N","Y","N","N","N","N","N","N","N","N","N","N","N","N","N","N","N","Y","N","","","","","","","","N","Y","FOREIGN ADVISER WITH NO U.S. CLIENTS","Y","Y","N"
2010799,298004,"ALGEBRIS INVESTMENTS (IRELAND) LIMITED","ALGEBRIS INVESTMENTS (IRELAND) LIMIITED","",,"","N","Y","N","N","N","Y","N","N","N","N","N","N","N","N","N","N","N","Y","N","","","","","","","","N","Y","FOREIGN ADVISER WITH NO U.S. CLIENTS","Y","Y","N"
2005840,398933,"F2E PARTNERS GP, LLC","F2E PARTNERS GP, LLC","",,"","N","N","N","N","N","N","N","N","N","N","N","N","N","N","N","Y","N","Y","N","","","","","","","","N","","","N","Y","Y"
2010751,399042,"LOLA CAPITAL PARTNERS GROWTH I GP, LLC","LOLA CAPITAL PARTNERS GROWTH I GP, LLC","",,"","N","N","N","N","N","N","N","N","N","N","N","N","N","N","N","Y","N","Y","N","","","","","","","","N","","","N","Y","Y"
2010751,395771,"LOLA CAPITAL PARTNERS I GP, LLC","LOLA CAPITAL PARTNERS I GP, LLC","",,"","N","N","N","N","N","N","N","N","N","N","N","N","N","N","N","Y","N","Y","N","","","","","","","","N","","","N","Y","Y"
2008945,313624,"GUMI CRYPTOS CAPITAL II GP (PARALLEL), LLC","GUMI CRYPTOS CAPITAL II GP (PARALLEL), LLC","",,"","N","N","N","N","N","N","N","N","N","N","N","N","N","N","N","Y","N","Y","N","","","","","","","","N","","","N","Y","Y"
2008945,312099,"GUMI CRYPTOS CAPITAL II GP, LLC","GUMI CRYPTOS CAPITAL II GP, LLC","",,"","N","N","N","N","N","N","N","N","N","N","N","N","N","N","N","Y","N","Y","N","","","","","","","","N","","","N","Y","Y"
2008945,313621,"GUMI CRYPTOS CAPITAL II GP, LP","GUMI CRYPTOS CAPITAL II GP, LP","",,"","N","N","N","N","N","N","N","N","N","N","N","N","N","N","N","Y","N","Y","N","","","","","","","","N","","","N","Y","Y"
2008945,313622,"GUMI CRYPTOS CAPITAL II GP (PARALLEL), LP","GUMI CRYPTOS CAPITAL II GP (PARALLEL), LP","",,"","N","N","N","N","N","N","N","N","N","N","N","N","N","N","N","Y","N","Y","N","","","","","","","","N","","","N","Y","Y"
2005831,341221,"MILLENNIUM NEW HORIZONS II,GP, LP","MILLENNIUM NEW HORIZONS II,GP, LP","",,"","N","N","N","N","N","N","N","N","N","N","N","N","N","N","N","Y","N","Y","N","","","","","","","","N","","","N","Y","Y"
2005831,341220,"MILLENNIUM NEW HORIZONS I, GP, LP","MILLENNIUM NEW HORIZONS I, GP, LP","",,"","N","N","N","N","N","N","N","N","N","N","N","N","N","N","N","Y","N","Y","N","","","","","","","","N","","","N","Y","Y"
2010812,252244,"IPG USA (GP) LLC","IPG USA (GP) LLC","",,"","N","N","N","N","N","N","N","N","N","N","N","N","N","N","N","Y","N","Y","N","","","","","","","","N","","","N","N","N"
2010970,105104,"3I INDIA PRIVATE LIMITED","3I INDIA","",,"","N","Y","N","N","N","N","N","N","N","N","N","N","N","N","N","N","N","Y","N","","","","","","","","N","Y","PUBLISHED SEC GUIDANCE","N","N","N"
2010970,309399,"3I FRANCE SAS","3I FRANCE SAS","",,"","N","Y","N","N","N","N","N","N","N","N","N","N","N","N","N","N","N","Y","N","","","","","","","","N","Y","PUBLISHED SEC GUIDANCE","N","N","N"
2010970,105103,"3I DEUTSCHLAND GESELLESCHAFT FUR INDUSTRIEBETEILIGUNGEN MBH","3I DEUTSCHLAND","",,"","N","Y","N","N","N","N","N","N","N","N","N","N","N","N","N","N","N","Y","N","","","","","","","","N","Y","PUBLISHED SEC GUIDANCE","N","Y","N"
2010970,105111,"3I CORPORATION","3I CORPORATION","801-73360",159892,"","N","Y","N","N","N","N","N","N","N","N","N","N","N","N","N","N","N","Y","N","","","","","","","","N","N","","N","Y","N"
2010970,126026,"3I GC GP LIMITED","3I GC GP LIMITED","",,"","N","N","N","N","N","N","N","N","N","N","N","N","N","N","N","Y","N","Y","N","","","","","","","","N","","","N","Y","Y"
2010970,126420,"3I NORTH AMERICAN INFRASTRUCTURE PARTNERS, LLC","3I NORTH AMERICAN INFRASTRUCTURE PARTNERS, LLC","",318060,"","N","Y","N","N","N","N","N","N","N","N","N","N","N","N","N","N","N","Y","N","","","","","","","","N","N","","N","N","N"
2010970,309398,"3I BENELUX B.V.","3I BENELUX B.V.","",,"","N","Y","N","N","N","N","N","N","N","N","N","N","N","N","N","N","N","Y","N","","","","","","","","N","Y","PUBLISHED SEC GUIDANCE","N","Y","N"
2010970,270834,"3I INVESTMENTS (LUXEMBOURG) S.A.","3I INVESTMENTS (LUXEMBOURG) S.A.","",,"","N","Y","N","N","N","N","N","N","N","N","N","N","N","N","N","N","N","Y","N","","","","","","","","N","Y","SECTION 203(B)(3)","Y","Y","N"
2006452,309568,"INTERMEDIATE CAPITAL ASIA PACIFIC IV GP LP SCSP","INTERMEDIATE CAPITAL ASIA PACIFIC IV GP LP SCSP","",,"","N","N","N","N","N","N","N","N","N","N","N","N","N","N","N","Y","N","Y","N","","","","","","","","N","","","N","Y","N"
2006452,247510,"ICG MANAGER LIMITED","ICG MANAGER LIMITED","802-75696",161919,"","Y","Y","N","N","N","Y","N","N","N","N","N","N","N","N","N","N","N","Y","N","","","","","","","","N","Y","UNI BANCO LINE OF SEC NO ACTION LETTERS","Y","Y","N"
2006452,271839,"ICG AUGUSTA PARTNERS GP LP","ICG AUGUSTA PARTNERS GP LP","",,"","N","N","N","N","N","N","N","N","N","N","N","N","N","N","N","Y","N","Y","N","","","","","","","","N","","","N","Y","N"
2006452,271838,"ICG AUGUSTA ASSOCIATES LLC","ICG AUGUSTA ASSOCIATES LLC","",,"","N","N","N","N","N","N","N","N","N","N","N","N","N","N","N","Y","N","Y","N","","","","","","","","N","","","N","Y","N"
2006452,309554,"ICG EUROPE FUND VI LUX GP SARL","ICG EUROPE FUND VI LUX GP SARL","",,"","N","N","N","N","N","N","N","N","N","N","N","N","N","N","N","Y","N","Y","N","","","","","","","","N","","","N","Y","N"
2006452,309551,"ICG DEBT ADVISORS LLC - MANAGER SERIES","ICG DEBT ADVISORS LLC - MANAGER SERIES","",,"","N","Y","N","N","N","Y","N","N","N","N","N","N","N","N","N","N","N","Y","N","","","","","","","","N","N","","N","Y","N"
2006452,309561,"ICG PRIVATE MARKETS GP SARL","ICG PRIVATE MARKETS GP SARL","",,"","N","N","N","N","N","N","N","N","N","N","N","N","N","N","N","Y","N","Y","N","","","","","","","","N","","","N","Y","N"
2006452,309566,"ICG STRATEGIC EQUITY SIDE CAR I GP LP","ICG STRATEGIC EQUITY SIDE CAR I GP LP","",,"","N","N","N","N","N","N","N","N","N","N","N","N","N","N","N","Y","N","Y","N","","","","","","","","N","","","N","Y","N"
2006452,271846,"ICG VELOCITY CO-INVESTOR ASSOCIATES LLC","ICG VELOCITY CO-INVESTOR ASSOCIATES LLC","",,"","N","N","N","N","N","N","N","N","N","N","N","N","N","N","N","Y","N","Y","N","","","","","","","","N","","","N","Y","N"
2006452,356216,"ICG EUROPE FUND VIII GP S.A R.L.","ICG EUROPE FUND VIII GP S.A R.L.","",,"","N","N","N","N","N","N","N","N","N","N","N","N","N","N","N","Y","N","Y","N","","","","","","","","N","","","N","Y","N"
2006452,309464,"ICG NORTH AMERICAN PRIVATE DEBT (OFFSHORE) GP LP","ICG NORTH AMERICAN PRIVATE DEBT (OFFSHORE) GP LP","",,"","N","N","N","N","N","N","N","N","N","N","N","N","N","N","N","Y","N","Y","N","","","","","","","","N","","","N","Y","N"
2006452,356218,"ICG EUROPE MID-MARKET FUND GP SARL","ICG EUROPE MID-MARKET FUND GP SARL","",,"","N","N","N","N","N","N","N","N","N","N","N","N","N","N","N","Y","N","Y","N","","","","","","","","N","","","N","Y","N"
2006452,356382,"ICG EXCELSIOR GP LP SCSP","ICG EXCELSIOR GP LP SCSP","",,"","N","N","N","N","N","N","N","N","N","N","N","N","N","N","N","Y","N","Y","N","","","","","","","","N","","","N","Y","N"
2006452,356390,"ICG US SENIOR LOAN FUND G.P. LTD.","ICG US SENIOR LOAN FUND G.P. LTD.","",,"","N","N","N","N","N","N","N","N","N","N","N","N","N","N","N","Y","N","Y","N","","","","","","","","N","","","N","Y","N"
2006452,356217,"ICG EUROPE MID-MARKET FUND II GP S.A R.L.","ICG EUROPE MID-MARKET FUND II GP S.A R.L.","",,"","N","N","N","N","N","N","N","N","N","N","N","N","N","N","N","Y","N","Y","N","","","","","","","","N","","","N","Y","N"
2006452,356391,"ICG VELOCITY CO-INVESTOR GP LP","ICG VELOCITY CO-INVESTOR GP LP","",,"","N","N","N","N","N","N","N","N","N","N","N","N","N","N","N","Y","N","Y","N","","","","","","","","N","","","N","Y","N"
2006452,356392,"ICG PLC","ICG PLC","",,"","N","Y","N","N","N","N","N","N","N","N","N","N","N","N","N","N","Y","N","N","","","","","","","","N","Y","FOREIGN PRIVATE ADVISER","N","Y","N"
2006452,271841,"ICG NORTH AMERICA ASSOCIATES LLC","ICG NORTH AMERICA ASSOCIATES LLC","",,"","N","N","N","N","N","N","N","N","N","N","N","N","N","N","N","Y","N","Y","N","","","","","","","","N","","","N","Y","N"
2006452,309552,"ICG EUROPE FUND V GP LIMITED","ICG EUROPE FUND V GP LIMITED","",,"","N","N","N","N","N","N","N","N","N","N","N","N","N","N","N","Y","N","Y","N","","","","","","","","N","","","N","Y","N"
2006452,309467,"ICG STRUCTURED SPECIAL OPPORTUNITIES GP LIMITED","ICG STRUCTURED SPECIAL OPPORTUNITIES GP LIMITED","",,"","N","N","N","N","N","N","N","N","N","N","N","N","N","N","N","Y","N","Y","N","","","","","","","","N","","","N","Y","N"
2006452,247513,"ICG ALTERNATIVE INVESTMENT LIMITED","ICG ALTERNATIVE INVESTMENT LIMITED","802-106550",277159,"","N","Y","N","N","N","Y","N","N","N","N","N","N","N","N","N","N","N","Y","N","","","","","","","","N","Y","UNI BANCO LINE OF SEC NO ACTION LETTERS","Y","Y","N"
2006452,309465,"ICG STRATEGIC EQUITY III GP LP","ICG STRATEGIC EQUITY III GP LP","",,"","N","N","N","N","N","N","N","N","N","N","N","N","N","N","N","Y","N","Y","N","","","","","","","","N","","","N","Y","Y"
2006452,333834,"ICG EUROPE MID-MARKET FUND GP LP SCSP","ICG EUROPE MID-MARKET FUND GP LP SCSP","",,"","N","N","N","N","N","N","N","N","N","N","N","N","N","N","N","Y","N","Y","N","","","","","","","","N","","","N","N","N"
2006452,247528,"ICG INVESTMENTS INC","ICG INVESTMENTS INC","801-79072",162589,"","N","Y","N","N","N","Y","N","N","N","N","N","N","N","N","N","N","N","Y","N","","","","","","","","N","N","","N","Y","N"
2006452,247512,"ICG ALTERNATIVE CREDIT (CAYMAN) GP LIMITED","ICG ALTERNATIVE CREDIT (CAYMAN) GP LIMITED","",,"","N","N","N","N","N","N","N","N","N","N","N","N","N","N","N","Y","N","Y","N","","","","","","","","N","","","N","Y","N"
2006452,290013,"ICG ALTERNATIVE CREDIT WAREHOUSE FUND I, GP","ICG ALTERNATIVE CREDIT WAREHOUSE FUND I, GP","",,"","N","N","N","N","N","N","N","N","N","N","N","N","N","N","N","Y","N","Y","N","","","","","","","","N","","","N","Y","N"
2006452,247737,"ICG NORTH AMERICAN PRIVATE DEBT II (OFFSHORE) GP LP","ICG NORTH AMERICAN PRIVATE DEBT II (OFFSHORE) GP LP","",,"","N","N","N","N","N","N","N","N","N","N","N","N","N","N","N","Y","N","Y","N","","","","","","","","N","","","N","Y","N"
2006452,309565,"ICG STRATEGIC EQUITY III GP LLC","ICG STRATEGIC EQUITY III GP LLC","",,"","N","N","N","N","N","N","N","N","N","N","N","N","N","N","N","Y","N","Y","N","","","","","","","","N","","","N","Y","N"
2006452,309564,"ICG STRATEGIC EQUITY ADVISORS LLC","ICG STRATEGIC EQUITY ADVISORS LLC","",,"","N","Y","N","N","N","Y","N","N","N","N","N","N","N","N","N","N","N","Y","N","","","","","","","","N","N","","N","Y","N"
2006452,247738,"ICG NORTH AMERICA ASSOCIATES II LLC","ICG NORTH AMERICA ASSOCIATES II LLC","",,"","N","N","N","N","N","N","N","N","N","N","N","N","N","N","N","Y","N","Y","N","","","","","","","","N","","","N","Y","N"
2006452,247736,"ICG NORTH AMERICAN PRIVATE DEBT II GP LP","ICG NORTH AMERICAN PRIVATE DEBT II GP LP","",,"","N","N","N","N","N","N","N","N","N","N","N","N","N","N","N","Y","N","Y","N","","","","","","","","N","","","N","Y","N"
2006452,290014,"ICG STRATEGIC EQUITY SIDE CAR II GP LP","ICG STRATEGIC EQUITY SIDE CAR II GP LP","",,"","N","N","N","N","N","N","N","N","N","N","N","N","N","N","N","Y","N","Y","N","","","","","","","","N","","","N","Y","N"
2006452,309558,"ICG INFRASTRUCTURE EQUITY I GP SARL","ICG INFRASTRUCTURE EQUITY I GP SARL","",,"","N","N","N","N","N","N","N","N","N","N","N","N","N","N","N","Y","N","Y","N","","","","","","","","N","","","N","Y","N"
2006452,247521,"ICG STRATEGIC SECONDARIES II GP LP","ICG STRATEGIC SECONDARIES II GP LP","",,"","N","N","N","N","N","Y","N","N","N","N","N","N","N","N","N","Y","N","Y","N","","","","","","","","N","","","N","Y","N"
2006452,247509,"ICG ASIA PACIFIC LIMITED","ICG ASIA PACIFIC LIMITED","",,"","N","Y","N","N","N","N","N","N","N","N","N","N","N","N","N","N","N","Y","N","","","","","","","","N","Y","FOREIGN PRIVATE ADVISER","Y","Y","N"
2006452,309549,"ICG ALTERNATIVE CREDIT (LUXEMBOURG) GP S.A.","ICG ALTERNATIVE CREDIT (LUXEMBOURG) GP S.A.","",,"","N","N","N","N","N","N","N","N","N","N","N","N","N","N","N","Y","N","Y","N","","","","","","","","N","","","N","Y","N"
2006452,309556,"ICG EUROPEAN FUND 2006 B GP LIMITED","ICG EUROPEAN FUND 2006 B GP LIMITED","",,"","N","N","N","N","N","N","N","N","N","N","N","N","N","N","N","Y","N","Y","N","","","","","","","","N","","","N","Y","N"
2006452,309555,"ICG EUROPE FUND VII GP LP SCSP","ICG EUROPE FUND VII GP LP SCSP","",,"","N","N","N","N","N","N","N","N","N","N","N","N","N","N","N","Y","N","Y","N","","","","","","","","N","","","N","Y","N"
2006452,309557,"ICG FUND ADVISORS LLC","ICG FUND ADVISORS LLC","",,"","N","Y","N","N","N","Y","N","N","N","N","N","N","N","N","N","N","N","Y","N","","","","","","","","N","N","","N","Y","N"
2006452,309559,"ICG LONGBOW IV GP SARL","ICG LONGBOW IV GP SARL","",,"","N","N","N","N","N","N","N","N","N","N","N","N","N","N","N","Y","N","Y","N","","","","","","","","N","","","N","Y","N"
2006452,309553,"ICG EUROPE FUND VI GP LIMITED","ICG EUROPE FUND VI GP LIMITED","",,"","N","N","N","N","N","N","N","N","N","N","N","N","N","N","N","Y","N","Y","N","","","","","","","","N","","","N","Y","N"
2006452,309573,"ICG RECOVERY FUND II GP SARL","ICG RECOVERY FUND II GP SARL","",,"","N","N","N","N","N","N","N","N","N","N","N","N","N","N","N","Y","N","Y","N","","","","","","","","N","","","N","Y","N"
2006452,309570,"LONGBOW REAL ESTATE CAPITAL LLP","LONGBOW REAL ESTATE CAPITAL LLP","",,"","N","Y","N","N","N","N","N","N","N","N","N","N","N","N","N","N","N","Y","N","","","","","","","","N","Y","FOREIGN PRIVATE ADVISER","N","Y","N"
2006452,309572,"ICG PRIVATE CREDIT GP SARL","ICG PRIVATE CREDIT GP SARL","",,"","N","N","N","N","N","N","N","N","N","N","N","N","N","N","N","Y","N","Y","N","","","","","","","","N","","","N","Y","N"
2006452,309571,"ICG EUROPEAN CREDIT MANDATE GP SARL","ICG EUROPEAN CREDIT MANDATE GP SARL","",,"","N","N","N","N","N","N","N","N","N","N","N","N","N","N","N","Y","N","Y","N","","","","","","","","N","","","N","Y","N"
2006452,247524,"ICG STRATEGIC EQUITY ASSOCIATES II LLC","ICG STRATEGIC EQUITY ASSOCIATES II LLC","",,"","N","N","N","N","N","N","N","N","N","N","N","N","N","N","N","Y","N","Y","N","","","","","","","","N","","","N","Y","N"
2006452,309567,"ICG-LONGBOW V GP SARL","ICG-LONGBOW V GP SARL","",,"","N","N","N","N","N","N","N","N","N","N","N","N","N","N","N","Y","N","Y","N","","","","","","","","N","","","N","Y","N"
2006452,333835,"ICG EUROPE FUND VIII GP LP SCSP (ACTING THROUGH ICG EUROPE FUND VIII GP S.A R.L.)","ICG EUROPE FUND VIII GP LP SCSP (ACTING THROUGH ICG EUROPE FUND VIII GP S.A R.L.)","",,"","N","N","N","N","N","N","N","N","N","N","N","N","N","N","N","Y","N","Y","N","","","","","","","","N","","","N","N","N"
2006452,309563,"ICG SENIOR DEBT PARTNERS SARL","ICG SENIOR DEBT PARTNERS SARL","",,"","N","N","N","N","N","N","N","N","N","N","N","N","N","N","N","Y","N","Y","N","","","","","","","","N","","","N","Y","N"
2006452,309569,"INTERMEDIATE CAPITAL GP 2003 LTD","INTERMEDIATE CAPITAL GP 2003 LTD","",,"","N","N","N","N","N","N","N","N","N","N","N","N","N","N","N","Y","N","Y","N","","","","","","","","N","","","N","Y","N"
2006452,356384,"ICG LP SECONDARIES FUND ASSOCIATES I SARL","ICG LP SECONDARIES FUND ASSOCIATES I SARL","",,"","N","N","N","N","N","N","N","N","N","N","N","N","N","N","N","Y","N","Y","N","","","","","","","","N","","","N","Y","N"
2006452,356383,"ICG LP SECONDARIES ASSOCIATES I LLC","ICG LP SECONDARIES ASSOCIATES I LLC","",,"","N","N","N","N","N","N","N","N","N","N","N","N","N","N","N","Y","N","Y","N","","","","","","","","N","","","N","Y","N"
2006452,356466,"ICG SENIOR DEBT PARTNERS GP S.A.R.L.","ICG SENIOR DEBT PARTNERS GP S.A.R.L.","",,"","N","N","N","N","N","N","N","N","N","N","N","N","N","N","N","Y","N","Y","N","","","","","","","","N","","","N","Y","N"
2006452,378887,"ICG STRATEGIC EQUITY GP V LLC","ICG STRATEGIC EQUITY GP V LLC","",,"","N","N","N","N","N","N","N","N","N","N","N","N","N","N","N","Y","N","Y","N","","","","","","","","N","","","N","Y","N"
2006452,378888,"ICG STRATEGIC EQUITY GP V S.A R.L.","ICG STRATEGIC EQUITY GP V S.A R.L.","",,"","N","N","N","N","N","N","N","N","N","N","N","N","N","N","N","Y","N","Y","N","","","","","","","","N","","","N","Y","Y"
2006452,379088,"ICG SRE GP II S.A R.L.","ICG SRE GP II S.A R.L.","",,"","N","N","N","N","N","N","N","N","N","N","N","N","N","N","N","Y","N","Y","N","","","","","","","","N","","","N","Y","N"
2006452,379016,"ICG EUROPEAN CREDIT MANDATE GP LP SCSP","ICG EUROPEAN CREDIT MANDATE GP LP SCSP","",,"","N","N","N","N","N","N","N","N","N","N","N","N","N","N","N","Y","N","Y","N","","","","","","","","N","","","N","Y","N"
2006452,379063,"ICG METROPOLITAN GP S.A R.L","ICG METROPOLITAN GP S.A R.L","",,"","N","N","N","N","N","N","N","N","N","N","N","N","N","N","N","Y","N","Y","N","","","","","","","","N","","","N","Y","N"
2006452,309550,"ICG ALTERNATIVE CREDIT LLC","ICG ALTERNATIVE CREDIT LLC","",,"","N","Y","N","N","N","Y","N","N","N","N","N","N","N","N","N","N","N","Y","N","","","","","","","","N","N","","N","Y","N"
2006452,379017,"ICG EUROPE FUND VII GP S.A. R.L.","ICG EUROPE FUND VII GP S.A. R.L.","",,"","N","N","N","N","N","N","N","N","N","N","N","N","N","N","N","Y","N","Y","N","","","","","","","","N","","","N","Y","N"
2006452,309574,"ICG REAL ESTATE DEBT VI GP SCSP","ICG REAL ESTATE DEBT VI GP SCSP","",,"","N","N","N","N","N","N","N","N","N","N","N","N","N","N","N","Y","N","Y","N","","","","","","","","N","","","N","Y","N"
2006452,271843,"ICG STRATEGIC EQUITY III (OFFSHORE) GP LP","ICG STRATEGIC EQUITY III (OFFSHORE) GP LP","",,"","N","N","N","N","N","N","N","N","N","N","N","N","N","N","N","Y","N","Y","N","","","","","","","","N","","","N","Y","N"
2006452,247518,"NOMURA ICG KK","NOMURA ICG KK","",,"","N","Y","N","N","N","N","N","N","N","N","N","N","N","N","N","N","N","N","N","","","","","","","","N","Y","FOREIGN PRIVATE ADVISER","N","N","N"
2006452,309562,"ICG RECOVERY FUND 2008 GP LIMITED","ICG RECOVERY FUND 2008 GP LIMITED","",,"","N","N","N","N","N","N","N","N","N","N","N","N","N","N","N","Y","N","Y","N","","","","","","","","N","","","N","Y","N"
2006452,271840,"ICG CENTRE STREET PARTNERSHIP GP LIMITED","ICG CENTRE STREET PARTNERSHIP GP LIMITED","",,"","N","N","N","N","N","N","N","N","N","N","N","N","N","N","N","Y","N","Y","N","","","","","","","","N","","","N","Y","N"
2006452,247519,"ICG INVESTMENTS SINGAPORE PTE. LIMITED","ICG INVESTMENTS SINGAPORE PTE. LIMITED","",,"","N","Y","N","N","N","N","N","N","N","N","N","N","N","N","N","N","N","Y","N","","","","","","","","N","Y","FOREIGN PRIVATE ADVISER","Y","Y","N"
2006452,247522,"ICG STRATEGIC SECONDARIES II (OFFSHORE) GP LP","ICG STRATEGIC SECONDARIES II (OFFSHORE) GP LP","",,"","N","N","N","N","N","Y","N","N","N","N","N","N","N","N","N","Y","N","Y","N","","","","","","","","N","","","N","Y","N"
2006452,247523,"INTERMEDIATE CAPITAL GROUP BENELUX B.V.","INTERMEDIATE CAPITAL GROUP BENELUX B.V.","",,"","N","Y","N","N","N","N","N","N","N","N","N","N","N","N","N","N","N","Y","N","","","","","","","","N","Y","FOREIGN PRIVATE ADVISER","Y","N","N"
2006452,247733,"ICG NORTH AMERICAN PRIVATE DEBT GP LP","ICG NORTH AMERICAN PRIVATE DEBT GP LP","",,"","N","N","N","N","N","N","N","N","N","N","N","N","N","N","N","Y","N","Y","N","","","","","","","","N","","","N","Y","N"
2006452,356386,"ICG STRATEGIC EQUITY ASSOCIATES IV LLC","ICG STRATEGIC EQUITY ASSOCIATES IV LLC","",,"","N","N","N","N","N","N","N","N","N","N","N","N","N","N","N","Y","N","Y","N","","","","","","","","N","","","N","Y","N"
2006452,356387,"ICG STRATEGIC EQUITY IV GP LP","ICG STRATEGIC EQUITY IV GP LP","",,"","N","N","N","N","N","N","N","N","N","N","N","N","N","N","N","Y","N","Y","N","","","","","","","","N","","","N","Y","N"
2006452,356388,"ICG STRATEGIC EQUITY IV GP LP SCSP","ICG STRATEGIC EQUITY IV GP LP SCSP","",,"","N","N","N","N","N","N","N","N","N","N","N","N","N","N","N","Y","N","Y","N","","","","","","","","N","","","N","Y","N"
2006452,356389,"ICG STRATEGIC EQUITY SIDE CAR GP LP","ICG STRATEGIC EQUITY SIDE CAR GP LP","",,"","N","N","N","N","N","N","N","N","N","N","N","N","N","N","N","Y","N","Y","N","","","","","","","","N","","","N","Y","N"
2006452,356385,"ICG NORTH AMERICA ASSOCIATES III LLC","ICG NORTH AMERICA ASSOCIATES III LLC","",,"","N","N","N","N","N","N","N","N","N","N","N","N","N","N","N","Y","N","Y","N","","","","","","","","N","","","N","Y","N"
2006452,271842,"ICG STRATEGIC EQUITY ASSOCIATES III LLC","ICG STRATEGIC EQUITY ASSOCIATES III LLC","",,"","N","N","N","N","N","N","N","N","N","N","N","N","N","N","N","Y","N","Y","N","","","","","","","","N","","","N","Y","N"
2006452,309560,"ICG LONGBOW UK REAL ESTATE DEBT INVESTMENTS III SARL","ICG LONGBOW UK REAL ESTATE DEBT INVESTMENTS III SARL","",,"","N","N","N","N","N","N","N","N","N","N","N","N","N","N","N","Y","N","Y","N","","","","","","","","N","","","N","Y","N"
2009291,378340,"ARROWPOINT INVESTMENT PARTNERS (SINGAPORE) PTE. LTD.","ARROWPOINT INVESTMENT PARTNERS (SINGAPORE) PTE. LTD.","802-131094",331921,"","N","Y","N","N","N","Y","N","N","N","N","N","N","N","N","N","N","N","Y","N","","","","","","","","N","Y","PRIVATE FUND ADVISER EXEMPTION","Y","Y","N"
2009291,378341,"ARROWPOINT INVESTMENT PARTNERS (CAYMAN) LIMITED","ARROWPOINT INVESTMENT PARTNERS (CAYMAN) LIMITED","",,"","N","N","N","N","N","N","N","N","N","N","N","N","N","N","N","Y","Y","Y","N","","","","","","","","N","","","N","Y","N"
2006912,378327,"ARROWPOINT INVESTMENT PARTNERS (HONG KONG) LIMITED","ARROWPOINT INVESTMENT PARTNERS (HONG KONG) LIMITED","802-131095",331922,"","N","Y","N","N","N","Y","N","N","N","N","N","N","N","N","N","N","N","Y","N","","","","","","","","N","Y","PRIVATE FUND ADVISER EXEMPTION","Y","Y","N"
2006912,378345,"ARROWPOINT INVESTMENT PARTNERS (CAYMAN) LIMITED","ARROWPOINT INVESTMENT PARTNERS (CAYMAN) LIMITED","",,"","N","N","N","N","N","N","N","N","N","N","N","N","N","N","N","Y","Y","Y","N","","","","","","","","N","","","N","Y","N"
2004063,361464,"WAVEMAKER GLOBAL PARTNERS 4 LTD","WAVEMAKER GLOBAL PARTNERS 4 LTD","",,"","N","N","N","N","N","N","N","N","N","N","N","N","N","N","N","Y","N","Y","N","","","","","","","","N","","","Y","Y","N"
2004063,361463,"WAVEMAKER GLOBAL PARTNERS 3 LTD","WAVEMAKER GLOBAL PARTNERS 3 LTD","",,"","N","N","N","N","N","N","N","N","N","N","N","N","N","N","N","Y","N","Y","N","","","","","","","","N","","","Y","Y","N"
2004063,362081,"WAVEMAKER GLOBAL PARTNERS 5 LTD","WAVEMAKER GLOBAL PARTNERS 5 LTD","",,"","N","N","N","N","N","N","N","N","N","N","N","N","N","N","N","Y","N","Y","N","","","","","","","","N","","","Y","Y","N"
2004063,398785,"WAVEMAKER GROWTH OPPORTUNITIES PARTNERS 1 LTD","WAVEMAKER GROWTH OPPORTUNITIES PARTNERS 1 LTD","",,"","N","N","N","N","N","N","N","N","N","N","N","N","N","N","N","Y","N","Y","N","","","","","","","","N","","","Y","Y","N"
2009238,365038,"BALLAST EQUITY PARTNERS I, LLC","BALLAST EQUITY PARTNERS I, LLC","",,"","N","N","N","N","N","N","N","N","N","N","N","N","N","N","N","Y","N","Y","Y","N","225 DYER STREET","FLOOR 2","PROVIDENCE","RI","United States","02903","N","Y","ADVISOR SOLELY TO PRIVATE FUNDS","N","Y","Y"
2007216,399229,"STREAMLINE GLOBAL PARTNERS GP, LLC","STREAMLINE GLOBAL PARTNERS GP, LLC","",,"","N","Y","N","N","N","N","N","N","N","N","N","N","N","N","N","Y","N","Y","N","","","","","","","","N","Y","SEE ITEM 2.B.(1) AND SCHEDULE D - MISCELLANEOUS HEREIN","N","Y","Y"
2007216,399230,"TIPEP LLC","TIPEP LLC","",,"","N","Y","N","N","N","N","N","N","N","N","N","N","N","N","N","Y","N","Y","N","","","","","","","","N","Y","SEE ITEM 2.B.(1) AND SCHEDULE D - MISCELLANEOUS HEREIN","N","Y","N"
2007216,399227,"ARMRA CAPITAL PARTNERS GP, LLC","ARMRA CAPITAL PARTNERS GP, LLC","",,"","N","Y","N","N","N","N","N","N","N","N","N","N","N","N","N","Y","N","Y","N","","","","","","","","N","Y","SEE ITEM 2.B.(1) AND SCHEDULE D - MISCELLANEOUS HEREIN","N","Y","Y"
2007216,399228,"EP STREAMLINE CAPITAL PARTNERS GP, LLC","EP STREAMLINE CAPITAL PARTNERS GP, LLC","",,"","N","Y","N","N","N","N","N","N","N","N","N","N","N","N","N","Y","N","Y","N","","","","","","","","N","Y","SEE ITEM 2.B.(1) AND SCHEDULE D - MISCELLANEOUS HEREIN","N","Y","Y"
2008806,381735,"STELLAR  PLACEMENT HOLDINGS, LLC","STELLAR  PLACEMENT HOLDINGS, LLC","",,"","N","N","N","N","N","N","N","N","N","N","N","N","N","N","N","Y","Y","Y","N","","","","","","","","N","N","","N","Y","Y"
2009787,397158,"ZAKARA BIOTECHNOLOGY FUND GP LLC","ZAKARA BIOTECHNOLOGY FUND GP LLC","",,"","N","N","N","N","N","N","N","N","N","N","N","N","N","N","N","Y","Y","Y","N","","","","","","","","N","Y","PER THE SEC'S NO-ACTION LETTER TO THE AMERICAN BAR ASSOCIATION DATED JANUARY 18, 2012","N","Y","Y"
2008256,387929,"EDGEWORTH CAPITAL, INC.","EDGEWORTH CAPITAL, INC.","802-128510",327432,"","N","Y","N","N","N","N","N","N","N","N","N","N","N","N","N","N","Y","Y","N","","","","","","","","N","Y","PRIVATE FUND EXEMPTION","N","Y","N"
2011225,270184,"HEWES GP, LLC","HEWES GP, LLC","",,"","N","N","N","N","N","N","N","N","N","N","N","N","N","N","N","Y","N","Y","N","","","","","","","","N","","","N","Y","Y"
2011856,260639,"BROADVAIL CAPITAL PARTNERS FUND I GP, L.P.","BROADVAIL CAPITAL PARTNERS FUND I GP, L.P.","",,"","N","N","N","N","N","N","N","N","N","N","N","N","N","N","N","Y","N","Y","N","","","","","","","","N","","","N","Y","Y"
2011856,261763,"BROADVAIL GROWTH EQUITY FUND II GP, L.P.","BROADVAIL GROWTH EQUITY FUND II GP, L.P.","",,"","N","N","N","N","N","N","N","N","N","N","N","N","N","N","N","Y","N","Y","N","","","","","","","","N","","","N","Y","Y"
2011856,331103,"BROADVAIL FUND III SIDECAR I GP, L.P.","BROADVAIL FUND III SIDECAR I GP, L.P.","",,"","N","N","N","N","N","N","N","N","N","N","N","N","N","N","N","Y","N","Y","N","","","","","","","","N","","","N","Y","Y"
2011856,331101,"BROADVAIL GROWTH EQUITY FUND III GP, L.P.","BROADVAIL GROWTH EQUITY FUND III GP, L.P.","",,"","N","N","N","N","N","N","N","N","N","N","N","N","N","N","N","Y","N","Y","N","","","","","","","","N","","","N","Y","Y"
2011856,388891,"BROADVAIL GROWTH EQUITY FUND IV GP, L.P.","BROADVAIL GROWTH EQUITY FUND IV GP, L.P.","",,"","N","N","N","N","N","N","N","N","N","N","N","N","N","N","N","Y","N","Y","N","","","","","","","","N","","","N","Y","Y"
2011856,388895,"BROADVAIL FUND IV SIDECAR I GP, L.P.","BROADVAIL FUND IV SIDECAR I GP, L.P.","",,"","N","N","N","N","N","N","N","N","N","N","N","N","N","N","N","Y","N","Y","N","","","","","","","","N","","","N","Y","Y"
2012335,400003,"COMPOUND CAPITAL HOLDINGS GP I, LLC","COMPOUND CAPITAL HOLDINGS GP I, LLC","",,"","N","N","N","N","N","N","N","N","N","N","N","N","N","N","N","Y","N","Y","N","","","","","","","","N","N","","N","Y","Y"
2003452,397660,"ARDINALL MASTER GP LLC","ARDINALL MASTER GP LLC","",,"","N","N","N","N","N","Y","N","N","N","N","N","N","N","N","N","Y","N","Y","N","","","","","","","","N","","","N","Y","Y"
2012351,400053,"EVANTIC I GP LP","EVANTIC I GP LP","",,"","N","Y","N","N","N","N","N","N","N","N","N","N","N","N","N","Y","Y","Y","N","","","","","","","","N","Y","VENTURE CAPITAL FUND ADVISER EXEMPTION, 203(L)","N","Y","Y"
2012025,399965,"IMAGINARY VENTURE CAPITAL MANAGEMENT, L.P.","IMAGINARY VENTURE CAPITAL MANAGEMENT, L.P.","802-112312",291337,"","N","Y","N","N","N","N","N","N","N","N","N","N","N","N","N","Y","N","Y","N","","","","","","","","N","Y","VC EXEMPTION","N","Y","Y"
2012025,399944,"IMAGINARY VENTURE CAPITAL PARTNERS IV GP, LLC","IMAGINARY VENTURE CAPITAL PARTNERS IV GP, LLC","",,"","N","N","N","N","N","N","N","N","N","N","N","N","N","N","N","Y","N","Y","N","","","","","","","","N","","","N","Y","Y"
2011553,290248,"CLAYMORE CAPITAL PARTNERS GP I, LLC","CLAYMORE CAPITAL PARTNERS GP I, LLC","",,"","N","N","N","N","N","N","N","N","N","N","N","N","N","N","N","Y","Y","Y","N","","","","","","","","N","","","N","Y","Y"
2011553,290249,"CLAYMORE CAPITAL PARTNERS GP I-A, LLC","CLAYMORE CAPITAL PARTNERS GP I-A, LLC","",,"","N","N","N","N","N","N","N","N","N","N","N","N","N","N","N","Y","Y","Y","N","","","","","","","","N","","","N","Y","Y"
2011292,376729,"CHEPSTOW CREDIT OPPORTUNITIES GP LTD","CHEPSTOW CREDIT OPPORTUNITIES GP LTD","",,"","N","N","N","N","N","N","N","N","N","N","N","N","N","N","N","Y","Y","Y","N","","","","","","","","N","","","N","N","N"
2006922,399188,"ASPIRITY PARTNERS GP LIMITED","ASPIRITY PARTNERS GP LIMITED","",,"","N","Y","N","N","N","Y","N","N","N","N","N","N","N","N","N","Y","N","Y","N","","","","","","","","N","N","","N","N","N"
2005771,394654,"PIONEER FUND GP LTD","PIONEER FUND GP LTD","",,"","N","N","N","N","N","N","N","N","N","N","N","N","N","N","N","Y","N","Y","N","","","","","","","","N","","","N","Y","Y"
2005771,375841,"PIONEER FUND III GP, LP","PIONEER FUND III GP, LP","",,"","N","N","N","N","N","N","N","N","N","N","N","N","N","N","N","Y","N","Y","N","","","","","","","","N","","","N","Y","Y"
2005771,304697,"PIONEER FUND GP, LP","PIONEER FUND GP, LP","",,"","N","N","N","N","N","N","N","N","N","N","N","N","N","N","N","Y","N","Y","N","","","","","","","","N","","","N","Y","Y"
2005771,304557,"PIONEER FUND II GP, LP","PIONEER FUND II GP, LP","",,"","N","N","N","N","N","N","N","N","N","N","N","N","N","N","N","Y","N","Y","N","","","","","","","","N","","","N","Y","Y"
2005771,394655,"PIONEER FUND II GP LTD","PIONEER FUND II GP LTD","",,"","N","N","N","N","N","N","N","N","N","N","N","N","N","N","N","Y","N","Y","N","","","","","","","","N","","","N","Y","Y"
2010031,265718,"DWS ASSET MANAGEMENT (KOREA) COMPANY LIMITED","DWS ASSET MANAGEMENT (KOREA) COMPANY LIMITED","",,"","N","Y","N","N","N","N","N","N","N","N","N","N","N","N","N","N","N","Y","N","","","","","","","","N","Y","THE ADVISER DOES NOT HAVE ANY US CLIENTS OR INVESTORS","Y","N","N"
2010031,265732,"DWS ALTERNATIVES GLOBAL LIMITED","DWS ALTERNATIVES GLOBAL LIMITED","801-66274",139526,"","N","Y","N","N","N","Y","N","N","N","N","N","N","N","N","N","N","N","Y","N","","","","","","","","N","N","","Y","N","N"
2010031,265695,"DWS INTERNATIONAL GMBH","DWS INTERNATIONAL GMBH","801-20289",105075,"","N","Y","N","N","N","Y","N","N","N","N","N","N","N","N","N","N","N","Y","N","","","","","","","","N","N","","Y","N","N"
2010031,265725,"DEUTSCHE BANK (SUISSE) SA","DEUTSCHE BANK (SUISSE) SA","",,"","N","Y","N","N","N","N","N","Y","N","N","N","N","N","N","N","N","N","Y","N","","","","","","","","N","Y","THE ADVISER DOES NOT HAVE ANY US CLIENTS OR INVESTORS","Y","N","N"
2010031,265703,"DWS INVESTMENTS SINGAPORE LIMITED","DWS INVESTMENTS SINGAPORE LIMITED","",,"","N","Y","N","N","N","Y","N","N","N","N","N","N","N","N","N","N","N","Y","N","","","","","","","","N","Y","EXEMPT REPORTING ADVISOR","Y","N","N"
2010031,265699,"DEUTSCHE ALTERNATIVE ASSET MANAGEMENT (UK) LIMITED","DEUTSCHE ALTERNATIVE ASSET MANAGEMENT (UK) LIMITED","",,"","N","Y","N","N","N","N","N","N","N","N","N","N","N","N","N","N","N","Y","N","","","","","","","","N","Y","FOREIGN ADVISER","Y","N","N"
2010031,265693,"DWS INVESTMENTS AUSTRALIA LIMITED","DWS INVESTMENTS AUSTRALIA LIMITED","801-57743",109112,"","N","Y","N","N","N","N","N","N","N","N","N","N","N","N","N","N","N","Y","N","","","","","","","","N","N","","Y","N","N"
2010031,265691,"RREEF AMERICA L.L.C.","RREEF AMERICA L.L.C.","801-55209",109596,"","N","Y","N","N","N","Y","N","N","N","N","N","N","N","N","N","N","N","Y","N","","","","","","","","N","N","","N","N","N"
2010031,265726,"DWS INVESTMENT MANAGEMENT AMERICAS, INC.","DWS INVESTMENT MANAGEMENT AMERICAS, INC.","801-252",104518,"","N","Y","N","N","N","Y","N","N","N","N","N","N","N","N","N","N","N","Y","N","","","","","","","","N","N","","Y","N","N"
2010031,265771,"DWS INVESTMENT GMBH","DWS INVESTMENT GMBH","",,"","N","Y","N","N","N","N","N","N","N","N","N","N","N","N","N","N","N","Y","N","","","","","","","","N","N","","Y","Y","N"
2010031,265713,"DWS INVESTMENTS JAPAN LIMITED","DWS INVESTMENTS JAPAN LIMITED","",,"","N","Y","N","N","N","N","N","N","N","N","N","N","N","N","N","N","N","Y","N","","","","","","","","N","N","","Y","N","N"
2010031,265723,"DEUTSCHE BANK AG","DEUTSCHE BANK AG","",,"","Y","N","N","Y","N","N","N","Y","Y","N","N","N","N","N","Y","Y","Y","N","N","","","","","","","","N","","","Y","N","N"
2010031,265730,"DEUTSCHE BANK LUXEMBOURG S.A.","DEUTSCHE BANK LUXEMBOURG S.A.","",,"","N","N","N","N","N","N","N","Y","N","N","N","N","N","N","N","N","N","Y","N","","","","","","","","N","","","Y","N","N"
2010031,265710,"DWS INVESTMENTS HONG KONG LIMITED","DWS INVESTMENTS HONG KONG LIMITED","801-66285",139666,"","N","Y","N","N","N","N","N","N","N","N","N","N","N","N","N","N","N","Y","N","","","","","","","","N","N","","Y","N","N"
2008972,376854,"LEO III. CARRY GMBH & CO. KG","LEO III. CARRY GMBH & CO. KG","",,"","N","N","N","N","N","N","N","N","N","N","N","N","N","N","N","Y","Y","Y","N","","","","","","","","N","","","N","Y","Y"
2008972,376853,"LEO III. GP GMBH","LEO III. GP GMBH","",,"","N","N","N","N","N","N","N","N","N","N","N","N","N","N","N","Y","Y","Y","N","","","","","","","","N","","","N","Y","Y"
2008972,377345,"LEO CARRY GMBH & CO. KG","LEO CARRY GMBH & CO. KG","",,"","N","N","N","N","N","N","N","N","N","N","N","N","N","N","N","Y","Y","Y","N","","","","","","","","N","","","N","Y","Y"
2004713,399384,"GRADIENT FUND V GP LLC","GRADIENT FUND V GP LLC","",,"","N","N","N","N","N","N","N","N","N","N","N","N","N","N","N","Y","N","Y","N","","","","","","","","N","","","N","Y","Y"
2007979,387624,"KEOF IV GP LLP","KEOF IV GP LLP","",,"","N","N","N","N","N","N","N","N","N","N","N","N","N","N","N","Y","Y","Y","N","","","","","","","","N","","","N","N","N"
2007979,123075,"KEYHAVEN CAPITAL PARTNERS III GP L.P.","KEYHAVEN CAPITAL PARTNERS III GP L.P.","",,"","N","N","N","N","N","N","N","N","N","N","N","N","N","N","N","Y","Y","Y","N","","","","","","","","N","","","N","N","N"
2007979,123071,"KEYHAVEN CAPITAL PARTNERS II GP L.P.","KEYHAVEN CAPITAL PARTNERS II GP L.P.","",,"","N","N","N","N","N","N","N","N","N","N","N","N","N","N","N","Y","Y","Y","N","","","","","","","","N","","","N","N","N"
2007979,201781,"KEYHAVEN SECONDARIES FUND II GP L.P.","KEYHAVEN SECONDARIES FUND II GP L.P.","",,"","N","N","N","N","N","N","N","N","N","N","N","N","N","N","N","Y","Y","Y","N","","","","","","","","N","","","N","N","N"
2007979,169283,"KSF I GP LIMITED","KSF I GP LIMITED","",,"","N","N","N","N","N","N","N","N","N","N","N","N","N","N","N","Y","Y","Y","N","","","","","","","","N","","","N","N","N"
2007979,282251,"KEYHAVEN SECONDARIES II (TOP UP) GP L.P.","KEYHAVEN SECONDARIES II (TOP UP) GP L.P.","",,"","N","N","N","N","N","N","N","N","N","N","N","N","N","N","N","Y","Y","Y","N","","","","","","","","N","","","N","N","N"
2007979,123087,"KEYHAVEN CAPITAL PARTNERS GP L.P.","KEYHAVEN CAPITAL PARTNERS GP L.P.","",,"","N","N","N","N","N","N","N","N","N","N","N","N","N","N","N","Y","Y","Y","N","","","","","","","","N","","","N","N","N"
2007979,123091,"KEYHAVEN SECONDARIES  I GP L.P.","KEYHAVEN SECONDARIES  I GP L.P.","",,"","N","N","N","N","N","N","N","N","N","N","N","N","N","N","N","Y","Y","Y","N","","","","","","","","N","","","N","N","N"
2007979,303656,"KEYHAVEN SECONDARIES III GP L.P.","KEYHAVEN SECONDARIES III GP L.P.","",,"","N","N","N","N","N","N","N","N","N","N","N","N","N","N","N","Y","Y","Y","N","","","","","","","","N","","","N","N","N"
2007979,149426,"KEYHAVEN GROWTH PARTNERS GP L.P.","KEYHAVEN GROWTH PARTNERS GP L.P.","",,"","N","N","N","N","N","N","N","N","N","N","N","N","N","N","N","Y","Y","Y","N","","","","","","","","N","","","N","N","N"
2007979,221255,"KSF II GP LIMITED","KSF II GP LIMITED","",,"","N","N","N","N","N","N","N","N","N","N","N","N","N","N","N","Y","Y","Y","N","","","","","","","","N","","","N","N","N"
2007979,373106,"KSF III GP LIMITED","KSF III GP LIMITED","",,"","N","N","N","N","N","N","N","N","N","N","N","N","N","N","N","Y","Y","Y","N","","","","","","","","N","","","N","N","N"
2007979,201779,"KEYHAVEN CAPITAL PARTNERS IV GP L.P.","KEYHAVEN CAPITAL PARTNERS IV GP L.P.","",,"","N","N","N","N","N","N","N","N","N","N","N","N","N","N","N","Y","Y","Y","N","","","","","","","","N","","","N","N","N"
2006349,399225,"VALVERDE INVESTMENT PARTNERS LIMITED","VALVERDE INVESTMENT PARTNERS LIMITED","",,"","N","Y","N","N","N","N","N","N","N","N","N","N","N","N","N","N","N","Y","N","","","","","","","","N","Y","NON US INVESTMENT ADVISER WITH NO US CLIENTS","Y","Y","N"
2012360,124168,"VICTORIA SOUTH AMERICAN PARTNERS LLC","VICTORIA CAPITAL PARTNERS","801-121816",162185,"","N","Y","N","N","N","Y","N","N","N","N","N","N","N","N","N","Y","N","Y","N","","","","","","","","N","N","","N","Y","Y"
2012360,249352,"VICTORIA SOUTH AMERICAN PARTNERS III LLC","VICTORIA CAPITAL PARTNERS","802-113793",297307,"","N","Y","N","N","N","Y","N","N","N","N","N","N","N","N","N","Y","N","Y","N","","","","","","","","N","Y","PRIVATE FUND ADVISER EXEMPTION (SECTION 203(M))","N","Y","Y"
2012360,289909,"VICTORIA CAPITAL PARTNERS SERVICES CO. LLC","VICTORIA CAPITAL PARTNERS","61-1679088",,"","N","N","N","N","N","N","N","N","N","N","Y","N","N","N","N","N","N","Y","N","","","","","","","","N","","","N","Y","Y"
2007831,233667,"FINTOP FUND I GP, LLC","GENERAL PARTNER OF FINTOP FUND I, L.P.","",,"","N","N","N","N","N","N","N","N","N","N","N","N","N","N","N","Y","Y","Y","N","","","","","","","","N","Y","EXEMPT REPORTING ADVISER (SECTION 203(L) AND 203(M))","N","Y","Y"
2007831,341165,"FINTOP BANKTECH GP, LLC","GENERAL PARTNER OF JAM FINTOP BANKTECH, LP","",,"","N","N","N","N","N","N","N","N","N","N","N","N","N","N","N","Y","Y","Y","N","","","","","","","","N","Y","EXEMPT REPORTING ADVISER (SECTION 203(L) AND 203(M))","N","Y","Y"
2007831,320485,"FINTOP FRONTIER GP, LLC","GENERAL PARTNER OF JAM FINTOP FRONTIER, LP","",,"","N","N","N","N","N","N","N","N","N","N","N","N","N","N","N","Y","Y","Y","N","","","","","","","","N","Y","EXEMPT REPORTING ADVISER (SECTION 203(L) AND 203(M))","N","Y","Y"
2007831,320484,"FINTOP FUND III GP, LLC","GENERAL PARTNER OF FINTOP FUND III, LP AND FINTOP FUND III QP, LP","",,"","N","N","N","N","N","N","N","N","N","N","N","N","N","N","N","Y","Y","Y","N","","","","","","","","N","Y","EXEMPT REPORTING ADVISER (SECTION 203(L) AND 203(M))","N","Y","Y"
2007831,265326,"FINTOP FUND II GP, LLC","GENERAL PARTNER OF FINTOP FUND II, LP AND FINTOP FUND II QP, LP","",,"","N","N","N","N","N","N","N","N","N","N","N","N","N","N","N","Y","Y","Y","N","","","","","","","","N","Y","EXEMPT REPORTING ADVISER (SECTION 203(L) AND 203(M))","N","Y","Y"
2006427,398993,"DENMU GP I LIMITED","GENERAL PARTNER OF DENMU FUND I, L.P.","",,"","N","N","N","N","N","N","N","N","N","N","N","N","N","N","N","Y","N","Y","N","","","","","","","","N","","","N","Y","N"
2010286,398368,"G VISION CAPITAL GP LLC","G VISION CAPITAL GP LLC","",,"","N","N","N","N","N","N","N","N","N","N","N","N","N","N","N","Y","N","Y","N","","","","","","","","N","","","N","Y","Y"
2006404,312259,"PHAROS FUND GENERAL PARTNERSHIP","PHAROS FUND GENERAL PARTNERSHIP","",,"","N","N","N","N","N","N","N","N","N","N","N","N","N","N","N","Y","Y","Y","N","","","","","","","","N","","","N","Y","Y"
2008298,399335,"FP STRATEGIES LLC","FP STRATEGIES","801-134211",337701,"","N","Y","N","N","N","N","N","N","N","N","N","N","N","N","N","N","N","Y","N","","","","","","","","N","N","","N","Y","N"
2006287,370755,"SHIPROCK CAPITAL GP LIMITED","SHIPROCK CAPITAL GP LIMITED","",,"","N","N","N","N","N","N","N","N","N","N","N","N","N","N","N","Y","N","Y","N","","","","","","","","N","","","N","N","N"
2008547,399374,"VISTARA V CAPITAL PARTNERS USA, LTD.","VISTARA V CAPITAL PARTNERS USA, LTD.","",,"","N","N","N","N","N","N","N","N","N","N","N","N","N","N","N","Y","Y","Y","N","","","","","","","","N","","","N","Y","Y"
2008547,399373,"VISTARA GENERAL PARTNER V INC.","VISTARA GENERAL PARTNER V INC.","",,"","N","N","N","N","N","N","N","N","N","N","N","N","N","N","N","Y","Y","Y","N","","","","","","","","N","","","N","Y","Y"
2008981,398825,"BHB FUND I GP","BHB FUND I GP","",,"","N","Y","N","N","N","N","N","N","N","N","N","N","N","N","N","Y","Y","N","N","","","","","","","","N","Y","VENTURE CAPITAL FUND ADVISER EXEMPTION","N","Y","Y"
2008981,398323,"CURIOSITY GROUP OPPORTUNITY ONE GP, LLC","CURIOSITY GROUP OPPORTUNITY ONE GP, LLC","",,"","N","Y","N","N","N","N","N","N","N","N","N","N","N","N","N","Y","Y","N","N","","","","","","","","N","Y","VENTURE CAPITAL FUND ADVISER EXEMPTION","N","Y","Y"
1997137,398125,"BRADLEY VAN OTTERLOO","BRADLEY VAN OTTERLOO","",,"","N","N","N","N","N","N","N","N","N","N","N","N","N","N","N","Y","Y","N","N","","","","","","","","N","Y","VENTURE CAPITAL FUND EXEMPTION AND PRIVATE FUND ADVISORY EXEMPTION","N","N","Y"
1997137,398126,"SAMIT VARMA","SAMIT VARMA","",,"","N","N","N","N","N","N","N","N","N","N","N","N","N","N","N","Y","Y","N","N","","","","","","","","N","Y","VENTURE CAPITAL FUND EXEMPTION AND PRIVATE FUND ADVISORY EXEMPTION","N","N","N"
2008098,399303,"CAPULA INVESTMENT MANAGEMENT SINGAPORE PTE.LTD.","CAPULA INVESTMENT MANAGEMENT SINGAPORE PTE.LTD.","802-120621",312483,"","N","Y","N","N","N","Y","N","N","N","N","N","N","N","N","N","N","N","Y","N","","","","","","","","N","Y","RULE 203(M)-1 PRIVATE FUND ADVISER EXEMPTION","Y","N","N"
2008098,399299,"CAPULA  INVESTMENT MANAGEMENT ASIA LIMITED","CAPULA  INVESTMENT MANAGEMENT ASIA LIMITED","802-76916",164564,"","N","Y","N","N","N","Y","N","N","N","N","N","N","N","N","N","N","N","Y","N","","","","","","","","N","Y","RULE 203(M)-1 PRIVATE FUND ADVISER EXEMPTION","Y","N","N"
2008098,399298,"CAPULA MANAGEMENT LIMITED","CAPULA MANAGEMENT LIMITED","802-113693",163729,"","N","Y","N","N","N","Y","N","N","N","N","N","N","N","N","N","N","Y","N","N","","","","","","","","N","Y","RULE 203(M)-1 PRIVATE FUND ADVISER EXEMPTION","N","Y","N"
2008098,399300,"CAPULA INVESTMENT US LP","CAPULA INVESTMENT US LP","801-73189",157589,"","N","Y","N","N","N","Y","N","N","N","N","N","N","N","N","N","N","N","Y","N","","","","","","","","N","N","","N","N","N"
2008098,399301,"CAPULA INVESTMENT MANAGEMENT LLP","CAPULA INVESTMENT MANAGEMENT LLP","802-75433",163364,"","N","Y","N","N","N","Y","N","N","N","N","N","N","N","N","N","N","N","Y","N","","","","","","","","N","Y","RULE 203(M)-1 PRIVATE FUND ADVISER EXEMPTION","Y","Y","N"
2008098,399302,"CAPULA GENERAL PARTNER LIMITED","CAPULA GENERAL PARTNER LIMITED","",,"","N","N","N","N","N","N","N","N","N","N","N","N","N","N","N","Y","N","Y","N","","","","","","","","N","","","N","N","N"
2008098,399390,"CAPULA INVESTMENT  JAPAN LIMITED","CAPULA INVESTMENT  JAPAN LIMITED","802-75440",163365,"","N","Y","N","N","N","Y","N","N","N","N","N","N","N","N","N","N","N","Y","N","","","","","","","","N","Y","RULE 203(M)-1 PRIVATE FUND ADVISER EXEMPTION","Y","Y","N"
2008784,399396,"CAPULA INVESTMENT MANAGEMENT SWITZERLAND SARL","CAPULA INVESTMENT MANAGEMENT SWITZERLAND SARL","",338211,"","N","Y","N","N","N","Y","N","N","N","N","N","N","N","N","N","N","N","Y","N","","","","","","","","N","N","RULE 203(M)-1 PRIVATE FUND ADVISER EXEMPTION","Y","N","N"
2008784,149945,"CAPULA  INVESTMENT MANAGEMENT ASIA LIMITED","CAPULA  INVESTMENT MANAGEMENT ASIA LIMITED","802-76916",164564,"","N","Y","N","N","N","Y","N","N","N","N","N","N","N","N","N","N","N","Y","N","","","","","","","","N","Y","RULE 203(M)-1 PRIVATE FUND ADVISER EXEMPTION","Y","Y","N"
2008784,121361,"CAPULA INVESTMENT US LP","CAPULA INVESTMENT US LP","801-73189",157589,"","N","Y","N","N","N","Y","N","N","N","N","N","N","N","N","N","N","N","Y","N","","","","","","","","N","N","","N","Y","N"
2008784,297395,"CAPULA INVESTMENT MANAGEMENT SINGAPORE PTE.LTD.","CAPULA INVESTMENT MANAGEMENT SINGAPORE PTE.LTD.","802-120621",312483,"","N","Y","N","N","N","Y","N","N","N","N","N","N","N","N","N","N","N","Y","N","","","","","","","","N","Y","RULE 203(M)-1 PRIVATE FUND ADVISER EXEMPTION","Y","Y","N"
2008784,121316,"CAPULA INVESTMENT  JAPAN LIMITED","CAPULA INVESTMENT  JAPAN LIMITED","802-75440",163365,"","N","Y","N","N","N","Y","N","N","N","N","N","N","N","N","N","N","N","Y","N","","","","","","","","N","Y","RULE 203(M)-1 PRIVATE FUND ADVISER EXEMPTION","Y","Y","N"
2008784,121176,"CAPULA MANAGEMENT LIMITED","CAPULA MANAGEMENT LIMITED","802-113693",163729,"","N","Y","N","N","N","Y","N","N","N","N","N","N","N","N","N","N","Y","Y","N","","","","","","","","N","Y","RULE 203(M)-1 PRIVATE FUND ADVISER EXEMPTION","N","Y","N"
2008784,121315,"CAPULA GENERAL PARTNER LIMITED","CAPULA GENERAL PARTNER LIMITED","",,"","N","N","N","N","N","N","N","N","N","N","N","N","N","N","N","Y","N","Y","N","","","","","","","","N","","","N","N","N"
2008394,399325,"EVOLUTION EQUITY PARTNERS GMBH","EVOLUTION EQUITY PARTNERS GMBH","",,"","N","Y","N","N","N","N","N","N","N","N","N","N","N","N","N","N","Y","Y","N","","","","","","","","N","Y","FOREIGN ADVISER","N","Y","Y"
2008394,341367,"EVOLUTION EQUITY PARTNERS GP, LLC","EVOLUTION EQUITY PARTNERS GP, LLC","",,"","N","N","N","N","N","N","N","N","N","N","N","N","N","N","N","Y","N","Y","N","","","","","","","","N","","","N","Y","Y"
2008394,340868,"EVOLUTION EQUITY PARTNERS III GP, LLC","EVOLUTION EQUITY PARTNERS III GP, LLC","",,"","N","N","N","N","N","N","N","N","N","N","N","N","N","N","N","Y","N","Y","N","","","","","","","","N","","","N","Y","Y"
2008394,325908,"EVOLUTION EQUITY PARTNERS II SARL","EVOLUTION EQUITY PARTNERS II SARL","",,"","N","N","N","N","N","N","N","N","N","N","N","N","N","N","N","Y","N","Y","N","","","","","","","","N","","","N","Y","Y"
2008394,325849,"EVOLUTION EQUITY PARTNERS SARL","EVOLUTION EQUITY PARTNERS SARL","",,"","N","N","N","N","N","N","N","N","N","N","N","N","N","N","N","Y","N","Y","N","","","","","","","","N","","","N","Y","Y"
2006441,379728,"ICG EUROPE FUND VIII GP S.A.R.L.","ICG EUROPE FUND VIII GP S.A.R.L.","",,"","N","N","N","N","N","N","N","N","N","N","N","N","N","N","N","Y","N","Y","N","","","","","","","","N","","","N","Y","N"
2006441,379727,"ICG LP SECONDARIES ASSOCIATES I LLC","ICG LP SECONDARIES ASSOCIATES I LLC","",,"","N","N","N","N","N","N","N","N","N","N","N","N","N","N","N","Y","N","Y","N","","","","","","","","N","","","N","Y","N"
2006441,379714,"ICG RECOVERY FUND 2008 GP LIMITED","ICG RECOVERY FUND 2008 GP LIMITED","",,"","N","N","N","N","N","N","N","N","N","N","N","N","N","N","N","Y","N","Y","N","","","","","","","","N","","","N","Y","N"
2006441,379775,"ICG NORTH AMERICAN PRIVATE DEBT II (OFFSHORE) GP LP","ICG NORTH AMERICAN PRIVATE DEBT II (OFFSHORE) GP LP","",,"","N","N","N","N","N","N","N","N","N","N","N","N","N","N","N","Y","N","Y","N","","","","","","","","N","","","N","Y","N"
2006441,379435,"ICG EUROPEAN CREDIT MANDATE GP S.A R.L.","ICG EUROPEAN CREDIT MANDATE GP S.A R.L.","",,"","N","N","N","N","N","N","N","N","N","N","N","N","N","N","N","Y","N","Y","N","","","","","","","","N","","","N","Y","N"
2006441,379717,"ICG STRATEGIC SECONDARIES II (OFFSHORE) GP LP","ICG STRATEGIC SECONDARIES II (OFFSHORE) GP LP","",,"","N","N","N","N","N","Y","N","N","N","N","N","N","N","N","N","Y","N","Y","N","","","","","","","","N","","","N","Y","N"
2006441,379737,"ICG STRUCTURED SPECIAL OPPORTUNITIES GP LIMITED","ICG STRUCTURED SPECIAL OPPORTUNITIES GP LIMITED","",,"","N","N","N","N","N","N","N","N","N","N","N","N","N","N","N","Y","N","Y","N","","","","","","","","N","","","N","Y","N"
2006441,379738,"ICG STRATEGIC EQUITY ASSOCIATES III LLC","ICG STRATEGIC EQUITY ASSOCIATES III LLC","",,"","N","N","N","N","N","N","N","N","N","N","N","N","N","N","N","Y","N","Y","N","","","","","","","","N","","","N","Y","N"
2006441,379745,"ICG ALTERNATIVE CREDIT (LUXEMBOURG) GP S.A.","ICG ALTERNATIVE CREDIT (LUXEMBOURG) GP S.A.","",,"","N","N","N","N","N","N","N","N","N","N","N","N","N","N","N","Y","N","Y","N","","","","","","","","N","","","N","Y","N"
2006441,379719,"ICG NORTH AMERICAN PRIVATE DEBT GP LP","ICG NORTH AMERICAN PRIVATE DEBT GP LP","",,"","N","N","N","N","N","N","N","N","N","N","N","N","N","N","N","Y","N","Y","N","","","","","","","","N","","","N","Y","N"
2006441,379425,"ICG EUROPE FUND VII GP LP SCSP","ICG EUROPE FUND VII GP LP SCSP","",,"","N","N","N","N","N","N","N","N","N","N","N","N","N","N","N","Y","N","Y","N","","","","","","","","N","","","N","Y","N"
2006441,379426,"ICG EUROPE FUND VIII GP LP SCSP (ACTING THROUGH ICG EUROPE FUND VIII GP S.A R.L.)","ICG EUROPE FUND VIII GP LP SCSP (ACTING THROUGH ICG EUROPE FUND VIII GP S.A R.L.)","",,"","N","N","N","N","N","N","N","N","N","N","N","N","N","N","N","Y","N","Y","N","","","","","","","","N","","","N","N","N"
2006441,379773,"ICG INVESTMENTS INC","ICG INVESTMENTS INC","801-79072",162589,"","N","Y","N","N","N","Y","N","N","N","N","N","N","N","N","N","N","N","Y","N","","","","","","","","N","N","","N","Y","N"
2006441,379713,"ICG REAL ESTATE DEBT VI GP SCSP","ICG REAL ESTATE DEBT VI GP SCSP","",,"","N","N","N","N","N","N","N","N","N","N","N","N","N","N","N","Y","N","Y","N","","","","","","","","N","","","N","Y","N"
2006441,379749,"INTERMEDIATE CAPITAL ASIA PACIFIC IV GP LP SCSP","INTERMEDIATE CAPITAL ASIA PACIFIC IV GP LP SCSP","",,"","N","N","N","N","N","N","N","N","N","N","N","N","N","N","N","Y","N","Y","N","","","","","","","","N","","","N","Y","N"
2006441,379764,"ICG AUGUSTA ASSOCIATES LLC","ICG AUGUSTA ASSOCIATES LLC","",,"","N","N","N","N","N","N","N","N","N","N","N","N","N","N","N","Y","N","Y","N","","","","","","","","N","","","N","Y","N"
2006441,379774,"ICG ALTERNATIVE CREDIT WAREHOUSE FUND I, GP","ICG ALTERNATIVE CREDIT WAREHOUSE FUND I, GP","",,"","N","N","N","N","N","N","N","N","N","N","N","N","N","N","N","Y","N","Y","N","","","","","","","","N","","","N","Y","N"
2006441,379716,"ICG INVESTMENTS SINGAPORE PTE. LIMITED","IICG INVESTMENTS SINGAPORE PTE. LIMITED","",,"","N","Y","N","N","N","N","N","N","N","N","N","N","N","N","N","N","N","Y","N","","","","","","","","N","Y","FOREIGN PRIVATE ADVISER","Y","Y","N"
2006441,379776,"ICG ALTERNATIVE CREDIT (CAYMAN) GP LIMITED","ICG ALTERNATIVE CREDIT (CAYMAN) GP LIMITED","",,"","N","N","N","N","N","N","N","N","N","N","N","N","N","N","N","Y","N","Y","N","","","","","","","","N","","","N","Y","N"
2006441,379731,"ICG VELOCITY CO-INVESTOR GP LP","ICG VELOCITY CO-INVESTOR GP LP","",,"","N","N","N","N","N","N","N","N","N","N","N","N","N","N","N","Y","N","Y","N","","","","","","","","N","","","N","Y","N"
2006441,379732,"ICG PLC","ICG PLC","",,"","N","Y","N","N","N","N","N","N","N","N","N","N","N","N","N","N","Y","N","N","","","","","","","","N","Y","FOREIGN PRIVATE ADVISER","N","Y","N"
2006441,379730,"ICG US SENIOR LOAN FUND G.P. LTD.","ICG US SENIOR LOAN FUND G.P. LTD.","",,"","N","N","N","N","N","N","N","N","N","N","N","N","N","N","N","Y","N","Y","N","","","","","","","","N","","","N","Y","N"
2006441,379715,"ICG CENTRE STREET PARTNERSHIP GP LIMITED","ICG CENTRE STREET PARTNERSHIP GP LIMITED","",,"","N","N","N","N","N","N","N","N","N","N","N","N","N","N","N","Y","N","Y","N","","","","","","","","N","","","N","Y","N"
2006441,379734,"ICG EUROPE FUND V GP LIMITED","ICG EUROPE FUND V GP LIMITED","",,"","N","N","N","N","N","N","N","N","N","N","N","N","N","N","N","Y","N","Y","N","","","","","","","","N","","","N","Y","N"
2006441,379736,"ICG NORTH AMERICAN PRIVATE DEBT (OFFSHORE) GP LP","ICG NORTH AMERICAN PRIVATE DEBT (OFFSHORE) GP LP","",,"","N","N","N","N","N","N","N","N","N","N","N","N","N","N","N","Y","N","Y","N","","","","","","","","N","","","N","Y","N"
2006441,379733,"ICG NORTH AMERICA ASSOCIATES LLC","ICG NORTH AMERICA ASSOCIATES LLC","",,"","N","N","N","N","N","N","N","N","N","N","N","N","N","N","N","Y","N","Y","N","","","","","","","","N","","","N","Y","N"
2006441,379735,"ICG STRATEGIC EQUITY III GP LP","ICG STRATEGIC EQUITY III GP LP","",,"","N","N","N","N","N","N","N","N","N","N","N","N","N","N","N","Y","N","Y","N","","","","","","","","N","","","N","Y","Y"
2006441,379746,"ICG EUROPEAN FUND 2006 B GP LIMITED","ICG EUROPEAN FUND 2006 B GP LIMITED","",,"","N","N","N","N","N","N","N","N","N","N","N","N","N","N","N","Y","N","Y","N","","","","","","","","N","","","N","Y","N"
2006441,379739,"ICG STRATEGIC EQUITY III (OFFSHORE) GP LP","ICG STRATEGIC EQUITY III (OFFSHORE) GP LP","",,"","N","N","N","N","N","N","N","N","N","N","N","N","N","N","N","Y","N","Y","N","","","","","","","","N","","","N","Y","N"
2006441,379740,"NOMURA ICG KK","NOMURA ICG KK","",,"","N","Y","N","N","N","N","N","N","N","N","N","N","N","N","N","N","N","N","N","","","","","","","","N","Y","FOREIGN PRIVATE ADVISER","N","N","N"
2006441,379675,"ICG SRE GP II S.A R.L.","ICG SRE GP II S.A R.L.","",,"","N","N","N","N","N","N","N","N","N","N","N","N","N","N","N","Y","N","Y","N","","","","","","","","N","","","N","Y","N"
2006441,379676,"ICG-LONGBOW III GP S.A.R.L.","ICG-LONGBOW III GP S.A.R.L.","",,"","N","N","N","N","N","N","N","N","N","N","N","N","N","N","N","Y","N","Y","N","","","","","","","","N","","","N","Y","N"
2006441,379677,"ICG-LONGBOW IV GP S.A.R.L","ICG-LONGBOW IV GP S.A.R.L","",,"","N","N","N","N","N","N","N","N","N","N","N","N","N","N","N","Y","N","Y","N","","","","","","","","N","","","N","Y","N"
2006441,379758,"ICG NORTH AMERICAN PRIVATE DEBT II GP LP","ICG NORTH AMERICAN PRIVATE DEBT II GP LP","",,"","N","N","N","N","N","N","N","N","N","N","N","N","N","N","N","Y","N","Y","N","","","","","","","","N","","","N","Y","N"
2006441,379759,"ICG STRATEGIC EQUITY SIDE CAR II GP LP","ICG STRATEGIC EQUITY SIDE CAR II GP LP","",,"","N","N","N","N","N","N","N","N","N","N","N","N","N","N","N","Y","N","Y","N","","","","","","","","N","","","N","Y","N"
2006441,379422,"ICG EUROPE MID-MARKET FUND GP SARL","ICG EUROPE MID-MARKET FUND GP SARL","",,"","N","N","N","N","N","N","N","N","N","N","N","N","N","N","N","Y","N","Y","N","","","","","","","","N","","","N","Y","N"
2006441,379418,"ICG EUROPE FUND VI LUX GP S.A.R.L.","ICG EUROPE FUND VI LUX GP S.A.R.L.","",,"","N","N","N","N","N","N","N","N","N","N","N","N","N","N","N","Y","N","Y","N","","","","","","","","N","","","N","Y","N"
2006441,379742,"ICG LONGBOW UK REAL ESTATE DEBT INVESTMENTS III SARL","ICG LONGBOW UK REAL ESTATE DEBT INVESTMENTS III SARL","",,"","N","N","N","N","N","N","N","N","N","N","N","N","N","N","N","Y","N","Y","N","","","","","","","","N","","","N","Y","N"
2006441,379743,"ICG STRATEGIC SECONDARIES II GP LP","ICG STRATEGIC SECONDARIES II GP LP","",,"","N","N","N","N","N","Y","N","N","N","N","N","N","N","N","N","Y","N","Y","N","","","","","","","","N","","","N","Y","N"
2006441,379763,"ICG AUGUSTA PARTNERS GP LP","ICG AUGUSTA PARTNERS GP LP","",,"","N","N","N","N","N","N","N","N","N","N","N","N","N","N","N","Y","N","Y","N","","","","","","","","N","","","N","Y","N"
2006441,379424,"ICG EUROPE MID-MARKET FUND GP LP SCSP","ICG EUROPE MID-MARKET FUND GP LP SCSP","",,"","N","N","N","N","N","N","N","N","N","N","N","N","N","N","N","Y","N","Y","N","","","","","","","","N","","","N","N","N"
2006441,379427,"ICG ASIA PACIFIC FUND IV GP LP SCSP","ICG ASIA PACIFIC FUND IV GP LP SCSP","",,"","N","N","N","N","N","N","N","N","N","N","N","N","N","N","N","Y","N","Y","N","","","","","","","","N","","","N","N","N"
2006441,379760,"ICG VELOCITY CO-INVESTOR ASSOCIATES LLC","ICG VELOCITY CO-INVESTOR ASSOCIATES LLC","",,"","N","N","N","N","N","N","N","N","N","N","N","N","N","N","N","Y","N","Y","N","","","","","","","","N","","","N","Y","N"
2006441,379611,"ICG EUROPEAN CREDIT MANDATE GP LP SCSP","ICG EUROPEAN CREDIT MANDATE GP LP SCSP","",,"","N","N","N","N","N","N","N","N","N","N","N","N","N","N","N","Y","N","Y","N","","","","","","","","N","","","N","Y","N"
2006441,379772,"ICG STRATEGIC EQUITY SIDE CAR I GP LP","ICG STRATEGIC EQUITY SIDE CAR I GP LP","",,"","N","N","N","N","N","N","N","N","N","N","N","N","N","N","N","Y","N","Y","N","","","","","","","","N","","","N","Y","N"
2006441,379670,"ICG PRIVATE MARKETS GP SCSP","ICG PRIVATE MARKETS GP SCSP","",,"","N","N","N","N","N","N","N","N","N","N","N","N","N","N","N","Y","N","Y","N","","","","","","","","N","","","N","Y","N"
2006441,379671,"ICG REAL ESTATE DEBT VI GP LP SCSP","ICG REAL ESTATE DEBT VI GP LP SCSP","",,"","N","N","N","N","N","N","N","N","N","N","N","N","N","N","N","Y","N","Y","N","","","","","","","","N","","","N","Y","N"
2006441,379729,"ICG EXCELSIOR GP LP SCSP","ICG EXCELSIOR GP LP SCSP","",,"","N","N","N","N","N","N","N","N","N","N","N","N","N","N","N","Y","N","Y","N","","","","","","","","N","","","N","Y","N"
2006441,379761,"ICG MANAGER LIMITED","ICG MANAGER LIMITED","802-75696",161919,"","Y","Y","N","N","N","Y","N","N","N","N","N","N","N","N","N","N","N","Y","N","","","","","","","","N","Y","UNI BANCO LINE OF SEC NO ACTION LETTERS","Y","Y","N"
2006441,379672,"ICG RECOVERY FUND II GP LP SCSP (ACTING THROUGH ICG RECOVERY FUND II GP S.A R.L.)","ICG RECOVERY FUND II GP LP SCSP (ACTING THROUGH ICG RECOVERY FUND II GP S.A R.L.)","",,"","N","N","N","N","N","N","N","N","N","N","N","N","N","N","N","Y","N","Y","N","","","","","","","","N","","","N","Y","N"
2006441,379673,"ICG SENIOR DEBT PARTNERS GP S.A R.L.","ICG SENIOR DEBT PARTNERS GP S.A R.L.","",,"","N","N","N","N","N","N","N","N","N","N","N","N","N","N","N","Y","N","Y","N","","","","","","","","N","","","N","Y","N"
2006441,379674,"ICG SENIOR DEBT PARTNERS SARL","ICG SENIOR DEBT PARTNERS SARL","",,"","N","N","N","N","N","N","N","N","N","N","N","N","N","N","N","Y","N","Y","N","","","","","","","","N","","","N","Y","N"
2006441,380222,"ICG EUROPE FUND VII GP S.A.R.L.","ICG EUROPE FUND VII GP S.A.R.L.","",,"","N","N","N","N","N","N","N","N","N","N","N","N","N","N","N","Y","N","Y","N","","","","","","","","N","","","N","Y","N"
2006441,380223,"ICG SENIOR DEBT PARTNERS UK GP LIMITED","ICG SENIOR DEBT PARTNERS UK GP LIMITED","",,"","N","N","N","N","N","N","N","N","N","N","N","N","N","N","N","Y","N","Y","N","","","","","","","","N","","","N","Y","Y"
2006441,379712,"ICG ALTERNATIVE CREDIT LLC","ICG ALTERNATIVE CREDIT LLC","",,"","N","Y","N","N","N","Y","N","N","N","N","N","N","N","N","N","N","N","Y","N","","","","","","","","N","N","","N","Y","N"
2006441,379724,"ICG NORTH AMERICA ASSOCIATES III LLC","ICG NORTH AMERICA ASSOCIATES III LLC","",,"","N","N","N","N","N","N","N","N","N","N","N","N","N","N","N","Y","N","Y","N","","","","","","","","N","","","N","Y","N"
2006441,379748,"ICG RECOVERY FUND II GP SARL","ICG RECOVERY FUND II GP SARL","",,"","N","N","N","N","N","N","N","N","N","N","N","N","N","N","N","Y","N","Y","N","","","","","","","","N","","","N","Y","N"
2006441,379750,"INTERMEDIATE CAPITAL GP 2003 LTD","INTERMEDIATE CAPITAL GP 2003 LTD","",,"","N","N","N","N","N","N","N","N","N","N","N","N","N","N","N","Y","N","Y","N","","","","","","","","N","","","N","Y","N"
2006441,379744,"ICG ASIA PACIFIC LIMITED","ICG ASIA PACIFIC LIMITED","",,"","N","Y","N","N","N","N","N","N","N","N","N","N","N","N","N","N","N","Y","N","","","","","","","","N","Y","FOREIGN PRIVATE ADVISER","Y","Y","N"
2006441,379614,"ICG INFRASTRUCTURE EQUITY I GP SARL","ICG INFRASTRUCTURE EQUITY I GP SARL","",,"","N","N","N","N","N","N","N","N","N","N","N","N","N","N","N","Y","N","Y","N","","","","","","","","N","","","N","Y","N"
2006441,379771,"ICG PRIVATE MARKETS GP SARL","ICG PRIVATE MARKETS GP SARL","",,"","N","N","N","N","N","N","N","N","N","N","N","N","N","N","N","Y","N","Y","N","","","","","","","","N","","","N","Y","N"
2006441,379770,"ICG DEBT ADVISORS LLC - MANAGER SERIES","ICG DEBT ADVISORS LLC - MANAGER SERIES","",,"","N","N","N","N","N","Y","N","N","N","N","N","N","N","N","N","N","N","Y","N","","","","","","","","N","N","","N","Y","N"
2006441,379747,"ICG EUROPE FUND VI GP LIMITED","ICG EUROPE FUND VI GP LIMITED","",,"","N","N","N","N","N","N","N","N","N","N","N","N","N","N","N","Y","N","Y","N","","","","","","","","N","","","N","Y","N"
2006441,379754,"ICG-LONGBOW V GP SARL","ICG-LONGBOW V GP SARL","",,"","N","N","N","N","N","N","N","N","N","N","N","N","N","N","N","Y","N","Y","N","","","","","","","","N","","","N","Y","N"
2006441,379755,"ICG STRATEGIC EQUITY ADVISORS LLC","ICG STRATEGIC EQUITY ADVISORS LLC","",,"","N","Y","N","N","N","Y","N","N","N","N","N","N","N","N","N","N","N","Y","N","","","","","","","","N","N","","N","Y","N"
2006441,379756,"ICG STRATEGIC EQUITY III GP LLC","ICG STRATEGIC EQUITY III GP LLC","",,"","N","N","N","N","N","N","N","N","N","N","N","N","N","N","N","Y","N","Y","N","","","","","","","","N","","","N","Y","N"
2006441,379757,"ICG NORTH AMERICA ASSOCIATES II LLC","ICG NORTH AMERICA ASSOCIATES II LLC","",,"","N","N","N","N","N","N","N","N","N","N","N","N","N","N","N","Y","N","Y","N","","","","","","","","N","","","N","Y","N"
2006441,379718,"INTERMEDIATE CAPITAL GROUP BENELUX B.V.","INTERMEDIATE CAPITAL GROUP BENELUX B.V.","",,"","N","Y","N","N","N","N","N","N","N","N","N","N","N","N","N","N","N","Y","N","","","","","","","","N","Y","FOREIGN PRIVATE ADVISER","Y","N","N"
2006441,380616,"ICG EUROPE S.A.R.L.","ICG EUROPE S.A.R.L.","",,"","N","Y","N","N","N","N","N","N","N","N","N","N","N","N","N","N","N","Y","N","","","","","","","","N","Y","UNI BANCO LINE OF SEC NO ACTION LETTERS","Y","Y","Y"
2006441,379720,"ICG STRATEGIC EQUITY ASSOCIATES IV LLC","ICG STRATEGIC EQUITY ASSOCIATES IV LLC","",,"","N","N","N","N","N","N","N","N","N","N","N","N","N","N","N","Y","N","Y","N","","","","","","","","N","","","N","Y","N"
2006441,379721,"ICG STRATEGIC EQUITY IV GP LP","ICG STRATEGIC EQUITY IV GP LP","",,"","N","N","N","N","N","N","N","N","N","N","N","N","N","N","N","Y","N","Y","N","","","","","","","","N","","","N","Y","N"
2006441,379707,"ICG STRATEGIC EQUITY GP V LLC","ICG STRATEGIC EQUITY GP V LLC","",,"","N","N","N","N","N","N","N","N","N","N","N","N","N","N","N","Y","N","Y","N","","","","","","","","N","","","N","Y","N"
2006441,379708,"ICG STRATEGIC EQUITY GP V S.A R.L.","ICG STRATEGIC EQUITY GP V S.A R.L.","",,"","N","N","N","N","N","N","N","N","N","N","N","N","N","N","N","Y","N","Y","N","","","","","","","","N","","","N","Y","Y"
2006441,379751,"LONGBOW REAL ESTATE CAPITAL LLP","LONGBOW REAL ESTATE CAPITAL LLP","",,"","N","Y","N","N","N","N","N","N","N","N","N","N","N","N","N","N","N","Y","N","","","","","","","","N","Y","FOREIGN PRIVATE ADVISER","N","Y","N"
2006441,379752,"ICG PRIVATE CREDIT GP SARL","ICG PRIVATE CREDIT GP SARL","",,"","N","N","N","N","N","N","N","N","N","N","N","N","N","N","N","Y","N","Y","N","","","","","","","","N","","","N","Y","N"
2006441,379753,"ICG STRATEGIC EQUITY ASSOCIATES II LLC","ICG STRATEGIC EQUITY ASSOCIATES II LLC","",,"","N","N","N","N","N","N","N","N","N","N","N","N","N","N","N","Y","N","Y","N","","","","","","","","N","","","N","Y","N"
2006441,379722,"ICG STRATEGIC EQUITY IV GP LP SCSP","ICG STRATEGIC EQUITY IV GP LP SCSP","",,"","N","N","N","N","N","N","N","N","N","N","N","N","N","N","N","Y","N","Y","N","","","","","","","","N","","","N","Y","N"
2006441,379723,"ICG STRATEGIC EQUITY SIDE CAR GP LP","ICG STRATEGIC EQUITY SIDE CAR GP LP","",,"","N","N","N","N","N","N","N","N","N","N","N","N","N","N","N","Y","N","Y","N","","","","","","","","N","","","N","Y","N"
2006441,379616,"ICG METROPOLITAN GP S.A R.L","ICG METROPOLITAN GP S.A R.L","",,"","N","N","N","N","N","N","N","N","N","N","N","N","N","N","N","Y","N","Y","N","","","","","","","","N","","","N","Y","N"
2006441,379726,"ICG LP SECONDARIES FUND ASSOCIATES I SARL","ICG LP SECONDARIES FUND ASSOCIATES I SARL","",,"","N","N","N","N","N","N","N","N","N","N","N","N","N","N","N","Y","N","Y","N","","","","","","","","N","","","N","Y","N"
2006441,379604,"ICG EUROPE MID-MARKET FUND II GP S.A R.L.","ICG EUROPE MID-MARKET FUND II GP S.A R.L.","",,"","N","N","N","N","N","N","N","N","N","N","N","N","N","N","N","Y","N","Y","N","","","","","","","","N","","","N","Y","N"
2006441,379741,"ICG FUND ADVISORS LLC","ICG FUND ADVISORS LLC","",,"","N","Y","N","N","N","Y","N","N","N","N","N","N","N","N","N","N","N","Y","N","","","","","","","","N","N","","N","Y","N"
2007384,233335,"INHERENT ESG OPPORTUNITY GP, LLC","INHERENT ESG OPPORTUNITY GP, LLC","",,"","N","N","N","N","N","Y","N","N","N","N","N","N","N","N","N","Y","N","Y","N","","","","","","","","N","","","N","Y","Y"
2007384,233334,"INHERENT ESG OPPORTUNITY FEEDER GP, LP","INHERENT ESG OPPORTUNITY FEEDER GP, LP","",,"","N","N","N","N","N","Y","N","N","N","N","N","N","N","N","N","Y","N","Y","N","","","","","","","","N","","","N","Y","Y"
2007384,290394,"INHERENT CREDIT OPPORTUNITIES GP, LP","INHERENT CREDIT OPPORTUNITIES GP, LP","",,"","N","N","N","N","N","Y","N","N","N","N","N","N","N","N","N","Y","N","Y","N","","","","","","","","N","","","N","Y","Y"
2007384,328000,"INHERENT ASPIRATION MM, LLC","INHERENT ASPIRATION MM, LLC","",,"","N","N","N","N","N","N","N","N","N","N","N","N","N","N","N","Y","N","Y","N","","","","","","","","N","","","N","Y","Y"
2009458,399523,"CAESAR DJAVAHERIAN","CAESAR DJAVAHERIAN","",,"","N","N","N","N","N","N","N","N","N","N","N","N","N","N","N","Y","Y","N","N","","","","","","","","N","","","N","N","N"
2009458,399522,"AYOKUNLE OMOJOLA","AYOKUNLE OMOJOLA","",,"","N","N","N","N","N","N","N","N","N","N","N","N","N","N","N","Y","Y","N","N","","","","","","","","N","","","N","N","N"
2009458,399524,"KERRY KELLOGG","KERRY KELLOGG","",,"","N","N","N","N","N","N","N","N","N","N","N","N","N","N","N","Y","Y","N","N","","","","","","","","N","","","N","N","Y"
2010775,327273,"PNC MANAGED ACCOUNT SOLUTIONS, INC.","PNC MANAGED ACCOUNT SOLUTIONS, INC.","801-56131",110476,"","N","Y","N","N","N","N","N","N","N","N","N","N","N","N","N","N","N","Y","N","","","","","","","","N","N","","N","N","N"
2010775,327073,"PNC CAPITAL MARKETS LLC","PNC CAPITAL MARKETS LLC","8-32493",15647,"","Y","N","N","N","N","N","N","N","N","N","N","N","N","N","N","N","N","Y","N","","","","","","","","N","","","N","N","N"
2010775,273402,"HARRIS WILLIAMS LLC","HARRIS WILLIAMS","8-53380",113930,"","Y","N","N","N","N","N","N","N","N","N","N","N","N","N","N","N","N","Y","N","","","","","","","","N","N","","N","Y","Y"
2010775,273403,"PNC BANK, NATIONAL ASSOCIATION","PNC BANK, NATIONAL ASSOCIATION","",,"","N","N","N","N","N","N","N","Y","N","N","N","N","N","N","N","N","N","Y","N","","","","","","","","N","N","","N","N","N"
2010775,327096,"SOLEBURY CAPITAL LLC","SOLEBURY CAPITAL LLC","8-67548",143299,"","Y","N","N","N","N","N","N","N","N","N","N","N","N","N","N","N","N","Y","N","","","","","","","","N","N","","N","N","N"
2010775,246911,"SP CAPITAL FUND GP, LLC","SP CAPITAL FUND GP, LLC","",,"","N","N","N","N","N","N","N","N","N","N","N","N","N","N","N","Y","N","Y","N","","","","","","","","N","","","N","Y","Y"
2010775,327077,"PNC INVESTMENTS LLC","PNC INVESTMENTS","801-66195",129052,"","Y","Y","N","N","N","N","N","N","N","N","N","N","N","N","N","N","N","Y","N","","","","","","","","N","N","","N","N","N"
2010775,327095,"PNC TC, LLC","PNC REAL ESTATE","801-80546",172753,"","N","Y","N","N","N","N","N","N","N","N","N","N","N","N","N","N","N","Y","N","","","","","","","","N","N","","N","N","N"
2010775,399257,"AQUEDUCT CAPITAL GROUP, LLC","AQUEDUCT CAPITAL GROUP, LLC","8-66464",131452,"","Y","N","N","N","N","N","N","N","N","N","N","N","N","N","N","N","N","Y","N","","","","","","","","N","","","N","N","Y"
2010775,365238,"HARRIS WILLIAMS & CO. CORPORATE FINANCE ADVISORS GMBH","HARRIS WILLIAMS & CO. CORPORATE FINANCE ADVISORS GMBH","",,"","Y","N","N","N","N","N","N","N","N","N","N","N","N","N","N","N","N","Y","N","","","","","","","","N","","","N","N","N"
2010775,327094,"PNC STEEL CITY ADVISORS, LLC","PNC STEEL CITY ADVISORS, LLC","801-80567",172658,"","N","Y","N","N","N","N","N","N","N","N","N","N","N","N","N","N","N","Y","N","","","","","","","","N","N","","N","N","N"
2010775,287287,"HARRIS WILLIAMS PRIVATE CAPITAL ADVISORY, LTD.","HARRIS WILLIAMS PRIVATE CAPITAL ADVISORY, LTD.","N/A",,"","Y","N","N","N","N","N","N","N","N","N","N","N","N","N","N","N","N","Y","N","","","","","","","","N","","","Y","Y","N"
2010775,327279,"ALLEGHENY CAPITAL PARTNERS II, LLC","ALLEGHENY CAPITAL PARTNERS II, LLC","",,"","N","Y","N","N","N","N","N","N","N","N","N","N","N","N","N","N","N","Y","N","","","","","","","","N","N","","N","N","N"
2010775,327237,"PNC MEZZANINE MANAGEMENT CORP","PNC MEZZANINE MANAGEMENT CORP","802-108652",157565,"","N","Y","N","N","N","N","N","N","N","N","N","N","N","N","N","N","N","Y","N","","","","","","","","N","N","","N","N","N"
2010775,327072,"PNC CAPITAL ADVISORS LLC","PNC CAPITAL ADVISORS LLC","801-70684",151829,"","N","Y","N","N","N","N","N","N","N","N","N","N","N","N","N","N","N","Y","N","","","","","","","","N","N","","N","N","N"
2010775,365237,"HARRIS WILLIAMS & CO. LTD","HARRIS WILLIAMS & CO. LTD","",,"","Y","N","N","N","N","N","N","N","N","N","N","N","N","N","N","N","N","Y","N","","","","","","","","N","","","Y","N","N"
2007044,399213,"SUNDANCE GROWTH FUND I GP LLC","SUNDANCE GROWTH FUND I GP LLC","",,"","N","N","N","N","N","N","N","N","N","N","N","N","N","N","N","Y","N","Y","N","","","","","","","","N","N","","N","Y","Y"
2009797,357561,"CO-STONE ASSET MANAGEMENT CO., LTD","CO-STONE ASSET MANAGEMENT CO., LTD","",,"","N","Y","N","N","N","N","N","N","N","N","N","N","N","N","N","N","Y","N","N","","","","","","","","N","Y","FOREIGN PRIVATE ADVISERS","Y","Y","N"
2010290,372468,"STRONG VENTURES OF III GP, LLC","STRONG VENTURES OF III GP, LLC","",,"","N","N","N","N","N","N","N","N","N","N","N","N","N","N","N","Y","N","Y","N","","","","","","","","N","Y","SECTION 203(L) OF THE INVESTMENT ADVISERS ACT OF 1940","N","Y","Y"
2010290,372467,"STRONG VENTURES V GP, LLC","STRONG VENTURES V GP, LLC","",,"","N","N","N","N","N","N","N","N","N","N","N","N","N","N","N","Y","N","Y","N","","","","","","","","N","Y","SECTION 203(L) OF THE INVESTMENT ADVISERS ACT OF 1940","N","Y","Y"
2010290,343774,"STRONG VENTURES IV, LLC","STRONG VENTURES IV, LLC","",,"","N","N","N","N","N","N","N","N","N","N","N","N","N","N","N","Y","N","Y","N","","","","","","","","N","Y","SECTION 203(L) OF THE INVESTMENT ADVISERS ACT OF 1940","N","Y","Y"
2010290,205058,"STRONG SEED FUND II, LLC","STRONG SEED FUND II, LLC","",,"","N","N","N","N","N","N","N","N","N","N","N","N","N","N","N","Y","N","Y","N","","","","","","","","N","Y","SECTION 203(L) OF THE INVESTMENT ADVISERS ACT OF 1940","N","Y","Y"
2010290,261430,"STRONG SEED FUND III, LLC","STRONG SEED FUND III, LLC","",,"","N","N","N","N","N","N","N","N","N","N","N","N","N","N","N","Y","N","Y","N","","","","","","","","N","Y","SECTION 203(L) OF THE INVESTMENT ADVISERS ACT OF 1940","N","Y","Y"
2010290,205056,"STRONG VENTURES MANAGEMENT, LLC","STRONG VENTURES MANAGEMENT, LLC","",,"","N","N","N","N","N","N","N","N","N","N","N","N","N","N","N","Y","N","Y","N","","","","","","","","N","Y","SECTION 203(L) OF THE INVESTMENT ADVISERS ACT OF 1940","N","Y","Y"
2007996,399291,"GIP GP U PTE. LTD.","GIP GP U PTE. LTD.","",,"","N","Y","N","N","N","N","N","N","N","N","N","N","N","N","N","N","Y","N","N","","","","","","","","N","Y","FOREIGN PRIVATE ADVISER","Y","Y","Y"
2006456,271813,"ICG NORTH AMERICAN PRIVATE DEBT II (OFFSHORE) GP LP","ICG NORTH AMERICAN PRIVATE DEBT II (OFFSHORE) GP LP","",,"","N","N","N","N","N","N","N","N","N","N","N","N","N","N","N","Y","N","Y","N","","","","","","","","N","","","N","Y","N"
2006456,192002,"ICG INVESTMENTS SINGAPORE PTE. LIMITED","ICG INVESTMENTS SINGAPORE PTE. LIMITED","",,"","N","Y","N","N","N","N","N","N","N","N","N","N","N","N","N","N","N","Y","N","","","","","","","","N","Y","FOREIGN PRIVATE ADVISER","Y","Y","N"
2006456,228864,"ICG STRATEGIES SECONDARIES II (OFFSHORE) GP LP","ICG STRATEGIES SECONDARIES II (OFFSHORE) GP LP","",,"","N","N","N","N","N","Y","N","N","N","N","N","N","N","N","N","Y","N","Y","N","","","","","","","","N","","","N","Y","N"
2006456,228865,"ICG DEBT ADVISORS LLC- MANAGER SERIES","ICG DEBT ADVISORS LLC- MANAGER SERIES","",,"","N","Y","N","N","N","Y","N","N","N","N","N","N","N","N","N","N","N","Y","N","","","","","","","","N","N","","N","Y","N"
2006456,271806,"ICG AUGUSTA ASSOCIATES LLC","ICG AUGUSTA ASSOCIATES LLC","",,"","N","N","N","N","N","N","N","N","N","N","N","N","N","N","N","Y","N","Y","N","","","","","","","","N","","","N","Y","N"
2006456,271815,"ICG STRATEGIC EQUITY III GP LLC","ICG STRATEGIC EQUITY III GP LLC","",,"","N","N","N","N","N","N","N","N","N","N","N","N","N","N","N","Y","N","Y","N","","","","","","","","N","","","N","Y","N"
2006456,211093,"ICG LONGBOW IV GP SARL","ICG LONGBOW IV GP SARL","",,"","N","N","N","N","N","N","N","N","N","N","N","N","N","N","N","Y","N","Y","N","","","","","","","","N","","","N","Y","N"
2006456,211091,"ICG EUROPE FUND VI LUX GP SARL","ICG EUROPE FUND VI LUX GP SARL","",,"","N","N","N","N","N","N","N","N","N","N","N","N","N","N","N","Y","N","Y","N","","","","","","","","N","","","N","Y","N"
2006456,271818,"ICG VELOCITY CO-INVESTOR ASSOCIATES LLC","ICG VELOCITY CO-INVESTOR ASSOCIATES LLC","",,"","N","N","N","N","N","N","N","N","N","N","N","N","N","N","N","Y","N","Y","N","","","","","","","","N","","","N","Y","N"
2006456,228854,"ICG FUND ADVISORS LLC","ICG FUND ADVISORS LLC","",,"","N","Y","N","N","N","Y","N","N","N","N","N","N","N","N","N","N","N","Y","N","","","","","","","","N","N","","N","Y","N"
2006456,228857,"ICG ALTERNATIVE CREDIT LLC","ICG ALTERNATIVE CREDIT LLC","",,"","N","Y","N","N","N","Y","N","N","N","N","N","N","N","N","N","N","N","Y","N","","","","","","","","N","N","","Y","Y","N"
2006456,228863,"ICG STRATEGIES SECONDARIES II GP LP","ICG STRATEGIES SECONDARIES II GP LP","",,"","N","N","N","N","N","Y","N","N","N","N","N","N","N","N","N","Y","N","Y","N","","","","","","","","N","","","N","Y","N"
2006456,114143,"ICG RECOVERY FUND 2008 GP LIMITED","ICG RECOVERY FUND 2008 GP LIMITED","",,"","N","N","N","N","N","N","N","N","N","N","N","N","N","N","N","Y","N","Y","N","","","","","","","","N","","","N","Y","N"
2006456,211088,"ICG EUROPEAN FUND 2006 B GP LIMITED","ICG EUROPEAN FUND 2006 B GP LIMITED","",,"","N","N","N","N","N","N","N","N","N","N","N","N","N","N","N","Y","N","Y","N","","","","","","","","N","","","N","Y","N"
2006456,356379,"ICG EUROPE MID-MARKET FUND GP LP SCSP","ICG EUROPE MID-MARKET FUND GP LP SCSP","",,"","N","N","N","N","N","N","N","N","N","N","N","N","N","N","N","Y","N","Y","N","","","","","","","","N","","","N","N","N"
2006456,356380,"ICG EUROPE MID-MARKET FUND GP SARL","ICG EUROPE MID-MARKET FUND GP SARL","",,"","N","N","N","N","N","N","N","N","N","N","N","N","N","N","N","Y","N","Y","N","","","","","","","","N","","","N","Y","Y"
2006456,356206,"ICG STRATEGIC EQUITY IV GP LP SCSP","ICG STRATEGIC EQUITY IV GP LP SCSP","",,"","N","N","N","N","N","N","N","N","N","N","N","N","N","N","N","Y","N","Y","N","","","","","","","","N","","","N","Y","Y"
2006456,309628,"ICG REAL ESTATE DEBT VI GP SCSP","ICG REAL ESTATE DEBT VI GP SCSP","",,"","N","N","N","N","N","N","N","N","N","N","N","N","N","N","N","Y","N","Y","N","","","","","","","","N","","","N","Y","N"
2006456,271808,"ICG CENTRE STREET PARTNERSHIP GP LIMITED","ICG CENTRE STREET PARTNERSHIP GP LIMITED","",,"","N","N","N","N","N","N","N","N","N","N","N","N","N","N","N","Y","N","Y","N","","","","","","","","N","","","N","Y","N"
2006456,271817,"ICG STRATEGIC EQUITY SIDE CAR I GP LP","ICG STRATEGIC EQUITY SIDE CAR I GP LP","",,"","N","N","N","N","N","N","N","N","N","N","N","N","N","N","N","Y","N","Y","N","","","","","","","","N","","","N","Y","N"
2006456,114139,"INTERMEDIATE CAPITAL GP 2003 LTD","INTERMEDIATE CAPITAL GP 2003 LTD","",,"","N","N","N","N","N","N","N","N","N","N","N","N","N","N","N","Y","N","Y","N","","","","","","","","N","","","N","Y","N"
2006456,211089,"ICG EUROPE FUND  VI GP LIMITED","ICG EUROPE FUND  VI GP LIMITED","",,"","N","N","N","N","N","N","N","N","N","N","N","N","N","N","N","Y","N","Y","N","","","","","","","","N","","","N","Y","N"
2006456,228856,"ICG ALTERNATIVE CREDIT (CAYMAN) GP LIMITED","ICG ALTERNATIVE CREDIT (CAYMAN) GP LIMITED","",,"","N","N","N","N","N","N","N","N","N","N","N","N","N","N","N","Y","N","Y","N","","","","","","","","N","","","N","Y","N"
2006456,290171,"ICG PRIVATE MARKETS GP SARL","ICG PRIVATE MARKETS GP SARL","",,"","N","N","N","N","N","N","N","N","N","N","N","N","N","N","N","Y","N","Y","N","","","","","","","","N","","","N","Y","N"
2006456,228861,"ICG NORTH AMERICAN PRIVATE DEBT (OFFSHORE) GP LP","ICG NORTH AMERICAN PRIVATE DEBT (OFFSHORE) GP LP","",,"","N","N","N","N","N","N","N","N","N","N","N","N","N","N","N","Y","N","Y","N","","","","","","","","N","","","N","Y","N"
2006456,271814,"ICG STRATEGIC EQUITY ASSOCIATES III LLC","ICG STRATEGIC EQUITY ASSOCIATES III LLC","",,"","N","N","N","N","N","N","N","N","N","N","N","N","N","N","N","Y","N","Y","N","","","","","","","","N","","","N","Y","N"
2006456,356381,"ICG EUROPE MID-MARKET FUND II GP S.A R.L.","ICG EUROPE MID-MARKET FUND II GP S.A R.L.","",,"","N","N","N","N","N","N","N","N","N","N","N","N","N","N","N","Y","N","Y","N","","","","","","","","N","","","N","Y","Y"
2006456,356203,"ICG NORTH AMERICA ASSOCIATES III LLC","ICG NORTH AMERICA ASSOCIATES III LLC","",,"","N","N","N","N","N","N","N","N","N","N","N","N","N","N","N","Y","N","Y","N","","","","","","","","N","","","N","Y","Y"
2006456,356378,"ICG EUROPE FUND VIII GP S.A R.L.","ICG EUROPE FUND VIII GP S.A R.L.","",,"","N","N","N","N","N","N","N","N","N","N","N","N","N","N","N","Y","N","Y","N","","","","","","","","N","","","N","Y","Y"
2006456,356377,"ICG EUROPE FUND VIII GP LP SCSP (ACTING THROUGH ICG EUROPE FUND VIII GP S.A R.L.)","ICG EUROPE FUND VIII GP LP SCSP (ACTING THROUGH ICG EUROPE FUND VIII GP S.A R.L.)","",,"","N","N","N","N","N","N","N","N","N","N","N","N","N","N","N","Y","N","Y","N","","","","","","","","N","","","N","N","N"
2006456,228858,"ICG STRATEGIC EQUITY ADVISORS LLC","ICG STRATEGIC EQUITY ADVISORS LLC","",,"","N","Y","N","N","N","Y","N","N","N","N","N","N","N","N","N","N","Y","N","N","","","","","","","","N","N","","N","Y","N"
2006456,114144,"ICG EUROPE FUND V GP LIMITED","ICG EUROPE FUND V GP LIMITED","",,"","N","N","N","N","N","N","N","N","N","N","N","N","N","N","N","Y","N","Y","N","","","","","","","","N","","","N","Y","N"
2006456,379072,"ICG ALTERNATIVE INVESTMENT LIMITED","ICG ALTERNATIVE INVESTMENT LIMITED","",331768,"","N","Y","N","N","N","N","N","N","N","N","N","N","N","N","N","N","N","Y","N","","","","","","","","N","Y","203(M)(1) OF THE ADVISERS ACT OF 1940","Y","Y","Y"
2006456,379074,"ICG SENIOR DEBT PARTNERS UK GP UMITED","ICG SENIOR DEBT PARTNERS UK GP UMITED","",,"","N","N","N","N","N","N","N","N","N","N","N","N","N","N","N","Y","N","Y","N","","","","","","","","N","","","N","Y","Y"
2006456,378974,"ICG SENIOR DEBT PARTNERS UK GP UMITED","ICG SENIOR DEBT PARTNERS UK GP UMITED","",,"","N","N","N","N","N","N","N","N","N","N","N","N","N","N","N","Y","N","Y","N","","","","","","","","N","","","N","Y","Y"
2006456,378975,"ICG SENIOR DEBT PARTNERS UK GP UMITED","ICG SENIOR DEBT PARTNERS UK GP UMITED","",,"","N","N","N","N","N","N","N","N","N","N","N","N","N","N","N","Y","N","Y","N","","","","","","","","N","","","N","Y","Y"
2006456,379073,"ALTERNATIVE INVESTMENT FUND MANAGER","ALTERNATIVE INVESTMENT FUND MANAGER","",,"","N","N","N","N","N","N","N","N","N","N","N","N","N","N","N","Y","N","Y","N","","","","","","","","N","","","N","Y","Y"
2006456,271816,"ICG STRATEGIC EQUITY III (OFFSHORE) GP LP","ICG STRATEGIC EQUITY III (OFFSHORE) GP LP","",,"","N","N","N","N","N","N","N","N","N","N","N","N","N","N","N","Y","N","Y","N","","","","","","","","N","","","N","Y","N"
2006456,356204,"ICG STRATEGIC EQUITY IV GP LP","ICG STRATEGIC EQUITY IV GP LP","",,"","N","N","N","N","N","N","N","N","N","N","N","N","N","N","N","Y","N","Y","N","","","","","","","","N","","","N","Y","Y"
2006456,356214,"ICG EXCELSIOR GP LP SCSP","ICG EXCELSIOR GP LP SCSP","",,"","N","N","N","N","N","N","N","N","N","N","N","N","N","N","N","Y","N","Y","N","","","","","","","","N","","","N","Y","Y"
2006456,356202,"ICG VELOCITY CO-INVESTOR GP LP","ICG VELOCITY CO-INVESTOR GP LP","",,"","N","N","N","N","N","N","N","N","N","N","N","N","N","N","N","Y","N","Y","N","","","","","","","","N","","","N","Y","Y"
2006456,356209,"ICG STRATEGIC EQUITY ASSOCIATES IV LLC","ICG STRATEGIC EQUITY ASSOCIATES IV LLC","",,"","N","N","N","N","N","N","N","N","N","N","N","N","N","N","N","Y","N","Y","N","","","","","","","","N","","","N","Y","Y"
2006456,356213,"ICG PLC","ICG PLC","",,"","N","Y","N","N","N","N","N","N","N","N","N","N","N","N","N","N","Y","N","N","","","","","","","","N","Y","FOREIGN PRIVATE ADVISER","N","Y","Y"
2006456,356205,"ICG US SENIOR LOAN FUND G.P. LTD.","ICG US SENIOR LOAN FUND G.P. LTD.","",,"","N","N","N","N","N","N","N","N","N","N","N","N","N","N","N","Y","N","Y","N","","","","","","","","N","","","N","Y","Y"
2006456,356211,"ICG LP SECONDARIES I ASSOCIATES LLC","ICG LP SECONDARIES I ASSOCIATES LLC","",,"","N","N","N","N","N","N","N","N","N","N","N","N","N","N","N","Y","N","Y","N","","","","","","","","N","","","N","Y","Y"
2006456,271810,"ICG NORTH AMERICA ASSOCIATES II LLC","ICG NORTH AMERICA ASSOCIATES II LLC","",,"","N","N","N","N","N","N","N","N","N","N","N","N","N","N","N","Y","N","Y","N","","","","","","","","N","","","N","Y","N"
2006456,271811,"ICG NORTH AMERICA ASSOCIATES LLC","ICG NORTH AMERICA ASSOCIATES LLC","",,"","N","N","N","N","N","N","N","N","N","N","N","N","N","N","N","Y","N","Y","N","","","","","","","","N","","","N","Y","N"
2006456,356212,"ICG EUROPE S.A.R.L.","ICG EUROPE S.A.R.L.","",,"","N","Y","N","N","N","N","N","N","N","N","N","N","N","N","N","N","N","Y","N","","","","","","","","N","Y","UNI BANCO LINE OF SEC NO ACTION LETTERS","Y","Y","Y"
2006456,356207,"ICG LP SECONDARIES FUND ASSOCIATES I SARL","ICG LP SECONDARIES FUND ASSOCIATES I SARL","",,"","N","N","N","N","N","N","N","N","N","N","N","N","N","N","N","Y","N","Y","N","","","","","","","","N","","","N","Y","Y"
2006456,356208,"ICG STRATEGIC EQUITY SIDE CAR GP LP","ICG STRATEGIC EQUITY SIDE CAR GP LP","",,"","N","N","N","N","N","N","N","N","N","N","N","N","N","N","N","Y","N","Y","N","","","","","","","","N","","","N","Y","Y"
2006456,115036,"ICG ASIA PACIFIC LIMITED","ICG ASIA PACIFIC LIMITED","",,"","N","Y","N","N","N","N","N","N","N","N","N","N","N","N","N","N","N","Y","N","","","","","","","","N","Y","FOREIGN PRIVATE ADVISER","Y","Y","N"
2006456,163194,"ICG SENIOR DEBT PARTNERS SARL","ICG SENIOR DEBT PARTNERS SARL","",,"","N","N","N","N","N","N","N","N","N","N","N","N","N","N","N","Y","N","Y","N","","","","","","","","N","","","N","Y","N"
2006456,290168,"ICG INFRASTRUCTURE EQUITY I GP SARL","ICG INFRASTRUCTURE EQUITY I GP SARL","",,"","N","N","N","N","N","N","N","N","N","N","N","N","N","N","N","Y","N","Y","N","","","","","","","","N","","","N","Y","N"
2006456,290170,"ICG LONGBOW UK REAL ESTATE DEBT INVESTMENTS III SARL","ICG LONGBOW UK REAL ESTATE DEBT INVESTMENTS III SARL","",,"","N","N","N","N","N","N","N","N","N","N","N","N","N","N","N","Y","N","Y","N","","","","","","","","N","","","N","Y","N"
2006456,333778,"ICG STRUCTURED SPECIAL OPPORTUNITIES GP LIMITED","ICG STRUCTURED SPECIAL OPPORTUNITIES GP LIMITED","",,"","N","N","N","N","N","N","N","N","N","N","N","N","N","N","N","Y","N","Y","N","","","","","","","","N","","","N","Y","Y"
2006456,333777,"ICG STRATEGIC EQUITY III GP LP","ICG STRATEGIC EQUITY III GP LP","",,"","N","N","N","N","N","N","N","N","N","N","N","N","N","N","N","Y","N","Y","N","","","","","","","","N","","","N","Y","Y"
2006456,290064,"ICG STRATEGIC EQUITY SIDE CAR II GP LP","ICG STRATEGIC EQUITY SIDE CAR II GP LP","",,"","N","N","N","N","N","N","N","N","N","N","N","N","N","N","N","Y","N","Y","N","","","","","","","","N","","","N","Y","N"
2006456,309627,"ICG RECOVERY FUND II GP SARL","ICG RECOVERY FUND II GP SARL","",,"","N","N","N","N","N","N","N","N","N","N","N","N","N","N","N","Y","N","Y","N","","","","","","","","N","","","N","Y","N"
2006456,309631,"ICG-LONGBOW V GP SARL","ICG-LONGBOW V GP SARL","",,"","N","N","N","N","N","N","N","N","N","N","N","N","N","N","N","Y","N","Y","N","","","","","","","","N","","","N","Y","N"
2006456,290063,"ICG ALTERNATIVE CREDIT WAREHOUSE FUND I, GP","ICG ALTERNATIVE CREDIT WAREHOUSE FUND I, GP","",,"","N","N","N","N","N","N","N","N","N","N","N","N","N","N","N","Y","N","Y","N","","","","","","","","N","","","N","Y","N"
2006456,191977,"INTERMEDIATE CAPITAL GROUP, INC","INTERMEDIATE CAPITAL GROUP, INC","801-79072",162589,"","N","Y","N","N","N","Y","N","N","N","N","N","N","N","N","N","N","N","Y","N","","","","","","","","N","N","","N","Y","N"
2006456,228855,"ICG NORTH AMERICAN PRIVATE DEBT GP LP","ICG NORTH AMERICAN PRIVATE DEBT GP LP","",,"","N","N","N","N","N","N","N","N","N","N","N","N","N","N","N","Y","N","Y","N","","","","","","","","N","","","N","Y","N"
2006456,271812,"ICG NORTH AMERICAN PRIVATE DEBT II GP LP","ICG NORTH AMERICAN PRIVATE DEBT II GP LP","",,"","N","N","N","N","N","N","N","N","N","N","N","N","N","N","N","Y","N","Y","N","","","","","","","","N","","","N","Y","N"
2006456,248745,"INTERMEDIATE CAPITAL GROUP BENELUX B.V.","INTERMEDIATE CAPITAL GROUP BENELUX B.V.","",,"","N","Y","N","N","N","N","N","N","N","N","N","N","N","N","N","N","N","Y","N","","","","","","","","N","Y","FOREIGN PRIVATE ADVISER","Y","N","N"
2006456,378972,"ICG STRATEGIC EQUITY GP V S.A R.L.","ICG STRATEGIC EQUITY GP V S.A R.L.","",,"","N","N","N","N","N","N","N","N","N","N","N","N","N","N","N","Y","N","Y","N","","","","","","","","N","","","N","Y","Y"
2006456,378971,"ICG STRATEGIC EQUITY GP V LLC","ICG STRATEGIC EQUITY GP V LLC","",,"","N","N","N","N","N","N","N","N","N","N","N","N","N","N","N","Y","N","Y","N","","","","","","","","N","","","N","Y","Y"
2006456,378973,"INTERMEDIATE CAPITAL MANAGERS LIMITED","INTERMEDIATE CAPITAL MANAGERS LIMITED","802-75696",161919,"","N","Y","N","N","N","Y","N","N","N","N","N","N","N","N","N","N","N","Y","N","","","","","","","","N","Y","UNI BANCO LINE OF SEC NO ACTION LETTERS","Y","Y","Y"
2006456,309625,"ICG EUROPEAN CREDIT MANDATE GP SARL","ICG EUROPEAN CREDIT MANDATE GP SARL","",,"","N","N","N","N","N","N","N","N","N","N","N","N","N","N","N","Y","N","Y","N","","","","","","","","N","","","N","Y","N"
2006456,309626,"ICG PRIVATE CREDIT GP SARL","ICG PRIVATE CREDIT GP SARL","",,"","N","N","N","N","N","N","N","N","N","N","N","N","N","N","N","Y","N","Y","N","","","","","","","","N","","","N","Y","N"
2006456,290172,"INTERMEDIATE CAPITAL ASIA PACIFIC IV GP LP SCSP","INTERMEDIATE CAPITAL ASIA PACIFIC IV GP LP SCSP","",,"","N","N","N","N","N","N","N","N","N","N","N","N","N","N","N","Y","N","Y","N","","","","","","","","N","","","N","Y","N"
2006456,248743,"NOMURA ICG KK","NOMURA ICG KK","",,"","N","Y","N","N","N","N","N","N","N","N","N","N","N","N","N","N","N","N","N","","","","","","","","N","Y","FOREIGN PRIVATE ADVISER","Y","N","N"
2006456,192004,"LONGBOW REAL ESTATE CAPITAL LLP","LONGBOW REAL ESTATE CAPITAL LLP","",,"","N","Y","N","N","N","N","N","N","N","N","N","N","N","N","N","N","N","Y","N","","","","","","","","N","Y","FOREIGN PRIVATE ADVISER","N","Y","N"
2006456,271807,"ICG AUGUSTA PARTNERS GP LP","ICG AUGUSTA PARTNERS GP LP","",,"","N","N","N","N","N","N","N","N","N","N","N","N","N","N","N","Y","N","Y","N","","","","","","","","N","","","N","Y","N"
2006456,248746,"ICG STRATEGIC EQUITY ASSOCIATES II LLC","ICG STRATEGIC EQUITY ASSOCIATES II LLC","",,"","N","N","N","N","N","N","N","N","N","N","N","N","N","N","N","Y","N","Y","N","","","","","","","","N","","","N","Y","N"
2006456,271805,"ICG ALTERNATIVE CREDIT (LUXEMBOURG) GP S.A.","ICG ALTERNATIVE CREDIT (LUXEMBOURG) GP S.A.","",,"","N","N","N","N","N","N","N","N","N","N","N","N","N","N","N","Y","N","Y","N","","","","","","","","N","","","N","Y","N"
2006456,309629,"ICG EUROPE FUND VII GP LP SCSP","ICG EUROPE FUND VII GP LP SCSP","",,"","N","N","N","N","N","N","N","N","N","N","N","N","N","N","N","Y","N","Y","N","","","","","","","","N","","","N","Y","N"
2008089,399289,"SHENANDOAH ENERGY PARTNERS III, LLC","SHENANDOAH ENERGY PARTNERS III, LLC","",,"","N","N","N","N","N","N","N","N","N","N","N","N","N","N","N","Y","N","Y","N","","","","","","","","N","","","N","Y","Y"
2008089,399290,"ALLEGHENY ENERGY MANAGEMENT III, LLC","ALLEGHENY ENERGY MANAGEMENT III, LLC","",,"","N","N","N","N","N","N","N","N","N","N","N","N","N","N","N","Y","N","Y","N","","","","","","","","N","","","N","Y","Y"
2008089,399887,"SEP MOUNTAINEER, LLC","SEP MOUNTAINEER, LLC","",,"","N","N","N","N","N","N","N","N","N","N","N","N","N","N","N","Y","N","Y","N","","","","","","","","N","","","N","Y","Y"
2008089,383326,"SEP APPALACHIA, LLC","SEP APPALACHIA, LLC","",,"","N","N","N","N","N","N","N","N","N","N","N","N","N","N","N","Y","N","Y","N","","","","","","","","N","","","N","Y","Y"
2008089,383328,"SEP EXPLORATION, LLC","SEP EXPLORATION, LLC","",,"","N","N","N","N","N","N","N","N","N","N","N","N","N","N","N","Y","N","Y","N","","","","","","","","N","","","N","Y","Y"
2008089,383321,"ALLEGHANY ENERGY MANAGEMENT II, LLC","ALLEGHANY ENERGY MANAGEMENT II, LLC","",,"","N","N","N","N","N","N","N","N","N","N","N","N","N","N","N","Y","N","Y","N","","","","","","","","N","","","N","Y","Y"
2008089,383322,"ALLEGHANY ENERGY MANAGEMENT, LLC","ALLEGHANY ENERGY MANAGEMENT, LLC","",,"","N","N","N","N","N","N","N","N","N","N","N","N","N","N","N","Y","N","Y","N","","","","","","","","N","","","N","Y","Y"
2008089,383323,"DAVID LEE HETTICH","DAVID LEE HETTICH","",,"","N","N","N","N","N","N","N","N","N","N","N","N","N","N","N","Y","Y","N","N","","","","","","","","N","","","N","N","Y"
2008089,383324,"EDGAR IDEN MELLOR, III","EDGAR IDEN MELLOR, III","",,"","N","N","N","N","N","N","N","N","N","N","N","N","N","N","N","Y","Y","N","N","","","","","","","","N","","","N","N","Y"
2008089,383325,"ROBERT DAVID SHUBIN","ROBERT DAVID SHUBIN","",,"","N","N","N","N","N","N","N","N","N","N","N","N","N","N","N","Y","Y","N","N","","","","","","","","N","","","N","N","Y"
2008089,383329,"SHENANDOAH ENERGY PARTNERS II, LLC","SHENANDOAH ENERGY PARTNERS II, LLC","",,"","N","N","N","N","N","N","N","N","N","N","N","N","N","N","N","Y","N","Y","N","","","","","","","","N","","","N","Y","Y"
2008089,383330,"SHENANDOAH ENERGY PARTNERS, LLC","SHENANDOAH ENERGY PARTNERS, LLC","",,"","N","N","N","N","N","N","N","N","N","N","N","N","N","N","N","Y","N","Y","N","","","","","","","","N","","","N","Y","Y"
2008089,385856,"HIGHLANDS ROYALTY, LLC","HIGHLANDS ROYALTY, LLC","",,"","N","N","N","N","N","N","N","N","N","N","N","N","N","N","N","Y","N","Y","N","","","","","","","","N","","","N","Y","Y"
2011437,399185,"CRIT VENTURES USA, LLC","CRIT VENTURES","",324634,"","N","N","N","N","N","N","N","N","N","N","N","N","N","N","N","Y","Y","Y","N","","","","","","","","N","Y","PRIVATE FUND EXEMPTION","N","Y","N"
2009240,278899,"PJC PARTNERS V, LLC","PJC PARTNERS V, LLC (""PJCP V"")","",,"","N","N","N","N","N","N","N","N","N","N","N","N","N","N","N","Y","Y","Y","N","","","","","","","","N","Y","IA ACT 203(L)","N","N","Y"
2009240,126995,"POINT JUDITH MANAGEMENT COMPANY, LLC","POINT JUDITH MANAGEMENT COMPANY, LLC (""PJMC"")","",,"","N","N","N","N","N","N","N","N","N","N","N","N","N","N","N","Y","Y","Y","N","","","","","","","","N","Y","IA ACT 203(L)","N","N","Y"
2009240,203539,"POINT JUDITH CAPITAL PARTNERS IV, LLC","POINT JUDITH CAPITAL PARTNERS IV, LLC (""PJCP IV"")","",,"","N","N","N","N","N","N","N","N","N","N","N","N","N","N","N","Y","Y","Y","N","","","","","","","","N","Y","IA ACT 203(L)","N","N","Y"
2009240,389243,"PJC FUND VI PARTNERS, LLC","PJC FUND VI PARTNERS, LLC (""PJCP VI"")","",,"","N","N","N","N","N","N","N","N","N","N","N","N","N","N","N","Y","Y","Y","N","","","","","","","","N","Y","IA ACT 203(L)","N","N","Y"
2009240,126129,"POINT JUDITH CAPITAL PARTNERS III, LLC","POINT JUDITH CAPITAL PARTNERS III, LLC (""PJCP III"")","",,"","N","N","N","N","N","N","N","N","N","N","N","N","N","N","N","Y","Y","Y","N","","","","","","","","N","Y","IA ACT 203(L)","N","N","Y"
2009156,355198,"LOBSTER CAPITAL GP, LLC","LOBSTER CAPITAL GP, LLC","",,"","N","N","N","N","N","N","N","N","N","N","N","N","N","N","N","Y","Y","Y","N","","","","","","","","N","Y","VENTURE CAPITAL EXEMPTION","N","Y","Y"
2009156,399420,"LOBSTER CAPITAL GP II, LLC","LOBSTER CAPITAL GP II, LLC","",,"","N","N","N","N","N","N","N","N","N","N","N","N","N","N","N","Y","Y","Y","N","","","","","","","","N","Y","VENTURE CAPITAL EXEMPTION","N","Y","Y"
2011776,367973,"MITSUI & CO. GLOBAL INVESTMENT, INC.","MITSUI & CO. GLOBAL INVESTMENT, INC.","802-128423",327084,"","N","Y","N","N","N","N","N","N","N","N","N","N","N","N","N","N","N","N","N","","","","","","","","N","Y","VENTURE CAPITAL FUND AS DEFINED IN RULE 203(L)-1","Y","N","N"
2011776,367562,"MORADO VENTURES, LLC","MORADO VENTURES, LLC","802-88201",168743,"","N","Y","N","N","N","N","N","N","N","N","N","N","N","N","N","N","N","N","N","","","","","","","","N","Y","VENTURE CAPITAL FUND AS DEFINED IN RULE 203(L)-1","N","N","Y"
2008814,399488,"AFCP SPV I GP LLC","AFCP SPV I GP LLC","",,"","N","N","N","N","N","N","N","N","N","N","N","N","N","N","N","Y","N","Y","N","","","","","","","","N","","","N","Y","Y"
2010659,385362,"CAPITAL FOUR MANAGEMENT FONDSMAEGLERSELSKAB A/S","CAPITAL FOUR MANAGEMENT FONDSMAEGLERSELSKAB A/S","",,"","N","Y","N","N","N","N","N","N","N","N","N","N","N","N","N","N","N","Y","N","","","","","","","","N","Y","NON US ENTITY WITH NO US CLIENTS","Y","N","Y"
2010659,385361,"CAPITAL FOUR US INC.","CAPITAL FOUR US INC.","801-122112",315650,"","N","Y","N","N","N","N","N","N","N","N","N","N","N","N","N","N","N","Y","N","","","","","","","","N","N","","N","Y","N"
2010659,385369,"VANTAGE INFRASTRUCTURE HOLDINGS LIMITED","VANTAGE INFRASTRUCTURE HOLDINGS LIMITED","",,"","N","Y","N","N","N","N","N","N","N","N","N","N","N","N","N","N","N","Y","N","","","","","","","","N","Y","NON US ENTITY WITH NO US CLIENTS","Y","N","N"
2010659,385366,"CAPITAL FOUR CLO MANAGEMENT GP II APS","CAPITAL FOUR CLO MANAGEMENT GP II APS","",,"","N","N","N","N","N","N","N","N","N","N","N","N","N","N","N","Y","N","Y","N","","","","","","","","N","Y","NON US ENTITY WITH NO US CLIENTS","N","N","N"
2010659,385364,"CAPITAL FOUR CLO MANAGEMENT GP APS","CAPITAL FOUR CLO MANAGEMENT GP APS","",,"","N","N","N","N","N","N","N","N","N","N","N","N","N","N","N","Y","N","Y","N","","","","","","","","N","Y","NON US ENTITY WITH NO US CLIENTS","N","N","N"
2010659,385363,"CAPITAL FOUR STRATEGIC LENDING FUND GP APS","CAPITAL FOUR STRATEGIC LENDING FUND GP APS","",,"","N","N","N","N","N","N","N","N","N","N","N","N","N","N","N","Y","N","Y","N","","","","","","","","N","Y","","N","N","N"
2010659,385365,"CAPITAL FOUR US CLO MANAGEMENT LLC","CAPITAL FOUR US CLO MANAGEMENT LLC","",323723,"","N","Y","N","N","N","N","N","N","N","N","N","N","N","N","N","Y","N","Y","N","","","","","","","","N","Y","RELYING ADVISER","N","N","N"
2010659,385367,"B-FLEXION INVESTMENTS (US) INC.","B-FLEXION INVESTMENTS (US) INC.","8-69369",169457,"","Y","N","N","N","N","N","N","N","N","N","N","N","N","N","N","N","N","Y","N","","","","","","","","N","N","","N","Y","N"
2010659,385368,"CAPITAL FOUR INSTITUTIONAL EVERGREEN DIRECT LENDING GP S.A.R.L","CAPITAL FOUR INSTITUTIONAL EVERGREEN DIRECT LENDING GP S.A.R.L","",,"","N","N","N","N","N","N","N","N","N","N","N","N","N","N","N","Y","N","Y","N","","","","","","","","N","Y","NON US ENTITY WITH NO US CLIENTS","N","N","N"
2006801,399212,"WILBE CAPITAL II GP LP","WILBE CAPITAL II GP LP","",,"","N","N","N","N","N","N","N","N","N","N","N","N","N","N","N","Y","N","Y","N","","","","","","","","N","Y","203(L)-1","N","Y","Y"
2004860,385802,"ALDARON PARTNERS OS GP LLC","ALDARON PARTNERS OS GP LLC","",,"","N","N","N","N","N","N","N","N","N","N","N","N","N","N","N","Y","N","Y","N","","","","","","","","N","Y","PRIVATE FUND ADVISER","N","Y","Y"
2007697,358013,"IPB ADMINISTRACION, S.C.","IPB ADMINISTRACION, S.C.","30133",,"","N","Y","N","N","N","N","N","N","N","N","N","N","N","N","N","N","N","Y","N","","","","","","","","N","N","","Y","Y","N"
2007697,358012,"BPBI LLC","BPBI LLC","801-110347",288133,"","N","Y","N","N","N","N","N","N","N","N","N","N","N","N","N","N","N","Y","N","","","","","","","","N","N","","N","Y","N"
2006344,399185,"CRIT VENTURES USA, LLC","CRIT VENTURES","",324634,"","N","N","N","N","N","N","N","N","N","N","N","N","N","N","N","Y","Y","Y","N","","","","","","","","N","Y","PRIVATE FUND EXEMPTION","N","Y","N"
2006657,299979,"JIA PARTIE MANAGER, LLC","JIA PARTIE MANAGER, LLC","",,"","N","N","N","N","N","N","N","N","N","N","N","N","N","N","N","Y","Y","N","N","","","","","","","","N","","","N","Y","Y"
2006657,258613,"JUNIPER CAPITAL PARTNERS, LLC","JUNIPER CAPITAL PARTNERS, LLC","",,"","N","N","N","N","N","N","N","N","N","N","N","N","N","N","Y","N","N","Y","N","","","","","","","","N","","","N","Y","Y"
2006657,272409,"JUNIPER BISHOPS MANAGER, LLC","JUNIPER BISHOPS MANAGER, LLC","",,"","N","N","N","N","N","N","N","N","N","N","N","N","N","N","N","Y","Y","N","N","","","","","","","","N","","","N","Y","Y"
2006657,257655,"ROBUS CAPITAL PARTNERS LLC","ROBUS CAPITAL PARTNERS LLC","8-69721",282547,"","Y","N","N","N","N","N","N","N","N","N","N","N","N","N","N","N","N","Y","N","","","","","","","","N","","","N","Y","N"
1999682,398207,"ATLAS GROVE SPECIAL OPPORTUNITIES I GP LLC","ATLAS GROVE SPECIAL OPPORTUNITIES I GP LLC","",,"","N","Y","N","N","N","N","N","N","N","N","N","N","N","N","N","Y","N","Y","N","","","","","","","","N","Y","SEE ITEM 2.B.(2) AND SCHEDULE D - MISCELLANEOUS HEREIN","N","Y","Y"
1999682,399051,"GXD LABS LLC","GXD LABS LLC","",,"","N","Y","N","N","N","N","N","N","N","N","N","N","N","N","N","N","N","Y","N","","","","","","","","N","Y","SEE NOTE IN SCHEDULE D - MISCELLANEOUS HEREIN","N","Y","Y"
1999682,398208,"REDWOOD GROVE LAW LLC","REDWOOD GROVE LAW LLC","",,"","N","N","N","N","N","N","N","N","N","N","Y","N","N","N","N","N","N","Y","N","","","","","","","","N","","","N","N","N"
1999682,398204,"AGSO II GP LLC","AGSO II GP LLC","",,"","N","Y","N","N","N","N","N","N","N","N","N","N","N","N","N","Y","N","Y","N","","","","","","","","N","Y","SEE ITEM 2.B.(2) AND SCHEDULE D - MISCELLANEOUS HEREIN","N","Y","Y"
2005001,315186,"REGEN VENTURES PTY LTD","REGEN VENTURES PTY LTD","",,"","N","N","N","N","N","N","N","N","N","N","N","N","N","N","N","Y","N","Y","N","","","","","","","","N","","","N","Y","Y"
2005001,315106,"REGEN VENTURES TRUSCO PTY LTD","REGEN VENTURES TRUSCO PTY LTD","",,"","N","N","N","N","N","N","N","N","Y","N","N","N","N","N","N","Y","N","Y","N","","","","","","","","N","","","N","Y","Y"
2005001,315104,"REGEN MANAGEMENT PARTNERSHIP, LP","REGEN MANAGEMENT PARTNERSHIP, LP","",,"","N","N","N","N","N","N","N","N","N","N","N","N","N","N","N","Y","N","Y","N","","","","","","","","N","","","N","Y","Y"
2008939,250528,"INTRINSIC HEALTH PARTNERS GP, LLC","INTRINSIC HEALTH PARTNERS GP, LLC","",,"","N","N","N","N","N","N","N","N","N","N","N","N","N","N","N","Y","N","Y","N","","","","","","","","N","","","N","Y","Y"
2008939,340801,"INTRINSIC HEALTH PARTNERS GP II, LLC","INTRINSIC HEALTH PARTNERS GP II, LLC","",,"","N","N","N","N","N","N","N","N","N","N","N","N","N","N","N","Y","N","Y","N","","","","","","","","N","","","N","Y","Y"
2005665,378575,"HRCP SLP, L.P.","HRCP SLP, L.P.","",,"","N","N","N","N","N","N","N","N","N","N","N","N","N","N","N","Y","N","Y","N","","","","","","","","N","","","N","Y","Y"
2005665,378576,"HRCP SLP GP, LLC","HRCP SLP GP, LLC","",,"","N","N","N","N","N","N","N","N","N","N","N","N","N","N","N","Y","N","Y","N","","","","","","","","N","","","N","Y","Y"
2005665,378205,"HRCP GP, LLC","HRCP GP, LLC","",,"","N","N","N","N","N","N","N","N","N","N","N","N","N","N","N","Y","N","Y","N","","","","","","","","N","","","N","Y","Y"
2005665,386785,"HIGHLAND RIM GP, LLC","HIGHLAND RIM GP, LLC","",,"","N","N","N","N","N","N","N","N","N","N","N","N","N","N","N","Y","Y","Y","N","","","","","","","","N","","","N","Y","Y"
