"FilingID","Name","Street 1","Street 2","City","State","Country","Postal Code","Private Residence","Phone","Fax","Type","Description"
1938482,"HANA FUND SERVICES","EULJI-RO 66","JUNG-GU","SEOUL","","Korea, South","04538","N","+822 6714 4600","","A third-party unaffiliated record keeper","HANA FUND SERVICES IS AN ADMINISTRATOR. IT MAINTAINS ACCOUNT DETAILS, TRADING DATA AND PORTFOLIO INFORMATION."
1938323,"CORNERSTONE VENTURE MANAGEMENT","3300 N. ASHTON BLVD","","LEHI","UT","United States","84043","N","8012143377","","A third-party unaffiliated record keeper","THEY ARE A THIRD PARTY FUND ADMINISTRATOR"
1936518,"MATSACK TRUST LIMITED","70 SIR JOHN ROGERSON'S QUAY","","DUBLIN","","Ireland","2","N","DO2R296","","A third-party unaffiliated record keeper","CLIENT RECORDS"
1925134,"MORGAN STANLEY FUND SERVICES (CAYMAN) LTD.","C/O MORGAN STANLEY FUND SERVICES (IRELAND) LIMITED","7-11 SIR JOHN ROGERSON'S QUAY, DUBLIN 2","DUBLIN","","Ireland","00000","N","+353 1 7998777","","A third-party unaffiliated record keeper","KYC AND RELEVANT OPERATIONAL DOCUMENTS FOR FUNDS INDICATED IN SECTION 7.B.(1)"
1942291,"PETRA FUNDS GROUP, LLC","520 MADISON AVE","23RD FLOOR","NEW YORK","NY","United States","10022","N","212.582.3320","","A third-party unaffiliated record keeper","RECORDS RELATED TO THE FIRM'S FUND AND INVESTORS"
1939483,"SS&C TECHNOLOGIES, INC.","151 W. 42ND STREET","6TH FLOOR","NEW YORK","NY","United States","10036","N","914-670-3800","","A third-party unaffiliated record keeper","SS&C TECHNOLOGIES, INC. SERVES AS AN ADMINISTRATOR FOR THE FUNDS."
1939857,"CITCO FUND ADMINISTRATION (CAYMAN ISLANDS) LIMITED","89 NEXUS WAY, 2ND FLOOR","CAMANA BAY","GRAND CAYMAN","","Cayman Islands","KY1-1205","N","+1 345 949 397","+1 345 949 387","A third-party unaffiliated record keeper","RELEVANT DOCUMENTATION IN RESPECT OF EACH OF THE COMPOSITE CAPITAL MASTER FUND LP, COMPOSITE CAPITAL FUND LIMITED, AND COMPOSITE CAPITAL FUND LP."
1936530,"INTERNATIONAL FUND SERVICES (IRELAND) LIMITED","78 SIR JOHN ROGERSON'S QUAY","","DUBLIN","","Ireland","","N","35(0)317075000","35(0)317075010","A third-party unaffiliated record keeper","FUND-RELATED BOOKS AND RECORDS"
1936530,"SS&C FUND SERVICES (CAYMAN) LTD.","45 MARKET STREET, SUITE 3205, 2ND FLOOR","GARDENIA COURT, CAMANA BAY","GRAND CAYMAN","","Cayman Islands","KY1-9003","N","3459433330","","A third-party unaffiliated record keeper","FUND-RELATED BOOKS AND RECORDS."
1936530,"CAPULA INVESTMENT MANAGEMENT LLP","7 CLARGES STREET","","LONDON","","United Kingdom","W1J 8AE","N","442070710900","","One of your branch offices or affiliates","CERTAIN CAPULA INVESTMENT MANAGEMENT ASIA LIMITED BOOKS AND RECORDS."
1936530,"GLOBAL RELAY COMMUNICATIONS INC.","45 CANNON STREET","","LONDON","","United Kingdom","EC4M 5SB","N","+442031399064","","A third-party unaffiliated record keeper","CERTAIN CAPULA INVESTMENT MANAGEMENT ASIA LIMITED BOOKS AND RECORDS"
1936530,"MIMECAST SERVICES LIMITED","1 FINSBURY AVENUE","","LONDON","","United Kingdom","EC2M 2PF","N","+442078478700","","A third-party unaffiliated record keeper","CERTAIN CAPULA INVESTMENT MANAGEMENT ASIA LIMITED BOOKS AND RECORDS"
1936530,"MICROSOFT LIMITED","2 THAMES VALLEY PARK","","BERKSHIRE","","United Kingdom","RG6 1WG","N","+443448002400","+448706020100","A third-party unaffiliated record keeper","CERTAIN CAPULA INVESTMENT MANAGEMENT ASIA LIMITED BOOKS AND RECORDS"
1936530,"SYMPHONY COMMUNICATIONS SERVICES LLC","640 W CALIFORNIA AVE","SUITE #200","SUNNYVALE","CA","United States","94086","N","(650) 733-6660","","A third-party unaffiliated record keeper","CERTAIN CAPULA INVESTMENT MANAGEMENT ASIA LIMITED BOOKS AND RECORDS"
1925055,"LISA GILES CPA, CA","","","","","","","Y","905-808-5507","","A third-party unaffiliated record keeper","CERTAIN BOOKS AND RECORDS OF THE ADVISER"
1925055,"E78 PARTNERS LLC","1301 W. 22ND STREET","SUITE 410","OAK BROOK","IL","United States","60523","N","(310) 806-6267","","A third-party unaffiliated record keeper","CERTAIN BOOKS AND RECORDS OF THE ADVISER AND PRIVATE FUND."
1925055,"NIRVANA FUND SOLUTIONS","85 BROAD STREET","18TH FLOOR","NEW YORK","NY","United States","10004","N","(212) 768-3410","","A third-party unaffiliated record keeper","PMS SYSTEM."
1925055,"PINNACLE FUND SERVICES LTD","333 SEYMOUR ST., SUITE 800","OFFICE 08-102","VANCOUVER, BC","","Canada","V6B 586","N","(604) 559-8920","","A third-party unaffiliated record keeper","CERTAIN BOOKS AND RECORDS OF THE PRIVATE FUND"
1944965,"RELIANT FUND SERVICES LLC","22 W 38TH ST","7TH FLOOR","NEW YORK","NY","United States","10018","N","(212) 953-9090","","A third-party unaffiliated record keeper","BOOKS AND RECORDS RELATED TO CERTAIN PRIVATE FUNDS MANAGED BY THE ADVISER."
1944965,"CIRCULARIS PARTNERS LP","","","","","","","Y","713-503-0891","","Other","BOOKS AND RECORDS RELATED TO CERTAIN PRIVATE FUNDS MANAGED BY THE ADVISER."
1944965,"HMUI & ASSOCIATES, LLC","75 BROAD STREET","SUITE 810","NEW YORK","NY","United States","10004","N","(646) 651-5706","","A third-party unaffiliated record keeper","BOOKS AND RECORDS RELATED TO CERTAIN PRIVATE FUNDS MANAGED BY THE ADVISER."
1945625,"BELLTOWER FUND GROUP, LTD","PO BOX 3217","","SEATTLE","WA","United States","98114","N","360-340-9337","","A third-party unaffiliated record keeper","FUND DOCUMENTS TRANSACTION RECORDS WRITTEN COMMUNICATIONS"
1933835,"MINGLY CHINA GROWTH MANAGEMENT, LTD.","SUITE 1507, CHANGFENG INTERNATIONAL MANSION","NO. 89 EAST YUNLING ROAD","SHANGHAI","","China","200062","N","+862162889998","+862162889166","One of your branch offices or affiliates","FINANCIAL AND ACCOUNTING RECORDS."
1925410,"PREVINET S.P.A.","VIA E. FORLANINI","24-BORGO VERDE","PREGANZIOL (TV)","","Italy","30122","N","+3904221745111","","A third-party unaffiliated record keeper","FINANCIAL RECORDS, CORPORATE RECORDS"
1935397,"MFD SECRETARIES LIMITED","32 MOLESWORTH STREET","","DUBLIN","","Ireland","D02 Y512","N","+353 1 6973200","","A third-party unaffiliated record keeper","BOOKS AND RECORDS NECESSARY TO COMPLY WITH THE INVESTMENT ADVISERS ACT."
1935397,"GLOBAL RELAY COMMUNICATIONS INC.","220 CAMBIE STREET, 2ND FLOOR","","VANCOUVER BC","","Canada","V6B 2M9","N","866-484-6630","","A third-party unaffiliated record keeper","BOOKS AND RECORDS NECESSARY TO COMPLY WITH THE INVESTMENT ADVISERS ACT."
1935397,"IRON MOUNTAIN UK","NORMAN ROAD, PICKARDY MANOR WAY","BELVEDERE","KENT","","United Kingdom","DA17 6JY","N","+44 8445607080","","A third-party unaffiliated record keeper","BOOKS AND RECORDS NECESSARY TO COMPLY WITH THE INVESTMENT ADVISERS ACT."
1935397,"NEUBERGER BERMAN EUROPE LIMITED","ZIGZAG BUILDING","70 VICTORIA STREET","LONDON","","United Kingdom","SW1E 6SQ","N","+44 203-214-90","","A third-party unaffiliated record keeper","BOOKS AND RECORDS NECESSARY TO COMPLY WITH THE INVESTMENT ADVISERS ACT."
1938515,"MEKONG CAPITAL ADVISORS COMPANY LIMITED","SONATUS BUILDING, 25TH FLOOR","15 LE THANH TON, DISTRICT 1","HO CHI MINH CITY","","Vietnam","700000","N","+842838273161","","One of your branch offices or affiliates","CORRESPONDENCES, BOOKS, DISCS, PAPERS, LEGAL AGREEMENTS, CORPORATE DOCUMENTS, ACCOUNTING BOOKS"
1938515,"MEKONG CAPITAL ADVISORS COMPANY LIMITED, HANOI BRANCH","LOTTE HANOI CENTRE, 12TH FLOOR, EAST TOWER","54 LIEU GIAI STREET, BA DINH DISTRICT","HANOI","","Vietnam","100000","N","+842437724888","","One of your branch offices or affiliates","CORRESPONDENCES, DISCS, PAPERS, BOOKS"
1941333,"GENESIS FORTUNE CAPITAL LTD","UNIT 6627, 66F, 99 QUEENS ROAD CENTRAL","CENTRAL","HONG KONG","","China","","N","39653322","","One of your branch offices or affiliates","WRITTEN RECORDS OF THE INVESTMENT MANAGEMENT ACTIVITIES UNDERTAKEN BY GENESIS CAPITAL LTD"
1941167,"HOLLAND & KNIGHT LLP","701 BRICKELL AVE","UNIT 3300","MIAMI","FL","United States","33131","N","305-374-8500","","A third-party unaffiliated record keeper","ORGANIZATION AND OPERATIONAL DOCUMENTS AND  CORPORATE MINUTES AND RESOLUTIONS"
1937061,"BNY MELLON - ALTERNATIVE INVESTMENT SERVICES","400 BELLEVUE PARKWAY","","WILMINGTON","DE","United States","19809","N","(302) 791-1247","","A third-party unaffiliated record keeper","INVESTOR INFORMATION, FINANCIAL INFORMATION"
1945911,"APEX FUND SERVICES (USA) LLC","1 N FRANKLIN","SUITE 600","CHICAGO","IL","United States","60606","N","312-280-0330","","A third-party unaffiliated record keeper","THEY ARE OUR FUND ADMINISTRATOR AND MAINTAIN A COPY."
1938443,"INTERACTIVE BROKERS","1 PICKWICK PLAZA","","GREENWICH","CT","United States","06830","N","203-618-5710","","Other","TRADING RECORDS, PORTFOLIO HOLDINGS."
1938443,"SPICER JEFFERIES","4601 DTC BLVD.","SUITE 700","DENVER","CO","United States","80237","N","(303) 753-1959","","Other","FINANCIAL RECORDS, AUDIT REPORTS."
1939265,"CITCO FUND ADMINISTRATION (CAYMAN ISLANDS) LIMITED","89 NEXUS WAY, 2ND FLOOR","CAMANA BAY","GRAND CAYMAN","","Cayman Islands","NY1-9008","N","+12017935575","","A third-party unaffiliated record keeper","CITCO MAINTAINS THE OFFICIAL BOOKS AND RECORDS OF THE FUNDS."
1943452,"FIRSTCARIBBEAN INTERNATIONAL BANK","P.O. BOX 68","","GRAND CAYMAN","","Cayman Islands","KY1-1102","N","+13459497300","","A third-party unaffiliated record keeper","PRIVATE FUND-RELATED BOOKS AND RECORDS."
1943452,"NAV FUND SERVICES (CAYMAN) LTD.","PO BOX 30464","5TH FLOOR, HARBOUR PLACE","GRAND CAYMAN","","Cayman Islands","KY1 1202","N","+16309541919","","A third-party unaffiliated record keeper","PRIVATE FUND-RELATED BOOKS AND RECORDS."
1943452,"NAV CONSULTING, INC.","1 TRANS AM PLAZA DRIVE","SUITE 400","OAKBROOK TERRACE","IL","United States","60181","N","+16309541919","","A third-party unaffiliated record keeper","PRIVATE FUND-RELATED BOOKS AND RECORDS."
1944899,"CORODATA RECORDS MANAGEMENT, INC.","12375 KERRAN STREET","","POWAY","CA","United States","92064","N","858-748-1100","","A third-party unaffiliated record keeper","VENDOR FILES, BANK STATEMENTS AND COMPANY REPORTS FROM PRIOR YEARS"
1945803,"BELLTOWER FUND GROUP, LTD","PO BOX 3217","SUITE 220","SEATTLE","WA","United States","98114","N","3603409337","","A third-party unaffiliated record keeper","FUND DOCUMENTS, TRANSACTION RECORDS, WRITTEN COMMUNICATIONS"
1934555,"HSBC INSTITUTIONAL TRUST SERVICES (ASIA) LIMITED","1 QUEEN'S ROAD CENTRAL","","HONG KONG","","Hong Kong","","N","+852 3663 5448","","Other","THE ADMINISTRATOR WILL MAINTAIN RECORDS SUCH AS SUBSCRIPTION DOCUMENTS AND NAV CALCULATIONS."
1934555,"BNP PARIBAS, HONG KONG BRANCH","21/F, PCCW TOWER, TAIKOO PLACE","979 KING'S ROAD, QUARRY BAY","HONG KONG","","Hong Kong","","N","+852 2909 8888","","Other","THE ADMINISTRATOR WILL MAINTAIN RECORDS SUCH AS SUBSCRIPTION DOCUMENTS AND NAV CALCULATION"
1934555,"THE HONGKONG AND SHANGHAI BANKING CORPORATION LIMITED","1 QUEEN'S ROAD CENTRAL","","HONG KONG","","Hong Kong","","N","+852 3663 5448","","Other","THE ADMINISTRATOR WILL MAINTAIN RECORDS SUCH AS SUBSCRIPTION DOCUMENTS AND NAV CALCULATIONS."
1934555,"HSBC TRUSTEE (CAYMAN) LIMITED","P.O. BOX 309","UGLAND HOUSE","GRAND CAYMAN","","Cayman Islands","KYI-1104","N","+1 345 9497755","+1 345 9497634","Other","THE ADMINISTRATOR WILL MAINTAIN RECORDS SUCH AS SUBSCRIPTION DOCUMENTS AND NAV CALCULATIONS."
1935339,"KRANZ CONSULTING","655 MONTGOMERY STREET","12TH FLOOR","SAN FRANCISCO","CA","United States","94111","N","650-854-4400","","A third-party unaffiliated record keeper","KRANZ CONSULTING ACTS AT THE ADMINISTRATOR FOR THE FUND(S) AND HOLDS RECORDS IN ITS CAPACITY AS THE ADMINISTRATOR"
1935339,"MAMBA GROWTH MANAGEMENT COMPANY LLC","205 E. 42ND STREET","SUITE 1900","NEW YORK","NY","United States","10017-5751","N","508-320-0905","","One of your branch offices or affiliates","CERTAIN INVESTMENT RELATED BOOKS AND RECORDS"
1935415,"CORNERSTONE","3300 N ASHTON BLVD","SUITE 240","LEHI","UT","United States","84043","N","8014954320","","A third-party unaffiliated record keeper","QUICKBOOKS"
1938912,"CARTA INVESTOR SERVICES","333 BUSH STREET","FLOOR 23, STE. 2300","SAN FRANCISCO","CA","United States","94104","N","6506698381","","A third-party unaffiliated record keeper","CARTA SERVES AS THE FUND ADMINISTRATOR. IN THIS CAPACITY, CARTA MAINTAINS CERTAIN FUND DOCUMENTS AND OTHER BOOKS AND RECORDS."
1946010,"BELLTOWER FUND GROUP, LTD","PO BOX 3217","","SEATTLE","WA","United States","98114","N","360-340-9337","","A third-party unaffiliated record keeper","FUND DOCUMENTS, TRANSACTION RECORDS, WRITTEN COMMUNICATIONS"
1945329,"MORGAN STANLEY FUND SERVICES USA LLC","2000 WESTCHESTER AVENUE","","PURCHASE","NY","United States","10577","N","914-225-0700","","A third-party unaffiliated record keeper","FIRM'S BOOKS AND RECORDS"
1945329,"GLOBAL RELAY","220 CAMBIE STREET","2ND FLOOR","VANCOUVER","","Canada","","N","604-484-6630","","A third-party unaffiliated record keeper","FIRM ELECTRONIC COMMUNICATIONS & E-MAIL ARCHIVE"
1929026,"CORNERSTONE FUND SERVICES","3300 NORTH ASHTON BLVD","SUITE 240","LEHI","UT","United States","84043","N","(385) 715-6210","","A third-party unaffiliated record keeper","FUND FINANCIAL AND INVESTOR RECORDS."
1929026,"STANDISH MANAGEMENT US, LLC","1676 N CALIFORNIA BLVD","STE 400","WALNUT CREEK","CA","United States","94596","N","385-715-6210","","A third-party unaffiliated record keeper","FUND FINANCIAL AND INVESTOR RECORDS."
1934746,"PLAINTEXT CAPITAL MANAGEMENT LLC","","","","","","","Y","646-980-7859","","One of your branch offices or affiliates","BOOKS AND RECORDS PERTAINING TO CLIENT ACCOUNTS AND ADVISORY MATTERS."
1934746,"PLAINTEXT CAPITAL MANAGEMENT LLC","","","","","","","Y","646-980-7928","","One of your branch offices or affiliates","BOOKS AND RECORDS PERTAINING TO CLIENT ACCOUNTS AND ADVISORY MATTERS."
1936607,"NORTHERN TRUST HEDGE FUND SERVICES, LLC","50 SOUTH LASALLE STREET LQ9","","CHICAGO","IL","United States","60603","N","(312) 557-5605","","Other","IN ITS CAPACITY AS THIRD-PARTY ADMINISTRATOR FOR CERTAIN OF THE ADVISORY CLIENTS OF STONERISE CAPITAL MANAGEMENT, LLC, NORTHERN TRUST HEDGE FUND SERVICES, LLC MAINTIANS CERTAIN BOOKS AND RECORDS FOR THE FUNDS, INCLUDING INFORMATION REGARDING FUND INTERESTS/SHARES, SUBSCRIPTION MATERIALS, CAPITAL ACCOUNT BALANCE INFORMATION, CERTAIN FINANCIAL STATEMENTS, AND ACCOUNTING/PRICING INFORMATION.    PRIOR TO JANUARY 1, 2014, ALPS FUND SERVICES MAINTAINED SUCH BOOKS AND RECORDS FOR THE FUNDS."
1937291,"E78 PARTNERS","2211 YORK ROAD  #200","","OAK BROOK","IL","United States","60523","N","6308195118","","A third-party unaffiliated record keeper","THIRD PARTY ACCOUNTING FIRM THAT MAINTAINS BOOKS AND RECORDS"
1936181,"DRAPER FISHER JURVETSON","2882 SAND HILL ROAD","SUITE 150","MENLO PARK","CA","United States","94025","N","650-233-9000","650-233-9233","Other","ALL CUSTOMARY, NECESSARY AND APPROPRIATE RECORDS OF DFJ FRONTIER MANAGEMENT COMPANY, LLC, ITS RELYING ADVISORS AND THEIR PRIVATE FUNDS THROUGH 09/25/15."
1936181,"CORNERSTONE FUND SERVICES","3300 N. ASHTON BLVD.","SUITE 240","LEHI","UT","United States","84043","N","8013524334","","A third-party unaffiliated record keeper","ALL BOOKS AND RECORDS FOR THIS ENTITY AND ALL RELATED FUNDS AS OF 9/26/15."
1925597,"CITCO FUND SERVICES (CAYMAN ISLANDS) LIMITED","89 NEXUS WAY, 2ND FLOOR","CAMANA BAY, PO BOX 31106","GRAND CAYMAN","","Cayman Islands","KY1-1205","N","345945383","345945388","Other","FUNDS' ADMINISTRATOR, MAINTAINS SUBSCRIPTION AND REDEMPTION DOCUMENTS."
1925597,"CITCO TRUSTEES (UT) LIMITED","89 NEXUS WAY","CAMANA BAY, PO BOX 31106","GRAND CAYMAN","","Cayman Islands","KY1-1205","N","3459493977","3459457566","Other","ALEUTIAN FUND'S TRUSTEE"
1925597,"CITCO TRUSTEES (CAYMAN) LIMITED","89 NEXUS WAY","CAMANA BAY, P.O. BOX 31106","GRAND CAYMAN","","Cayman Islands","KY1-1205","N","3459493977","3459457566","Other","GCI JAPAN HYBRIDS' TRUSTEE"
1925597,"CITCO FUND SERVICES (SINGAPORE) PTE. LTD.","10 CHANGI BUSINESS PARK CENTRAL 2","#01-01 HANSAPOINT @CBP","SINGAPORE","","Singapore","486030","N","6565711000","6565711032","Other","FUNDS' SUB-ADMINISTRATOR, MAINTAINS SUBSCRIPTION AND REDEMPTION DOCUMENTS."
1925597,"CAYGAN CAPITAL LTD.","4TH FLOOR REAR RIGHT, 6 LLOYDS AVENUE","","LONDON","","United Kingdom","EC3N 3AX","N","+442034189710","","One of your branch offices or affiliates","RESEARCH AND ADVISORY RECORDS"
1925597,"OGIER GLOBAL TRUSTEE (CAYMAN) LIMITED","89 NEXUS WAY","CAMANA BAY","GRAND CAYMAN","","Cayman Islands","KY1-9009","N","3459499876","3459499877","Other","CAYGAN CARBON FUND'S TRUSTEE"
1937647,"IDRIVE INC.","26115, MUREAU ROAD","SUITE A","CALABASAS","CA","United States","91302","N","1-855-815-8706","EXT 1","A third-party unaffiliated record keeper","CLOUD-BASED SOFTWARE PROVIDER UTILIZE FOR MAINTAINING BOOKS AND RECORDS IN ACCORDANCE WITH SECTION 204 OF THE INVESTMENT ADVISERS ACT."
1934558,"NORTHERN TRUST","GEORGES COURT","54-62 TOWNSEND STREET","DUBLIN","","Ireland","2","N","+353 1 542-259","","Other","BOOKKEEPING AND ANNUAL REPORTS OF FUNDS ADVISED BY THE ADVISOR; INVESTOR RELATED RECORDS (E.G. SUBSCRITPTION AGREEMENTS)"
1934558,"NORTHERN TRUST","TRAFALGAR COURT","LES BANQUES","ST. PETER PORT","","Guernsey","GY1 3QL","N","+441481745782","+441481745074","A third-party unaffiliated record keeper","BOOKKEEPING AND ANNUAL REPORTS OF FUNDS ADVISED BY THE ADVISOR; INVESTOR RELATED RECORDS (E.G. SUBSCRITPTION AGREEMENTS)"
1933259,"KROLL ADVISORY LTD","THE NEWS BUILDING, LEVEL 6","3 LONDON BRIDGE STREET","LONDON","","United Kingdom","SE1 9SG","N","+442070295025","","A third-party unaffiliated record keeper","MANAGEMENT ACCOUNTS, BALANCE SHEET, PROFIT AND LOSS/INCOME STATEMENT."
1936079,"WALKERS CORPORATE (BVI) LIMITED","171 MAIN STREET","ROAD TOWN","TORTOLA","","British Virgin Islands","VG1110","N","+12844942204","","A third-party unaffiliated record keeper","CORPORATE AND REGULATORY DOCUMENTS"
1936079,"FORMIDIUM CORP.","633 ROGERS ST","","DOWNERS GROVE","IL","United States","60515","N","+1 630 828 352","","A third-party unaffiliated record keeper","CORPORATE RECORDS, CLIENT FILES"
1927814,"4PINES FUND SERVICES LLC","1 STAMFORD PLZ","STE 501","STAMFORD","CT","United States","06901","N","(203) 299-2525","","A third-party unaffiliated record keeper","BOOKS AND RECORDS RELATING TO THE ADVISER'S PRIVATE FUND CLIENTS."
1936463,"CARTA INVESTOR SERVICES, INC.","333 BUSH STREET, FLOOR 23, STE. 2300","","SAN FRANCISCO","CA","United States","94104","N","(650) 669-8381","","A third-party unaffiliated record keeper","CARTA SERVES AS THE FUND ADMINISTRATOR. IN THIS CAPACITY, CARTA MAINTAINS CERTAIN FUND DOCUMENTS AND OTHER BOOKS AND RECORDS."
1947907,"CASCADE PORTFOLIO ADMINISTRATION LLC","200 CRESCENT COURT","SUITE 1430","DALLAS","TX","United States","75201","N","214-256-3136","","A third-party unaffiliated record keeper","INVESTOR RECORDS, FINANCIAL RECORDS"
1927074,"GGA CPA, LLP","135 MAIN STREET","SUITE 850","SAN FRANCISCO","CA","United States","94105","N","415-992-5324","","A third-party unaffiliated record keeper","THE ADMINISTRATOR WILL MAINTAIN RECORDS SUCH AS SUBSCRIPTION DOCUMENTS, CERTAIN FINANCIAL,ACCOUNTING AND ADMINISTRATIVE DOCUMENTS, NAV CALCULATIONS, MANAGEMENT FEE AND PERFORMANCE ALLOCATIONS, AND AML / KYC DOCUMENTATION."
1927074,"SGGG FUND SERVICES (CAYMAN) INC.","P.O BOX 10312","","GRAND CAYMAN","","Cayman Islands","KY1-1003","N","(345) 946-3444","","A third-party unaffiliated record keeper","THE ADMINISTRATOR WILL MAINTAIN RECORDS SUCH AS SUBSCRIPTION DOCUMENTS, CERTAIN FINANCIAL, ACCOUNTING AND ADMINISTRATIVE DOCUMENTS, NAV CALCULATIONS, MANAGEMENT FEE AND PERFORMANCE ALLOCATIONS, AND AML/KYC DOCUMENTATION."
1922598,"ANDREW CROSSON","1456 PATTON AVENUE, SUITE D","","ASHEVILLE","NC","United States","28806","N","828-776-1546","","Other","FINANCIAL DOCUMENTS AND CORRESPONDENCE RELATED TO THE INVEST APPALACHIA FUND."
1922598,"BROADSTREET IMPACT SERVICES","609 WEST RANDOLPH STREET, SUITE 200","","CHICAGO","IL","United States","60661","N","(312) 697-8208","","A third-party unaffiliated record keeper","RECORDS PERTAINING TO REGISTRANT'S FUND OFFERING(S) ARE MAINTAINED AT BROADSTREET IMPACT (FORMERLY NEW MARKETS SUPPORT CORPORATION)."
1935829,"TMF GROUP","790 SE CARY PARKWAY","SUITE 204","CARY","NC","United States","27511","N","(919) 459-4650","","A third-party unaffiliated record keeper","ACCOUNTING RECORDS, ACCOUNT STATEMENTS FOR INVESTORS AND RELATED SUPPORTING DOCUMENTS"
1936535,"AMAZON.COM INC.","410 TERRY AVENUE NORTH","","SEATTLE","WA","United States","98109","N","206-266-1000","","A third-party unaffiliated record keeper","THE FIRM PROVIDES CLOUD STORAGE SERVICES FOR CLIENT FILES."
1912736,"PETRA FUNDS GROUP, LLC","520 MADISON AVE","21TH FLOOR","NEW YORK","NY","United States","10022","N","212-582-3320","","A third-party unaffiliated record keeper","FUND GOVERNANCE AND INVESTOR RECORDS"
1935880,"HC GLOBAL FUND SERVICES, LLC","312 SUTTER STREET","SUITE 601","SAN FRANCISCO","CA","United States","94108","N","415-796-7520","","A third-party unaffiliated record keeper","CERTAIN BOOKS AND RECORDS OF THE ADVISER AND ITS CLIENTS AS REQUIRED BY RULE 204-2."
1931597,"MGX FUND MANAGEMENT (US) LLC","ONE VANDERBILT AVENUE","51ST FLOOR","NEW YORK","NY","United States","10017","N","212-914-9400","","One of your branch offices or affiliates","BOOKS AND RECORDS RELATED TO U.S. ACTIVITIES, INCLUDING FINANCIAL, INVESTMENT, COMPLIANCE, CORPORATE GOVERNANCE, AND OPERATIONAL RECORDS."
1931597,"MICROSOFT CLOUD","ONE MICROSOFT WAY","","REDMOND","WA","United States","98052","N","877-696-7786","","A third-party unaffiliated record keeper","BOOKS AND RECORDS INCLUDE INVESTMENT- AND PORTFOLIO-RELATED DATA (STORED AND PROCESSED WITHIN AZURE AND MICROSOFT 365), SECURITY AND COMPLIANCE LOGS (AUDIT LOGS, ACCESS CONTROLS), OPERATIONAL RECORDS (INFRASTRUCTURE MONITORING, SYSTEM PERFORMANCE DATA, AND SERVICE HEALTH REPORTS), FINANCIAL AND BILLING RECORDS (SUBSCRIPTION DETAILS, INVOICES), AND REGULATORY AND LEGAL COMPLIANCE DOCUMENTATION."
1948208,"IRON MOUNTAIN","195 SUMMERLEA RD","","BRAMPTON, ONTARIO","","Canada","L6T 4P6","N","(905)792-7050","(905)792-2567","Other","FINANCIAL DOCUMENTS, PORTFOLIO DOCUMENTS"
1936545,"AMAZON.COM, INC.","410 TERRY AVENUE NORTH","","SEATTLE","WA","United States","98109","N","206-266-1000","","Other","STORAGE OF CLIENT AND OTHER FILES CONTAINING CONTRACTS, CORRESPONDENCE, RECOMMENDATIONS AND TRANSACTIONS, IN ADDITION TO PROGRAMMING CODE."
1936545,"THE VANGUARD GROUP, INC.","100 VANGUARD BOULEVARD","","MALVERN","PA","United States","19355","N","610-669-1000","610-669-6600","One of your branch offices or affiliates","STORAGE OF CLIENT AND OTHER FILES IN ADDITION TO PROGRAMMING CODE."
1936545,"IRON MOUNTAIN","2500 HENDERSON DRIVE","","SHARON HILL","PA","United States","19079","N","610-725-0200","","A third-party unaffiliated record keeper","STORAGE OF CLIENT AND OTHER FILES IN ADDITION TO PROGRAMMING CODE."
1934939,"MAPLES FUND SERVICES (MA) INC","470 ATLANTIC AVE, SUITE 306","","BOSTON","MA","United States","02210","N","6175170089","","A third-party unaffiliated record keeper","MAPLES FUNDS SERVICES (MA) INC IS THE FUND ADMINISTRATOR FOR NOETIC PSYCHEDELIC FUND AND NOETIC PSYCHEDELIC FUND US LP"
1934939,"MAPLES FUND SERVICES (CAYMAN) LIMITED","PO BOX 1093 BOUNDARY HALL","CRICKET SQUARE","GRAND CAYMAN","","Cayman Islands","KY1-1102","N","3459457099","","A third-party unaffiliated record keeper","MAPLES FUND SERVICES (CAYMAN) LIMITED IS THE FUND ADMINISTRATOR FOR NOETIC FUND II CAYMAN MASTER LP, NOETIC FUND II (US), LP AND NOETIC FUND II, LP"
1938522,"APEX FUND AND CORPORATE SERVICES TEXAS LTD.","8750 N. CENTRAL EXPRESSWAY","SUITE 1825","DALLAS","TX","United States","75231","N","2143932988","","A third-party unaffiliated record keeper","APEX FUND AND CORPORATE SERVICES TEXAS LTD. PROVIDES FINANCIAL AND REGULATORY COMPLIANCE SERVICES AND MAINTAINS BOOKS AND RECORDS RELATED THERETO."
1939565,"IRON MOUNTAIN COLOMBIA SAS","69B - 57, FONTIBÓN","","BOGOTÁ","","Colombia","110110","N","57 1 742 19 04","","A third-party unaffiliated record keeper","BOOKS AND RECORDS REQUIRED TO BE KEPT IN COMPLIANCE WITH THE INVESTMENT ADVISERS ACT OF 1940."
1939565,"IRON MOUNTAIN LTD","19826 RUSSELL ROAD","","KENT","WA","United States","98032","N","800 899 4766","","A third-party unaffiliated record keeper","BOOKS AND RECORDS REQUIRED TO BE KEPT IN COMPLIANCE WITH THE INVESTMENT ADVISERS ACT OF 1940."
1939565,"IRON MOUNTAIN LTD","6935 FLANDERS DRIVE","","SAN DIEGO","CA","United States","92121","N","800 899 4766","","A third-party unaffiliated record keeper","BOOKS AND RECORDS REQUIRED TO BE KEPT IN COMPLIANCE WITH THE INVESTMENT ADVISERS ACT OF 1940."
1939565,"IRON MOUNTAIN LTD","100 HARBOR DRIVE","","JERSEY CITY","NJ","United States","07305","N","800 934 3453","","A third-party unaffiliated record keeper","BOOKS AND RECORDS REQUIRED TO BE KEPT IN COMPLIANCE WITH THE INVESTMENT ADVISERS ACT OF 1940."
1939565,"CROWN WORLDWIDE PTE LTD","MALLARDS ROAD","","PETERBOROUGH","","United Kingdom","PE3 8YN","N","020 7510 9892","","A third-party unaffiliated record keeper","BOOKS AND RECORDS REQUIRED TO BE KEPT IN COMPLIANCE WITH THE INVESTMENT ADVISERS ACT OF 1940."
1939565,"CROWN RECORDS MANAGEMENT LTD","UNIT D, PROLOGIS BUSINESS PARK","","LONDON","","United Kingdom","E3 3JG","N","4410000000000","","A third-party unaffiliated record keeper","BOOKS AND RECORDS REQUIRED TO BE KEPT IN COMPLIANCE WITH THE INVESTMENT ADVISERS ACT OF 1940."
1939565,"IRON MOUNTAIN LTD","175 BEARFOOT RD.","","NORTHBOROUGH","MA","United States","01532","N","800 934 3453","","A third-party unaffiliated record keeper","BOOKS AND RECORDS REQUIRED TO BE KEPT IN COMPLIANCE WITH THE INVESTMENT ADVISERS ACT OF 1940."
1939565,"IRON MOUNTAIN CANADA CORPORATION","70 TALMAN COURT","","CONCORD","","Canada","L4K 4L5","N","905 695 0564","","A third-party unaffiliated record keeper","BOOKS AND RECORDS REQUIRED TO BE MAINTAINED IN ACCORDANCE WITH CANADIAN LAWS AND REGULATIONS."
1939565,"CROWN WORLDWIDE (HK) LTD.","1 LEUNG YIP STREET","","HONG KONG","","China","","N","852 2636 8388","","A third-party unaffiliated record keeper","BOOKS AND RECORDS REQUIRED TO BE KEPT IN COMPLIANCE WITH THE INVESTMENT ADVISERS ACT OF 1940."
1939565,"NX WANBISHI ARCHIVES","4-1-28 TORANOMON, MINATO-KU","","TOKYO","","Japan","105-0001","N","81 354255100","","A third-party unaffiliated record keeper","BOOKS AND RECORDS REQUIRED TO BE KEPT IN COMPLIANCE WITH THE INVESTMENT ADVISERS ACT OF 1940."
1939565,"SHRED IT DUBAI","10 SAN'A RD - RAS AL KHOR INDUSTRIAL AREA","","DUBAI","","United Arab Emirates","48852","N","97143403588","","A third-party unaffiliated record keeper","BOOKS AND RECORDS REQUIRED TO BE KEPT IN COMPLIANCE WITH THE INVESTMENT ADVISERS ACT OF 1940."
1939565,"EVENSONBEST LLC","55 5TH AVE FL 12","","NEW YORK","NY","United States","10003","N","212 5498000","","A third-party unaffiliated record keeper","BOOKS AND RECORDS REQUIRED TO BE KEPT IN COMPLIANCE WITH THE INVESTMENT ADVISERS ACT OF 1940."
1939565,"IRON MOUNTAIN DO BRASIL LTDA.","AV PREFEITO JOÃO VILALLOBO QUERO, 1200","","BARUERI- SÃO PAULO","","Brazil","06400-001","N","55 11 37670818","","A third-party unaffiliated record keeper","BOOKS AND RECORDS REQUIRED TO BE KEPT IN COMPLIANCE WITH THE INVESTMENT ADVISERS ACT OF 1940."
1939565,"CISCRA SPA","VIA SAN MICHELE, 36","","VILLANOVA DEL GHEBBO RO","","Italy","45020","N","390425651111","","A third-party unaffiliated record keeper","BOOKS AND RECORDS REQUIRED TO BE KEPT IN COMPLIANCE WITH THE INVESTMENT ADVISERS ACT OF 1940."
1939565,"MITSUI SOKO BUSINESS PARTNERS","5-1-1, OMAGARIKOGYODANCHI, KITAHIROSHIMA SHI","","HOKKAIDO","","Japan","061-1274","N","81 11 376 2801","","A third-party unaffiliated record keeper","CERTAIN BOOKS AND RECORDS REQUIRED TO BE KEPT IN COMPLIANCE WITH APPROPRIATE REGULATORY REQUIREMENTS."
1939565,"IRON MOUNTAIN MEXICO S DE RL DE CV","PARQUE INDUSTRIAL TOLUCA 2000","","TOLUCA","","Mexico","50200","N","800 5526246","","A third-party unaffiliated record keeper","BOOKS AND RECORDS REQUIRED TO BE KEPT IN COMPLIANCE WITH THE INVESTMENT ADVISERS ACT OF 1940."
1939565,"IRON MOUNTAIN LTD","5443 S. 108TH E AVE","","TULSA","OK","United States","74146","N","918 280 0841","","A third-party unaffiliated record keeper","BOOKS AND RECORDS REQUIRED TO BE KEPT IN COMPLIANCE WITH THE INVESTMENT ADVISERS ACT OF 1940."
1939565,"IRON MOUNTAIN NEDERLAND B.V.","J. KEPLERWEG 2","","ALPHEN AAN DEN RIJN","","Netherlands","2408 AC","N","317 204 60070","","One of your branch offices or affiliates","BOOKS AND RECORDS REQUIRED TO BE KEPT IN COMPLIANCE WITH THE INVESTMENT ADVISERS ACT OF 1940."
1939565,"UNE PIECE EN PLUS","1 RUE FRANCOIS JACOB","","RUEIL-MALMAISON","","France","92500","N","33 1 4137 9500","","A third-party unaffiliated record keeper","BOOKS AND RECORDS REQUIRED TO BE KEPT IN COMPLIANCE WITH THE INVESTMENT ADVISERS ACT OF 1940."
1939565,"IRON MOUNTAIN INDIA PVT LTD","B-13B-15B PANDURANG BUDHKAR MARG, 1ST FL","","MUMBAI","","India","400 013","N","91 22 24988416","","A third-party unaffiliated record keeper","CERTAIN BOOKS AND RECORDS REQUIRED TO BE KEPT IN COMPLIANCE WITH APPROPRIATE REGULATORY REQUIREMENTS."
1939565,"AKTENEINLAGERUNG","STROOFSTRAßE 27","","FRANKFURT","","Germany","65933","N","496159717960","","A third-party unaffiliated record keeper","BOOKS AND RECORDS REQUIRED TO BE KEPT IN COMPLIANCE WITH THE INVESTMENT ADVISERS ACT OF 1940."
1939565,"IRON MOUNTAIN ESPANA SAU","CALLE DE LOS REYES CATÓLICOS, 6","","MADRID","","Spain","28108","N","34 958200697","","A third-party unaffiliated record keeper","BOOKS AND RECORDS REQUIRED TO BE KEPT IN COMPLIANCE WITH THE INVESTMENT ADVISERS ACT OF 1940."
1939565,"CROWN WORLDWIDE KOREA","2201 GWANGHWAMOON OFFICIA 163","","SEOUL","","Korea, South","110-999","N","82 2 796 5717","","A third-party unaffiliated record keeper","CERTAIN BOOKS AND RECORDS REQUIRED TO BE KEPT IN COMPLIANCE WITH APPROPRIATE REGULATORY REQUIREMENTS."
1939565,"IRON MOUNTAIN SWITZERLAND LTD","GRUBENSTRASSE 11","","URTENEN-SCHÖNBÜHL","","Switzerland","3322","N","41800002424","","A third-party unaffiliated record keeper","BOOKS AND RECORDS REQUIRED TO BE KEPT IN COMPLIANCE WITH THE INVESTMENT ADVISERS ACT OF 1940."
1939565,"IRON MOUNTAIN LTD","600 DISTRIBUTION DRIVE","","ATLANTA","GA","United States","30336","N","800 899 4766","","A third-party unaffiliated record keeper","BOOKS AND RECORDS REQUIRED TO BE KEPT IN COMPLIANCE WITH THE INVESTMENT ADVISERS ACT OF 1940."
1939565,"VERTIV INFRASTRUCTURE LIMITED","STONEHAM PLACE, STONEHAM LN.","","SOUTHAMPTON","","United Kingdom","SO50 9NW","N","442380610311","","A third-party unaffiliated record keeper","BOOKS AND RECORDS REQUIRED TO BE KEPT IN COMPLIANCE WITH THE INVESTMENT ADVISERS ACT OF 1940."
1939565,"IRON MOUNTAIN","195 SUMMERLEA RD","","BRAMPTON","","Canada","L6T 4P6","N","18008994766","","A third-party unaffiliated record keeper","BOOKS AND RECORDS REQUIRED TO BE MAINTAINED IN ACCORDANCE WITH CANADIAN LAWS AND REGULATIONS."
1939565,"IRON MOUNTAIN (DEUTSCHLAND) SERVICE GMBH","HUGO-JUNKERS-STRASSE 4","","FURSTENFELDBRUCK","","Germany","82256","N","49 8141 527860","","A third-party unaffiliated record keeper","CERTAIN BOOKS AND RECORDS REQUIRED TO BE KEPT IN COMPLIANCE WITH APPROPRIATE REGULATORY REQUIREMENTS."
1939565,"IRON MOUNTAIN LTD","6933 PRESTON AVE.","","LIVERMORE","CA","United States","94551","N","800 899 4766","","A third-party unaffiliated record keeper","BOOKS AND RECORDS REQUIRED TO BE KEPT IN COMPLIANCE WITH THE INVESTMENT ADVISERS ACT OF 1940."
1939565,"IRON MOUNTAIN LTD","8150 SIGNAL CT.","","SACRAMENTO","CA","United States","95824","N","833 630 7484","","A third-party unaffiliated record keeper","BOOKS AND RECORDS REQUIRED TO BE KEPT IN COMPLIANCE WITH THE INVESTMENT ADVISERS ACT OF 1940."
1939565,"IRON MOUNTAIN FRANCE SAS","ZONE INDUSTRIELLE DES SABLES N 6 12 6 AVENUE DESCA","","MORANGIS","","France","91420","N","33 800 21 5218","","A third-party unaffiliated record keeper","BOOKS AND RECORDS REQUIRED TO BE KEPT IN COMPLIANCE WITH THE INVESTMENT ADVISERS ACT OF 1940."
1939565,"IRON MOUNTAIN LTD","1201 FREEDOM ROAD","","CRANBERRY TWP","PA","United States","16066","N","800 899 4766","","A third-party unaffiliated record keeper","BOOKS AND RECORDS REQUIRED TO BE KEPT IN COMPLIANCE WITH THE INVESTMENT ADVISERS ACT OF 1940."
1939565,"FDM BUSINESS SERVICES SRL","VIA DEI VALTORTA, 47","","MILANO MI","","Italy","20127","N","3902905921","","A third-party unaffiliated record keeper","BOOKS AND RECORDS REQUIRED TO BE KEPT IN COMPLIANCE WITH THE INVESTMENT ADVISERS ACT OF 1940."
1939565,"SHRED IT SINGAPORE PTE LTD","51 UBI AVENUE 1 #03-11 PAYA UBI INDUSTRIAL PARK","","SINGAPORE","","Singapore","408933","N","6567877777","","A third-party unaffiliated record keeper","BOOKS AND RECORDS REQUIRED TO BE KEPT IN COMPLIANCE WITH THE INVESTMENT ADVISERS ACT OF 1940."
1939565,"DATASITE UK LTD","15 BONHILL STREET","","LONDON","","United Kingdom","EC2A 4DN","N","2039280300","","A third-party unaffiliated record keeper","BOOKS AND RECORDS REQUIRED TO BE KEPT IN COMPLIANCE WITH THE INVESTMENT ADVISERS ACT OF 1940."
1939565,"IRON MOUNTAIN AUSTRALIA GROUP PTY LTD","465 PLUMMER STREET PORT","","MELBOURNE","","Australia","3207","N","61 1300 476668","","A third-party unaffiliated record keeper","CERTAIN BOOKS AND RECORDS REQUIRED TO BE KEPT IN COMPLIANCE WITH APPROPRIATE REGULATORY REQUIREMENTS."
1939565,"TONG IN","32, INSADONG-GIL, JONGNO-GU","","SEOUL","","Korea, South","03148","N","8223857551","","A third-party unaffiliated record keeper","BOOKS AND RECORDS REQUIRED TO BE KEPT IN COMPLIANCE WITH THE INVESTMENT ADVISERS ACT OF 1940."
1939565,"IRON MOUNTAIN RECORDS MANAGEMENT SHANGHAI COMPANY LIMITED","STE 702 JIANFA INTL BLD, 288 YANGSHUPU RD","","SHANGHAI","","China","200000","N","4001664766","","A third-party unaffiliated record keeper","BOOKS AND RECORDS REQUIRED TO BE KEPT IN COMPLIANCE WITH THE INVESTMENT ADVISERS ACT OF 1940."
1939565,"SHRED IT USA LLC","81 WALSH DRIVE PARSIPPANY","","PARSIPPANY","NJ","United States","07054","N","877 542 3992","","A third-party unaffiliated record keeper","BOOKS AND RECORDS REQUIRED TO BE KEPT IN COMPLIANCE WITH THE INVESTMENT ADVISERS ACT OF 1940."
1939565,"MITSUI SOKO CO LTD KANTO BRANCH OFFICE","MSC CENTER BUILDING, 3-22-23 KAIGAN, MINATO-KU","","TOKYO","","Japan","108-0022","N","81364008300","","A third-party unaffiliated record keeper","BOOKS AND RECORDS REQUIRED TO BE KEPT IN COMPLIANCE WITH THE INVESTMENT ADVISERS ACT OF 1940."
1939557,"IRON MOUNTAIN LTD","6935 FLANDERS DRIVE","","SAN DIEGO","CA","United States","92121","N","800 899 4766","","A third-party unaffiliated record keeper","BOOKS AND RECORDS REQUIRED TO BE KEPT IN COMPLIANCE WITH THE INVESTMENT ADVISERS ACT OF 1940."
1939557,"VERTIV INFRASTRUCTURE LIMITED","STONEHAM PLACE, STONEHAM LN.","","SOUTHAMPTON","","United Kingdom","SO50 9NW","N","442380610311","","A third-party unaffiliated record keeper","BOOKS AND RECORDS REQUIRED TO BE KEPT IN COMPLIANCE WITH THE INVESTMENT ADVISERS ACT OF 1940."
1939557,"IRON MOUNTAIN DO BRASIL LTDA.","AV PREFEITO JOÃO VILALLOBO QUERO, 1200","","BARUERI- SÃO PAULO","","Brazil","06400-001","N","55 11 37670818","","A third-party unaffiliated record keeper","BOOKS AND RECORDS REQUIRED TO BE KEPT IN COMPLIANCE WITH THE INVESTMENT ADVISERS ACT OF 1940."
1939557,"IRON MOUNTAIN (DEUTSCHLAND) SERVICE GMBH","HUGO-JUNKERS-STRASSE 4","","FURSTENFELDBRUCK","","Germany","82256","N","49 8141 527860","","A third-party unaffiliated record keeper","CERTAIN BOOKS AND RECORDS REQUIRED TO BE KEPT IN COMPLIANCE WITH APPROPRIATE REGULATORY REQUIREMENTS."
1939557,"CROWN RECORDS MANAGEMENT LTD","UNIT D, PROLOGIS BUSINESS PARK","","LONDON","","United Kingdom","E3 3JG","N","4410000000000","","A third-party unaffiliated record keeper","BOOKS AND RECORDS REQUIRED TO BE KEPT IN COMPLIANCE WITH THE INVESTMENT ADVISERS ACT OF 1940."
1939557,"MITSUI SOKO BUSINESS PARTNERS","5-1-1, OMAGARIKOGYODANCHI, KITAHIROSHIMA SHI","","HOKKAIDO","","Japan","061-1274","N","81 11 376 2801","","A third-party unaffiliated record keeper","CERTAIN BOOKS AND RECORDS REQUIRED TO BE KEPT IN COMPLIANCE WITH APPROPRIATE REGULATORY REQUIREMENTS."
1939557,"IRON MOUNTAIN","195 SUMMERLEA RD","","BRAMPTON","","Canada","L6T 4P6","N","18008994766","","A third-party unaffiliated record keeper","BOOKS AND RECORDS REQUIRED TO BE MAINTAINED IN ACCORDANCE WITH CANADIAN LAWS AND REGULATIONS."
1939557,"IRON MOUNTAIN MEXICO S DE RL DE CV","PARQUE INDUSTRIAL TOLUCA 2000","","TOLUCA","","Mexico","50200","N","800 5526246","","A third-party unaffiliated record keeper","BOOKS AND RECORDS REQUIRED TO BE KEPT IN COMPLIANCE WITH THE INVESTMENT ADVISERS ACT OF 1940."
1939557,"IRON MOUNTAIN LTD","19826 RUSSELL ROAD","","KENT","WA","United States","98032","N","800 899 4766","","A third-party unaffiliated record keeper","BOOKS AND RECORDS REQUIRED TO BE KEPT IN COMPLIANCE WITH THE INVESTMENT ADVISERS ACT OF 1940."
1939557,"CROWN WORLDWIDE PTE LTD","MALLARDS ROAD","","PETERBOROUGH","","United Kingdom","PE3 8YN","N","020 7510 9892","","A third-party unaffiliated record keeper","BOOKS AND RECORDS REQUIRED TO BE KEPT IN COMPLIANCE WITH THE INVESTMENT ADVISERS ACT OF 1940."
1939557,"IRON MOUNTAIN RECORDS MANAGEMENT SHANGHAI COMPANY LIMITED","STE 702 JIANFA INTL BLD, 288 YANGSHUPU RD","","SHANGHAI","","China","200000","N","4001664766","","A third-party unaffiliated record keeper","BOOKS AND RECORDS REQUIRED TO BE KEPT IN COMPLIANCE WITH THE INVESTMENT ADVISERS ACT OF 1940."
1939557,"IRON MOUNTAIN ESPANA SAU","CALLE DE LOS REYES CATÓLICOS, 6","","MADRID","","Spain","28108","N","34 958200697","","A third-party unaffiliated record keeper","BOOKS AND RECORDS REQUIRED TO BE KEPT IN COMPLIANCE WITH THE INVESTMENT ADVISERS ACT OF 1940."
1939557,"IRON MOUNTAIN SWITZERLAND LTD","GRUBENSTRASSE 11","","URTENEN-SCHÖNBÜHL","","Switzerland","3322","N","41800002424","","A third-party unaffiliated record keeper","BOOKS AND RECORDS REQUIRED TO BE KEPT IN COMPLIANCE WITH THE INVESTMENT ADVISERS ACT OF 1940."
1939557,"IRON MOUNTAIN FRANCE SAS","ZONE INDUSTRIELLE DES SABLES N 6 12 6 AVENUE DESCA","","MORANGIS","","France","91420","N","33 800 21 5218","","A third-party unaffiliated record keeper","BOOKS AND RECORDS REQUIRED TO BE KEPT IN COMPLIANCE WITH THE INVESTMENT ADVISERS ACT OF 1940."
1939557,"FDM BUSINESS SERVICES SRL","VIA DEI VALTORTA, 47","","MILANO MI","","Italy","20127","N","3902905921","","A third-party unaffiliated record keeper","BOOKS AND RECORDS REQUIRED TO BE KEPT IN COMPLIANCE WITH THE INVESTMENT ADVISERS ACT OF 1940."
1939557,"AKTENEINLAGERUNG","STROOFSTRAßE 27","","FRANKFURT","","Germany","65933","N","442380610311","","A third-party unaffiliated record keeper","BOOKS AND RECORDS REQUIRED TO BE KEPT IN COMPLIANCE WITH THE INVESTMENT ADVISERS ACT OF 1940."
1939557,"IRON MOUNTAIN COLOMBIA SAS","69B - 57, FONTIBÓN","","BOGOTÁ","","Colombia","110110","N","57 1 742 1904","","A third-party unaffiliated record keeper","BOOKS AND RECORDS REQUIRED TO BE KEPT IN COMPLIANCE WITH THE INVESTMENT ADVISERS ACT OF 1940."
1939557,"IRON MOUNTAIN LTD","1201 FREEDOM ROAD","","CRANBERRY TWP","PA","United States","16066","N","800 899 4766","","A third-party unaffiliated record keeper","BOOKS AND RECORDS REQUIRED TO BE KEPT IN COMPLIANCE WITH THE INVESTMENT ADVISERS ACT OF 1940."
1939557,"SHRED IT SINGAPORE PTE LTD","51 UBI AVENUE 1 #03-11 PAYA UBI INDUSTRIAL PARK","","SINGAPORE","","Singapore","408933","N","6567877777","","A third-party unaffiliated record keeper","BOOKS AND RECORDS REQUIRED TO BE KEPT IN COMPLIANCE WITH THE INVESTMENT ADVISERS ACT OF 1940."
1939557,"IRON MOUNTAIN NEDERLAND B.V.","J. KEPLERWEG 2","","ALPHEN AAN DEN RIJN","","Netherlands","2408 AC","N","317 204 60070","","One of your branch offices or affiliates","BOOKS AND RECORDS REQUIRED TO BE KEPT IN COMPLIANCE WITH THE INVESTMENT ADVISERS ACT OF 1940."
1939557,"IRON MOUNTAIN LTD","6933 PRESTON AVE.","","LIVERMORE","CA","United States","94551","N","800 899 4766","","A third-party unaffiliated record keeper","BOOKS AND RECORDS REQUIRED TO BE KEPT IN COMPLIANCE WITH THE INVESTMENT ADVISERS ACT OF 1940."
1939557,"IRON MOUNTAIN INDIA PVT LTD","B-13B-15B PANDURANG BUDHKAR MARG, 1ST FL","","MUMBAI","","India","400 013","N","91 22 24988416","","A third-party unaffiliated record keeper","CERTAIN BOOKS AND RECORDS REQUIRED TO BE KEPT IN COMPLIANCE WITH APPROPRIATE REGULATORY REQUIREMENTS."
1939557,"SHRED IT USA LLC","81 WALSH DRIVE PARSIPPANY","","PARSIPPANY","NJ","United States","07054","N","877 542 3992","","A third-party unaffiliated record keeper","BOOKS AND RECORDS REQUIRED TO BE KEPT IN COMPLIANCE WITH THE INVESTMENT ADVISERS ACT OF 1940."
1939557,"IRON MOUNTAIN LTD","600 DISTRIBUTION DRIVE","","ATLANTA","GA","United States","30336","N","800 899 4766","","A third-party unaffiliated record keeper","BOOKS AND RECORDS REQUIRED TO BE KEPT IN COMPLIANCE WITH THE INVESTMENT ADVISERS ACT OF 1940."
1939557,"IRON MOUNTAIN LTD","8150 SIGNAL CT.","","SACRAMENTO","CA","United States","95824","N","833 630 7484","","A third-party unaffiliated record keeper","BOOKS AND RECORDS REQUIRED TO BE KEPT IN COMPLIANCE WITH THE INVESTMENT ADVISERS ACT OF 1940."
1939557,"EVENSONBEST LLC","55 5TH AVE FL 12","","NEW YORK","NY","United States","10003","N","212 5498000","","A third-party unaffiliated record keeper","BOOKS AND RECORDS REQUIRED TO BE KEPT IN COMPLIANCE WITH THE INVESTMENT ADVISERS ACT OF 1940."
1939557,"UNE PIECE EN PLUS","1 RUE FRANCOIS JACOB","","RUEIL-MALMAISON","","France","92500","N","33 141 37 9500","","A third-party unaffiliated record keeper","BOOKS AND RECORDS REQUIRED TO BE KEPT IN COMPLIANCE WITH THE INVESTMENT ADVISERS ACT OF 1940."
1939557,"IRON MOUNTAIN LTD","5443 S. 108TH E AVE","","TULSA","OK","United States","74146","N","918 280 0841","","A third-party unaffiliated record keeper","BOOKS AND RECORDS REQUIRED TO BE KEPT IN COMPLIANCE WITH THE INVESTMENT ADVISERS ACT OF 1940."
1939557,"IRON MOUNTAIN LTD","100 HARBOR DRIVE","","JERSEY CITY","NJ","United States","07305","N","800 934 3453","","A third-party unaffiliated record keeper","BOOKS AND RECORDS REQUIRED TO BE KEPT IN COMPLIANCE WITH THE INVESTMENT ADVISERS ACT OF 1940."
1939557,"CROWN WORLDWIDE (HK) LTD.","1 LEUNG YIP STREET","","HONG KONG","","China","","N","852 2636 8388","","A third-party unaffiliated record keeper","BOOKS AND RECORDS REQUIRED TO BE KEPT IN COMPLIANCE WITH THE INVESTMENT ADVISERS ACT OF 1940."
1939557,"DATASITE UK LTD","15 BONHILL STREET","","LONDON","","United Kingdom","EC2A 4DN","N","2039280300","","A third-party unaffiliated record keeper","BOOKS AND RECORDS REQUIRED TO BE KEPT IN COMPLIANCE WITH THE INVESTMENT ADVISERS ACT OF 1940."
1939557,"IRON MOUNTAIN LTD","175 BEARFOOT RD.","","NORTHBOROUGH","MA","United States","01532","N","800 934 3453","","A third-party unaffiliated record keeper","BOOKS AND RECORDS REQUIRED TO BE KEPT IN COMPLIANCE WITH THE INVESTMENT ADVISERS ACT OF 1940."
1939557,"CISCRA SPA","VIA SAN MICHELE, 36","","VILLANOVA DEL GHEBBO RO","","Italy","45020","N","390425651111","","A third-party unaffiliated record keeper","BOOKS AND RECORDS REQUIRED TO BE KEPT IN COMPLIANCE WITH THE INVESTMENT ADVISERS ACT OF 1940."
1939557,"NX WANBISHI ARCHIVES","4-1-28 TORANOMON, MINATO-KU","","TOKYO","","Japan","105-0001","N","81 354255100","","A third-party unaffiliated record keeper","BOOKS AND RECORDS REQUIRED TO BE KEPT IN COMPLIANCE WITH THE INVESTMENT ADVISERS ACT OF 1940."
1939557,"SHRED IT DUBAI","10 SAN'A RD - RAS AL KHOR INDUSTRIAL AREA","","DUBAI","","United Arab Emirates","48852","N","97143403588","","A third-party unaffiliated record keeper","BOOKS AND RECORDS REQUIRED TO BE KEPT IN COMPLIANCE WITH THE INVESTMENT ADVISERS ACT OF 1940."
1939557,"IRON MOUNTAIN CANADA CORPORATION","70 TALMAN COURT","","CONCORD","","Canada","L4K 4L5","N","905 695 0564","","A third-party unaffiliated record keeper","BOOKS AND RECORDS REQUIRED TO BE MAINTAINED IN ACCORDANCE WITH CANADIAN LAWS AND REGULATIONS."
1939557,"CROWN WORLDWIDE KOREA","2201 GWANGHWAMOON OFFICIA 163","","SEOUL","","Korea, South","110-999","N","82 2 796 5717","","A third-party unaffiliated record keeper","CERTAIN BOOKS AND RECORDS REQUIRED TO BE KEPT IN COMPLIANCE WITH APPROPRIATE REGULATORY REQUIREMENTS."
1939557,"MITSUI SOKO CO LTD KANTO BRANCH OFFICE","MSC CENTER BUILDING, 3-22-23 KAIGAN, MINATO-KU","","TOKYO","","Japan","108-0022","N","81364008300","","A third-party unaffiliated record keeper","BOOKS AND RECORDS REQUIRED TO BE KEPT IN COMPLIANCE WITH THE INVESTMENT ADVISERS ACT OF 1940."
1939557,"IRON MOUNTAIN AUSTRALIA GROUP PTY LTD","465 PLUMMER STREET PORT","","MELBOURNE","","Australia","3207","N","61 1300 476668","","A third-party unaffiliated record keeper","CERTAIN BOOKS AND RECORDS REQUIRED TO BE KEPT IN COMPLIANCE WITH APPROPRIATE REGULATORY REQUIREMENTS."
1939557,"TONG IN","32, INSADONG-GIL, JONGNO-GU","","SEOUL","","Korea, South","03148","N","8223857551","","A third-party unaffiliated record keeper","BOOKS AND RECORDS REQUIRED TO BE KEPT IN COMPLIANCE WITH THE INVESTMENT ADVISERS ACT OF 1940."
1922165,"TRIDENT FUND SERVICES, INC.","100 ABERNATHY RD NE #300","","ATLANTA","GA","United States","30328","N","(404) 364-2019","","Other","THE ADMINISTRATOR WILL MAINTAIN RECORDS SUCH AS SUBSCRIPTION DOCUMENTS, CERTAIN FINANCIAL,ACCOUNTING AND ADMINISTRATIVE DOCUMENTS, NAV CALCULATIONS, MANAGEMENT FEE AND PERFORMANCE ALLOCATIONS, AND AML/KYC DOCUMENTATION."
1920666,"4PINES FUND SERVICES, LLC","ONE STAMFORD PLAZA, SUITE 501","","STAMFORD","CT","United States","06901","N","(203) 299-2525","","A third-party unaffiliated record keeper","FUND BOOKS AND RECORDS"
1947055,"SEI GLOBAL SERVICES INC.","1 FREEDOM VALLEY DRIVE","","OAKS","PA","United States","19456","N","610.676.1314","484.676.1314","A third-party unaffiliated record keeper","INVESTOR RECORDS"
1947055,"GLOBAL RELAY COMMUNICATIONS INC.","1155 AVENUE OF AMERICAS","FLOORS 38-42","NEW YORK CITY","NY","United States","10036","N","8664846630","","A third-party unaffiliated record keeper","INVESTOR RECORDS"
1947055,"SIEPE LLC","5440 HARVEST HILL ROAD","SUITE 100","DALLAS","TX","United States","75230","N","2143939651","","A third-party unaffiliated record keeper","INVESTOR RECORDS"
1948339,"TRIDENT TRUST COMPANY (CAYMAN) LIMITED","4TH FLOOR, ONE CAPITAL PLACE","","GEORGE TOWN","","Cayman Islands","KY11103","N","345-949-0880","","A third-party unaffiliated record keeper","ADMINISTRATOR"
1935399,"PREVINET S.P.A.","VIA E. FORLANINI","24-BORGO VERDE","PREGANZIOL (TV)","","Italy","30122","N","+3904221745111","","A third-party unaffiliated record keeper","FINANCIAL RECORDS, CORPORATE RECORDS"
1930266,"ARROWPOINT INVESTMENT PARTNERS (HONG KONG) LIMITED","LEVEL 22, SIX PACIFIC PLACE","50 QUEEN'S ROAD EAST","WANCHAI","","Hong Kong","000000","N","+852 3428 2764","","One of your branch offices or affiliates","CERTAIN BOOKS AND RECORDS RELATED TO OPERATIONS, PORTFOLIO MANAGEMENT, COMPLIANCE, RISK MANAGEMENT, ETC. OF THE ARROWPOINT INVESTMENT PARTNERS GROUP."
1935900,"HONG KONG STORAGE","UNIT 301, BLOCK B, SEA VIEW ESTATE","2 WATSON ROAD, TIN HAU","HONG KONG","","Hong Kong","00000","N","+852 3602 7722","","A third-party unaffiliated record keeper","PHYSICAL BOOKS AND RECORDS"
1935900,"TORA TRADING SERVICES LIMITED DATA CENTRE","N/A","","N/A","","Japan","","N","N/A","","A third-party unaffiliated record keeper","ORDER AND EXECUTION MANAGEMENT SYSTEM"
1935900,"BLOOMBERG L.P.","N/A","","N/A","NY","United States","10962","N","N/A","","A third-party unaffiliated record keeper","BLOOMBERG EMAIL AND INSTANT MESSAGING"
1935900,"MICROSOFT CORPORATION DATA CENTRE","N/A","","HONG KONG","","Hong Kong","00000","N","N/A","","A third-party unaffiliated record keeper","MICROSOFT EXCHANGE AND SHAREPOINT STORAGED IN VARIOUS ASIAN DATACENTRES."
1935900,"ENFUSION LTD. LLC","125 S. CLARK STREET","SUITE 750","CHICAGO","IL","United States","60603","N","312 253 9800","","A third-party unaffiliated record keeper","ORDER & EXECUTION MANAGEMENT, PORTFOLIO MANAGEMENT SYSTEM"
1938066,"SS&C TECHNOLOGIES INC.","80 LAMBERTON RD","","WINDSOR","CT","United States","06095","N","844-994-7762","","A third-party unaffiliated record keeper","CERTAIN BOOKS AND RECORDS OF THE ADVISER AND ITS CLIENTS AS REQUIRED BY RULE 204-2."
1929417,"IQ EQ FUND SERVICES (LUXEMBOURG) S.A.","412F, ROUTE D'ESCH","6 RUE GABRIEL LIPPMANN","GRAND DUCHY OF LUXEMBOURG","","Luxembourg","1471","N","003524661111","","A third-party unaffiliated record keeper","SERVES AS 3RD PARTY ADMINISTRATOR FOR THE MCP PRIVATE CAPITAL FUND I SICAF SCS SIF; MCP PRIVATE CAPITAL (FEEDER) FUND I SCS; MCP PRIVATE CAPITAL FUND II SCSP; MCP PRIVATE CAPITAL (FEEDER) FUND II SCSP; MCP PRIVATE CAPITAL FUND III SCSP;  MCP PRIVATE CAPITAL (FEEDER) FUND III SCSP MCP PRIVATE CAPITAL FUND IV; MCP PRIVATE CAPITAL (FEEDER) FUND IV SCSP AND MAINTAINS RECORDS IN RELATION THERETO."
1929417,"SS&C (LUXEMBOURG) SARL","2 RUE JEAN MONNET","","KIRCHBERG","","Luxembourg","L-2180","N","0035227868077","","A third-party unaffiliated record keeper","SERVES AS 3RD PARTY ADMINISTRATOR FOR MCP PRIVATE CAPITAL FUND V AND MCP PRIVATE CAPITAL (FEEDER) FUND V AND MAINATINS RECORDS IN RELATION THERETO."
1929417,"APEX FUND SERVICES (IRELAND) LIMITED","2ND FLOOR, BLOCK 5 IRISH LIFE CENTRE","ABBEY STREET LOWER","DUBLIN","","Ireland","D01 P767","N","353 1 411 2949","","A third-party unaffiliated record keeper","SERVES AS 3RD PARTY ADMINISTRATOR FOR AUSONIO FUND II AND MAINTAINS RECORDS IN RELATION THERETO."
1929417,"CITCO FUND SERVICES (IRELAND) LIMITED","BLOCK 6, CUSTOM HOUSE PLAZA","INTERNATIONAL FINANCIAL SERVICES CENTRE","DUBLIN 1","","Ireland","D01-X9Y5","N","00353016363730","00353016360466","A third-party unaffiliated record keeper","SERVES AS 3RD PARTY ADMINISTRATOR FOR  MOUNT ROW (LEVERED) CREDIT FUND,  AND MOUNT ROW CREDIT FUND II AND MAINTAINS RECORDS IN RELATION THERETO."
1929417,"BROWN BROTHERS HARRIMAN FUND ADMINISTRATION SERVICES (IRELAND) LIMITED","30 HERBERT STREET","","DUBLIN 2","","Ireland","D02 W329","N","353-1-603-6200","","A third-party unaffiliated record keeper","SERVES AS 3RD PARTY ADMINISTRATOR FOR THE ICM INTERNATIONAL MASTER FUND ICAV AND ICM INTERNATIONAL FUND PLC AND MAINTAINS RECORDS IN RELATION THERETO."
1940495,"APEX FUND SERVICES (CHARLOTTE) LLC","15720 BRIXHAM HILL AVENUE","#206","CHARLOTTE","NC","United States","28277","N","704-752-8996","","A third-party unaffiliated record keeper","FUND RELATED BOOKS AND RECORDS"
1940496,"APEX FUND SERVICES (CHARLOTTE) LLC","15720 BRIXHAM HILL AVENUE","#206","CHARLOTTE","NC","United States","28277","N","704-752-8996","","A third-party unaffiliated record keeper","FUND RELATED BOOKS AND RECORDS"
1930283,"IBX DATA CENTER","HARBOUR EXCHANGE SQUARE","","LONDON","","United Kingdom","E14 9GE","N","000-000-0000","","Other","THE PRIMARY BOOKS AND RECORDS ARE KEPT IN A DATA CENTRE LOCATED AT LONDON IBX DATA CENTER, HARBOUR EXCHANGE SQUARE, LONDON, E14 9GE, UNITED KINGDOM"
1942987,"JOEL CIAROCHI","SAINT JOHNS DRIVE","3316","DALLAS","TX","United States","75205","N","2145590630","","One of your branch offices or affiliates","ALL DOCUMENTS"
1943037,"HORIZON KINETICS ASSET MANAGEMENT LLC","470 PARK AVENUE SOUTH","3RD FLOOR SOUTH","NEW YORK","NY","United States","10016","N","646-495-7333","646-495-0075","Other","PORTFOLIO MANAGEMENT RECORDS ARE MAINTAINED AT HORIZON KINETICS ASSET MANAGEMENT LLC, AN SEC REGISTERED INVESTMENT ADVISER."
1946103,"LAB LUXEMBOURG S.A.","2-4, RUE EDMOND REUTER","","CONTERN","","Luxembourg","5326","N","+352 350 222 9","","A third-party unaffiliated record keeper","ARCHIVING PROVIDER WHICH HANDLES ALL TYPES OF ARCHIVING RELEVANT DOCUMENTS (TRANSACTION RELEVANT DATA, FINANCIALS)"
1946103,"BRS ALADDIN","MIRCOSOFT CORPORATION, AZURE WEST US 2","1515 PORT INDUSTIAL WAY","QUINCY","WA","United States","98848","N","833-538-1100","","A third-party unaffiliated record keeper","ORDER MANAGEMENT, TRADING, RESEARCH AND INVESTMENT GUIDELINE MONITORING SYSTEM"
1942711,"CLIFTONLARSONALLEN LLP","220 SOUTH SIXTH STREET","SUITE 300","MINNEAPOLIS","MN","United States","55402","N","1-888-529-2648","","A third-party unaffiliated record keeper","ADMINISTRATOR - FUND ACCOUNTING RECORDS"
1941839,"RELIANT FUND SERVICES LLC","22 W 38TH ST","7TH FLOOR","NEW YORK","NY","United States","10018","N","(212) 953-9090","","A third-party unaffiliated record keeper","BOOKS AND RECORDS RELATED TO CERTAIN PRIVATE FUNDS MANAGED BY THE ADVISER."
1941839,"CIRCULARIS PARTNERS LP","","","","","","","Y","713-503-0891","","Other","BOOKS AND RECORDS RELATED TO CERTAIN PRIVATE FUNDS MANAGED BY THE ADVISER."
1941839,"HMUI & ASSOCIATES, LLC","75 BROAD STREET","SUITE 810","NEW YORK","NY","United States","10004","N","(646) 651-5706","","A third-party unaffiliated record keeper","BOOKS AND RECORDS RELATED TO CERTAIN PRIVATE FUNDS MANAGED BY THE ADVISER."
1947590,"TRIDENT TRUST ADMINISTRATION","1100 ABERNATHY ROAD NE 500 NORTHPARK BUILDING","SUITE 300","ATLANTA","GA","United States","30328","N","4043642019","","A third-party unaffiliated record keeper","ALL BOOKS AND RECORDS ARE KEPT AT THIS LOCATION."
1932296,"FORMIDIUM CORP.","633 ROGERS STREET","SUITE 106","DOWNERS GROVE","IL","United States","60515","N","630-828-3520","","A third-party unaffiliated record keeper","ACCOUNTING RELATED BOOKS AND RECORDS PREPARED AND MAINTAINED BY THIRD PARTY ADMINISTRATOR."
1942305,"OAKPOINT FUND SERVICES, LLC","565 LONG COVE","","AVON LAKE","OH","United States","44012","N","440-666-2338","","A third-party unaffiliated record keeper","ADMINISTRATIVE BOOKS AND RECORDS"
1948333,"TRIDENT TRUST COMPANY (CAYMAN) LIMITED","4TH FLOOR, ONE CAPITAL PLACE","","GEORGE TOWN","","Cayman Islands","KY11103","N","345-949-0880","","A third-party unaffiliated record keeper","ADMINISTRATOR"
1941936,"NAV CONSULTING, INC.","1 TRANS AM PLAZA","SUITE 400","OAKBROOK TERRACE","IL","United States","60181","N","6309541919","","A third-party unaffiliated record keeper","NAV WILL HOLD RECORDS IN CONNECTION WITH THE SERVICES THEY ARE PROVIDING AS CALCULATION AGENT AND REGISTRAR/TRANSFER AGENT.  ADDITIONAL RECORDS MAY BE CREATED THROUGH THE OTHER AUDIT, COMPLIANCE AND REGULATORY SUPPORT SERVICES THEY ARE PROVIDING."
1933782,"FORMIDIUM FUND SERVICES CORP.","3025 HIGHLAND PKWY","SUITE 330","DOWNERS GROVE","IL","United States","60515","N","630-828-3520","","A third-party unaffiliated record keeper","FUND AND INVESTOR DOCUMENTS"
1933369,"ANURAG SINGH","","","","","","","Y","2246025678","","One of your branch offices or affiliates","ALL PHYSICAL RECORDS"
1942677,"IQEQ FUND SERVICES","2777 N STEMMONS FREEWAY","SUITE 1425","DALLAS","TX","United States","75207","N","214-996-0937","","A third-party unaffiliated record keeper","IQEQ FUND SERVICES RETAINS ACCOUNTING AND COMPLIANCE POLICIES & PROCEDURES RECORDS."
1945892,"KRYPTON FUND SERVICES","SUITE NO. 1222","ROSEBANK CENTRE, 11 BERMUDIANA ROAD","PEMBROKE","","Bermuda","HM08","N","14413385285","","A third-party unaffiliated record keeper","NAVS, AML/KYC ETC"
1945168,"POINT ALLERTON, LLC","400 CROWN COLONY DRIVE","SUITE 101","QUINCY","MA","United States","02169","N","617-376-4750","617-376-4754","Other","BOOKS AND RECORDS INCLUDE"
1944661,"OPUS FUND SERVICES (USA) LLC","50 SOUTH MAIN STREET","SUITE 200-207","NAPERVILLE","IL","United States","60540","N","312-256-9974","","A third-party unaffiliated record keeper","FINANCIAL, ACCOUNTING AND INVESTOR RECORDS FOR THE PRIVATE FUNDS MANAGED BY THE ADVISER"
1945475,"BELLTOWER FUND GROUP, LTD","PO BOX 3217","","SEATTLE","WA","United States","98114","N","360-340-9337","","A third-party unaffiliated record keeper","BELLTOWER SERVES AS THE FUND ADMINISTRATOR. IN THIS CAPACITY, BELLTOWER MAINTAINS CERTAIN FUND DOCUMENTS AND OTHER BOOKS AND RECORDS."
1945015,"TRANSASIA PRIVATE CAPITAL SINGAPORE PTE. LTD.","6 BATTERY ROAD","#11-01","SINGAPORE","","Singapore","049909","N","+65 6955 7510","","One of your branch offices or affiliates","WE KEEP VARIOUS ORIGINAL DOCUMENTS RELATING TO THE INVESTMENTS MADE BY THE FUNDS MANAGED BY TRANSASIA PRIVATE CAPITAL LIMITED, SUCH AS ENGAGEMENT LETTERS, CORPORATE AUTHORISATION DOCUMENTS, CONDITIONS PRECEDENT AND SUBSEQUENT DOCUMENTS, AND CHARGE REGISTRATION DOCUMENTS."
1945477,"SMARSH, INC.","921 SW WASHINGTON AVE.","SUITE 540","PORTLAND","OR","United States","97205","N","(503) 946-5980","","A third-party unaffiliated record keeper","SMARSH,INC. IS AN OUTSOURCED STORAGE MEDIA SERVICE PROVIDER THAT STORES CERTAIN BOOKS AND RECORDS OF THE APPLICANTS AS REQUIRED BY SEC RULES 17A-3 AND/OR 17A-4."
1945477,"PNC BANK N.A.","300 FIFTH AVENUE","","PITTSBURGH","PA","United States","15222","N","412-807-3357","","One of your branch offices or affiliates","PARENT COMPANY"
1945477,"IRON MOUNTAIN","ONE FEDERAL STREET","","BOSTON","ME","United States","02110","N","800-934-3453","","A third-party unaffiliated record keeper","THROUGH AN AGREEMENT WITH A CONTROL AFFILIATE APPLICANT USES IRON MOUNTAIN FOR RETENTION OF CERTAIN RECORDS RELATED TO THE APPLICANTS OPERATIONS."
1936272,"OPUS FUND SERVICES (BERMUDA LITD)","12 CHURCH STREET","","HAMILTON","","Bermuda","HM12","N","4412340004","","A third-party unaffiliated record keeper","ADMINISTRATOR RECORDS"
1938751,"MILLENNIUM MANAGEMENT LLC","666 5TH AVENUE","","NEW YORK","NY","United States","10103","N","(212) 841-4100","","Other","TRADING DATA"
1912287,"FRONTLINE VENTURES","26-28 LOMBARD STREET EAST","","DUBLIN","","Ireland","D02V272","N","00353877955309","","Other","THIS IS OUR HEADQUARTERS. THE SHAREHOLDER REGISTERS OF EACH GROUP ENTITY IS HELD HERE."
1946712,"NAV FUND SERVICES (CAYMAN) LTD.","5TH FLOOR HARBOUR PLACE","PO BOX 30464","GEORGE TOWN","","Cayman Islands","KY1-1202","N","630-954-1919","","A third-party unaffiliated record keeper","REGISTER OF SHAREHOLDERS, SUBSCRIPTION AND TRANSFER DOCUMENTATION, REDEMPTION REQUESTS, AND FINANCIAL INFORMATION TO BE DISSEMINATED TO INVESTORS."
1939829,"LYMON PTE. LTD.","8 CROSS ST","#20-01 MANULIFE TOWER","SINGAPORE","","Singapore","048424","N","65 6532 5746","","A third-party unaffiliated record keeper","COMPANY SECRETARIAL DOCUMENTATION."
1939829,"BOARDROOM LIMITED GROUP","1 HARBOURFRONT AVENUE","KEPPEL BAY TOWER #14-07","SINGAPORE","","Singapore","098632","N","65 6536 5355","65 6536 1360","A third-party unaffiliated record keeper","ACCOUNTING RECORDS AND SUPPORTING DOCUMENTATION."
1941508,"JOEL CIAROCHI","SAINT JOHNS DRIVE","3316","DALLAS","TX","United States","75205","N","2145590630","","One of your branch offices or affiliates","ALL DOCUMENTS"
1941623,"CAPITAL Z HEDGE MANAGEMENT, LLC","16197 CABERNET DRIVE","","DELRAY BEACH","FL","United States","33446","N","6464698046","","One of your branch offices or affiliates","CERTAIN BOOKS AND RECORDS, INCLUDING BUT NOT LIMITED TO ACCOUNTING RECORDS, FINANCIAL RECORDS, INVESTOR RECORDS AND OPERATING AGREEMENTS."
1943268,"INTERTRUST FUND SERVICES (HONG KONG) LIMITED","3806, CENTRAL PLAZA","18 HARBOUR ROAD","WANCHAI","","Hong Kong","","N","+(852) 2802 77","","A third-party unaffiliated record keeper","INTERTRUST FUND SERVICES (HONG KONG) LIMITED  IS AN UNAFFILIATED THIRD-PARTY FUND ADMINISTRATOR FOR CERTAIN PRIVATE FUNDS MANAGED BY THE ADVISER.  INTERTRUST FUND SERVICES (HONG KONG) LIMITED MAINTAINS SOME OF EACH SUCH FUND'S ADMINISTRATIVE BOOKS AND RECORDS."
1943268,"OCTAVE VENTURES LLC","C/O WORK STYLING, MIDTOWN TOWER 18F","9-7-1- AKASAKA, MINATO-KU","TOKYO","","Japan","107-6218","N","81 3 5117 2780","","Other","CERTAIN RECORDS TO SUPPORT BACK OFFICE FUNCTIONS ARE KEPT AND/OR ACCESSED FROM CLOUD-BASED PLATFORMS AT THIS LOCATION. THE ADVISER DOES NOT PERFORM ADVISORY SERVICES AT THIS LOCATION."
1943268,"STANDISH MANAGEMENT, LLC","750 BATTERY STREET","7TH FLOOR","SAN FRANCISCO","CA","United States","94111","N","2064281942","","A third-party unaffiliated record keeper","STANDISH MANAGEMENT, LLC IS AN UNAFFILIATED THIRD-PARTY FUND ADMINISTRATOR THAT ACTS AS AN ADMINISTRATOR FOR (I) THE ADVISER; AND (II) A FUND MANAGED BY THE ADVISER. STANDISH MANAGEMENT, LLC MAINTAINS SOME OF THE ADVISER'S AND SUCH FUND'S ADMINISTRATIVE BOOKS AND RECORDS"
1943268,"MAPLES COMPLIANCE SERVICES (CAYMAN) LIMITED","PO BOX 1093","BOUNDARY HALL","GRAND CAYMAN","","Cayman Islands","KY1-1102","N","+1 345 949 806","","A third-party unaffiliated record keeper","MAPLES COMPLIANCE SERVICES (CAYMAN) LIMITED IS AN UNAFFILIATED THIRD-PARTY FUND ADMINISTRATOR FOR CERTAIN PRIVATE FUNDS MANAGED BY THE ADVISER.  MAPLES COMPLIANCE SERVICES (CAYMAN) LIMITED MAINTAINS SOME OF EACH SUCH FUND'S ADMINISTRATIVE BOOKS AND RECORDS."
1931451,"J.P. MORGAN","JP MORGAN HOUSE, 200 CAPITAL DOCK","79 SIR JOHN ROGERSONS'S QUAY","DUBLIN","","Ireland","","N","353-1-612-3131","","A third-party unaffiliated record keeper","ACCOUNTING RECORDS FOR PRIVATE FUNDS MANAGED BY THE REPORTING ADVISER"
1939873,"J.P. MORGAN","JP MORGAN HOUSE, 200 CAPITAL DOCK","79 SIR JOHN ROGERSONS'S QUAY","DUBLIN 2","","Ireland","D02 K57","N","353-1-612-3000","353-1-612-3131","A third-party unaffiliated record keeper","ACCOUNTING RECORDS FOR PRIVATE FUNDS MANAGED BY THE REPORTING ADVISER."
1931858,"SS&C TECHNOLOGIES","580 CALIFORNIA STREET","SUITE 200","SAN FRANCISCO","CA","United States","94104","N","415-543-7696","","A third-party unaffiliated record keeper","BOOKS AND RECORDS OF CLIENT ACCOUNTS AND DOCUMENTS."
1944035,"CARTA, INC.","333 BUSH STREET","SUITE 2300","SAN FRANCISCO","CA","United States","94104","N","650) 669-8381","","A third-party unaffiliated record keeper","FINANCIAL RECORDS"
1944394,"NAV CONSULTING, INC.","1 TRANS AM PLAZA DRIVE","SUITE 400","OAKBROOK TERRACE","IL","United States","60181","N","630-954-1919","","Other","BOOKS AND RECORDS OF CLIENT ACCOUNT AND DOCUMENTS."
1936195,"CORNERSTONE FUND SERVICES","3300 N. ASHTON BLVD.","SUITE 240","LEHI","UT","United States","84043","N","8013524334","","A third-party unaffiliated record keeper","ALL ACCOUNTING RECORDS."
1947305,"TMF FUND SERVICES NORTH AMERICA LLC","790 SE CARY PARKWAY SUITE 204","","CARY","NC","United States","27511","N","9194594650","","A third-party unaffiliated record keeper","INFORMATION NECESSARY FOR INVESTOR REPORTING AND FINANCIAL AUDITS"
1936844,"MSA CHINA FUND II GP, LLC","SUITE 3102, FORTUNE FINANCIAL CENTER","NO. 5 EAST THIRD RING MIDDLE ROAD","BEIJING","","China","100020","N","8610 85187722","","One of your branch offices or affiliates","WRITTEN RECORDS OF THE INVESTMENT MANAGEMENT ACTIVITIES UNDERTAKEN BY MSA CHINA FUND II GP, LLC AT THE ABOVE ADDRESS."
1942777,"HSBC INSTITUTIONAL TRUST SERVICES (ASIA) LIMITED","1 QUEEN'S ROAD CENTRAL","","HONG KONG","","Hong Kong","","N","85236637000","","Other","ADMINISTRATOR'S SERVICE PROVIDER; RESPONSIBLE FOR, AMONG OTHER AREAS, THE CALCULATION OF NET ASSET VALUE, ARRANGING FOR PAYMENT OF EXPENSES, MAINTAINING FINANCIAL BOOKS AND RECORDS"
1942777,"HSBC TRUSTEE (CAYMAN) LIMITED","P.O. BOX 484, HSBC HOUSE","68 WEST BAY ROAD","GRAND CAYMAN","","Cayman Islands","KY1-1106","N","13459499555","","Other","ADMINISTRATOR TO THE FEEDER FUNDS AND MASTER FUND; MAINTAIN REGISTRY OF SHAREHOLDERS, ARRANGING FOR THE ISSUE, REDEMPTION AND VALUATION OF SHARES AND FOR GENERAL ADMINISTRATION OF THE FUNDS."
1945714,"FOUNDERSX VENTURES","3000 SAND HILL RD","SUITE 2-150","MENLO PARK","CA","United States","94025","N","6508478889","","One of your branch offices or affiliates","ALL INVESTMENT RECORDS AND LEGAL AGREEMENTS."
1922934,"APEX FUND SERVICES (HK) LIMITED","77 CONNAUGHT ROAD, CENTRAL","ROOM 1801-2, BEAUTIFUL GROUP TOWER","HONG KONG","","China","","N","+852 5808 8156","","A third-party unaffiliated record keeper","PRIVATE FUND BOOKS AND RECORDS."
1927440,"CV5 CAPITAL","2454 WEST BAY ROAD","CENTENNIAL TOWERS SUITE 205C","GRAND CAYMAN","","Cayman Islands","KY1-1303","N","13453253884","","One of your branch offices or affiliates","THIS AFFILIATE STORES FUND LP CUSTOMER DATA AND AUDIT DATA."
1936836,"IQEQ (US) INC.","2777 NORTH STEMMONS FREEWAY","SUITE 1425","DALLAS","TX","United States","75207","N","888-604-2583","","A third-party unaffiliated record keeper","FIRM AND FUND ACCOUNTING RECORDS ARE MAINTAINED HERE."
1934669,"PRUSIK INVESTMENT MANAGEMENT LLP","6TH FLOOR, MOSS HOUSE","15-16 BROOK'S MEWS","LONDON","","United Kingdom","W1K 4DS","N","+4402074931331","","Other","FUND DOCUMENTS, FINANCIAL STATEMENTS"
1934669,"PRUSIK INVESTMENT MANAGEMENT SINGAPORE PTE LTD","12 MARINA VIEW, ASIA SQUARE TOWER 2","20-03","SINGAPORE","","Singapore","018961","N","+65 63334750","+65 63339244","One of your branch offices or affiliates","TRADING ACTIVITY RECORDS RECORDS AND SOME ADMINISTRATIVE DOCUMENTS."
1934669,"BROWN BROTHERS HARRIMAN TRUSTEE SERVICES (IRELAND) LIMITED","30 HERBERT STREET","","DUBLIN 2","","Ireland","","N","353 1 603 6200","353 1 603 6300","Other","INDEPENDENT CUSTODIAN AND FUND ADMINISTRATOR FOR  PRUSIK ASIA FUND, PRUSIK ASIAN EMERGING OPPORTUNITIES FUND, PRUSIK ASIAN EQUITY INCOME FUND.PRUSIK ASIA SUSTAINABILITY GROWTH FUND."
1947522,"OPIS FUND SERVICES","","","","","","","Y","201-425-8545","","A third-party unaffiliated record keeper","THIS IS OUR ACCOUNTING FIRM AND FUND ADMINISTRATOR.  THEY KEEP ACCOUNTING FILES AND TAX DOCUMENTS."
1947522,"CHRISTOPHER K POTTER","","","","","","","Y","9178921149","","Other","CHRISTOPHER K POTTER IS THE PRESIDENT OF NORTHERN BORDER ADVISORS AND HE KEEPS ACCOUNTING FILES AND FUND INFORMATION AT HIS RESIDENCE."
1923761,"SGGG FUND SERVICES INC.","121 KING STREET WEST, SUITE 300","","TORONTO","","Canada","M5H 3T9","N","4169670038","","A third-party unaffiliated record keeper","OFFICIAL BOOKS AND RECORDS FOR PRIVATE FUNDS HELD BY ITS ADMINISTRATOR."
1923761,"AUM LAW","BAY ADELAIDE CENTRE, EAST TOWER, 22 ADELAIDE ST. W","","TORONTO","","Canada","M5H 4E3","N","416 966-2004","866 627-2299","A third-party unaffiliated record keeper","THE FIRM'S CANADIAN REGULATORY REGISTRATION RECORDS."
1935911,"SS&C FUND SERVICES (CAYMAN) LTD.","45 MARKET STREET, SUITE 3205, 2ND FLOOR","GARDENIA COURT, CAMANA BAY","GRAND CAYMAN","","Cayman Islands","KY1-9003","N","+3459433330","","A third-party unaffiliated record keeper","FUND-RELATED BOOKS AND RECORDS."
1935911,"MIMECAST SERVICES LIMITED","1 FINSBURY AVENUE","","LONDON","","United Kingdom","EC2M 2PF","N","+442078478700","","A third-party unaffiliated record keeper","CERTAIN CAPULA INVESTMENT MANAGEMENT SINGAPORE PTE. LTD. BOOKS AND RECORDS"
1935911,"CAPULA INVESTMENT MANAGEMENT LLP","7 CLARGES STREET","","LONDON","","United Kingdom","W1J 8AE","N","+442070710900","","One of your branch offices or affiliates","CERTAIN CAPULA INVESTMENT MANAGEMENT SINGAPORE PTE. LTD BOOKS AND RECORDS"
1935911,"MICROSOFT LIMITED","2 THAMES VALLEY PARK","","BERKSHIRE","","United Kingdom","RG6 1WG","N","+443448002400","+448706020100","A third-party unaffiliated record keeper","CERTAIN CAPULA INVESTMENT MANAGEMENT SINGAPORE PTE. LTD. BOOKS AND RECORDS"
1935911,"GLOBAL RELAY COMMUNICATIONS INC.","45 CANNON STREET","","LONDON","","United Kingdom","EC4M 5SB","N","+442031399064","","A third-party unaffiliated record keeper","CERTAIN CAPULA INVESTMENT MANAGEMENT SINGAPORE PTE. LTD. BOOKS AND RECORDS"
1935911,"SYMPHONY COMMUNICATIONS SERVICES LLC","640 W CALIFORNIA AVE","SUITE #200","SUNNYVALE","CA","United States","94086","N","(650)733-6660","","A third-party unaffiliated record keeper","CERTAIN CAPULA INVESTMENT MANAGEMENT SINGAPORE PTE. LTD. BOOKS AND RECORDS"
1935911,"INTERNATIONAL FUND SERVICES (IRELAND) LIMITED","78 SIR JOHN ROGERSON'S QUAY","","DUBLIN","","Ireland","","N","35(0)317075000","35(0)317075010","A third-party unaffiliated record keeper","FUND-RELATED BOOKS AND RECORDS"
1934159,"MORGAN STANLEY FUND SERVICES USA LLC","2000 WESTCHESTER AVENUE","","PURCHASE","NY","United States","10577","N","212-762-5072","","A third-party unaffiliated record keeper","FUND BOOKS AND RECORDS."
1936787,"PETRA FUNDS GROUP, LLC","520 MADISON AVE","21ST FLOOR","NEW YORK","NY","United States","10022","N","212-582-3320","","A third-party unaffiliated record keeper","PETRA FUNDSGROUP, LLC IS THE ADMINISTRATOR FOR ALL PEARL ENERGY FUNDS AND AS SUCH KEEPS BOOKS AND RECORDS NORMALLY KEPT BY AN ADMINISTRATOR. STANDISH MANAGEMENT WAS THE PRIOR ADMINISTRATOR UNTIL THE FIRM CHANGED TO PETRA FUND SERVICES"
1938649,"LICCAR FUND SERVICES","222 S RIVERSIDE PLAZA","SUITE 1500","CHICAGO","IL","United States","60606","N","3129226600","3129220315","A third-party unaffiliated record keeper","STANDARD BOOKS AND RECORDS MAINTAINED BY THIRD-PARTY ADMINISTRATOR"
1921072,"INTERNATIONAL FUND SERVICES (N.A.), L.L.C.","300 PARK AVENUE, NEW YORK","","NEW YORK","NY","United States","10022","N","+12123392700","","Other","FUND ADMINISTRATOR.  ALL RECORDS PERTAINING TO FUND TRADING, CLEARANCE, AND SETTLEMENT ACTIVITIES ARE RECORDED HERE."
1921072,"SECRECO LIMITED","31/F, TOWER TWO, TIMES SQUARE","1 MATHESON ROAD","CAUSEWAY BAY","","Hong Kong","","N","+852 3589 8899","","Other","CORPORATE SECRETARY"
1938188,"HC GLOBAL FUND SERVICES, LLC","2121 NORTH CALIFORNIA BLVD","SUITE 290","WALNUT CREEK","CA","United States","94596","N","415-796-7563","","A third-party unaffiliated record keeper","FINANCIAL, ACCOUNTING AND INVESTOR RECORDS FOR PRIVATE FUNDS MANAGED BY THE ADVISER."
1934404,"STANDISH MANAGEMENT, LLC","225 W. WASHINGTON STREET","SUITE 1600","CHICAGO","IL","United States","60606","N","312-548-9800","","A third-party unaffiliated record keeper","BOOKS AND RECORDS RELATED TO THE FIRM'S FUND AND INVESTORS."
1912723,"GEN II FUND SERVICES, LLC","1675 BROADWAY","4TH FLOOR","NEW YORK","NY","United States","10019","N","212-408-0550","","A third-party unaffiliated record keeper","CERTAIN BOOKS AND RECORDS IN CAPACITY AS FUND ADMINISTRATOR"
1937664,"CARTA INVESTOR SERVICES INC.","333 BUSH STREET, FLOOR 23, STE 2300","","SAN FRANCISCO","CA","United States","94104","N","650-669-8381","","A third-party unaffiliated record keeper","CARTA SERVES AS THE FUND ADMINISTRATOR. IN THIS CAPACITY, CARTA MAINTAINS CERTAIN FUND DOCUMENTS AND ITHER BOOKS AND RECORDS."
1938697,"KRYPTON FUND SERVICES","SUITE NO. 1222","ROSEBANK CENTRE, 11 BERMUDIANA ROAD","PEMBROKE","","Bermuda","HM08","N","14413385285","","A third-party unaffiliated record keeper","NAVS, AML/KYC ETC"
1941045,"WAYSTONE ADMINISTRATION SOLUTIONS (IE) LIMITED","35 SHELBOURNE ROAD","BALLSBRIDGE","DUBLIN","","Ireland","D04 A4E0","N","+353 18992422","+353 18992499","A third-party unaffiliated record keeper","THIS FIRM ACTS AS THE ADMINISTRATOR TO THE PRIVATE FUND"
1938709,"SEI GLOBAL SERVICES, INC.","ONE FREEDOM VALLEY DRIVE","","OAKS","PA","United States","19456","N","610-676-1000","","A third-party unaffiliated record keeper","ADDITIONAL PLACE FOR FIRM BOOKS AND RECORDS."
1938984,"TMF GROUP","790 SE CARY PARKWAY","SUITE 204","CARY","NC","United States","27511","N","919-459-4650","","A third-party unaffiliated record keeper","THIRD-PARTY UNAFFILIATED RECORDKEEPER"
1935210,"PRINCEVILLE GLOBAL HK LIMITED","UNIT 308, ST. GEORGE'S BUILDING","2 ICE HOUSE STREET","CENTRAL","","Hong Kong","","N","(852)2508-7268","","One of your branch offices or affiliates","BOOK KEEPING ARE BEING COMPLETED BY A THIRD PARTY SERVICE PROVIDER LOCATED IN HONG KONG AND MANAGEMENT ACCOUNTS OF THE ENTITY ARE REVIEWED BY THE HONG KONG OFFICE.  ALL SUPPORTING PAPERWORK AND DOCUMENTS ARE KEPT ELECTRONICALLY WHICH ARE ACCESSIBLE BY ALL OFFICE LOCATIONS."
1935199,"PRINCEVILLE GLOBAL HK LIMITED","UNIT 308, ST. GEORGE'S BUILDING","2 ICE HOUSE STREET","CENTRAL","","Hong Kong","","N","(852)2508-7268","","One of your branch offices or affiliates","BOOK KEEPING ARE BEING COMPLETED BY A THIRD PARTY SERVICE PROVIDER LOCATED IN HONG KONG AND MANAGEMENT ACCOUNTS OF THE ENTITY ARE REVIEWED BY THE HONG KONG OFFICE.  ALL SUPPORTING PAPERWORK AND DOCUMENTS ARE KEPT ELECTRONICALLY WHICH ARE ACCESSIBLE BY ALL OFFICE LOCATIONS."
1935919,"SEI INVESTMENTS - GLOBAL FUND SERVICES LIMITED","STYNE HOUSE","UPPER HATCH STREET","DUBLIN","","Ireland","DUBLIN 2","N","+353 1 638 240","","Other","CERTAIN RECORDS RELATING TO THE PRIVATE FUND ADVISED BY APERA ASSET MANAGEMENT LLP"
1935919,"EUROPEAN FUND ADMINISTRATION S.A.","2, RUE D'ALSACE","P.0. BOX 1725","LUXEMBOURG CITY","","Luxembourg","L-1017","N","+352 48 48 80","","Other","CERTAIN RECORDS RELATING TO THE PRIVATE FUND ADVISED BY APERA ASSET MANAGEMENT LLP"
1945049,"AZTEC FINANCIAL SERVICES (UK) LIMITED","FORUM 4, SOLENT BUSINESS PARK","PARKWAY SOUTH, WHITELEY","FAREHAM","","United Kingdom","PO15 7AD","N","442382022292","","A third-party unaffiliated record keeper","FUND ACCOUNTING AND ADMINISTRATION RECORDS"
1943344,"FORMIDIUM","633 ROGERS STREET","SUITE 106","DOWNERS GROVE","IL","United States","60515","N","630-828-3520","","A third-party unaffiliated record keeper","ACCOUNTING RELATED BOOKS AND RECORDS PREPARED AND MAINTAINED BY THIRD PARTY ADMINISTRATOR."
1943960,"GRYPHON GROUP","3000 AUBURN DRIVE","STE 410","BEACHWOOD","OH","United States","44122","N","216-225-8974","","A third-party unaffiliated record keeper","GRYPHON GROUP ACTS AS THE ADMINISTRATOR OF THE FUNDS ADVISED BY THE REGISTRANT AND COMPILES THE FUNDS' MONTHLY ACCOUNTING PACKAGES, INCLUDING BENEFICIAL INVESTOR STATEMENTS."
1933414,"ESHARES, INC. DBA CARTA, INC.","333 BUSH ST","","SAN FRANCISCO","CA","United States","94104","N","+1 650 669 838","","A third-party unaffiliated record keeper","FINANCIAL BOOKS AND RECORDS AND INFORMATION"
1939653,"RACKSPACE","10 EXCHANGE PLACE","","JERSEY CITY","NJ","United States","07302","N","201-792-1918","","A third-party unaffiliated record keeper","RACKSPACE IS OUR VENDOR FOR EMAIL RETENTION."
1939653,"SS&C TECHNOLOGIES, INC","4 TIMES SQUARE","","NEW YORK","NY","United States","10036","N","646-713-0601","","A third-party unaffiliated record keeper","SS&C TECHNOLOGIES IS A THIRD PARTY ADMINISTRATOR TO CERTAIN OF OUR CLIENTS.  IN THAT CAPACITY, SS&C TECHNOLOGIES MAINTAINS INVESTOR AND FINANCIAL RECORDS."
1942916,"HEDGESERV (CAYMAN) LIMITED","P.O. BOX 261,  6TH FLOOR SIX","CRICKET SQUARE","GRAND CAYMAN","","Cayman Islands","KY1-1104","N","353-769-8120","","A third-party unaffiliated record keeper","ALL TRADING ACTIVITY, PORTFOLIO HOLDINGS AND INVESTOR RECORDS."
1942215,"UMB FUND SERVICES, INC.","2225 WASHINGTON BLVD.","","OGDEN","UT","United States","84401","N","801) 737-4000","","A third-party unaffiliated record keeper","FUND ADMINISTRATION RECORDS."
1942215,"SMARSH","921 SW WASHINGTON STREET","SUITE 540","PORTLAND","OR","United States","97205","N","866-762-7741","","A third-party unaffiliated record keeper","EMAIL ARCHIVAL."
1942215,"METWEST TERRA HOSPITALITY, LLC","812 GRAVIER STREET","","NEW ORLEANS","LA","United States","70112","N","504-566-0204","","A third-party unaffiliated record keeper","ADDITIONAL BOOKS AND RECORDS."
1936349,"HUDSUN TRUST COMPANY LIMITED","BUILDING #10","SKELTON BAYLOT","FISH BAY, TORTOLA","","British Virgin Islands","VG1110","N","+284 494 6544","","A third-party unaffiliated record keeper","FINANCIAL RECORDS"
1930619,"BOX, INC.","900 JEFFERSON AVE.","","REDWOOD CITY","CA","United States","94063","N","(877) 729-4269","","A third-party unaffiliated record keeper","COPY OF FIRM RECORDS."
1930619,"MICROSOFT CORPORATION","1 MICROSOFT WAY","","REDMOND","WA","United States","98052-6399","N","(800) 642-7676","","A third-party unaffiliated record keeper","EMAIL ARCHIVING THROUGH OFFICE 365"
1930619,"ALLVUE","396 ALHAMBRA CIRCLE","11TH FLOOR","CORAL GABLES","FL","United States","33134","N","305 901 7060","","A third-party unaffiliated record keeper","FINANCIAL RECORDS OF ILLUMINA INNOVATION FUND I, LP AND ILLUMINA INNOVATION FUND II, LP ARE MAINTAINED ON THE SYSTEMS OF THIS COMPANY."
1930619,"DROPBOX","1800 OWENS STREET","","SAN FRANCISCO","CA","United States","94158","N","415 857-6800","","A third-party unaffiliated record keeper","CERTAIN RECORDS RELATED TO INVESTMENTS"
1939845,"CITCO FUND ADMINISTRATION (CAYMAN ISLANDS) LIMITED","89 NEXUS WAY, 2ND FLOOR","CAMANA BAY","GRAND CAYMAN","","Cayman Islands","KY1-1205","N","+1 3459493977","+1 3459493877","A third-party unaffiliated record keeper","ADMINISTRATOR AND REGISTRAR TO THE FUND; MAINTAINS, FOR EXAMPLE, RECORDS RELATING TO INVESTOR SUBSCRIPTIONS AND REDEMPTION, TRADING STATEMENTS AND MATERIALS IN SUPPORT OF NAV."
1944915,"MUFG FUND SERVICES","227 ELGIN AVENUE","PO BOX 609","GEORGE TOWN","","Cayman Islands","KY1-1107","N","345-914-1000","345-949-0705","A third-party unaffiliated record keeper","CLIENT STATEMENTS, HISTORICAL NAV REPORTS"
1939762,"UMB FUND SERVICES","223 WILMINGTON WEST CHESTER PIKE","","CHADDS FORD","PA","United States","19317","N","800.860.4862","","A third-party unaffiliated record keeper","ACCOUNTING AND FINANCIAL RECORDS MAINTAINED BY ADMINISTRATOR"
1941774,"LINEAR VENTURE, LTD.","C/O SINO ASEAN, UNIT 1, 9TH FLOOR","WO HING COMM. BLDG., NO. 11 WING WO STREET","CENTRAL","","Hong Kong","","N","852 3953 0412","852 3753 3083","One of your branch offices or affiliates","BOOKS AND RECORDS"
1942480,"TZUR CAPITAL MANAGEMENT LTD","8 SHAUL HAMELECH STREET","","TEL-AVIV","","Israel","","N","+972-3-373-040","","A third-party unaffiliated record keeper","TZUR SERVES AS ADMINISTRATOR TO THE PRIVATE INVESTMENT FUNDS MANAGED BY THE ADVISER AND IN THAT CAPACITY MAINTAINS CERTAIN INVESTOR RECORDS, INCLUDING SUBSCRIPTION DOCUMENTS."
1938629,"GLOBAL RELAY COMMUNICATIONS, INC","220 CAMBIE STREET","","VANCOUVER, BC","","Canada","V6B 2M9","N","866-484-6630","604-608-2941","A third-party unaffiliated record keeper","CERTAIN ELECTRONIC RECORDS"
1938629,"BROADRIDGE FINANCIAL SOLUTIONS INC.","5 DAKOTA DRIVE","","LAKE SUCCESS","NY","United States","11042","N","1800 353 0103","","A third-party unaffiliated record keeper","PORTFOLIO MANAGEMENT, ADMINISTRATION, REPORTING AND ANALYSIS, INCLUDING TRADE POSITION"
1938629,"BLOOMBERG FINANCE, L.P.","731 LEXINGTON AVENUE","","NEW YORK","NY","United States","10022","N","212-318-2000","212-893-5000","A third-party unaffiliated record keeper","CERTAIN ELECTRONIC RECORDS"
1938629,"APEX FUND AND CORPORATE SERVICES (GUERNSEY) LIMITED","1 ROYAL PLAZA","ROYAL AVENUE","ST. PETER PORT","","Guernsey","GY1 2HL","N","+44 1481737600","","A third-party unaffiliated record keeper","CLIENT RECORDS"
1938629,"U.S. BANK EUROPE DAC","125 OLD BROAD STREET","FIFTH FLOOR","LONDON","","United Kingdom","EC2N 1AR","N","+442073302000","","A third-party unaffiliated record keeper","CLIENT RECORDS"
1938629,"BLICK ROTHENBERG","16 GREAT QUEEN STREET","COVENT GARDEN","LONDON","","United Kingdom","WC2B 5AH","N","+442074860111","","A third-party unaffiliated record keeper","JOURNALS (INCLUDING CASH RECEIPTS AND DISBURSEMENTS RECORDS); GENERAL LEDGER; AND TRIAL BALANCES"
1938629,"THE BANK OF NEW YORK MELLON","RIVERSIDE 2","SIR JOHN ROGERSON'S QUAY","DUBLIN 2","","Ireland","D02 KV60","N","+35319003500","","A third-party unaffiliated record keeper","CLIENT RECORDS"
1938629,"VIRTUS GROUP, L.P","347 RIVERSIDE AVE","","JACKSONVILLE","FL","United States","32202","N","(904) 438-6000","","A third-party unaffiliated record keeper","CLIENT RECORDS"
1938629,"CITIBANK, N.A., LONDON BRANCH","CANADA SQUARE","CANARY WHARF","LONDON","","United Kingdom","E14 5LB","N","+442079866000","","A third-party unaffiliated record keeper","CLIENT RECORDS"
1941569,"JJR & ASSOCIATES LLC","1572 HIGHWAY 85 NORTH","SUITE 322","FAYETTEVILLE","GA","United States","30214","N","404-437-7748","888-823-7195","Other","FUND ADMINISTRATION AND ACCOUNTING"
1941569,"PAUL ALAR SECONDARY HOME","1258 S.E. BREWSTER PLACE","","STUART","FL","United States","34997","N","4044029484","","Other","RECORDS ON ELECTRONIC DEVICES"
1942516,"ULTIMUS LEVERPOINT","5 MAXWELL DRIVE, SUITE 135","","CLIFTON PARK","NY","United States","12065","N","518-373-5500","","A third-party unaffiliated record keeper","FUND ACCOUNTING RECORDS."
1946417,"MORGAN STANLEY FUND SERVICES USA LLC","2000 WESTCHESTER AVENUE","","PURCHASE","NY","United States","10577","N","914-225-0700","","A third-party unaffiliated record keeper","FINANCIAL, ACCOUNTING AND INVESTOR RECORDS FOR PRIVATE FUNDS MANAGED BY THE ADVISER."
1944241,"ADURO ADVISORS, LLC","2420 17TH STREET","SUITE 240","DENVER","CO","United States","80202","N","720) 319-8596","","A third-party unaffiliated record keeper","FUND ADMIN RECORDS"
1930385,"CACEIS INVESTOR SERVICES BANK S.A.","5, ALLÉE SCHEFFER,  L-2520","","LUXEMBOURG","","Luxembourg","L-4360","N","+352 26 051","","A third-party unaffiliated record keeper","COMPANY RECORDS"
1943236,"STONE COAST FUND SERVICES","TWO PORTLAND SQUARE","","PORTLAND","ME","United States","04101","N","207-699-2680","","A third-party unaffiliated record keeper","STONE COAST FUND SERVICES IS A FUND ADMINISTRATOR AND MAINTAINS CERTAIN FINANCIAL INFORMATION AND BOOKS AND RECORDS RELATED TO THE FIRM'S ADVISORY BUSINESS."
1942078,"TRUSTSERVE LP","3111 PONCE DE LEON BLVD","","CORAL GABLES","FL","United States","33134","N","305-677-2030","305-677-9965","A third-party unaffiliated record keeper","FUND ADMINISTRATOR"
1923024,"ZIVE AI, INC.","555 UNIVERSITY AVE.","","PALO ALTO","CA","United States","94301","N","512-850-3627","","A third-party unaffiliated record keeper","ACCOUNTING RECORDS STORED ELECTRONICALLY ON SERVER."
1941878,"CARTA INVESTOR SERVICES, INC.","333 BUSH ST","SUITE 2300","SAN FRANCISCO","CA","United States","94105","N","801-783-4989","","A third-party unaffiliated record keeper","FUND AND INVESTOR BOOKS AND RECORDS"
1935538,"NATE WILSON","22619 PACIFIC COAST HWY FLOOR 3","","MALIBU","CA","United States","90265","N","818-447-1740","","One of your branch offices or affiliates","COPIES OF FIRM RECORDS."
1941997,"CARTA INVESTOR SERVICES, INC.","333 BUSH STREET","FLOOR 2, SUITE 2300","SAN FRANCISCO","CA","United States","94104","N","650-669-8381","","A third-party unaffiliated record keeper","BANK FEEDS, TRIAL BALANCE, BALANCE SHEET, STATEMENT OF OPERATIONS, ACCOUNTING BOOKS, FUND AUDIT DOCUMENTS, CAPITAL ACCOUNT STATEMENTS, AND TAX RECORDS."
1943955,"NAV CONSULTING, INC.","1 TRANS AM PLAZA DRIVE","SUITE 400","OAKBROOK TERRACE","IL","United States","60181","N","(630) 954-1919","","Other","BOOKS AND RECORDS OF CLIENT ACCOUNT AND DOCUMENTS."
1933392,"JUNIPER SQUARE","555 MONTGOMERY STREET","SUITE 1400","SAN FRANCISCO","CA","United States","94111","N","(415) 841-2722","","A third-party unaffiliated record keeper","JUNIPER SQUARE SERVES AS THE FUND ADMINISTRATOR TO THE FUNDS AND RETAINS FUND DOCUMENTS AND OTHER BOOKS AND RECORDS."
1942778,"GENESIS FORTUNE CAPITAL LTD","UNIT 6627, 66F, 99 QUEENS ROAD CENTRAL","CENTRAL","HONG KONG","","China","","N","+852 39653322","","One of your branch offices or affiliates","WRITTEN RECORDS OF THE INVESTMENT MANAGEMENT ACTIVITIES UNDERTAKEN BY GENESIS CAPITAL II LTD"
1942780,"GENESIS FORTUNE CAPITAL LTD","UNIT 6627, 66F, 99 QUEENS ROAD CENTRAL","CENTRAL","HONG KONG","","China","","N","+852 39653322","","One of your branch offices or affiliates","WRITTEN RECORDS OF THE INVESTMENT MANAGEMENT ACTIVITIES UNDERTAKEN BY GENESIS CAPITAL III LTD"
1943078,"SS&C TECHNOLOGIES INC.","4 TIMES SQUARE","","NEW YORK","NY","United States","10036","N","914-670-3800","","A third-party unaffiliated record keeper","CERTAIN BOOKS AND RECORDS OF THE FIRM AND ITS CLIENTS AS REQUIRED BY RULE 204-2."
1945004,"PORTCULLIS TRUST (SINGAPORE) LTD","16 RAFFLES QUAY","#19-01 HONG LEONG BUILDING","SINGAPORE","","Singapore","048581","N","+65 6496 0498","+65 6333 8559","A third-party unaffiliated record keeper","PORTFOLIO ACCOUNTING BOOKS & RECORDS AND INVESTOR REGISTERS."
1945004,"TRIDENT TRUST COMPANY (MAURITIUS) LTD","5TH FLOOR, NEXSKY BUILDING","EBÈNE","CYBERCITY","","Mauritius","72201","N","+230-4607890","","A third-party unaffiliated record keeper","PORTFOLIO ACCOUNTING BOOKS & RECORDS AND INVESTOR REGISTERS."
1945004,"IQ EQ CONSULTANTS (SINGAPORE) PTE. LTD.","8 CROSS STREET","#20-01 MANULIFE TOWER","SINGAPORE","","Singapore","048424","N","+65 6532 5746","+65 6532 7680","A third-party unaffiliated record keeper","PORTFOLIO ACCOUNTING BOOKS & RECORDS AND INVESTOR REGISTERS"
1929803,"MICROSOFT - SHAREPOINT","THOMAS VALLEY PARK","","READING","","United Kingdom","RG6 1WG","N","44 0344 800 24","44 0870 60 20","A third-party unaffiliated record keeper","STORAGE OF CLOUD BASED BOOKS AND RECORDS."
1929803,"ENFUSION LTD","125 SOUTH CLARK STREET","SUITE 750","CHICAGO","IL","United States","60603","N","312 253 9800","","A third-party unaffiliated record keeper","CLOUD BASED STORAGE OF TRADING AND PORTFILIO BOOKS & RECORDS"
1936213,"OASIS GROUP","UNIT 20 ASHBOURNE BUSINESS PARK","CO. MEATH","ASHBOURNE","","Ireland","A84 YE03","N","+35318358840","","A third-party unaffiliated record keeper","DOCUMENTATION KEPT AT THE FILE STORES IN NON-CRITICAL INFORMATION THAT IS OVER THREE YEARS OLD."
1936213,"KEFRON LIMITED","53 PARK WEST ROAD","","DUBLIN 12","","Ireland","D12 F8RK","N","353 1 438 0200","","A third-party unaffiliated record keeper","DOCUMENTATION KEPT AT THE FILE STORES IN NON-CRITICAL INFORMATION THAT IS OVER THREE YEARS OLD."
1923075,"VECTOR AIS","447 SUTTER STREET","","SAN FRANCISO","CA","United States","94108","N","5304574556","","A third-party unaffiliated record keeper","MAINTAINS CERTAIN BOOKS AND RECORDS OF ONCOLOGY VENUTRES LLC AND ITS AFFILIATED POOLED INVESTMENT VEHICLES, INCLUDING SUBSCRIPTION DOCUMENTS, ACCOUNTING RECORDS, AND OTHER RECORDS."
1935877,"NAV FUND SERVICES","5TH FLOOR HARBOUR PLACE PO BOX 30464","103 SOUTH CHURCH STREET, GEORGE TOWN","GRAND CAYMAN KY1-1202","","Cayman Islands","00000","N","1.630.954.1919","1.345.946.5007","A third-party unaffiliated record keeper","RELEVANT DOCUMENTATION IN RESPECT OF QFM CHINA MASTER FUND, QFM CHINA FUND LIMITED AND QFM CHINA (US) FUND LIMITED, GR CHINA MASTER FUND, GR CHINA FUND LIMITED"
1940981,"BRETT ROME'S HOME","","","","","","","Y","7817880880","","Other","INVESTMENT DOCUMENTS AND SHARE CERTIFICATES FOR PORTFOLIO COMPANIES."
1921153,"NAV FUND ADMINISTRATION GROUP","1 TRANS AM PLAZA DR.","","OAKBROOK TERRACE","IL","United States","60181","N","(630) 954-1919","","A third-party unaffiliated record keeper","ACCOUNTING RECORDS"
1933573,"RAVELLI SERVIÇOS CONTABEIS","AV. LUCAS NOGUEIRA GARCEZ","391, SALA 1","SÃO BERNARDO DO CAMPO, SP","","Brazil","09750-670","N","0000000000","","A third-party unaffiliated record keeper","ACCOUNTING FIRM, INCLUDING RECORDS RELATING TO BUSINESS OR CONDITION OF THE COMPANY, INCLUDING FINANCIAL STATEMENTS, TAX RETURNS AND RELATED WORK PAPERS."
1936567,"LAB SERVICES PSF S.A.","LAB DATA CENTRE","ZONE INDUSTRIELLE","MUNSBACH","","Luxembourg","L-5366","N","+352 350 222 1","+352350222350","A third-party unaffiliated record keeper","A PORTION OF THE ORIGINAL BOOKS AND RECORDS ARE MAINTAINED BY LAB SERVICES PSF S.A."
1936567,"FRANKLIN RESOURCES, INC.","ONE FRANKLIN PARKWAY","BUILDING 970, 1ST FLOOR","SAN MATEO","CA","United States","94403","N","(650) 312-2000","","One of your branch offices or affiliates","SEE ""MISCELLANEOUS SECTION""."
1936567,"FRANKLIN TEMPLETON SERVICES, LLC","140 FOUNTAIN PARKWAY","","ST. PETERSBURG","FL","United States","33716","N","954-527-7500","954-527-7329","One of your branch offices or affiliates","A PORTION OF THE ORIGINAL BOOKS AND RECORDS ARE MAINTAINED BY FRANKLIN TEMPLETON SERVICES, LLC."
1933020,"GEN II","505 SANSOME ST.,","SUITE 875","SAN FRANCISCO","CA","United States","94111","N","628-239-0378","","A third-party unaffiliated record keeper","CERTAIN FINANCIAL RECORDS OF THE INVESTMENT MANAGER"
1940200,"POINT ALLERTON, LLC","400 CROWN COLONY DRIVE","SUITE 101","QUINCY","MA","United States","02169","N","617-376-4750","617-376-4754","Other","BOOKS AND RECORDS INCLUDE"
1941948,"FLOW INC.","548 MARKET STREET","SUITE 91771","SAN FRANCISCO","CA","United States","94104","N","(302) 894-8922","","A third-party unaffiliated record keeper","FLOW SERVES AS THE FUND ADMINISTRATOR TO CERTAIN MILLENNIA FUNDS. IN THIS CAPACITY, FLOW MAINTAINS CERTAIN FUND DOCUMENTS AND OTHER BOOKS AND RECORDS."
1941948,"CARTA INVESTOR SERVICES, INC.","333 BUSH STREET","FLOOR 23, STE. 2300","SAN FRANCISCO","CA","United States","94104","N","(650) 669-8381","","A third-party unaffiliated record keeper","CARTA SERVES AS THE FUND ADMINISTRATOR TO CERTAIN MILLENNIA FUNDS. IN THIS CAPACITY, CARTA MAINTAINS CERTAIN FUND DOCUMENTS AND OTHER BOOKS AND RECORDS."
1933230,"ILLUMINATE FINANCIAL MANAGEMENT LLP","404 THE FRAMES","1 PHIPP STREET","LONDON","","United Kingdom","EC2A 4PS","N","+447834729518","","One of your branch offices or affiliates","ALL RECORDS"
1935474,"KLINKLOANS FUND LLC","1094 S GILBERT RD SUITE 210","","GILBERT","AZ","United States","85296","N","4807216315","","One of your branch offices or affiliates","RECORDS ARE KEPT ELECTRONICALLY AT THIS LOCATION."
1941296,"APEX FUND SERVICES (CHICAGO) LLC","1 N FRANKLIN ST","SUITE 600","CHICAGO","IL","United States","60606","N","(312) 280-0330","","A third-party unaffiliated record keeper","BOOKS AND RECORDS PERTAINING TO THE FUND."
1936505,"IQEQ","4TH FLOOR","3 MORE LONDON RIVERSIDE","LONDON","","United Kingdom","SE1 2AQ","N","+44 2073975450","","A third-party unaffiliated record keeper","ACCOUNTING RECORDS INVESTOR INFORMATION PAYROLL AND EMPLOYEE RECORDS"
1935015,"LICCAR FUND SERVICES","222 S. RIVERSIDE DR.","SUITE 1500, 15TH FLOOR.","CHICAGO","IL","United States","60606","N","(312) 922-6600","","A third-party unaffiliated record keeper","FUND ADMINISTRATION RECORDS, INCLUDING INVESTOR SUBSCRIPTION DOCUMENTS, TRADING AND RECONCILIATION RECORDS, NAV AND FINANCIAL STATEMENT INFORMATION."
1917271,"EGNYTE, INC.","1350 W. MIDDLEFIELD ROAD","","MOUNTAIN VIEW","CA","United States","94043","N","8777346983","","A third-party unaffiliated record keeper","PEAK XV PARTNERS OPERATIONS LLC MAINTAINS ELECTRONICN COPIES OF BOOKS AND RECORDS REQUIRED UNDER SECTION 204 OF THE INVESTMENT ADVISERS ACT AND WITH THIS THIRD-PARTY PROVIDER."
1917271,"AMAZON WEB SERVICES","410 TERRY AVE NORTH","","SEATTLE","WA","United States","98170","N","2062661000","","A third-party unaffiliated record keeper","PEAK XV PARTNERS OPERATIONS LLC MAINTAINS ELECTRONICN COPIES OF BOOKS AND RECORDS REQUIRED UNDER SECTION 204 OF THE INVESTMENT ADVISERS ACT AND WITH THIS THIRD-PARTY PROVIDER."
1917271,"MICROSOFT CORPORATION - AZURE, SHAREPOINT","1 MICROSOFT WAY","","REDMOND","WA","United States","98052","N","4258828080","","A third-party unaffiliated record keeper","PEAK XV PARTNERS OPERATIONS LLC MAINTAINS ELECTRONICN COPIES OF BOOKS AND RECORDS REQUIRED UNDER SECTION 204 OF THE INVESTMENT ADVISERS ACT AND WITH THIS THIRD-PARTY PROVIDER."
1917271,"GOOGLE CLOUD PLATFORM","1600 AMPHITHEATER PARKWAY","","MOUNTAIN VIEW","CA","United States","94043","N","(866) 246-6453","","A third-party unaffiliated record keeper","PEAK XV PARTNERS OPERATIONS LLC MAINTAINS ELECTRONICN COPIES OF EMAILS WITH THIS THIRD-PARTY PROVIDER."
1932659,"MORGAN STANLEY FUND SERVICES (BERMUDA) LIMITED","7-11 SIR ROGERSON'S QUAY","","DUBLIN","","Ireland","2","N","35317998777","","A third-party unaffiliated record keeper","THE ACCOUNTING AND UNIT REGISTRY DETAILS FOR THE TRILOGY MASTER FUND LIMITED AND THE TRILOGY CAYMAN FEEDER LIMITED ARE STORED HERE."
1934951,"HC GLOBAL FUND SERVICES, LLC","2121 N CALIFORNIA BLVD","SUITE 290","WALNUT CREEK","CA","United States","94596","N","(415) 796-7520","","A third-party unaffiliated record keeper","HC GLOBAL SERVES AS THE FUND ADMINISTRATOR FOR CERTAIN OF THE PRIVATE FUNDS MANAGED BY ACCESS VENTURES, IN WHICH CAPACITY IT MAINTAINS SUCH FUNDS' BOOKS AND RECORDS"
1934951,"ALLOCATIONS, INC.","382 NE 191ST","PMB 88102","MIAMI","FL","United States","33179","N","(707) 236-6533","","A third-party unaffiliated record keeper","ALLOCATIONS SERVES AS THE FUND ADMINISTRATOR FOR CERTAIN OF THE PRIVATE FUNDS MANAGED BY ACCESS VENTURES, IN WHICH CAPACITY IT MAINTAINS SUCH FUNDS' BOOKS AND RECORDS."
1934951,"B&B PROFESSIONAL TAXES LLC","86 TOWNLINE RD","","NANUET","NY","United States","10954","N","(914) 479-9546","","A third-party unaffiliated record keeper","FINANCIAL AND BUSINESS RECORDS OF ACCESS VENTURES"
1932755,"DAN TREDWELL","","","","","","","Y","203-327-1200","","Other","ARCHIVED PAPER RECORDS"
1936762,"LICCAR","300 S WACKER DRIVE","SUITE 2220","CHICAGO","IL","United States","60606","N","312-922-6600","","A third-party unaffiliated record keeper","FUND ADMINISTRATOR MAINTAINS PRIME BROKERAGE STATEMENTS, INVESTOR SUBSCRIPTION DOCUMENTS AND SUPPORTING DOCUMENTATION, TAX DOCUMENTS AND COMPLIANCE RELATED DOCUMENTS"
1933788,"OPUS FUND SERVICES","115 EAST OGDEN AVENUE","SUITE 105-343","NAPERVILLE","IL","United States","60563","N","312-256-9974","","A third-party unaffiliated record keeper","IN ITS CAPACITY AS THIRD-PARTY ADMINISTRATOR FOR CERTAIN ADVISORY CLIENTS OF MOAB CAPITAL PARTNERS, LLC  OPUS FUND SERVICES MAINTAINS CERTAIN BOOKS AND RECORDS FOR CERTAIN ADVISORY CLIENTS."
1939852,"UMB FUND SERVICES INC.","2225 WASHINGTON BLVD., SUITE 400","","OGDEN","UT","United States","84401","N","801-737-4000","","A third-party unaffiliated record keeper","RELEVANT DOCUMENTATION IN RESPECT OF EACH OF FUNDS IN SECTION 7.(B).(1)."
1948197,"TRIDENT FUND SERVICES, INC.","1100 ABERNATHY ROAD NE","500 NORTHPARK, SUITE 300","ATLANTA","GA","United States","30328","N","404-364-2019","","A third-party unaffiliated record keeper","TRIDENT KEEPS RECORDS ON NAV, LP POSITIONS, PERFORMANCE CALCULATIONS, K-1S, PPM, LPA, AND OTHER RELEVANT DOCUMENTS AND FILES."
1948197,"MIDLAND TRUST CO.","1520 ROYAL PALM SQ. BLVD","SUITE 300","FORT MYERS","FL","United States","33919","N","312 753 6384","","A third-party unaffiliated record keeper","MIDLAND ADMINISTERS IRA INVESTMENTS IN OUR FUND, AND AS A RESULT KEEPS SOME OFFERING DOCUMENTS AND OTHER INFORMATION FOR INVESTORS THAT CHOOSE THIS WAY TO INVEST."
1948197,"VERDOLINO & LOWEY P.C.","124 WASHINGTON ST.","","FOXBOROUGH","MA","United States","02035","N","(508) 543-172","","A third-party unaffiliated record keeper","VERDOLINO & LOWEY IS AN ACCOUNTING FIRM THAT MANAGES THE BOOKS FOR OUR BUSINESS."
1939129,"CITCO FUND ADMINISTRATION (CAYMAN ISLANDS) LIMITED","89 NEXUS WAY","PO BOX 31106","GRAND CAYMAN","","Cayman Islands","","N","902- 442-4342","","A third-party unaffiliated record keeper","CITCO FUND ADMINISTRATION (CAYMAN ISLANDS) LIMITED IS THE ADMINISTRATOR FOR M37 MANAGEMENT LP AND IS THE OFFICIAL BOOKS AND RECORDS."
1940381,"ESHARES, INC. DBA CARTA, INC.","333 BUSH STREET, SUITE 2300","","SAN FRANCISCO","CA","United States","94104","N","(650) 669-8381","","A third-party unaffiliated record keeper","NA"
1946608,"TRIDENT TRUST COMPANY (CAYMAN) LIMITED","4TH FLOOR, ONE CAPITAL PLACE","","GEORGE TOWN","","Cayman Islands","KY11103","N","345-949-0880","","A third-party unaffiliated record keeper","ADMINISTRATOR"
1945558,"STEPHEN GITTO","166 CELLER AVENUE","","NEW HYDE PARK","NY","United States","11040","N","(516) 384-3787","","One of your branch offices or affiliates","FINANCIAL RECORDS"
1934959,"APEX FUND SERVICES (USA) LLC","1 N. FRANKLIN STREET SUITE 600","","CHICAGO","IL","United States","60606","N","312-280-0330","312-280-0333","A third-party unaffiliated record keeper","DUPLICATE MONTHLY NAV'S, COPIES OF SUBSCRIPTION DOCUMENTS, FINANCIAL INFORMATION PULLED FROM PRIME BROKERAGE"
1933684,"PRAGUE AND COMPANY PC","15 WALNUT STREET","SUITE 150","WELLESLEY","MA","United States","02481","N","(781) 235-2190","","A third-party unaffiliated record keeper","ACCOUNTING, TAX AND ORGANIZATIONAL DOCUMENTS."
1933684,"KPMG LLP","90 SOUTH 7TH STREET","4200 WELLS FARGO CTR","MINNEAPOLIS","MN","United States","55402","N","612-305-5000","","A third-party unaffiliated record keeper","TAX RECORD-KEEPING"
1935396,"PRAGUE AND COMPANY PC","15 WALNUT STREET","SUITE 150","WELLESLEY","MA","United States","02481","N","(781) 235-2190","","A third-party unaffiliated record keeper","ACCOUNTING, TAX AND ORGANIZATIONAL DOCUMENTS."
1935396,"KPMG LLP","90 SOUTH 7TH STREET","4200 WELLS FARGO CTR","MINNEAPOLIS","MN","United States","55402","N","612-305-5000","","A third-party unaffiliated record keeper","TAX RECORD-KEEPING"
1945813,"BELLTOWER FUND GROUP, LTD","PO BOX 3217","SUITE 220","SEATTLE","WA","United States","98114","N","3603409337","","A third-party unaffiliated record keeper","FUND DOCUMENTS, TRANSACTION RECORDS, WRITTEN COMMUNICATIONS"
1923136,"TIMOTHY WHALLEY","7032 SW 181 PLACE","","BEAVERTON","OR","United States","98007","N","3609038236","","One of your branch offices or affiliates","SIGNED PPM'S, INTERNAL MARKETING MATERIALS, ARTICLES OF ORGANIZATION AND FUND CONTRACTUAL PAPERWORK AND DISCLOSURES."
1923166,"AUM LAW PROFESSIONAL CORPORATION","110 YONGE STREET","SUITE 400","TORONTO","","Canada","M5C 1T4","N","416-966-2004","866-627-2299","Other","MINUTES BOOK."
1934917,"CITCO FUND ADMINISTRATION (CAYMAN ISLANDS) LIMITED","2ND FLOOR, 89 NEXUS WAY","PO BOX 31106","GRAND CAYMAN","","Cayman Islands","KY1-1205","N","1345949397","","Other","CLIENT ADMINISTRATIVE AND ACCOUNTING RECORDS, COPIES OF WHICH WILL BE MADE AVAILABLE PROMPTLY UPON REQUEST OF THE APPLICANT IN RESPONSE TO ANY REQUEST BY THE STAFF OF THE SECURITIES AND EXCHANGE COMMISSION."
1934917,"OAKFORD ADVISORS LIMITED","INNOVATION CENTRE, 99 PARK DRIVE","MILTON PARK, OXFORDSHIRE","OXFORD","","United Kingdom","OX14 4RY","N","01235933280","","Other","CLIENT ADMINISTRATIVE AND ACCOUNTING RECORDS, COPIES OF WHICH WILL BE MADE AVAILABLE PROMPTLY UPON REQUEST OF THE APPLICANT IN RESPONSE TO ANY REQUEST BY THE STAFF OF THE SECURITIES AND EXCHANGE COMMISSION."
1930032,"EXAGON IMPACT CAPITAL LLC","1185 AVENUE OF THE AMERICAS","3RD FLOOR","NEW YORK","NY","United States","10036","N","(917) 797-4749","","One of your branch offices or affiliates","MAINTAIN GENERAL BUSINESS BOOKS AND RECORDS"
1930032,"ARENDT INVESTOR SERVICES SA","9 RUE DE BITBOURG","L-1273","LUXEMBOURG","","Luxembourg","145917","N","00352 27 44 41","","A third-party unaffiliated record keeper","MAINTAIN GENERAL BUSINESS BOOKS AND RECORDS"
1930032,"PINNACLE FUND SERVICES","18 KING STREET EAST","SUITE 301","TORONTO","","Canada","M5C 1C4","N","647 794 4979","","A third-party unaffiliated record keeper","MAINTAIN GENERAL BUSINESS BOOKS AND RECORDS"
1918226,"U.S. BANK GLOBAL FUND SERVICES (IRELAND) LIMITED","24/26 CITY QUAY","","DUBLIN","","Ireland","D02 NY19","N","0035315238000","","A third-party unaffiliated record keeper","FUND RECORDS FOR THE KRYGER MASTER FUND LIMITED, KRYGER FUND LIMITED, KRYGER FUND LP, KRYGER ENHANCED MASTER FUND LIMITED, KRYGER ENHANCED FUND LIMITED"
1921107,"U.S. BANK GLOBAL FUND SERVICES (IRELAND) LIMITED","24/26 CITY QUAY","","DUBLIN","","Ireland","D02","N","0035315238000","","A third-party unaffiliated record keeper","FUND ADMINISTRATOR'S OFFICES"
1924642,"EDGE COMMUNICATIONS","6505 WINDCREST DRIVE","","PLANO","TX","United States","75024","N","800-855-3343","","A third-party unaffiliated record keeper","BACK UP OF ALL FIRM AND ELECTRONIC RECORDS."
1924642,"GLOBAL RELAY COMMUNICATIONS INC","220 CAMBIE STREET","2ND FLOOR","VANCOUVER, BC","","Canada","V6B 2M9","N","866-484-6630","04-608-2941","A third-party unaffiliated record keeper","EMAIL AND BLOOMBERG COMMUNICATION RECORDS"
1924642,"STATE STREET ALTERNATIVE INVESTMENT SOLUTIONS","1290 AVENUE OF THE AMERICAS","","NEW YORK","NY","United States","10104","N","212-339-2700","","A third-party unaffiliated record keeper","ACCOUNTING RECORDS FOR CERTAIN OF COMMONWEALTH'S CLIENTS."
1924642,"BLOOMBERG","731 LEXINGTON AVENUE","","NEW YORK","NY","United States","10022","N","212-318-2000","","A third-party unaffiliated record keeper","THIRD PARTY FINANCIAL RECORDS"
1924642,"APEX FUND SERVICES LLC","15720 BRIXHAM HILL AVE","SUITE 206","CHARLOTTE","NC","United States","28277","N","704-752-8996","","A third-party unaffiliated record keeper","RE FUND ADMIN"
1924642,"JP MORGAN SECURITIES LLC","383 MADISON AVE","","NEW YORK","NY","United States","10179","N","212-272-2000","","A third-party unaffiliated record keeper","FINANCIAL RECORDS FOR CERTAIN OF COMMONWEALTH'S CLIENTS."
1924642,"CHARLES SCHWAB & CO INC","211 MAIN STREET","","SAN FRANCISCO","CA","United States","94105","N","415-667-6210","","A third-party unaffiliated record keeper","FINANCIAL RECORDS FOR CERTAIN OF COMMONWEALTH CLIENTS."
1928546,"PINNACLE FUND ADMINISTRATION","SUITE 301 - 18 KING STREET E","","TORONTO","","Canada","M5C 1C4","N","6045558920","","A third-party unaffiliated record keeper","ACCOUNTING RECORDS"
1928546,"LAWSON LUNDELL LLP","1600-925 W GEORGIA STREET","","VANCOUVER","","Canada","V6C 3L2","N","6046853456","","A third-party unaffiliated record keeper","RECORDS OFFICE"
1941651,"CZ HEDGE MANAGEMENT, LLC","16197 CABERNET DRIVE","","DELRAY BEACH","FL","United States","33446","N","6464698046","","One of your branch offices or affiliates","CERTAIN BOOKS AND RECORDS, INCLUDING BUT NOT LIMITED TO ACCOUNTING RECORDS, FINANCIAL RECORDS, INVESTORS RECORDS AND OPERATING AGREEMENTS."
1946134,"BELLTOWER FUND GROUP, LTD","PO BOX 3217","SUITE 220","SEATTLE","WA","United States","98114","N","3603409337","","A third-party unaffiliated record keeper","FUND DOCUMENTS, TRANSACTION RECORDS, WRITTEN COMMUNICATIONS"
1946162,"ALTER DOMUS","225 W WASHINGTON ST., 9TH FLOOR","","CHICAGO","IL","United States","60606","N","(312) 564-510","","A third-party unaffiliated record keeper","ALTER DOMUS IS THE ADMINISTRATOR FOR THE FUND THAT THE APPLICANT FIRM MANAGES. THE ADMINISTRATOR KEEPS FINANCIAL DOCUMENTS, INVESTOR COMMUNICATIONS AND OTHER RECORDS RELATED TO FUND ADMINISTRATION."
1939850,"MAPLES FUND SERVICES (CAYMAN) LIMITED","BOUNDARY HALL","CRICKET SQUARE","GRAND CAYMAN","","Cayman Islands","KY1-1102","N","+1 345 9457099","","A third-party unaffiliated record keeper","RELEVANT DOCUMENTATION IN RESPECT OF LAKEVILLE CAPITAL INVESTORS LIMITED"
1942075,"HSBC TRUSTEE (CAYMAN) LIMITED","P.O. BOX 484, HSBC HOUSE","68 WEST BAY ROAD","GRAND CAYMAN","","Cayman Islands","KY1-1106","N","13459499555","","Other","ADMINISTRATOR TO THE FEEDER FUNDS AND MASTER FUND; MAINTAIN REGISTRY OF SHAREHOLDERS, ARRANGING FOR THE ISSUE,REDEMPTION AND VALUATION OF SHARES AND FOR GENERAL ADMINISTRATION OF THE FUNDS."
1942075,"HSBC INSTITUTIONAL TRUST SERVICES (ASIA) LIMITED","1 QUEEN'S ROAD CENTRAL","","HONG KONG","","Hong Kong","","N","85236637000","","Other","ADMINISTRATOR'S SERVICE PROVIDER; RESPONSIBLE FOR, AMONG OTHER AREAS, THE CALCULATION OF NET ASSET VALUE, ARRANGINGFOR PAYMENT OF EXPENSES, MAINTAINING FINANCIAL BOOKS AND RECORDS"
1943353,"NAV CONSULTING, INC.","1 TRANSAM PLAZA DR","SUITE 400","OAKBROOK TERRACE","IL","United States","60181","N","630-954-1919","","A third-party unaffiliated record keeper","ALL INVESTOR INFORMATION AND ACCOUNTS AS WELL AS ALL MONTHLY REPORTING AND NET ASSET VALUE CALCULATIONS FOR THE FUND."
1934497,"MERIDIAN STREET CAPITAL","489 5TH AVE","SUITE 29B","NEW YORK","NY","United States","10017","N","317-695-8328","","One of your branch offices or affiliates","MAIN OFFICE"
1937963,"SOUTH WATCH LLC","3000 DAVENPORT AVENUE","SUITE 200","CANTON","MA","United States","02021","N","781-615-9032","","A third-party unaffiliated record keeper","SOUTH WATCH IS THE ADMINISTRATOR TO THE ESPLANADE PRIVATE FUNDS AND MAINTAINS THE OFFICIAL ACCOUNTING AND FINANCIAL BOOKS AND RECORDS OF THE FUNDS AND THE FUNDS' OFFICIAL INTEREST REGISTRIES."
1938574,"WAYSTONE","35 SHELBOURNE ROAD","BALLSBRIDGE","DUBLIN","","Ireland","D04 A4E0","N","+353 1 8992427","","A third-party unaffiliated record keeper","FUND ADMINISTRATION RECORDS"
1937973,"RONALD J. COOMBS","","","","","","","Y","412 327 9294","","One of your branch offices or affiliates","ACCOUNTING RECORDS"
1929707,"VISTRA ALTERNATIVE INVESTMENTS (SINGAPORE) PTE. LTD.","9 RAFFLES PLACE","#26-01 REPUBLIC PLAZA","SINGAPORE","","Singapore","048619","N","65 6438 1330","","A third-party unaffiliated record keeper","RELEVANT DOCUMENTATION IN RESPECT OF EACH OF DELTA MASTER TRUST AND DELTA WELLINGTON ULTRA SHORT TREASURY ON-CHAIN FUND, A SUB-FUND THEREOF."
1922778,"NAV CONSULTING INC.","BACKOFFICE 1 TRANS AM PLAZA DRIVE","SUITE 400","OAKBROOK TERRACE","IL","United States","60181","N","6309541919","6305968555","A third-party unaffiliated record keeper","ADMINISTRATOR RECORDS."
1927177,"ADURO ADVISORS","2420 17TH ST","SUITE 240","DENVER","CO","United States","80202","N","000-000-0000","","A third-party unaffiliated record keeper","ALL BOOKS AND RECORDS ARE HELD VIA CLOUD STORAGE BY ADURO ADVISORS."
1937250,"OPUS FUND SERVICES (BERMUDA) LTD","12 CHURCH STREET","4TH FLOOR","HAMILTON","","Bermuda","HM11","N","(312) 256-9974","","A third-party unaffiliated record keeper","FUND ACCOUNTING, TRANSACTIONS, AND STATEMENTS MAINTAINED BY ADMINISTRATOR"
1933968,"ESHARES, INC. DBA CARTA, INC. (""CARTA"")","333 BUSH STREET","","SAN FRANCISCO","CA","United States","94104","N","650-669-8381","","Other","THIRD-PARTY FUND ADMINISTRATOR"
1933968,"BOX, INC.","900 JEFFERSON AVENUE","","REDWOOD CITY","CA","United States","94063","N","877-729-4269","","Other","WE KEEP INVESTMENT DOCUMENTATION ON BOX.COM"
1933968,"GOOGLE, INC.","1600 AMPHITHEATRE PARKWAY","","MOUNTAINVIEW","CA","United States","94043","N","(650) 253-0000","","Other","WE USE GOOGLE WORKSPACE FOR CORPORATE EMAIL AND GOOGLE DRIVE FOR VARIOUS DOCUMENTS RELATED TO OUR INVESTMENT WORK."
1934111,"STANDISH MANAGEMENT","1676 N CALIFORNIA BLVD","SUITE 400","WALNUT CREEK","CA","United States","94596","N","(925) 357-3035","","A third-party unaffiliated record keeper","PRIVATE FUND DOCUMENTS AND FINANCIALS."
1934273,"STANDISH MANAGEMENT","101 N. UPPER WACKER DRIVE","","CHICAGO","IL","United States","60606","N","3125489799","","A third-party unaffiliated record keeper","THIRD PARTY FUND ADMINISTRATOR HOLDS RECORDS RELATING TO FUND INVESTMENTS AND LIMITED PARTNER CAPITAL ACCOUNT INFORMATION."
1938419,"COUNCILOR, BUCHANAN & MITCHELL, P.C.","7910 WOODMONT AVE #500, BETHESDA, MD 20814","","BETHESDA","MD","United States","20814-3048","N","(301) 986-0600","","A third-party unaffiliated record keeper","FINANCIAL ACCOUNTS"
1936507,"BRITISH VIRGIN ISLANDS FINANCIAL SERVICES COMMISSION","18 PASEA ESTATE RD","ROAD TOWN","TORTOLA","","British Virgin Islands","VG1110","N","284-494-1324","284-494-5016","A third-party unaffiliated record keeper","TBD"
1939278,"BRITISH VIRGIN ISLANDS FINANCIAL SERVICES COMMISSION","18 PASEA ESTATE RD","ROAD TOWN","TORTOLA","","British Virgin Islands","VG1110","N","284-494-1324","284-494-5016","A third-party unaffiliated record keeper","TBD"
1933521,"TRIDENT FUND SERVICES, INC.","1100 ABERNATHY RD NE","#300","ATLANTA","GA","United States","30328","N","404-233-5275","","A third-party unaffiliated record keeper","ELECTRONIC FILES FOR EACH INVESTOR"
1935641,"APEX FUND SERVICES (HK) LTD.","BEAUTIFUL GROUP TOWER","77 CONNAUGHT ROAD","CENTRAL","","Hong Kong","","N","+852 3749 6500","","A third-party unaffiliated record keeper","APEX GROUP LTD. (HONG KONG BRANCH) (THE ""ADMINISTRATOR"") SERVES AS THE ADMINISTRATOR TO ION PACIFIC STONECUTTER II (CAYMAN) LP AS SET FORTH ON SEC. 7.B.1 OF THE ADVISER'S FORM ADV (THE ""FUND"").  AS SUCH, CERTAIN BOOKS, RECORDS AND OTHER DOCUMENTS OF THE FUNDS, ARE STORED AT THE OFFICES OF THE ADMINISTRATOR."
1935641,"APEX GROUP LTD.","ENOP 1","3 RUE GABRIEL LIPPMANN","MUNSBACH","","Luxembourg","L-5365","N","35228441543","","A third-party unaffiliated record keeper","APEX GROUP LTD. (LUXEMBOURG BRANCH) (THE ""ADMINISTRATOR"") SERVES AS THE ADMINISTRATOR TO ION PACIFIC STONECUTTER II (LUXEMBOURG) LP AS SET FORTH ON SEC. 7.B.1 OF THE ADVISER'S FORM ADV (THE ""FUND"").  AS SUCH, CERTAIN BOOKS, RECORDS AND OTHER DOCUMENTS OF THE FUNDS, ARE STORED AT THE OFFICES OF THE ADMINISTRATOR."
1935641,"SS&C TECHNOLOGIES, INC.","UNIT 706-7 CENTRAL PLAZA","18 HARBOUR ROAD","WAN CHAI","","Hong Kong","","N","+852 2534 1100","","A third-party unaffiliated record keeper","SS&C TECHNOLOGIES INC. (THE ""ADMINISTRATOR"") SERVES AS THE ADMINISTRATOR TO ION PACIFIC PACIFIC MERDEKA (CAYMAN) LP AS SET FORTH ON SEC. 7.B.1 OF THE ADVISER'S FORM ADV (THE ""FUND"").  AS SUCH, CERTAIN BOOKS, RECORDS AND OTHER DOCUMENTS OF THE FUNDS, ARE STORED AT THE OFFICES OF THE ADMINISTRATOR."
1935641,"CSC","3806 CENTRAL PLAZA, 18 HARBOUR RD","38TH FLOOR","WAN CHAI","","Hong Kong","3806","N","+852 2802 7711","","A third-party unaffiliated record keeper","CSC (THE ""ADMINISTRATOR"") SERVES AS THE ADMINISTRATOR TO PHILLION I LP, PHILLION II LP AND ION PACIFIC STONECUTTER LP LP AS SET FORTH ON SEC. 7.B.1 OF THE ADVISER'S FORM ADV (COLLECTIVELY, THE ""FUNDS"").  AS SUCH, CERTAIN BOOKS, RECORDS AND OTHER DOCUMENTS OF THE FUNDS, ARE STORED AT THE OFFICES OF THE ADMINISTRATOR."
1935641,"CRIX FUND SERVICES","28 YUN PING ROAD","UNIT 77, LEVEL 16, LEE GARDEN TWO","CAUSEWAY BAY","","Hong Kong","","N","852 6652 9368","","A third-party unaffiliated record keeper","CRIX FUND SERVICES (THE ""ADMINISTRATOR"") SERVES AS THE ADMINISTRATOR TO SEVERAL FUNDS AS SET FORTH ON SEC. 7.B.1 OF THE ADVISER'S FORM ADV (COLLECTIVELY, THE ""FUNDS"").  AS SUCH, CERTAIN BOOKS, RECORDS AND OTHER DOCUMENTS OF THE FUNDS, ARE STORED AT THE OFFICES OF THE ADMINISTRATOR."
1935641,"SS&C TECHNOLOGIES, INC.","SUITE 2702-4, CENTRAL PLAZA","18 HARBOUR ROAD","WAN CHAI","","Hong Kong","","N","852 3576 3149","","A third-party unaffiliated record keeper","SS&C TECHNOLOGIES INC. (THE ""ADMINISTRATOR"") SERVES AS THE ADMINISTRATOR TO ION PACIFIC MERDEKA (CAYMAN) LP AS SET FORTH ON SEC. 7.B.1 OF THE ADVISER'S FORM ADV (THE ""FUND"").  AS SUCH, CERTAIN BOOKS, RECORDS AND OTHER DOCUMENTS OF THE FUNDS, ARE STORED AT THE OFFICES OF THE ADMINISTRATOR."
1940491,"APEX FUND SERVICES (CHARLOTTE) LLC","15720 BRIXHAM HILL AVENUE","#206","CHARLOTTE","NC","United States","28277","N","704-752-8996","","A third-party unaffiliated record keeper","FUND RELATED BOOKS AND RECORDS."
1937303,"NAV CONSULTING, INC.","1 TRANS AM PLAZA DRIVE","SUITE 400","OAKBROOK TERRACE","IL","United States","60181","N","630-954-1919","","A third-party unaffiliated record keeper","NAV CONSULTING, INC. IS AN UNAFFILIATED THIRD-PARTY FUND ADMINISTRATOR THAT MAINTAINS CERTAIN ACCOUNTING AND ADMINISTRATIVE BOOKS AND RECORDS FOR THE FIRM'S CLIENTS."
1939971,"GLOBAL RELAY COMMUNICATIONS INC.","220 CAMBIE STREET","2ND FLOOR","VANCOUVER","","Canada","V6B 2M9","N","(866) 484-6630","","A third-party unaffiliated record keeper","EMAIL AND ELECTRONIC COMMUNICATIONS."
1939971,"DROPBOX, INC.","333 BRANNAN STREET","","SAN FRANCISCO","CA","United States","94107","N","(800) 620-5395","","A third-party unaffiliated record keeper","GENERAL BUSINESS RECORDS."
1934644,"IRON MOUNTAIN RECORDS MANAGEMENT","3530 BUSINESS CENTER DR.","","CHESAPEAKE","VA","United States","23323","N","757-855-0300","757-853-2614","Other","ALL BOOKS AND RECORDS ARE SUBJECT TO OFF-SITE STORAGE AS PERMITTED BY THE INVESTMENT ADVISOR ACT RULES."
1934644,"IRON MOUNTAIN RECORDS MANAGEMENT","4555 PROGRESS ROAD","","NORFOLK","VA","United States","23502","N","757-855-0300","757-853-2614","Other","ALL BOOKS AND RECORDS ARE SUBJECT TO OFF-SITE STORAGE AS PERMITTED BY THE INVESTMENT ADVISOR ACT RULES."
1932445,"BELLTOWER FUND GROUP","119 SOUTH MAIN STREET","SUITE 220","SEATTLE","WA","United States","98104","N","360-340-9337","","A third-party unaffiliated record keeper","FUND DOCUMENTS, TRANSACTION RECORDS, WRITTEN COMMUNICATIONS"
1922262,"ADURO ADVISORS, LLC","2420 17TH ST, SUITE 240","","DENVER","CO","United States","80202","N","(650) 283-2679","","A third-party unaffiliated record keeper","FINANCIAL RECORDS AND LEGAL AGREEMENTS"
1936364,"LICCAR FUND SERVICES","222 S. RIVERSIDE PLAZA","SUITE 1500/15TH FLOOR","CHICAGO","IL","United States","60606","N","312-922-6600","","A third-party unaffiliated record keeper","GENERAL LEDGER, P&L STATEMENTS, AND STATEMENT OF CHANGES IN PARTNER'S EQUITY ACCOUNTS"
1930263,"ARROWPOINT INVESTMENT PARTNERS (SINGAPORE) PTE. LTD.","9 STRAITS VIEW","#24-08 MARINA ONE WEST TOWER","SINGAPORE","","Singapore","018937","N","+65 6031 0883","","One of your branch offices or affiliates","CERTAIN BOOKS AND RECORDS RELATED TO OPERATIONS, PORTFOLIO MANAGEMENT, COMPLIANCE, RISK MANAGEMENT, ETC. OF THE ARROWPOINT INVESTMENT PARTNERS GROUP."
1944657,"STONE COAST FUND SERVICES","TWO PORTLAND SQUARE","","PORTLAND","ME","United States","04101","N","2076992680","","A third-party unaffiliated record keeper","PARTNERSHIP/OWNERSHIP LEDGERS, ETC."
1934417,"MINGXIN CHINA GROWTH MANAGEMENT","SUITE 1507, CHANGFENG INTERNATIONAL MANSION","NO. 89 EAST YUNLING ROAD","SHANGHAI","","China","200062","N","+862162889998","+862162889166","One of your branch offices or affiliates","FINANCIAL AND ACCOUNTING RECORDS"
1945521,"WRH ENERGY PARTNERS, L.L.C","","","","","","","Y","973-539-2019","973-984-5818","One of your branch offices or affiliates","ALL BOOKS AND RECORDS REQUIRED ARE KEPT IN NEW JERSEY."
1943679,"KRYPTON FUND SERVICES (USA), INC.","4555 MANSELL ROAD","SUITE 300","ALPHARETTA","GA","United States","30022","N","770-521-4499","","A third-party unaffiliated record keeper","FUND ADMINISTRATOR BOOKS AND RECORDS"
