"Filing ID","Relying Advisor Business Name","Relying Advisor Legal Name","Relying Advisor CRD Number","Reference ID","Principal Address Same as Filer","Main Office Street Address 1","Main Office Street Address 2","Main Office City","Main Office State","Main Office Country","Main Office Postal Code","Main Office Private Residence Flag","Main Office Telephone Number","Main Office Facsimile Number","Mail Address Same as Filer","Mail Office Street Address 1","Mail Office Street Address 2","Mail Office City","Mail Office State","Mail Office Country","Mail Office Postal Code","Mail Office Private Residence Flag","1E2Days","1E2DaysOther","1E2Hours","1G","2A(1)","2A(2)","2A(4)","2A(5)","2A(6)","2A(7)","2A(8)","2A(8) Application","2A(8) Order Date","2A(9)","3A","3AOther","3B","3C-State","3C-Country","4C"
2002609,"RCP ADVISORS","RCP ADVISORS 3, LLC",290741,1881,"N","353 N. CLARK STREET SUITE 3500","SUITE 3500","CHICAGO","IL","United States","60654","N","312-266-7300","312-266-7433","N","353 N. CLARK STREET SUITE 3500","SUITE 3500","CHICAGO","IL","United States","60654","N","MONFRI","","8:30 AM - 5:00 PM","","Y","N","N","N","N","N","N","",,"N","Limited Liability Company","","12","DE","United States","N"
2002609,"","HARK CAPITAL ADVISORS, LLC",316713,8951,"N","299 PARK AVENUE","36TH FLOOR","NEW YORK","NY","United States","10171","N","332-322-3220","","N","","","","","","","N","MONFRI","","8:30AM TO 5:00PM","","Y","N","N","N","N","N","N","",,"N","Limited Liability Company","","12","DE","United States","N"
2002609,"BONACCORD CAPITAL PARTNERS","BONACCORD CAPITAL ADVISORS, LLC",316716,8952,"N","229 PARK AVENUE","36TH F","NEW YORK","NY","United States","10171","N","332-322-3220","","N","","","","","","","N","MONFRI","","8:30AM TO 5:00PM","","Y","N","N","N","N","N","N","",,"N","Limited Liability Company","","12","DE","United States","N"
2004906,"","SQUAREPOINT CAPITAL LLP",173911,4629,"N","CITYPOINT, FLOOR 33 & 35","ONE ROPEMAKER STREET","LONDON","","United Kingdom","EC2Y 9AW","N","(+44) 2039917418","","N","","","","","","","N","MONFRI","","9AM - 6PM","549300I4ETOFV4DVJG14","N","N","Y","N","N","N","N","",,"N","Limited Liability Partnership","","12","","United Kingdom","N"
2004906,"","SQUAREPOINT OPERATIONS PRIVATE LIMITED",296073,4636,"N","88 MARKET STREET","CAPITASPRING LEVEL 49","SINGAPORE","","Singapore","048948","N","(+852) 25925248","","N","","","","","","","N","MONFRI","","9AM - 6PM","549300JEREEEPA0WV508","N","N","Y","N","N","N","N","",,"N","Other (specify)","SINGAPORE PRIVATE LIMITED COMPANY","12","","Singapore","N"
2004906,"","SQUAREPOINT (DIFC) LIMITED",335962,12500,"N","UNIT L29-07, LEVEL 29, ICD BROOKFIELD PLACE","DUBAI INTERNATIONAL FINANCIAL CENTRE","DUBAI","","United Arab Emirates","","N","(+971) 45415628","","N","","","","","","","N","MONFRI","","9AM - 6PM","98450082E14IEF09YR42","N","N","Y","N","N","N","N","",,"N","Other (specify)","DIFC PRIVATE LIMITED COMPANY","12","","United Arab Emirates","N"
2004756,"FF INT MANAGEMENT CORP","FF INT MANAGEMENT CORP",337664,12800,"Y","","","","","","","","209-265-8990","","Y","","","","","","","","MONFRI","","8:00 AM - 5:00 PM","","Y","N","N","Y","N","N","N","",,"N","Corporation","","12","","British Virgin Islands","N"
2004756,"SJM MANAGER, LP","SJM MANAGER, LP",337666,12801,"Y","","","","","","","","209-265-8990","","Y","","","","","","","","MONFRI","","8:00 AM - 5:00 PM","","N","N","N","Y","N","N","N","",,"N","Limited Partnership","","12","DE","United States","N"
1997333,"","OAKWOOD MULTIFAMILY PARTNERS, LLC",328697,11082,"Y","","","","","","","","3035957670","","Y","","","","","","","","MONFRI","","9-5PM","","N","N","N","Y","N","N","N","",,"N","Limited Liability Company","","12","DE","United States","N"
1997333,"","OMP FUND MANAGER, LLC",328796,11110,"Y","","","","","","","","3035957670","","Y","","","","","","","","MONFRI","","9-5PM","","N","N","N","Y","N","N","N","",,"N","Limited Liability Company","","12","DE","United States","N"
2004571,"","REVERENCE CAPITAL PARTNERS REAL ESTATE, LLC",332290,11786,"Y","","","","","","","","212-804-8025","646-619-4307","Y","","","","","","","","MONFRI","","8:30AM - 6:00PM","","N","N","N","Y","N","N","N","",,"N","Limited Liability Company","","12","DE","United States","N"
2002712,"","ROCHEFORT ASSET MANAGEMENT LLC",333262,11981,"Y","","","","","","","","561-621-9815","","N","515 NORTH FLAGLER DRIVE","SUITE 2125","WEST PALM BEACH","FL","United States","33401","N","MONFRI","","9AM-5PM","","N","N","N","Y","N","N","N","",,"N","Limited Liability Company","","12","DE","United States","N"
2002712,"","SERENGETI CAPITAL PARTNERS LLC",334580,12190,"Y","","","","","","","","561-621-9815","","N","","","","","","","N","MONFRI","","9AM-5PM","","N","N","N","Y","N","N","N","",,"N","Limited Liability Company","","12","DE","United States","N"
2004596,"WINCOVE","WPH MANAGEMENT LLC",334376,12166,"Y","","","","","","","","(603) 770-9785","","N","","","","","","","N","MONFRI","","9:00AM TO 5:00PM","47-2540894","Y","N","N","N","N","N","N","",,"N","Limited Liability Company","","12","DE","United States","N"
2002071,"ALPHAKEYS FUND ADVISOR, L.L.C.","ALPHAKEYS FUND ADVISOR, L.L.C.",109213,10021,"Y","","","","","","","","212-994-7400","","N","","","","","","","N","MONFRI","","9:00AM - 5:00PM","","Y","N","N","N","N","N","N","",,"N","Limited Liability Company","","12","DE","United States","N"
2002071,"ICAPITAL GLOBAL ALTERNATIVES, LLC","ICAPITAL GLOBAL ALTERNATIVES, LLC",324457,12827,"Y","","","","","","","","212-994-7400","","N","","","","","","","N","MONFRI","","9:00 - 5:00","635400THHU2CAHMVOW20","Y","N","N","N","N","N","N","",,"N","Limited Liability Company","","12","DE","United States",""
2004515,"JAIN GLOBAL (UK) PARTNERS LLP","JAIN GLOBAL (UK) PARTNERS LLP",333492,12007,"N","16 ST. JAMES'S STREET","","LONDON","","United Kingdom","SW1A 1ER","N","212-671-4011","","N","","","","","","","N","MONFRI","","9:00AM - 5:00PM GMT","","N","N","Y","N","N","N","N","",,"N","Limited Liability Partnership","","12","","United Kingdom","N"
2004515,"JAIN GLOBAL (HONG KONG) LIMITED","JAIN GLOBAL (HONG KONG) LIMITED",333493,12008,"N","9/F, LHT TOWER","31 QUEEN'S ROAD CENTRAL","CENTRAL, HONG KONG","","Hong Kong","","N","212-671-4011","","N","","","","","","","N","MONFRI","","9:00AM - 5:00PM HKT","","N","N","Y","N","N","N","N","",,"N","Other (specify)","LIMITED COMPANY","12","","Hong Kong","N"
2004515,"JAIN GLOBAL (SINGAPORE) PTE. LTD.","JAIN GLOBAL (SINGAPORE) PTE. LTD.",333494,12009,"N","138 MARKET STREET, #09-02","","SINGAPORE","","Singapore","048946","N","212-671-4011","","N","","","","","","","N","MONFRI","","9:00AM - 5:00PM SGT","","N","N","Y","N","N","N","N","",,"N","Other (specify)","LIMITED COMPANY","12","","Singapore","N"
2004515,"JAIN GLOBAL (JERSEY) LIMITED","JAIN GLOBAL (JERSEY) LIMITED",338034,12854,"N","","","","","","","Y","212-671-4011","","Y","","","","","","","","MONFRI","","9:00AM - 5:00PM","2549006E3HBO9YAHPP17","N","N","Y","N","N","N","N","",,"N","Other (specify)","LIMITED COMPANY","12","","Jersey","N"
2004567,"BLUEARC SPECIAL SITUATIONS CREDIT MANAGEMENT, LLC","BLUEARC SPECIAL SITUATIONS CREDIT MANAGEMENT, LLC",324535,10093,"Y","","","","","","","","404-419-6130","404-419-6140","Y","","","","","","","","MONFRI","","9AM - 5PM ET","","N","N","N","Y","N","N","N","",,"N","Limited Liability Company","","09","DE","United States","N"
1993322,"TURNBRIDGE RE FUND MANAGEMENT COMPANY II LLC","TURNBRIDGE RE FUND MANAGEMENT COMPANY II LLC",320984,9676,"Y","","","","","","","","212-651-7272","","Y","","","","","","","","MONFRI","","9 AM - 5 PM","","Y","N","N","Y","N","N","N","",,"N","Limited Liability Company","","12","DE","United States","N"
1993322,"TURNBRIDGE EQUITIES REAL ESTATE FUND II GP LLC","TURNBRIDGE EQUITIES REAL ESTATE FUND II GP LLC",335819,12413,"Y","","","","","","","","212-651-7272","","Y","","","","","","","","MONFRI","","9 AM - 5 PM","","N","N","N","Y","N","N","N","",,"N","Limited Liability Company","","12","DE","United States","Y"
1993322,"TURNBRIDGE EQUITIES REAL ESTATE FUND I GP, L.P.","TURNBRIDGE EQUITIES REAL ESTATE FUND I GP, L.P.",335867,12430,"Y","","","","","","","","212-651-7272","","Y","","","","","","","","MONFRI","","9 AM - 5 PM","","N","N","N","Y","N","N","N","",,"N","Limited Partnership","","12","DE","United States","Y"
2006431,"STABLE ASSET MANAGEMENT LTD","STABLE ASSET MANAGEMENT LTD.",294044,7979,"N","25 OLD BURLINGTON STREET","MAYFAIR","LONDON","","United Kingdom","W1S 3AN","N","(+44) 020 7016 3163","","N","","","","","","","N","MONFRI","","9AM-6PM","","Y","N","N","N","N","N","N","",,"N","Other (specify)","PRIVATE LIMITED COMPANY","12","","United Kingdom","N"
2006431,"STABLE ASSET MANAGEMENT INVESTMENTS, LTD.","STABLE ASSET MANAGEMENT INVESTMENTS, LTD.",293574,7980,"N","2D LANDMARK SQUARE, 64 EARTH CLOSE","SEVEN MILE BEACH","GRAND CAYMAN","","Cayman Islands","KY1-1201","N","0044-20-70163163","","N","","","","","","","N","MONFRI","","9AM-6PM","","Y","N","N","N","N","N","N","",,"N","Corporation","","12","","Cayman Islands","N"
1985333,"","WARBURG PINCUS ASIA LLC",293296,2413,"N","TWO INTERNATIONAL FINANCE CENTRE","","HONG KONG","","Hong Kong","6703","N","852 2536 6183","852 2521 3869","N","","","","","","","N","MONFRI","","9 A.M. TO 5 P.M.","","N","N","Y","Y","N","N","N","",,"N","Limited Liability Company","","12","DE","United States","N"
1985333,"","BEIJING WARBURG PINCUS INVESTMENT CONSULTING COMPANY LTD",294265,3082,"N","UNIT24-11 CHINA WORLD OFFICE 2","1 JIANGGUOMENWAI AVENUE CHAOYANG DISTRICT","BEIJING","","China","100004","N","86 10 5929 8600","86 10 5929 8690","N","","","","","","","N","MONFRI","","9 AM - 5 PM","","N","N","Y","Y","N","N","N","",,"N","Other (specify)","LIMITED COMPANY","12","","China","N"
1985333,"","WARBURG PINCUS & CO.",294268,3085,"N","450 LEXINGTON AVENUE","","NEW YORK","NY","United States","10017","N","(212) 878-0600","(212) 878-9351","N","","","","","","","N","MONFRI","","9 AM - 5 PM","","N","N","N","Y","N","N","N","",,"N","Other (specify)","GENERAL PARTNERSHIP","12","NY","United States","N"
1985333,"","WARBURG PINCUS ASIA LTD",294270,3086,"N","8TH FLOOR, NEWTON TOWER SIR WILLIAM NEWTON STREET","","PORT LOUIS","","Mauritius","","N","230 208 2008","230 208 3108","N","","","","","","","N","MONFRI","","9 A.M. TO 5 P.M.","","N","N","Y","Y","N","N","N","",,"N","Other (specify)","LIMITED COMPANY","12","","Mauritius","N"
1985333,"","WARBURG PINCUS B.V.",294297,3108,"N","EDUARD VAN BEINUMSTRAAT 8","UNIT 6","AMSTERDAM","","Netherlands","1077 CZ","N","31 (0) 20 - 301 2197","31 (0) 20 - 301 2202","N","","","","","","","N","MONFRI","","9 A.M. TO 5 P.M.","","N","N","Y","Y","N","N","N","",,"N","Other (specify)","LIMITED COMPANY","12","","Netherlands","N"
1985333,"","WARBURG PINCUS DO BRASIL LTDA.",294301,3112,"N","AVENIDA BRIGADEIRO FARIA LIMA 2277","9º ANDAR JARDIM PAULISTANO 01451-001","SAO PAULO","","Brazil","","N","55 11 3096 3500","55 11 3096 3509","N","","","","","","","N","MONFRI","","9 A.M. TO 5 P.M.","","N","N","Y","Y","N","N","N","",,"N","Other (specify)","LIMITED COMPANY","12","","Brazil","N"
1985333,"","WARBURG PINCUS INDIA PRIVATE LIMITED",294306,3116,"N","7TH FLOOR EXPRESS TOWERS, NARIMAN POINT","","MUMBAI","","India","400 021","N","(91) 22 6650 0000","(91) 22 6650 0001","N","","","","","","","N","MONFRI","","9 A.M. TO 5 P.M.","","N","N","Y","Y","N","N","N","",,"N","Other (specify)","INDIA PRIVATE COMPANY","03","","India","N"
1985333,"","WARBURG PINCUS INTERNATIONAL LLC",294322,3127,"N","STIRLING SQUARE, 5-7 CARLTON GARDENS, ST. JAMES'S","","LONDON","","United Kingdom","SW1Y 5AD","N","44 207 306 0306","44 207 321 0881","N","","","","","","","N","MONFRI","","9 A.M. TO 5 P.M.","","N","N","Y","Y","N","N","N","",,"N","Limited Liability Company","","12","DE","United States","N"
1985333,"","WARBURG PINCUS S.À R.L.",294329,3131,"N","46A, AVENUE JOHN F. KENNEDY","L-1855","LUXEMBOURG","","Luxembourg","B 87 114","N","352 26 005 744","352 26 005 827","N","","","","","","","N","MONFRI","","9 A.M. TO 5 P.M.","","N","N","Y","Y","N","N","N","",,"N","Other (specify)","LIMITED COMPANY","12","","Luxembourg","N"
1985333,"","WARBURG PINCUS SINGAPORE PTE. LTD.",294333,3134,"N","50 COLLYER QUAY #06-04, OUE BAYFRONT (LEVEL 6)","","SINGAPORE","","Singapore","049321","N","65 6320 7500","65 6634 0119","N","","","","","","","N","MONFRI","","9 A.M. TO 5 P.M.","","N","N","Y","Y","N","N","N","",,"N","Other (specify)","LIMITED COMPANY","12","","Singapore","N"
1985333,"","WARBURG PINCUS DEUTSCHLAND GMBH",299982,5708,"N","FASANENSTRASSE 65","","BERLIN","","Germany","D-10719","N","49 (30) 700 149 148","49 (30) 6908 8891","N","","","","","","","N","MONFRI","","9 A.M. TO 5 P.M.","","N","N","Y","Y","N","N","N","",,"N","Other (specify)","LIMITED COMPANY","12","","Germany","N"
1985333,"","WARBURG PINCUS (TEXAS) LLC",304154,6398,"Y","","","","","","","","713-325-5360","713-325-5360","N","","","","","","","N","MONFRI","","9 A.M. TO 5 P.M.","","N","N","N","Y","N","N","N","",,"N","Limited Liability Company","","12","DE","United States","N"
1985333,"","WARBURG PINCUS (HONG KONG) LIMITED",308486,7249,"N","TWO INTERNATIONAL FINANCE CENTRE","","HONG KONG","","Hong Kong","6703","N","852 2536 6183","852 2521 3869","N","","","","","","","N","MONFRI","","9 A.M. TO 5 P.M.","","N","N","Y","Y","N","N","N","",,"N","Other (specify)","LIMITED COMPANY","12","","Hong Kong","N"
1985333,"","SHANGHAI WARBURG PINCUS PRIVATE EQUITY MANAGEMENT CO., LTD.",308751,7445,"N","UNIT 205, WEST ZONE, 2/F","NO. 707 ZHANGYANG ROAD","SHANGHAI","","China","","N","852 2536 6183","852 2521 3869","N","","","","","","","N","MONFRI","","9 A.M. TO 5 P.M.","","N","N","Y","Y","N","N","N","",,"N","Other (specify)","LIMITED COMPANY","12","","China","N"
1985333,"","WP ASIA PACIFIC ASSET MANAGEMENT LLC",320835,9577,"N","UNIT 205, WEST ZONE, 2/F","NO. 707 ZHANGYANG ROAD","SHANGHAI","","China","","N","85225366183","85225213869","N","","","","","","","N","MONFRI","","9 A.M. - 5 P.M.","","N","N","Y","Y","N","N","N","",,"N","Limited Liability Company","","12","DE","United States","N"
1985333,"","WP ASIA PACIFIC LLC",323856,10012,"N","UNIT 205 WEST ZONE","2F, NO. 707 ZHANGYANG ROAD, PILOT FREE TRADE ZONE","SHANGHAI","","China","","N","852 2536 6183","85225213869","N","","","","","","","N","MONFRI","","9 A.M. TO 5 P.M.","","N","N","Y","Y","N","N","N","",,"N","Limited Liability Company","","12","DE","United States","N"
1985333,"","WPCS MANAGER, L.P.",329147,11149,"Y","","","","","","","","(212) 878-0600","(212) 878-9351","N","","","","","","","N","MONFRI","","9 A.M. TO 5 P.M.","","Y","N","N","N","N","N","N","",,"N","Limited Partnership","","12","DE","United States","N"
1985333,"","WARBURG PINCUS MENA ADVISORS LIMITED",335702,12377,"N","UNIT L31-10 LEVEL 31","ICD BROOKFIELD PLACE, DIFC","DUBAI","","United Arab Emirates","","N","+971589820997","","N","","","","","","","N","MONFRI","","9 A.M. TO 5 P.M.","","N","N","Y","Y","N","N","N","",,"N","Other (specify)","LIMITED COMPANY","12","","United Arab Emirates","N"
1983571,"","RC ADVISORY, LLC",295592,4201,"Y","","","","","","","","212-402-8500","929-296-7794","Y","","","","","","","","MONFRI","","8:00 AM - 5:30 PM","","N","N","N","Y","N","N","N","",,"N","Limited Liability Company","","12","DE","United States","Y"
2006771,"GLOBAL ENERGY & POWER INFRASTRUCTURE ADVISORS, L.L.C.","GLOBAL ENERGY & POWER INFRASTRUCTURE ADVISORS, L.L.C.",295653,4251,"Y","","","","","","","","212-810-5300","","N","","","","","","","N","MONFRI","","7:30AM TO 7:30PM","","Y","N","N","N","N","N","N","",,"N","Limited Liability Company","","12","DE","United States","N"
2006771,"GLOBAL ENERGY & POWER INFRASTRUCTURE II ADVISORS, L.L.C","GLOBAL ENERGY & POWER INFRASTRUCTURE II ADVISORS, L.L.C",295654,4252,"Y","","","","","","","","212-810-5300","","N","","","","","","","N","MONFRI","","7:30AM TO 7:30PM","","Y","N","N","N","N","N","N","",,"N","Limited Liability Company","","12","DE","United States","N"
2006668,"","GIM ADVISORY SERVICES, LLC",293184,2351,"Y","","","","","","","","2123158100","","Y","","","","","","","","MONFRI","","9:00 AM TO 5:00 PM","","N","N","N","Y","N","N","N","",,"N","Limited Liability Company","","12","DE","United States","N"
2006668,"","GIM EM MANAGER, LLC",308171,7090,"Y","","","","","","","","212-815-8100","","Y","","","","","","","","MONFRI","","9:00 AM TO 5:00 PM","","N","N","N","Y","N","N","N","",,"N","Limited Liability Company","","12","DE","United States","N"
2005960,"","PEGASUS CAPITAL ADVISORS III,  L.P.",293523,2567,"Y","","","","","","","","203-869-4400","","Y","","","","","","","","MONFRI","","9 TO 5","","N","N","N","Y","N","N","N","",,"N","Limited Partnership","","12","DE","United States","N"
2005960,"","PEGASUS CAPITAL ADVISORS IV, L.P.",293550,2578,"Y","","","","","","","","203-869-4400","","Y","","","","","","","","MONFRI","","9 TO 5","","N","N","N","Y","N","N","N","",,"N","Limited Partnership","","12","DE","United States","N"
2005960,"","PEGASUS CAPITAL ADVISORS V, L.P.",294096,2950,"Y","","","","","","","","203-869-4400","","Y","","","","","","","","MONFRI","","9 TO 5","","N","N","N","Y","N","N","N","",,"N","Limited Partnership","","12","DE","United States","N"
2005960,"PEGASUS CAPITAL SNCF ADVISORS, L.P.","PEGASUS CAPITAL SNCF ADVISORS, L.P.",320827,9575,"Y","","","","","","","","203-869-4400","","Y","","","","","","","","MONFRI","","9 TO 5","","N","N","N","Y","N","N","N","",,"N","Limited Partnership","","12","DE","United States","N"
2005960,"","PEGASUS CAPITAL GFCR ADVISORS, LP",326028,10470,"Y","","","","","","","","203-869-4400","","Y","","","","","","","","MONFRI","","9:30-5:30","","N","N","N","Y","N","N","N","",,"N","Limited Partnership","","12","DE","United States","N"
2002328,"","CENTEROAK GP I, INC.",294255,3075,"Y","","","","","","","","214.301.4201","214.756.6505","N","","","","","","","N","MONFRI","","8:30 AM - 5:30 PM CENTRAL TIME","","N","N","N","Y","N","N","N","",,"N","Corporation","","12","TX","United States","N"
2002328,"","CENTEROAK GP II, INC.",308352,7186,"Y","","","","","","","","214.301.4201","214.756.6505","N","","","","","","","N","MONFRI","","8:30 AM - 5:30 PM CENTRAL TIME","","N","N","N","Y","N","N","N","",,"N","Corporation","","12","TX","United States","N"
2002328,"","CENTEROAK GP III, INC.",335842,12420,"Y","","","","","","","","214.301.4201","214.756.6505","N","","","","","","","N","MONFRI","","8:30 AM - 5:30 PM CENTRAL TIME","","N","N","N","Y","N","N","N","",,"N","Corporation","","12","TX","United States","N"
2002480,"","GHISALLO CREDIT OPPORTUNITY CAPITAL MANAGEMENT LLC",324791,10144,"Y","","","","","","","","617-502-5735","","Y","","","","","","","","MONFRI","","8AM-6PM","","N","N","N","Y","N","N","N","",,"N","Limited Liability Company","","12","DE","United States","N"
2002032,"PRETIUM REO, LLC","PRETIUM REO, LLC",326220,10585,"Y","","","","","","","","212-257-5757","","Y","","","","","","","","MONFRI","","8:30AM - 5:30PM","","Y","N","N","N","N","N","N","",,"N","Limited Liability Company","","12","DE","United States","N"
2002032,"PRETIUM REO II, LLC","PRETIUM REO II, LLC",326222,10587,"Y","","","","","","","","212-257-5757","","Y","","","","","","","","MONFRI","","8:30AM - 5:30PM","","Y","N","N","N","N","N","N","",,"N","Limited Liability Company","","12","DE","United States","N"
2002032,"PRETIUM SINGLE-FAMILY RENTAL MANAGER V, LLC","PRETIUM SINGLE-FAMILY RENTAL MANAGER V, LLC",326224,10589,"Y","","","","","","","","212-257-5757","","Y","","","","","","","","MONFRI","","8:30AM - 5:30PM","","Y","N","N","N","N","N","N","",,"N","Limited Liability Company","","12","DE","United States","N"
2002032,"PRETIUM SINGLE-FAMILY RENTAL MANAGER VI, LLC","PRETIUM SINGLE-FAMILY RENTAL MANAGER VI, LLC",326225,10590,"Y","","","","","","","","212-257-5757","","Y","","","","","","","","MONFRI","","8:30AM - 5:30PM","","Y","N","N","N","N","N","N","",,"N","Limited Liability Company","","12","DE","United States","N"
2002032,"PRETIUM SINGLE-FAMILY RENTAL INVESTMENTS MANAGER V, LLC","PRETIUM SINGLE-FAMILY RENTAL INVESTMENTS MANAGER V, LLC",326226,10591,"Y","","","","","","","","212-257-5757","","Y","","","","","","","","MONFRI","","8:30AM - 5:30PM","","Y","N","N","N","N","N","N","",,"N","Limited Liability Company","","12","DE","United States","N"
2002032,"PRETIUM MILE HIGH JV (CORE) MEMBER, LLC","PRETIUM MILE HIGH JV (CORE) MEMBER, LLC",326235,10599,"Y","","","","","","","","212-257-5757","","Y","","","","","","","","MONFRI","","8:30AM - 5:30PM","","Y","N","N","N","N","N","N","",,"N","Limited Liability Company","","12","DE","United States","N"
2002032,"PRETIUM MILE HIGH JV (INCOME) MEMBER, LLC","PRETIUM MILE HIGH JV (INCOME) MEMBER, LLC",326236,10600,"Y","","","","","","","","212-257-5757","","Y","","","","","","","","MONFRI","","8:30AM - 5:30PM","","Y","N","N","N","N","N","N","",,"N","Limited Liability Company","","12","DE","United States","N"
2002032,"PRETIUM MILE HIGH JV (VALUE) MEMBER, LLC","PRETIUM MILE HIGH JV (VALUE) MEMBER, LLC",326237,10601,"Y","","","","","","","","212-257-5757","","Y","","","","","","","","MONFRI","","8:30AM - 5:30PM","","Y","N","N","N","N","N","N","",,"N","Limited Liability Company","","12","DE","United States","N"
2002032,"PRETIUM OLYMPUS GP, LLC","PRETIUM OLYMPUS GP, LLC",326238,10602,"Y","","","","","","","","212-257-5757","","Y","","","","","","","","MONFRI","","8:30AM - 5:30PM","","Y","N","N","N","N","N","N","",,"N","Limited Liability Company","","12","DE","United States","N"
2002032,"PRETIUM SEVEN POINTS GP, LLC","PRETIUM SEVEN POINTS GP, LLC",326239,10603,"Y","","","","","","","","212-257-5757","","Y","","","","","","","","MONFRI","","8:30AM - 5:30PM","","Y","N","N","N","N","N","N","",,"N","Limited Liability Company","","12","DE","United States","N"
2002032,"PRETIUM TRUE NORTH JV GP, LLC","PRETIUM TRUE NORTH JV GP, LLC",326240,10604,"Y","","","","","","","","212-257-5757","","Y","","","","","","","","MONFRI","","8:30AM - 5:30PM","","Y","N","N","N","N","N","N","",,"N","Limited Liability Company","","12","DE","United States","N"
2002032,"PRETIUM PLATFORM MANAGEMENT, LLC","PRETIUM PLATFORM MANAGEMENT, LLC",326251,11529,"Y","","","","","","","","212-257-5757","","Y","","","","","","","","MONFRI","","8:30AM-5:30PM","","Y","N","N","N","N","N","N","",,"N","Limited Liability Company","","12","DE","United States","N"
1985835,"","GA-IP MANAGEMENT, LLC",336608,12692,"N","3000 SANDHILL RD","STE 245","MENLO PARK","CA","United States","94025","N","(650) 704-4311","","N","","","","","","","N","MONFRI","","9AM-5PM","","N","Y","N","N","N","N","N","",,"N","Limited Liability Company","","12","DE","United States",""
2002736,"","MONROE CAPITAL MANAGEMENT LLC",296592,5084,"Y","","","","","","","","(312) 258-8300","(312) 258-8350","Y","","","","","","","","MONFRI","","9:00 AM - 5:00 PM (CST)","","N","N","N","Y","N","N","N","",,"N","Limited Liability Company","","12","DE","United States","N"
2002736,"","MONROE CAPITAL PARTNERS FUND ADVISORS, INC.",296595,5087,"Y","","","","","","","","(312) 258-8300","(312) 258-8350","Y","","","","","","","","MONFRI","","9:00 AM - 5:00 PM (CST)","","N","N","N","Y","N","N","N","",,"N","Corporation","","12","DE","United States","N"
2002736,"","MONROE CAPITAL PARTNERS FUND II ADVISORS, INC.",296599,5091,"Y","","","","","","","","(312) 258-8300","(312) 258-8350","Y","","","","","","","","MONFRI","","9:00 AM - 5:00 PM (CST)","","N","N","N","Y","N","N","N","",,"N","Corporation","","12","DE","United States","N"
2002736,"","MONROE CAPITAL ASSET MANAGEMENT LLC",301844,6267,"Y","","","","","","","","(312) 258-8300","(312) 258-8350","Y","","","","","","","","MONFRI","","9:00 AM - 5:00 PM (CST)","","N","N","N","Y","N","N","N","",,"N","Limited Liability Company","","12","DE","United States","N"
2002736,"","MONROE CAPITAL CLO MANAGER LLC",308826,7513,"Y","","","","","","","","(312) 258-8300","(312) 258-8350","Y","","","","","","","","MONFRI","","9:00 AM - 5:00 PM (CST)","","N","N","N","Y","N","N","N","",,"N","Limited Liability Company","","12","DE","United States","N"
2002736,"","MONROE CAPITAL CLO MANAGER II LLC",320680,9506,"Y","","","","","","","","(312) 258-8300","(312) 258-8350","Y","","","","","","","","MONFRI","","9:00 AM - 5:00 PM (CST)","","N","N","N","Y","N","N","N","",,"N","Limited Liability Company","","12","DE","United States","N"
2002736,"","MONROE CAPITAL REAL ESTATE CREDIT ADVISORS, LLC",336266,12834,"N","311 SOUTH WACKER DRIVE","SUITE 6400","CHICAGO","IL","United States","60606-6710","N","(312) 258-8300","(312) 258-8350","N","","","","","","","N","MONFRI","","9:00 AM - 5:00 PM (CST)","","N","N","N","Y","N","N","N","",,"N","Limited Liability Company","","12","DE","United States",""
2003012,"GREYSTAR GDCV GP, LLC","GREYSTAR GDCV GP, LLC",295855,4433,"Y","","","","","","","","843-579-9400","843-579-9420","Y","","","","","","","","MONFRI","","8:00 AM - 5:00 PM","","N","N","N","Y","N","N","N","",,"N","Limited Liability Company","","12","DE","United States","N"
2003012,"GREYSTAR MANAGEMENT VIII, LLC","GREYSTAR MANAGEMENT VIII, LLC",295861,4437,"Y","","","","","","","","843-579-9400","843-579-9420","Y","","","","","","","","MONFRI","","8:00 AM - 5:00 PM","","N","N","N","Y","N","N","N","",,"N","Limited Liability Company","","12","DE","United States","N"
2003012,"GREYSTAR GDCV GP II, LLC","GREYSTAR GDCV GP II, LLC",295865,4441,"Y","","","","","","","","843-579-9400","843-579-9420","Y","","","","","","","","MONFRI","","8:00 AM - 5:00 PM","","N","N","N","Y","N","N","N","",,"N","Limited Liability Company","","12","DE","United States","N"
2003012,"GREYSTAR MANAGEMENT IX, LLC","GREYSTAR MANAGEMENT IX, LLC",295870,4445,"Y","","","","","","","","843-579-9400","843-579-9420","Y","","","","","","","","MONFRI","","8:00 AM - 5:00 PM","","N","N","N","Y","N","N","N","",,"N","Limited Liability Company","","12","DE","United States","N"
2003012,"GREYSTAR GROWTH AND INCOME MANAGEMENT, LLC","GREYSTAR GROWTH AND INCOME MANAGEMENT, LLC",295871,4446,"Y","","","","","","","","843-579-9400","843-579-9420","Y","","","","","","","","MONFRI","","8:00 AM - 5:00 PM","","N","N","N","Y","N","N","N","",,"N","Limited Liability Company","","12","DE","United States","N"
2003012,"GREYSTAR MANAGEMENT X, LLC","GREYSTAR MANAGEMENT X, LLC",298846,5534,"Y","","","","","","","","843-579-9400","843-579-9420","Y","","","","","","","","MONFRI","","8:00 AM - 5:00 PM","","N","N","N","Y","N","N","N","",,"N","Limited Liability Company","","12","DE","United States","N"
2003012,"GREYSTAR CREDIT MANAGEMENT I, LLC","GREYSTAR CREDIT MANAGEMENT I, LLC",298848,5536,"Y","","","","","","","","843-579-9400","843-579-9420","Y","","","","","","","","MONFRI","","8:00 AM - 5:00 PM","","N","N","N","Y","N","N","N","",,"N","Limited Liability Company","","12","DE","United States","N"
2003012,"GREYSTAR STUDENT HOUSING GROWTH AND INCOME MANAGEMENT, LLC","GREYSTAR STUDENT HOUSING GROWTH AND INCOME MANAGEMENT, LLC",299376,5594,"Y","","","","","","","","843-579-9400","843-579-9420","Y","","","","","","","","MONFRI","","8:00 AM - 5:00 PM","","N","N","N","Y","N","N","N","",,"N","Limited Liability Company","","12","DE","United States","N"
2003012,"GREYSTAR ASIA PACIFIC SUB-MANAGER PTE. LTD.","GREYSTAR ASIA PACIFIC SUB-MANAGER PTE. LTD.",308497,7254,"N","20 CECIL STREET","LEVEL 06-06","SINGAPORE","","Singapore","49705","N","843-579-9400","843-579-9420","N","","","","","","","N","MONFRI","","8:00 AM - 5:00 PM","","N","N","N","Y","N","N","N","",,"N","Other (specify)","SINGAPORE PRIVATE LIMITED LIABILITY COMPANY","12","","Singapore","N"
2003012,"GREYSTAR AUSTRALIA MULTIFAMILY VENTURE I MANAGER PTY LTD","GREYSTAR AUSTRALIA MULTIFAMILY VENTURE I MANAGER PTY LTD",308498,7255,"N","39 MARTIN PLACE","LEVEL 15","SYDNEY","","Australia","NSW 2000","N","843-579-9400","843-579-9420","N","","","","","","","N","MONFRI","","8:00 AM - 5:00 PM","","N","N","N","Y","N","N","N","",,"N","Other (specify)","AUSTRALIAN PROPRIETARY LIMITED COMPANY","12","","Australia","N"
2003012,"GREYSTAR AUSTRALIA MULTIFAMILY VENTURE I SUB-MANAGER PTY LTD","GREYSTAR AUSTRALIA MULTIFAMILY VENTURE I SUB-MANAGER PTY LTD",308499,7256,"N","39 MARTIN PLACE","LEVEL 15","SYDNEY","","Australia","NSW 2000","N","843-579-9400","843-579-9420","N","","","","","","","N","MONFRI","","8:00 AM - 5:00 PM","","N","N","N","Y","N","N","N","",,"N","Other (specify)","AUSTRALIAN PROPRIETARY LIMITED COMPANY","12","","Australia","N"
2003012,"GREYSTAR GLOBAL STRATEGIC MANAGEMENT I, LLC","GREYSTAR GLOBAL STRATEGIC MANAGEMENT I, LLC",310291,7771,"Y","","","","","","","","843-579-9400","843-579-9420","Y","","","","","","","","MONFRI","","8:00 AM - 5:00 PM","","N","N","N","Y","N","N","N","",,"N","Limited Liability Company","","12","DE","United States","N"
2003012,"GREYSTAR CREDIT MANAGEMENT II, LLC","GREYSTAR CREDIT MANAGEMENT II, LLC",310294,7773,"Y","","","","","","","","843-579-9400","843-579-9420","Y","","","","","","","","MONFRI","","8:00 AM - 5:00 PM","","N","N","N","Y","N","N","N","",,"N","Limited Liability Company","","12","DE","United States","N"
2003012,"GREYSTAR EMPLOYEE INVESTORS MANAGER, LLC","GREYSTAR EMPLOYEE INVESTORS MANAGER, LLC",313962,8381,"Y","","","","","","","","843-579-9400","843-579-9420","Y","","","","","","","","MONFRI","","8:00 AM - 5:00 PM","","N","N","N","Y","N","N","N","",,"N","Limited Liability Company","","12","DE","United States","N"
2003012,"GREYSTAR PREFERRED EQUITY MANAGER I LLC","GREYSTAR PREFERRED EQUITY MANAGER I LLC",320617,9470,"Y","","","","","","","","843-579-9400","843-579-9420","Y","","","","","","","","MONFRI","","8:00 AM - 5:00 PM","","N","N","N","Y","N","N","N","",,"N","Limited Liability Company","","12","DE","United States","N"
2003012,"GREYSTAR CHILE MULTIFAMILY VENTURE MANAGEMENT I, LLC","GREYSTAR CHILE MULTIFAMILY VENTURE MANAGEMENT I, LLC",320618,9471,"Y","","","","","","","","843-579-9400","843-579-9420","Y","","","","","","","","MONFRI","","8:00 AM - 5:00 PM","","N","N","N","Y","N","N","N","",,"N","Limited Liability Company","","12","DE","United States","N"
2003012,"GREYSTAR MANAGEMENT XI, LLC","GREYSTAR MANAGEMENT XI, LLC",321858,9784,"Y","","","","","","","","843-579-9400","843-579-9420","Y","","","","","","","","MONFRI","","8:00 AM - 5:00 PM","","N","N","N","Y","N","N","N","",,"N","Limited Liability Company","","12","DE","United States","N"
2003012,"GS GREYSTAR LOAN ORIGINATION FUND I MANAGER, LLC","GS GREYSTAR LOAN ORIGINATION FUND I MANAGER, LLC",323668,9979,"Y","","","","","","","","843-579-9400","843-579-9420","Y","","","","","","","","MONFRI","","8:00 AM - 5:00 PM","","N","N","N","Y","N","N","N","",,"N","Limited Liability Company","","12","DE","United States","N"
2003012,"GLCP MANAGEMENT I, LLC","GLCP MANAGEMENT I, LLC",323670,9981,"Y","","","","","","","","843-579-9400","843-579-9420","Y","","","","","","","","MONFRI","","8:00 AM - 5:00 PM","","N","N","N","Y","N","N","N","",,"N","Limited Liability Company","","12","DE","United States","N"
2003012,"GREYSTAR CREDIT MANAGEMENT III, LLC","GREYSTAR CREDIT MANAGEMENT III, LLC",325816,10377,"Y","","","","","","","","843-579-9400","843-579-9420","Y","","","","","","","","MONFRI","","8:00 AM - 5:00 PM","","N","N","N","Y","N","N","N","",,"N","Limited Liability Company","","12","DE","United States","N"
2003012,"GREYSTAR-THACKERAY MANAGEMENT VI, LLC","GREYSTAR-THACKERAY MANAGEMENT VI, LLC",325819,10380,"Y","","","","","","","","843-579-9400","843-579-9420","Y","","","","","","","","MONFRI","","8:00 AM - 5:00 PM","","N","N","N","Y","N","N","N","",,"N","Limited Liability Company","","12","DE","United States","N"
2003012,"GREYSTAR JAPAN VENTURE MANAGEMENT PTE. LTD.","GREYSTAR JAPAN VENTURE MANAGEMENT PTE. LTD.",325820,10381,"N","20 CECIL STREET","LEVEL 06-06","SINGAPORE","","Singapore","49705","N","843-579-9400","843-579-9420","N","","","","","","","N","MONFRI","","8:00 AM - 5:00 PM","","N","N","N","Y","N","N","N","",,"N","Other (specify)","SINGAPORE PRIVATE LIMITED LIABILITY COMPANY","12","","Singapore","N"
2003012,"GREYSTAR EUROPE INVESTMENT MANAGEMENT B.V.","GREYSTAR EUROPE INVESTMENT MANAGEMENT B.V.",326098,10518,"N","ANNA VAN BUERENPLEIN 48, 2595 DA","NEW BABYLON OFFICES (11TH FLOOR)","THE HAGUE","","Netherlands","","N","31 70 701 30 35","","N","","","","","","","N","MONFRI","","8:00 AM - 5:00 PM","7245006OJ3758JT0GU94","N","N","Y","N","N","N","N","",,"N","Other (specify)","DUTCH PRIVATE LIMITED LIABILITY COMPANY","12","","Netherlands","N"
2003012,"GREYSTAR JAPAN CORE PLUS VENTURE MANAGEMENT PTE. LTD.","GREYSTAR JAPAN CORE PLUS VENTURE MANAGEMENT PTE. LTD.",326945,10811,"N","20 CECIL STREET","LEVEL 06-06","SINGAPORE","","Singapore","49705","N","843-579-9400","843-579-9420","N","","","","","","","N","MONFRI","","8:00 AM - 5:00 PM","","N","N","N","Y","N","N","N","",,"N","Other (specify)","SINGAPORE PRIVATE LIMITED LIABILITY COMPANY","12","","Singapore","N"
2003012,"GSJD GLOBAL VENTURE I MANAGEMENT, LLC","GSJD GLOBAL VENTURE I MANAGEMENT, LLC",330846,11420,"Y","","","","","","","","843-579-9400","843-579-9420","Y","","","","","","","","MONFRI","","8:00 AM - 5:00 PM","","N","N","N","Y","N","N","N","",,"N","Limited Liability Company","","12","DE","United States","N"
2003012,"GS GO II MANAGER, LLC","GS GO II MANAGER, LLC",331947,11713,"Y","","","","","","","","843-579-9400","843-579-9420","Y","","","","","","","","MONFRI","","8:00 AM - 5:00 PM","","N","N","N","Y","N","N","N","",,"N","Limited Liability Company","","12","DE","United States","N"
2003012,"GREYSTAR ESSENTIAL HOUSING MANAGER I, LLC","GREYSTAR ESSENTIAL HOUSING MANAGER I, LLC",333149,11964,"Y","","","","","","","","843-579-9400","843-579-9420","Y","","","","","","","","MONFRI","","8:00 AM - 5:00 PM","","N","N","N","Y","N","N","N","",,"N","Limited Liability Company","","12","DE","United States","N"
2003012,"GS TROPICS I MANAGER PTY LTD","GS TROPICS I MANAGER PTY LTD",335687,12370,"N","39 MARTIN PLACE","LEVEL 15","SYDNEY","","Australia","NSW 2000","N","843-579-9400","843-579-9420","N","","","","","","","N","MONFRI","","8:00 AM - 5:00 PM","","N","N","N","Y","N","N","N","",,"N","Other (specify)","AUSTRALIAN PROPRIETARY LIMITED COMPANY","12","","Australia","N"
2003012,"GEP XII MANAGEMENT, LLC","GEP XII MANAGEMENT, LLC",337899,12839,"Y","","","","","","","","843-579-9400","843-579-9420","Y","","","","","","","","MONFRI","","8:00 AM - 5:00 PM","","N","N","N","Y","N","N","N","",,"N","Limited Liability Company","","12","DE","United States","N"
2001254,"SUNTX CAPITAL II MANAGEMENT CORP.","SUNTX CAPITAL II MANAGEMENT CORP.",296169,4724,"Y","","","","","","","","972-663-8900","972-661-9977","N","","","","","","","N","MONFRI","","8:30AM-5PM","","Y","N","N","N","N","N","N","",,"N","Corporation","","12","TX","United States","N"
2001254,"SUNTX CAPITAL III MANAGEMENT CORP.","SUNTX CAPITAL III MANAGEMENT CORP.",296171,4726,"Y","","","","","","","","972-663-8900","972-661-9977","N","","","","","","","N","MONFRI","","8:30AM-5PM","","Y","N","N","N","N","N","N","",,"N","Corporation","","12","TX","United States","N"
1999958,"","RIVER ASSOCIATES INVESTMENTS (TN), LLC",337696,12803,"Y","","","","","","","","423-755-0888","423-755-0870","Y","","","","","","","","MONFRI","","8:30-5","","N","N","N","Y","N","N","N","",,"N","Limited Liability Company","","12","TN","United States","N"
1993649,"","VISTA CREDIT CLO MANAGEMENT LLC",318423,11223,"Y","","","","","","","","212-804-9100","","N","","","","","","","N","MONFRI","","9AM - 5PM","","N","N","N","N","N","N","N","",,"Y","Limited Liability Company","","12","DE","United States","N"
2002457,"CB RICHARD ELLIS INVESTORS SP ASIA LLC","CB RICHARD ELLIS INVESTORS SP ASIA LLC",296044,4613,"Y","","","","","","","","2128242150","","Y","","","","","","","","MONFRI","","8:00 AM TO 5:00 PM","","N","N","N","Y","N","N","N","",,"N","Limited Liability Company","","06","DE","United States","N"
2002457,"CBRE GLOBAL INVESTORS HEADWAY GP, LLC","CBRE GLOBAL INVESTORS HEADWAY GP, LLC",296052,4619,"Y","","","","","","","","2128242150","","Y","","","","","","","","MONFRI","","8:00 AM TO 5:00 PM","","N","N","N","Y","N","N","N","",,"N","Limited Liability Company","","06","DE","United States","N"
2002457,"CBRE INVESTMENT MANAGEMENT BERKMAN, LLC","CBRE INVESTMENT MANAGEMENT BERKMAN, LLC",326008,10467,"Y","","","","","","","","2128242150","","Y","","","","","","","","MONFRI","","8:00 AM TO 5:00 PM","","N","N","N","Y","N","N","N","",,"N","Limited Liability Company","","06","DE","United States",""
2002770,"SILVER POINT DISTRESSED OPPORTUNITIES MANAGEMENT, LLC","SILVER POINT DISTRESSED OPPORTUNITIES MANAGEMENT, LLC",295465,4106,"Y","","","","","","","","(203) 542-4200","(203) 542-4100","N","","","","","","","N","MONFRI","","9:00 AM TO 5:00 PM","","N","N","N","Y","N","N","N","",,"N","Limited Liability Company","","12","DE","United States","N"
2002770,"SILVER POINT SPECIALTY CREDIT FUND II MANAGEMENT, LLC","SILVER POINT SPECIALTY CREDIT FUND II MANAGEMENT, LLC",305374,6565,"Y","","","","","","","","(203) 542-4200","(203) 542-4100","N","","","","","","","N","MONFRI","","9:00 AM TO 5:00 PM","","N","N","N","Y","N","N","N","",,"N","Limited Liability Company","","12","DE","United States","N"
2002770,"SILVER POINT SPECIALTY CREDIT SILVER STAR FUND MANAGEMENT, LLC","SILVER POINT SPECIALTY CREDIT SILVER STAR FUND MANAGEMENT, LLC",317818,9108,"Y","","","","","","","","(203) 542-4200","(203) 542-4100","N","","","","","","","N","MONFRI","","9:00 AM TO 5:00 PM","","N","N","N","Y","N","N","N","",,"N","Limited Liability Company","","12","DE","United States","N"
2002770,"SILVER POINT LOAN FUNDING MANAGEMENT, LLC","SILVER POINT LOAN FUNDING MANAGEMENT, LLC",318618,9214,"Y","","","","","","","","(203) 542-4200","(203) 542-4100","N","","","","","","","N","MONFRI","","9:00 AM TO 5:00 PM","","N","N","N","Y","N","N","N","",,"N","Limited Liability Company","","12","DE","United States","N"
2002770,"SILVER POINT SPECIALTY CREDIT FUND III MANAGEMENT, LLC","SILVER POINT SPECIALTY CREDIT FUND III MANAGEMENT, LLC",322137,9812,"Y","","","","","","","","(203) 542-4200","(203) 542-4100","N","","","","","","","N","MONFRI","","9:00 AM TO 5:00 PM","","N","N","N","Y","N","N","N","",,"N","Limited Liability Company","","12","DE","United States","N"
2002770,"SILVER POINT DISTRESSED OPPORTUNITY INST. PARTNERS II MGMT, LLC","SILVER POINT DISTRESSED OPPORTUNITY INST. PARTNERS II MGMT, LLC",323634,9974,"Y","","","","","","","","(203) 542-4200","(203) 542-4100","N","","","","","","","N","MONFRI","","9:00 AM TO 5:00 PM","","N","N","N","Y","N","N","N","",,"N","Limited Liability Company","","12","DE","United States","N"
2002770,"SILVER POINT RR MANAGER, L.P.","SILVER POINT RR MANAGER, L.P.",323639,9975,"Y","","","","","","","","(203) 542-4200","(203) 542-4100","N","","","","","","","N","MONFRI","","9:00 AM TO 5:00 PM","","N","N","N","Y","N","N","N","",,"N","Limited Partnership","","12","DE","United States","N"
2002770,"SILVER POINT CLO MANAGEMENT, LLC","SILVER POINT CLO MANAGEMENT, LLC",325724,10349,"Y","","","","","","","","(203) 542-4200","(203) 542-4100","Y","","","","","","","","MONFRI","","9:00 AM TO 5:00 PM","","N","N","N","Y","N","N","N","",,"N","Limited Liability Company","","12","DE","United States","N"
2002770,"SILVER POINT SELECT B MANAGEMENT, LLC","SILVER POINT SELECT B MANAGEMENT, LLC",328445,11037,"Y","","","","","","","","(203) 542-4200","(203) 542-4100","N","","","","","","","N","MONFRI","","9:00 AM TO 5:00 PM","","N","N","N","Y","N","N","N","",,"N","Limited Liability Company","","12","DE","United States","N"
2002770,"SILVER POINT PRIVATE CREDIT FUND MANAGEMENT, LLC","SILVER POINT PRIVATE CREDIT FUND MANAGEMENT, LLC",332374,11802,"Y","","","","","","","","(203) 542-4200","(203) 542-4100","N","","","","","","","N","MONFRI","","9:00 AM TO 5:00 PM","","N","N","N","Y","N","N","N","",,"N","Limited Liability Company","","12","DE","United States","N"
2002770,"SILVER POINT CAPITAL DENMARK, LLC","SILVER POINT CAPITAL DENMARK, LLC",333137,11962,"Y","","","","","","","","(203) 542-4200","(203) 542-4100","N","","","","","","","N","MONFRI","","9:00 AM TO 5:00 PM","","N","N","N","Y","N","N","N","",,"N","Limited Liability Company","","12","DE","United States","N"
2002770,"SILVER POINT SELECT OVERFLOW FUND MANAGEMENT, LLC","SILVER POINT SELECT OVERFLOW FUND MANAGEMENT, LLC",333818,12062,"Y","","","","","","","","(203) 542-4200","(203) 542-4100","N","","","","","","","N","MONFRI","","9:00 AM TO 5:00 PM","","N","N","N","Y","N","N","N","",,"N","Limited Liability Company","","12","DE","United States","N"
2002770,"SILVER POINT SCF (U) III MANAGEMENT, LLC","SILVER POINT SCF (U) III MANAGEMENT, LLC",334781,12226,"Y","","","","","","","","(203) 542-4200","(203) 542-4100","N","","","","","","","N","MONFRI","","9:00 AM TO 5:00 PM","","N","N","N","Y","N","N","N","",,"N","Limited Liability Company","","12","DE","United States","N"
2002770,"SILVER POINT SELECT C MANAGEMENT, LLC","SILVER POINT SELECT C MANAGEMENT, LLC",334782,12227,"Y","","","","","","","","(203) 542-4200","(203) 542-4100","N","","","","","","","N","MONFRI","","9:00 AM TO 5:00 PM","","N","N","N","Y","N","N","N","",,"N","Limited Liability Company","","12","DE","United States","N"
2002770,"SILVER POINT SELECT C CLO MANAGER, LLC","SILVER POINT SELECT C CLO MANAGER, LLC",334994,12250,"Y","","","","","","","","(203) 542-4200","(203) 542-4100","N","","","","","","","N","MONFRI","","9:00 AM TO 5:00 PM","","N","N","N","Y","N","N","N","",,"N","Limited Liability Company","","12","DE","United States",""
2002770,"SILVER POINT EUROPE, LLP","SILVER POINT EUROPE, LLP",336617,12696,"N","CHARLES HOUSE, 4TH FLOOR","5-11 REGENT STREET","SAINT JAMES'S, LONDON","","United Kingdom","SW1Y 4LR","N","+44 (0) 203 6507 945","","N","","","","","","","N","MONFRI","","9:00 AM TO 5:00 PM","","N","N","Y","N","N","N","N","",,"N","Limited Liability Partnership","","12","","United Kingdom","N"
2002770,"SILVER POINT TACTICAL CREDIT OPPORTUNITIES MANAGEMENT, LLC","SILVER POINT TACTICAL CREDIT OPPORTUNITIES MANAGEMENT, LLC",337387,12762,"Y","","","","","","","","(203) 542-4200","(203) 542-4100","N","","","","","","","N","MONFRI","","9:00 AM TO 5:00 PM","","N","N","N","Y","N","N","N","",,"N","Limited Liability Company","","12","DE","United States","N"
2002770,"SILVER POINT TACTICAL CREDIT OPPORTUNITIES MANAGEMENT II, LLC","SILVER POINT TACTICAL CREDIT OPPORTUNITIES MANAGEMENT II, LLC",337885,12836,"Y","","","","","","","","(203) 542-4200","(203) 542-4100","N","","","","","","","N","MONFRI","","9:00 AM TO 5:00 PM","","N","N","N","Y","N","N","N","",,"N","Limited Liability Company","","12","DE","United States","N"
2002770,"SILVER POINT CLO EQUITY FUND II MANAGEMENT, LLC","SILVER POINT CLO EQUITY FUND II MANAGEMENT, LLC",337887,12837,"Y","","","","","","","","(203) 542-4200","(203) 542-4100","N","","","","","","","N","MONFRI","","9:00 AM TO 5:00 PM","","N","N","N","Y","N","N","N","",,"N","Limited Liability Company","","12","DE","United States","N"
2001884,"","TICP CLO VII MANAGEMENT, LLC",291215,1492,"Y","","","","","","","","469-621-3001","","Y","","","","","","","","MONFRI","","9:00 - 6:00","","Y","N","N","N","N","N","N","",,"N","Limited Liability Company","","12","DE","United States","N"
2001884,"","SIXTH STREET CLO VIII MANAGEMENT, LLC",291224,1497,"Y","","","","","","","","469-621-3001","","Y","","","","","","","","MONFRI","","9:00 - 6:00","","Y","N","N","N","N","N","N","",,"N","Limited Liability Company","","12","DE","United States","N"
2001884,"","SIXTH STREET CLO IX MANAGEMENT, LLC",292683,2075,"Y","","","","","","","","469-621-3001","","Y","","","","","","","","MONFRI","","9:00 - 6:00","","Y","N","N","N","N","N","N","",,"N","Limited Liability Company","","12","DE","United States","N"
2001884,"","PRESIDENT RESIDENTIAL MORTGAGE MANAGEMENT, LLC",295726,4312,"Y","","","","","","","","469-621-3001","","Y","","","","","","","","MONFRI","","9:00 - 6:00","","Y","N","N","N","N","N","N","",,"N","Limited Liability Company","","12","DE","United States","N"
2001884,"","SIXTH STREET OPPORTUNITIES II MANAGEMENT, LLC",296419,4943,"Y","","","","","","","","469-621-3001","","Y","","","","","","","","MONFRI","","9:00 - 6:00","","Y","N","N","N","N","N","N","",,"N","Limited Liability Company","","12","DE","United States","N"
2001884,"","SIXTH STREET OPPORTUNITIES III MANAGEMENT, LLC",296420,4944,"Y","","","","","","","","469-621-3001","","Y","","","","","","","","MONFRI","","9:00 - 6:00","","Y","N","N","N","N","N","N","",,"N","Limited Liability Company","","12","DE","United States","N"
2001884,"","SIXTH STREET TAO MANAGEMENT, LLC",296421,4945,"Y","","","","","","","","469-621-3001","","Y","","","","","","","","MONFRI","","9:00 - 6:00","","Y","N","N","N","N","N","N","",,"N","Limited Liability Company","","12","DE","United States","N"
2001884,"","SIXTH STREET CREDIT MARKET STRATEGIES MANAGEMENT, LLC",296422,4946,"Y","","","","","","","","469-621-3001","","Y","","","","","","","","MONFRI","","9:00 - 6:00","","Y","N","N","N","N","N","N","",,"N","Limited Liability Company","","12","DE","United States","N"
2001884,"","TSSP DIVERSIFIED CREDIT PROGRAM MANAGEMENT, LLC",296423,4947,"Y","","","","","","","","469-621-3001","","Y","","","","","","","","MONFRI","","9:00 - 6:00","","Y","N","N","N","N","N","N","",,"N","Limited Liability Company","","12","DE","United States","N"
2001884,"","SIXTH STREET CLO ADVISERS II, LLC",296428,4952,"Y","","","","","","","","469-621-3001","","Y","","","","","","","","MONFRI","","9:00 - 6:00","","Y","N","N","N","N","N","N","",,"N","Limited Liability Company","","12","DE","United States","N"
2001884,"","TICP CLO I MANAGEMENT, LLC",296429,4953,"Y","","","","","","","","469-621-3001","","Y","","","","","","","","MONFRI","","9:00 - 6:00","","Y","N","N","N","N","N","N","",,"N","Limited Liability Company","","12","DE","United States","N"
2001884,"","TICP CLO II MANAGEMENT, LLC",296431,4955,"Y","","","","","","","","469-621-3001","","Y","","","","","","","","MONFRI","","9:00 - 6:00","","Y","N","N","N","N","N","N","",,"N","Limited Liability Company","","12","DE","United States","N"
2001884,"","TICP CLO IV MANAGEMENT, LLC",296432,4956,"Y","","","","","","","","469-621-3001","","Y","","","","","","","","MONFRI","","9:00 - 6:00","","Y","N","N","N","N","N","N","",,"N","Limited Liability Company","","12","DE","United States","N"
2001884,"","TICP CLO III MANAGEMENT, LLC",296433,4957,"Y","","","","","","","","469-621-3001","","Y","","","","","","","","MONFRI","","9:00 - 6:00","","Y","N","N","N","N","N","N","",,"N","Limited Liability Company","","12","DE","United States","N"
2001884,"","TICP CLO V 2016-1 MANAGEMENT, LLC",296434,4958,"Y","","","","","","","","469-621-3001","","Y","","","","","","","","MONFRI","","9:00 - 6:00","","Y","N","N","N","N","N","N","",,"N","Limited Liability Company","","12","DE","United States","N"
2001884,"","TICP CLO VI 2016-2 MANAGEMENT, LLC",296435,4959,"Y","","","","","","","","469-621-3001","","Y","","","","","","","","MONFRI","","9:00 - 6:00","","Y","N","N","N","N","N","N","",,"N","Limited Liability Company","","12","DE","United States","N"
2001884,"","TICP CLO X MANAGEMENT, LLC",297867,5405,"Y","","","","","","","","469-621-3001","","Y","","","","","","","","MONFRI","","9:00 - 6:00","","Y","N","N","N","N","N","N","",,"N","Limited Liability Company","","12","DE","United States","N"
2001884,"","SIXTH STREET OPPORTUNITIES IV MANAGEMENT, LLC",298196,5466,"Y","","","","","","","","469-621-3001","","Y","","","","","","","","MONFRI","","9:00 - 6:00","","Y","N","N","N","N","N","N","",,"N","Limited Liability Company","","12","DE","United States","N"
2001884,"","SIXTH STREET GROWTH I MANAGEMENT, LLC",299225,5577,"Y","","","","","","","","469-621-3001","","Y","","","","","","","","MONFRI","","9:00 - 6:00","","Y","N","N","N","N","N","N","",,"N","Limited Liability Company","","12","DE","United States","N"
2001884,"","TICP CLO XI MANAGEMENT, LLC",299226,5578,"Y","","","","","","","","469-621-3001","","Y","","","","","","","","MONFRI","","9:00 - 6:00","","Y","N","N","N","N","N","N","",,"N","Limited Liability Company","","12","DE","United States","N"
2001884,"","SIXTH STREET STRUCTURED CREDIT MANAGEMENT, LLC",299513,5616,"Y","","","","","","","","469-621-3001","","Y","","","","","","","","MONFRI","","9:00 - 6:00","","Y","N","N","N","N","N","N","",,"N","Limited Liability Company","","12","DE","United States","N"
2001884,"","TSSP STRUCTURED CREDIT OPPORTUNITIES MANAGEMENT, LLC",299514,5617,"Y","","","","","","","","469-621-3001","","Y","","","","","","","","MONFRI","","9:00 - 6:00","","Y","N","N","N","N","N","N","",,"N","Limited Liability Company","","12","DE","United States","N"
2001884,"","TICP CLO XII MANAGEMENT, LLC",300236,5755,"Y","","","","","","","","469-621-3001","","Y","","","","","","","","MONFRI","","9:00 - 6:00","","Y","N","N","N","N","N","N","",,"N","Limited Liability Company","","12","DE","United States","N"
2001884,"","TICP CLO XIII MANAGEMENT, LLC",304707,6472,"Y","","","","","","","","469-621-3001","","Y","","","","","","","","MONFRI","","9:00 - 6:00","","Y","N","N","N","N","N","N","",,"N","Limited Liability Company","","12","DE","United States","N"
2001884,"","TICP CLO XIV MANAGEMENT, LLC",306134,6715,"Y","","","","","","","","469-621-3001","","Y","","","","","","","","MONFRI","","9:00 - 6:00","","Y","N","N","N","N","N","N","",,"N","Limited Liability Company","","12","DE","United States","N"
2001884,"","TSSP INSTITUTIONAL CREDIT III MANAGEMENT, LLC",306586,6760,"Y","","","","","","","","469-621-3001","","Y","","","","","","","","MONFRI","","9:00 - 6:00","","Y","N","N","N","N","N","N","",,"N","Limited Liability Company","","12","DE","United States","N"
2001884,"","SIXTH STREET AGRICULTURE MANAGEMENT, LLC",306695,6795,"Y","","","","","","","","469-621-3001","","Y","","","","","","","","MONFRI","","9:00 - 6:00","","Y","N","N","N","N","N","N","",,"N","Limited Liability Company","","12","DE","United States","N"
2001884,"","SIXTH STREET CLO XV MANAGEMENT, LLC",307910,7016,"Y","","","","","","","","469-621-3001","","Y","","","","","","","","MONFRI","","9:00 - 6:00","","Y","N","N","N","N","N","N","",,"N","Limited Liability Company","","12","DE","United States","N"
2001884,"","SIXTH STREET ROTATIONAL CREDIT II MANAGEMENT, LLC",308450,7233,"Y","","","","","","","","469-621-3001","","Y","","","","","","","","MONFRI","","9:00 - 6:00","","Y","N","N","N","N","N","N","",,"N","Limited Liability Company","","12","DE","United States","N"
2001884,"","SIXTH STREET SPECIALTY LENDING EUROPE II MANAGEMENT, LLC",309085,7591,"Y","","","","","","","","469-621-3001","","Y","","","","","","","","MONFRI","","9:00 - 6:00","","Y","N","N","N","N","N","N","",,"N","Limited Liability Company","","12","DE","United States","N"
2001884,"","SIXTH STREET STRUCTURED CREDIT OPPORTUNITIES III MANAGEMENT, LLC",309120,7592,"Y","","","","","","","","469-621-3001","","Y","","","","","","","","MONFRI","","9:00 - 6:00","","Y","N","N","N","N","N","N","",,"N","Limited Liability Company","","12","DE","United States","N"
2001884,"","SIXTH STREET PARTNERS INTERNATIONAL, LLC",309402,7627,"Y","","","","","","","","469-621-3001","","Y","","","","","","","","MONFRI","","9:00 - 6:00","","Y","N","N","N","N","N","N","",,"N","Limited Liability Company","","12","DE","United States","N"
2001884,"","SIXTH STREET FUNDAMENTAL STRATEGIES I MANAGEMENT, LLC",309404,7629,"Y","","","","","","","","469-621-3001","","Y","","","","","","","","MONFRI","","9:00 - 6:00","","Y","N","N","N","N","N","N","",,"N","Limited Liability Company","","12","DE","United States","N"
2001884,"","SIXTH STREET STRATEGIC HOLDINGS MANAGEMENT, LLC",309405,7630,"Y","","","","","","","","469-621-3001","","Y","","","","","","","","MONFRI","","9:00 - 6:00","","Y","N","N","N","N","N","N","",,"N","Limited Liability Company","","12","DE","United States","N"
2001884,"","SIXTH STREET STRUCTURED CREDIT OPPORTUNITIES II MANAGEMENT, LLC",309406,7631,"Y","","","","","","","","469-621-3001","","Y","","","","","","","","MONFRI","","9:00 - 6:00","","Y","N","N","N","N","N","N","",,"N","Limited Liability Company","","12","DE","United States","N"
2001884,"","SIXTH STREET STRUCTURED CREDIT OPPORTUNITIES IV MANAGEMENT, LLC",311109,7847,"Y","","","","","","","","469-621-3001","","Y","","","","","","","","MONFRI","","9:00 - 6:00","","Y","N","N","N","N","N","N","",,"N","Limited Liability Company","","12","DE","United States","N"
2001884,"","SIXTH STREET CLO XVI MANAGEMENT, LLC",311613,7925,"Y","","","","","","","","469-621-3001","","Y","","","","","","","","MONFRI","","9:00 - 6:00","","Y","N","N","N","N","N","N","",,"N","Limited Liability Company","","12","DE","United States","N"
2001884,"","SIXTH STREET CLO XVII MANAGEMENT, LLC",313059,8110,"Y","","","","","","","","469-621-3001","","Y","","","","","","","","MONFRI","","9:00 - 6:00","","Y","N","N","N","N","N","N","",,"N","Limited Liability Company","","12","DE","United States","N"
2001884,"","SIXTH STREET CLO XVIII MANAGEMENT, LLC",314543,8639,"Y","","","","","","","","469-621-3001","","Y","","","","","","","","MONFRI","","9:00 - 6:00","","Y","N","N","N","N","N","N","",,"N","Limited Liability Company","","12","DE","United States","N"
2001884,"","SIXTH STREET STRUCTURED CREDIT OPPORTUNITIES V MANAGEMENT, LLC",315565,8784,"Y","","","","","","","","469-621-3001","","Y","","","","","","","","MONFRI","","9:00 - 6:00","","Y","N","N","N","N","N","N","",,"N","Limited Liability Company","","12","DE","United States","N"
2001884,"","SIXTH STREET CLO XIX MANAGEMENT, LLC",315834,8832,"Y","","","","","","","","469-621-3001","","Y","","","","","","","","MONFRI","","9:00 - 6:00","","Y","N","N","N","N","N","N","",,"N","Limited Liability Company","","12","DE","United States","N"
2001884,"","SIXTH STREET ROTATIONAL CREDIT III MANAGEMENT, LLC",315863,8836,"Y","","","","","","","","469-621-3001","","Y","","","","","","","","MONFRI","","9:00 - 6:00","","Y","N","N","N","N","N","N","",,"N","Limited Liability Company","","12","DE","United States","N"
2001884,"","SIXTH STREET GROWTH II MANAGEMENT, LLC",316998,8993,"Y","","","","","","","","469-621-3001","","Y","","","","","","","","MONFRI","","9:00 - 6:00","","Y","N","N","N","N","N","N","",,"N","Limited Liability Company","","12","DE","United States","N"
2001884,"","SIXTH STREET OPPORTUNITIES V MANAGEMENT, LLC",317170,9034,"Y","","","","","","","","469-621-3001","","Y","","","","","","","","MONFRI","","9:00 - 6:00","","Y","N","N","N","N","N","N","",,"N","Limited Liability Company","","12","DE","United States","N"
2001884,"","SIXTH STREET CLO XX MANAGEMENT, LLC",317394,9066,"Y","","","","","","","","469-621-3001","","Y","","","","","","","","MONFRI","","9:00 - 6:00","","Y","N","N","N","N","N","N","",,"N","Limited Liability Company","","12","DE","United States","N"
2001884,"","SIXTH STREET INSURANCE SOLUTIONS, L.P.",317703,9098,"Y","","","","","","","","469-621-3001","","Y","","","","","","","","MONFRI","","9:00 - 6:00","","Y","N","N","N","N","N","N","",,"N","Limited Partnership","","12","DE","United States","N"
2001884,"","SIXTH STREET MID-STAGE GROWTH I MANAGEMENT, LLC",317900,9116,"Y","","","","","","","","469-621-3001","","Y","","","","","","","","MONFRI","","9:00 - 6:00","","Y","N","N","N","N","N","N","",,"N","Limited Liability Company","","12","DE","United States","N"
2001884,"","SIXTH STREET CMS DYNAMIC CREDIT MANAGEMENT, LLC",318312,9169,"Y","","","","","","","","469-621-3001","","Y","","","","","","","","MONFRI","","9:00 - 6:00","","Y","N","N","N","N","N","N","",,"N","Limited Liability Company","","12","DE","United States","N"
2001884,"","SIXTH STREET CLO EQUITY IV MANAGEMENT, LLC",323224,9940,"Y","","","","","","","","469-621-3001","","Y","","","","","","","","MONFRI","","9:00 - 6:00","","Y","N","N","N","N","N","N","",,"N","Limited Liability Company","","12","DE","United States","N"
2001884,"","SIXTH STREET INSURANCE SOLUTIONS ALM, L.P.",323260,9943,"Y","","","","","","","","469-621-3001","","Y","","","","","","","","MONFRI","","9:00 - 6:00","","Y","N","N","N","N","N","N","",,"N","Limited Partnership","","12","DE","United States","N"
2001884,"","SIXTH STREET CLO XXI MANAGEMENT, LLC",324273,10062,"Y","","","","","","","","469-621-3001","","Y","","","","","","","","MONFRI","","9:00 - 6:00","","Y","N","N","N","N","N","N","",,"N","Limited Liability Company","","12","DE","United States","N"
2001884,"","SIXTH STREET CLO XXII MANAGEMENT, LLC",326542,10750,"Y","","","","","","","","469-621-3001","","Y","","","","","","","","MONFRI","","9:00 - 6:00","","Y","N","N","N","N","N","N","",,"N","Limited Liability Company","","12","DE","United States","N"
2001884,"","SIXTH STREET CLO XXIII MANAGEMENT, LLC",327993,10997,"Y","","","","","","","","469-621-3001","","Y","","","","","","","","MONFRI","","9:00 - 6:00","","Y","N","N","N","N","N","N","",,"N","Limited Liability Company","","12","DE","United States","N"
2001884,"","SIXTH STREET PRIVATE ASSET BASED INVESTMENT I MANAGEMENT, LLC",329472,11193,"Y","","","","","","","","469-621-3001","","Y","","","","","","","","MONFRI","","9:00 - 6:00","","Y","N","N","N","N","N","N","",,"N","Limited Liability Company","","12","DE","United States","N"
2001884,"","SIXTH STREET STRUCTURED PRODUCTS MANAGEMENT, LLC",329473,11194,"Y","","","","","","","","469-621-3001","","Y","","","","","","","","MONFRI","","9:00 - 6:00","","Y","N","N","N","N","N","N","",,"N","Limited Liability Company","","12","DE","United States","N"
2001884,"","SIXTH STREET CLO XXIV MANAGEMENT, LLC",331231,11622,"Y","","","","","","","","469-621-3001","","Y","","","","","","","","MONFRI","","9:00 - 6:00","","Y","N","N","N","N","N","N","",,"N","Limited Liability Company","","12","DE","United States","N"
2001884,"","SIXTH STREET CLO XXV MANAGEMENT, LLC",332166,11757,"Y","","","","","","","","469-621-3001","","Y","","","","","","","","MONFRI","","9:00 - 6:00","","Y","N","N","N","N","N","N","",,"N","Limited Liability Company","","12","DE","United States","N"
2001884,"","SIXTH STREET SPECIALTY LENDING EUROPE III MANAGEMENT, LLC",332167,11758,"Y","","","","","","","","469-621-3001","","Y","","","","","","","","MONFRI","","9:00 - 6:00","","Y","N","N","N","N","N","N","",,"N","Limited Liability Company","","12","DE","United States","N"
2001884,"","SIXTH STREET MADRONE STRATEGIC HOLDINGS MANAGEMENT, LLC",332211,11766,"Y","","","","","","","","469-621-3001","","Y","","","","","","","","MONFRI","","9:00 - 6:00","","Y","N","N","N","N","N","N","",,"N","Limited Liability Company","","12","DE","United States","N"
2001884,"","SIXTH STREET CLO XXVI MANAGEMENT, LLC",333015,11944,"Y","","","","","","","","469-621-3001","","Y","","","","","","","","MONFRI","","9:00 - 6:00","","Y","N","N","N","N","N","N","",,"N","Limited Liability Company","","12","DE","United States","N"
2001884,"","SIXTH STREET ABF BEACON I MANAGEMENT, LLC",333016,11945,"Y","","","","","","","","469-621-3001","","Y","","","","","","","","MONFRI","","9:00 - 6:00","","Y","N","N","N","N","N","N","",,"N","Limited Liability Company","","12","DE","United States","N"
2001884,"","SIXTH STREET SPORTS AND LIVE ENTERTAINMENT MANAGEMENT, LLC",333017,11946,"Y","","","","","","","","469-621-3001","","Y","","","","","","","","MONFRI","","9:00 - 6:00","","Y","N","N","N","N","N","N","",,"N","Limited Liability Company","","12","DE","United States","N"
2001884,"","SIXTH STREET CLO 27 MANAGEMENT, LLC",334321,12159,"Y","","","","","","","","469-621-3001","","Y","","","","","","","","MONFRI","","9:00 - 6:00","","Y","N","N","N","N","N","N","",,"N","Limited Liability Company","","12","DE","United States","N"
2001884,"","SIXTH STREET OPPORTUNITIES VI MANAGEMENT, LLC",335616,12348,"Y","","","","","","","","469-621-3001","","Y","","","","","","","","MONFRI","","9:00 - 6:00","","Y","N","N","N","N","N","N","",,"N","Limited Liability Company","","12","DE","United States",""
2001884,"","SIXTH STREET CLO 28 MANAGEMENT, LLC",336525,12676,"Y","","","","","","","","469-621-3001","","Y","","","","","","","","MONFRI","","9:00 - 6:00","","Y","N","N","N","N","N","N","",,"N","Limited Liability Company","","12","DE","United States",""
2001884,"","SIXTH STREET CLO 29 MANAGEMENT, LLC",337927,12841,"Y","","","","","","","","469-621-3001","","Y","","","","","","","","MONFRI","","9:00 - 6:00","","Y","N","N","N","N","N","N","",,"N","Limited Liability Company","","12","DE","United States",""
2001884,"","SIXTH STREET CLO 30 MANAGEMENT, LLC",337928,12842,"Y","","","","","","","","469-621-3001","","Y","","","","","","","","MONFRI","","9:00 - 6:00","","Y","N","N","N","N","N","N","",,"N","Limited Liability Company","","12","DE","United States",""
2001884,"","SIXTH STREET CMS DYNAMIC CREDIT II MANAGEMENT, LLC",337929,12843,"Y","","","","","","","","469-621-3001","","Y","","","","","","","","MONFRI","","9:00 - 6:00","","Y","N","N","N","N","N","N","",,"N","Limited Liability Company","","12","DE","United States",""
2004225,"","POWER SUSTAINABLE INFRASTRUCTURE CREDIT MANAGER, L.P.",325313,10261,"Y","","","","","","","","1-514-286-7400","","N","751 SQUARE VICTORIA","","MONTREAL, QUEBEC","","Canada","H2Y 2J3","N","MONFRI","","8:00 - 5:00","","Y","N","N","N","N","N","N","",,"N","Limited Partnership","","12","DE","United States","N"
2004225,"","POWER SUSTAINABLE DECARBONIZATION MANAGER, L.P.",335832,12416,"N","66 HUDSON BLVD E","FLOORS 23 AND 24","NEW YORK","NY","United States","10001","N","5142867400","","Y","","","","","","","","MONFRI","","8:00 AM - 5:00 PM","","Y","N","N","Y","N","N","N","",,"N","Limited Partnership","","12","DE","United States","N"
2005372,"","ORBIMED CAPITAL LLC",120188,3616,"Y","","","","","","","","2127396400","","Y","","","","","","","","MONFRI","","9 AM TO 5 PM","","Y","N","N","N","N","N","N","",,"N","Limited Liability Company","","12","DE","United States","N"
1994932,"","ELDRIDGE ACRE INFRASTRUCTURE PARTNERS, LP",337374,12758,"Y","","","","","","","","213-814-6533","","Y","","","","","","","","MONFRI","","9 AM - 5 PM","","N","N","N","Y","N","N","N","",,"N","Limited Partnership","","12","DE","United States","N"
2002150,"CLOUD CAPITAL LLP","CLOUD CAPITAL LLP",318348,9172,"N","SIXTH FLOOR, MUTUAL HOUSE","70 CONDUIT STREET","LONDON","","United Kingdom","W1S 2GF","N","+44 7572 738 941","","N","","","","","","","N","MONFRI","","8AM-6PM BST","","Y","N","N","N","N","N","N","",,"N","Limited Liability Partnership","","12","","United Kingdom","N"
1997001,"","EVERVIEW PARTNERS REAL ESTATE MANAGEMENT, L.L.C.",337505,12782,"Y","","","","","","","","212-242-5800","","Y","","","","","","","","MONFRI","","9AM - 6PM","","N","N","N","Y","N","N","N","",,"N","Limited Liability Company","","12","DE","United States","N"
2002938,"","POINT72 HONG KONG LIMITED",292047,1789,"N","CHATER HOUSE","8 CONNAUGHT ROAD CENTRAL, 11TH & 12TH FLOORS","HONG KONG SAR","","Hong Kong","999077","N","852-3656- 8866","","N","","","","","","","N","MONFRI","","7:00 AM - 6:00 P.M.","549300WXNKVWCDE8HZ98","N","N","Y","N","N","N","N","",,"N","Other (specify)","LIMITED COMPANY","12","","Hong Kong","N"
2002938,"","POINT72 ASIA (SINGAPORE) PTE. LTD",292069,1796,"N","50 COLLYER QUAY, OUE BAYFRONT","#06-01 & #08-02/03/04/05","SINGAPORE","","Singapore","049321","N","65-6922-7500","","N","","","","","","","N","MONFRI","","7:00 A.M. - 6:00 P.M.","549300L72SGHFCWI0Y85","N","N","Y","N","N","N","N","",,"N","Other (specify)","LIMITED COMPANY","12","","Singapore","N"
2002938,"","POINT72 JAPAN LIMITED",292072,1799,"N","OTEMACHI ONE TOWER","1-2-1 OTEMACHI, CHIYODA-KU SUITE 1104","TOKYO","","Japan","100-0004","N","813-6267-1500","","N","","","","","","","N","MONFRI","","7:00 A.M. - 6:00 P.M.","549300K425NZPOBVYA76","N","N","Y","N","N","N","N","",,"N","Other (specify)","LIMITED COMPANY","12","","Hong Kong","N"
2002938,"","POINT72 EUROPE (LONDON) LLP",292074,1801,"N","8 ST JAMES'S SQUARE","FLOORS 1, 2, AND 4","LONDON","","United Kingdom","SW1Y 4JU","N","44-207807-2800","","N","","","","","","","N","MONFRI","","7:00 A.M. - 6:00 P.M.","549300RHSQCH106OWF77","N","N","Y","N","N","N","N","",,"N","Limited Liability Partnership","","12","","United Kingdom","N"
2002938,"","POINT72 FRANCE SAS",292080,1807,"N","22 BOULEVARD MALESHERBES","","PARIS","","France","75008","N","33-1-83750018","","N","","","","","","","N","MONFRI","","7:00 A.M. - 6:00 P.M.","549300XQEUUU7M7J4Z38","N","N","Y","N","N","N","N","",,"N","Other (specify)","SOCIÉTÉ PAR ACTIONS SIMPLIFIÉE","12","","France","N"
2002938,"","CUBIST SYSTEMATIC STRATEGIES, LLC",292081,1808,"N","55 HUDSON YARDS","550 WEST 34TH STREET","NEW YORK","NY","United States","10001","N","646-954-3375","","N","","","","","","","N","MONFRI","","7:00 A.M. - 6:00 P.M.","549300A1ZLHM70N6U553","Y","N","N","N","N","N","N","",,"N","Limited Liability Company","","12","DE","United States","N"
2002938,"COHEN PRIVATE VENTURES","CPV PARTNERS, LLC",162744,5757,"Y","","","","","","","","646-569-8600","","N","55 HUDSON YARDS","550 WEST 34TH STREET","NEW YORK","NY","United States","10001","N","MONFRI","","7:00 A.M. - 6:00 P.M.","","N","N","N","Y","N","N","N","",,"N","Limited Liability Company","","12","DE","United States","N"
2002938,"","POINT72 HYPERSCALE ADVISERS, LLC",313225,8132,"Y","","","","","","","","203-890-2000","203-823-4200","Y","","","","","","","","MONFRI","","7:00 A.M. - 6:00 P.M.","","N","N","N","Y","N","N","N","",,"N","Limited Liability Company","","12","DE","United States","N"
2002938,"","CPV REAL ESTATE PARTNERS, LLC",318829,9245,"Y","","","","","","","","646-569-8600","","N","55 HUDSON YARDS","550 WEST 34TH STREET","NEW YORK","NY","United States","10001","N","MONFRI","","7:00 A.M. - 6:00 P.M.","","N","N","N","Y","N","N","N","",,"N","Limited Liability Company","","12","DE","United States","N"
2002938,"","POINT72 ITALY S.R.L.",329574,11208,"N","WEWORK MERAVIGLI","VIA MERAVIGLI 2","MILAN","","Italy","20123","N","203-890-2000","","N","","","","","","","N","MONFRI","","7:00 A.M. - 6:00 P.M.","254900NVOXJ6FJSRZV47","N","N","Y","N","N","N","N","",,"N","Other (specify)","SOCIETA A RESPONSABILITA LIMITATA","12","","Italy","N"
2002938,"","POINT72 (DIFC) LIMITED",330656,11360,"N","UNIT L34-02, LEVEL 34, ICD BROOKFIELD PLACE","DUBAI INTERNATIONAL FINIANCIAL CENTRE","DUBAI","","United Arab Emirates","","N","44 9714 596 9100","","N","","","","","","","N","MONFRI","","7:00 A.M. - 6:00 P.M.","254900V157XCC8152N69","N","N","Y","N","N","N","N","",,"N","Other (specify)","PRIVATE COMPANY","12","","United Arab Emirates","N"
2006165,"3ALPHA","3ALPHA ASSET MANAGEMENT LLC",336421,12665,"Y","","","","","","","","212-706-4140","","Y","","","","","","","","MONFRI","","9:00-5:00","","N","N","N","Y","N","N","N","",,"N","Limited Liability Company","","12","DE","United States","N"
2006222,"","MONROE CAPITAL MANAGEMENT LLC",296592,5084,"Y","","","","","","","","(312) 258-8300","(312) 258-8350","Y","","","","","","","","MONFRI","","9:00 AM - 5:00 PM (CST)","","N","N","N","Y","N","N","N","",,"N","Limited Liability Company","","12","DE","United States","N"
2006222,"","MONROE CAPITAL PARTNERS FUND ADVISORS, INC.",296595,5087,"Y","","","","","","","","(312) 258-8300","(312) 258-8350","Y","","","","","","","","MONFRI","","9:00 AM - 5:00 PM (CST)","","N","N","N","Y","N","N","N","",,"N","Corporation","","12","DE","United States","N"
2006222,"","MONROE CAPITAL PARTNERS FUND II ADVISORS, INC.",296599,5091,"Y","","","","","","","","(312) 258-8300","(312) 258-8350","Y","","","","","","","","MONFRI","","9:00 AM - 5:00 PM (CST)","","N","N","N","Y","N","N","N","",,"N","Corporation","","12","DE","United States","N"
2006222,"","MONROE CAPITAL ASSET MANAGEMENT LLC",301844,6267,"Y","","","","","","","","(312) 258-8300","(312) 258-8350","Y","","","","","","","","MONFRI","","9:00 AM - 5:00 PM (CST)","","N","N","N","Y","N","N","N","",,"N","Limited Liability Company","","12","DE","United States","N"
2006222,"","MONROE CAPITAL CLO MANAGER LLC",308826,7513,"Y","","","","","","","","(312) 258-8300","(312) 258-8350","Y","","","","","","","","MONFRI","","9:00 AM - 5:00 PM (CST)","","N","N","N","Y","N","N","N","",,"N","Limited Liability Company","","12","DE","United States","N"
2006222,"","MONROE CAPITAL CLO MANAGER II LLC",320680,9506,"Y","","","","","","","","(312) 258-8300","(312) 258-8350","Y","","","","","","","","MONFRI","","9:00 AM - 5:00 PM (CST)","","N","N","N","Y","N","N","N","",,"N","Limited Liability Company","","12","DE","United States","N"
2006222,"","MONROE CAPITAL REAL ESTATE CREDIT ADVISORS, LLC",336266,12834,"N","311 SOUTH WACKER DRIVE","SUITE 6400","CHICAGO","IL","United States","60606-6710","N","(312) 258-8300","(312) 258-8350","N","","","","","","","N","MONFRI","","9:00 AM - 5:00 PM (CST)","","N","N","N","Y","N","N","N","",,"N","Limited Liability Company","","12","DE","United States",""
2004844,"","MONARCH ALTERNATIVE CAPITAL (EUROPE) LTD.",295556,4170,"N","50-52 WELBECK STREET","1ST FLOOR","LONDON","","United Kingdom","W1G 9HL","N","44 (0) 207 374-7940","+44 (0)20 7067 9305","N","","","","","","","N","MONFRI","","8-6","549300PIO4YBWBVP9463","N","N","Y","N","N","N","N","",,"N","Corporation","","12","","United Kingdom","N"
2001513,"HBK EUROPE MANAGEMENT LLP","HBK EUROPE MANAGEMENT LLP",295965,4534,"N","11 WATERLOO PLACE, TRAFALGAR HOUSE","FLOOR 3","LONDON","","United Kingdom","SW1Y 4AU","N","44-207-6591900","","N","","","","","","","N","MONFRI","","8:00 AM - 5:30 PM","549300Y2HDFI4Q5XNP98","Y","N","Y","N","N","N","N","",,"N","Limited Liability Partnership","","03","","United Kingdom","N"
2001513,"HBK CAPITAL MANAGEMENT","HBK SERVICES LLC",142836,4767,"Y","","","","","","","","214-758-6100","","N","","","","","","","N","MONFRI","","8:00 AM - 5:30 PM","549300UCJ79TE89FX061","Y","N","N","Y","N","N","N","",,"N","Limited Liability Company","","12","DE","United States","N"
2001513,"HBK CAPITAL MANAGEMENT","HBK NEW YORK LLC",296218,4768,"N","452 FIFTH AVENUE","SUITE 2200","NEW YORK","NY","United States","10018","N","212-588-7860","","N","","","","","","","N","MONFRI","","8:00 AM - 5:30 PM","","Y","N","N","N","N","N","N","",,"N","Limited Liability Company","","12","DE","United States","N"
2001513,"HBK CAPITAL MANAGEMENT","HBK VIRGINIA LLC",296219,4769,"N","12410 OLD IVY ROAD","SUITE 300","CHARLOTTESVILLE","VA","United States","22903","N","434-245-6200","","N","","","","","","","N","MONFRI","","8:00 AM - 5:30 PM","","Y","N","N","N","N","N","N","",,"N","Limited Liability Company","","12","DE","United States","N"
2001545,"","PROMUS EQUITY PARTNERS, LLC",162525,2720,"Y","","","","","","","","312-784-3990","312-784-3991","Y","","","","","","","","MONFRI","","9:00 AM - 5:00 PM","","Y","N","N","N","N","N","N","",,"N","Limited Liability Company","","12","DE","United States","N"
2001545,"","PROMUS ACCESS GP, LLC",294153,2992,"Y","","","","","","","","312-784-3990","312-784-3991","Y","","","","","","","","MONFRI","","9:00 AM TO 5:00 PM","","Y","N","N","N","N","N","N","",,"N","Limited Liability Company","","12","DE","United States","N"
2001545,"","PROMUS REALTY PARTNERS, LLC",294639,3395,"Y","","","","","","","","312-784-3990","312-784-3991","Y","","","","","","","","MONFRI","","9:00 AM - 5:00 PM","","Y","N","N","N","N","N","N","",,"N","Limited Liability Company","","12","DE","United States","N"
2007136,"","ADAMS STREET CREDIT ADVISORS LP",294196,3030,"Y","","","","","","","","312-553-7890","312-553-7891","N","1230 6TH AVENUE","20TH FLOOR","NEW YORK","NY","United States","10020","N","MONFRI","","8:00 A.M-5:00 P.M.","","Y","N","N","N","N","N","N","",,"N","Limited Partnership","","12","DE","United States","N"
2007136,"","ADAMS STREET PARTNERS (BEIJING) CO., LTD",294198,3031,"Y","","","","","","","","312-553-7890","312-553-7891","N","UNIT 2603, LEVEL 26 TOWER 2, CHINA CENTRAL PLACE","79 JIANGUO ROAD","BEIJING","","China","100025","N","MONFRI","","8:00 A.M.- 5:00 P.M.","","N","N","N","Y","N","N","N","",,"N","Other (specify)","CHINA WHOLLY FOREIGN OWNED ENTERPRISE","12","","China","N"
2007136,"","ADAMS STREET PARTNERS SINGAPORE PTE. LTD.",294199,3032,"Y","","","","","","","","312-553-7890","312-553-7891","N","250 NORTH BRIDGE ROAD","#14-02 RAFFLES CITY TOWER","SINGAPORE","","Singapore","179101","N","MONFRI","","8:00 A.M.-5:00 P.M.","","N","N","N","Y","N","N","N","",,"N","Other (specify)","PRIVATE LIMITED COMPANY (PTE LTD)","12","","Singapore",""
2007136,"","ADAMS STREET PARTNERS UK LLP",294204,3037,"Y","","","","","","","","312-553-7890","312-553-7891","N","ONE GREAT CUMBERLAND PLACE","7TH FLOOR","LONDON","","United Kingdom","W1H7AL","N","MONFRI","","8:00AM-5:00PM","","N","N","N","Y","N","N","N","",,"N","Limited Liability Partnership","","12","","United Kingdom","N"
2007136,"","ADAMS STREET PARTNERS, INC.",294770,3506,"Y","","","","","","","","312-553-7890","312-553-7891","Y","","","","","","","","MONFRI","","8:00 AM- 5:00 PM","","N","N","N","Y","N","N","N","",,"N","Corporation","","12","DE","United States","N"
2006834,"PCM FUTURE ADVISOR, LLC","PCM FUTURE ADVISOR, LLC",323943,12725,"Y","","","","","","","","440-528-0333","440-528-0334","Y","","","","","","","","MONFRI","","8:30 A.M. - 4:00 P.M.","","N","N","N","Y","N","N","N","",,"N","Limited Liability Company","","12","DE","United States","N"
2006402,"GREYBULL MANAGEMENT SERVICES, LLC","GREYBULL MANAGEMENT SERVICES, LLC",162372,10618,"Y","","","","","","","","(307) 364-6400","","N","970 WEST BROADWAY AVENUE","SUITE E-505","JACKSON","WY","United States","83001","N","MONFRI","","9AM TO 5PM","","Y","N","N","Y","N","N","N","",,"N","Limited Liability Company","","12","DE","United States","N"
1984206,"","HPS MEZZANINE PARTNERS, LLC",295276,3934,"Y","","","","","","","","2122876767","","Y","","","","","","","","MONFRI","","8AM-6PM","","N","N","N","Y","N","N","N","",,"N","Limited Liability Company","","12","DE","United States",""
1984206,"","HPS MEZZANINE PARTNERS II, LLC",295580,4190,"Y","","","","","","","","2122876767","","Y","","","","","","","","MONFRI","","8AM-6PM","","N","N","N","Y","N","N","N","",,"N","Limited Liability Company","","12","DE","United States",""
1984206,"","HPS MEZZANINE MANAGEMENT III, LLC",295581,4191,"Y","","","","","","","","2122876767","","Y","","","","","","","","MONFRI","","8AM-6PM","","N","N","N","Y","N","N","N","",,"N","Limited Liability Company","","12","DE","United States",""
1984206,"","HPS OPPORTUNITIES SL MANAGEMENT, LLC",295584,4193,"Y","","","","","","","","2122876767","","Y","","","","","","","","MONFRI","","8AM-6PM","","N","N","N","Y","N","N","N","",,"N","Limited Liability Company","","12","DE","United States",""
1984206,"","HPS RE MANAGEMENT, LLC",295596,4205,"Y","","","","","","","","2122876767","","Y","","","","","","","","MONFRI","","8AM-6PM","","N","N","N","Y","N","N","N","",,"N","Limited Liability Company","","12","DE","United States",""
1984206,"","HPS INVESTMENT PARTNERS (HK), LIMITED",295598,4207,"N","UNIT 2501-5, 25TH FLOOR, PROSPERITY TOWER","39 QUEEN'S ROAD CENTRAL","HONG KONG","","Hong Kong","","N","+852 2165 2580","","N","","","","","","","N","MONFRI","","8AM-6PM","5493009XMJ0K4C64DK57","N","N","Y","N","N","N","N","",,"N","Other (specify)","LIMITED COMPANY","12","","Hong Kong",""
1984206,"","HPS INVESTMENT PARTNERS (UK) LLP",295600,4209,"N","N2, 10TH FLOOR","9 BRESSENDEN PLACE","LONDON","","United Kingdom","SW1E 5BY","N","+442035786030","","N","","","","","","","N","MONFRI","","8AM-6PM","549300YMFRL6BI1KLS66","N","N","Y","N","N","N","N","",,"N","Limited Liability Partnership","","12","","United Kingdom",""
1984206,"","CGC, LLC",295603,4212,"Y","","","","","","","","2122876767","","N","","","","","","","N","MONFRI","","8AM-6PM","","N","N","N","Y","N","N","N","",,"N","Limited Liability Company","","12","DE","United States",""
1984206,"","HPS INVESTMENT PARTNERS CLO (US) , LLC",295614,4223,"Y","","","","","","","","2122876767","","N","","","","","","","N","MONFRI","","8AM-6PM","","N","N","N","Y","N","N","N","",,"N","Limited Liability Company","","12","DE","United States",""
1984206,"","CGC III PARTNERS, LLC",295615,4224,"Y","","","","","","","","2122876767","","N","","","","","","","N","MONFRI","","8AM-6PM","","N","N","N","Y","N","N","N","",,"N","Limited Liability Company","","12","DE","United States",""
1984206,"","HPS INVESTMENT PARTNERS CLO (UK) LLP",295616,4225,"N","N2, 10TH FLOOR","9 BRESSENDEN PLACE","LONDON","","United Kingdom","SW1E 5BY","N","+442035786030","","N","","","","","","","N","MONFRI","","8AM-6PM","549300MR0BW1Y2UV0Q97","N","N","Y","N","N","N","N","",,"N","Limited Liability Partnership","","12","","United Kingdom",""
1984206,"","HPS EF GP, LLC",296167,4722,"Y","","","","","","","","2122876767","","Y","","","","","","","","MONFRI","","8AM-6PM","","N","N","N","Y","N","N","N","",,"N","Limited Liability Company","","12","DE","United States",""
1984206,"","HPS EL SLF 2016 GP, LLC",296170,4725,"Y","","","","","","","","2122876767","","Y","","","","","","","","MONFRI","","8AM-6PM","","N","N","N","Y","N","N","N","",,"N","Limited Liability Company","","12","DE","United States","N"
1984206,"","HPS MEZZANINE MANAGEMENT 2019, LLC",301104,5887,"Y","","","","","","","","2122876767","","Y","","","","","","","","MONFRI","","8AM-6PM","","N","N","N","Y","N","N","N","",,"N","Limited Liability Company","","12","DE","United States",""
1984206,"","HPS INVESTMENT PARTNERS (AUS) PTY LTD",307855,6993,"N","LEVEL 32, GATEWAY","1 MACQUARIE PLACE","SYDNEY","","Australia","NSW 2000","N","+61 2 9258 2500","","N","","","","","","","N","MONFRI","","8AM-6PM","5493006TXPJ4277KTF86","N","N","Y","N","N","N","N","",,"N","Other (specify)","LIMITED COMPANY","12","","Australia","N"
1984206,"","HPS INVESTMENT PARTNERS LUX SÀRL",311333,7892,"N","291, ROUTE D'ARLON","","LUXEMBOURG","","Luxembourg","L-1150","N","2122876767","+352 28 83 62 00","N","","","","","","","N","MONFRI","","8AM-6PM","","N","N","Y","N","N","N","N","",,"N","Limited Liability Company","","12","","Luxembourg","N"
1984206,"","HPS STRATEGIC INVESTMENT MANAGEMENT V, LLC",313495,8177,"Y","","","","","","","","2122876767","","Y","","","","","","","","MONFRI","","8AM-6PM","","N","N","N","Y","N","N","N","",,"N","Limited Liability Company","","12","DE","United States","N"
1984206,"SEGOVIA  LOAN ADVISORS (UK) LLP","SEGOVIA  LOAN ADVISORS (UK) LLP",314898,8691,"N","N2, 10TH FLOOR","9 BRESSENDEN PLACE","LONDON","","United Kingdom","SW1E 5BY","N","+442035786030","","N","","","","","","","N","MONFRI","","8AM-6PM","5493001GO5809FTWQF11","N","N","Y","N","N","N","N","",,"N","Limited Liability Partnership","","12","","United Kingdom",""
1984206,"HPS INVESTMENT PARTNERS (SG) PTE. LTD.","HPS INVESTMENT PARTNERS (SG) PTE. LTD.",319313,9326,"N","LEVEL 21, UNIT 01, NORTH TOWER","ONE RAFFLES QUAY","SINGAPORE","","Singapore","049315","N","+65 6929 8600","","N","","","","","","","N","MONFRI","","8AM-6PM","","N","N","Y","N","N","N","N","",,"N","Other (specify)","LIMITED COMPANY","12","","Singapore",""
1984206,"","HPS ALSC MANAGEMENT, LLC",298768,11595,"Y","","","","","","","","2122876767","","Y","","","","","","","","MONFRI","","8AM-6PM","","N","N","N","Y","N","N","N","",,"N","Limited Liability Company","","12","DE","United States","N"
1984206,"HPS INSTITUTIONAL CREDIT ADVISORS, LLC","HPS INSTITUTIONAL CREDIT ADVISORS, LLC",332348,11798,"Y","","","","","","","","2122876767","","Y","","","","","","","","MONFRI","","8AM-6PM","","N","N","N","Y","N","N","N","",,"N","Limited Liability Company","","12","DE","United States","N"
1984206,"HPS STRATEGIC INVESTMENT MANAGEMENT, LLC","HPS STRATEGIC INVESTMENT MANAGEMENT, LLC",333336,11986,"Y","","","","","","","","2122876767","","Y","","","","","","","","MONFRI","","8AM-6PM","","N","N","N","Y","N","N","N","",,"N","Limited Liability Company","","12","DE","United States",""
2000015,"BRINLEY PARTNERS CLO MANAGER LLC","BRINLEY PARTNERS CLO MANAGER LLC",337698,12804,"N","630 FIFTH AVENUE","SUITE 2620","NEW YORK","NY","United States","10111","N","646-690-2820","","N","","","","","","","N","MONFRI","","8:00 AM - 6:00 PM","","N","N","N","Y","N","N","N","",,"N","Limited Liability Company","","12","DE","United States",""
2004577,"","LESTE CREDIT US (IA), LLC",313234,8133,"Y","","","","","","","","3059299200","","Y","","","","","","","","MONFRI","","9AM - 5PM","85-3587722","Y","N","N","N","N","N","N","",,"N","Limited Liability Company","","12","DE","United States","N"
2004577,"","LESTE REAL ESTATE US (IA), LLC",315881,8842,"Y","","","","","","","","3059299200","","Y","","","","","","","","MONFRI","","9AM - 5PM","86-2320177","Y","N","N","Y","N","N","N","",,"N","Limited Liability Company","","12","DE","United States","N"
2004577,"","LESTE PRIVATE EQUITY US (IA), LLC",330445,11322,"Y","","","","","","","","305-929-9200","","N","","","","","","","N","MONFRI","","9-6PM","93-4722775","N","N","N","Y","N","N","N","",,"N","Limited Liability Company","","12","DE","United States","Y"
2004577,"","LNL CAPITAL (IA), LLC",331591,11657,"N","11 WEST 42ND ST","15H FLOOR","NEW YORK","NY","United States","10036","N","212-284-7660","","N","","","","","","","N","MONFRI","","9:00 AM - 5:30 PM","","N","N","N","N","Y","N","N","",,"N","Limited Liability Company","","12","DE","United States",""
2000399,"","ARGOSY MANAGEMENT, LP",295233,3896,"Y","","","","","","","","610.971.9685","610.964.9524","Y","","","","","","","","MONFRI","","9AM-5:30PM","","N","N","N","Y","N","N","N","",,"N","Limited Partnership","","12","PA","United States","N"
2000399,"","ARGOSY REAL ESTATE MANAGEMENT, LP",295251,3910,"Y","","","","","","","","610.971.9685","484.367.7786","Y","","","","","","","","MONFRI","","9AM-5:30PM","","N","N","N","Y","N","N","N","",,"N","Limited Partnership","","12","PA","United States","N"
2000399,"","ARGOSY CREDIT MANAGEMENT, L.P.",295269,3927,"Y","","","","","","","","610.971.9685","610.964.9524","Y","","","","","","","","MONFRI","","9AM-5:30PM","","N","N","N","Y","N","N","N","",,"N","Limited Partnership","","12","DE","United States","N"
2000399,"","ARGOSY STRATEGIC MANAGEMENT, L.P.",308096,7066,"Y","","","","","","","","610-971-9685","484-367-7786","Y","","","","","","","","MONFRI","","9AM-5:30PM","","N","N","N","Y","N","N","N","",,"N","Limited Partnership","","12","DE","United States","N"
2000399,"","ARGOSY HEALTHCARE MANAGEMENT, LLC",319646,9395,"Y","","","","","","","","610.971.9685","610.964.9524","Y","","","","","","","","MONFRI","","9AM-5:30PM","","N","N","N","Y","N","N","N","",,"N","Limited Liability Company","","12","DE","United States","N"
2003707,"","SILVER LAKE MANAGEMENT COMPANY III, L.L.C.",296017,4586,"Y","","","","","","","","(650) 233-8120","(650) 233-8125","N","","","","","","","N","MONFRI","","9:00AM-5:00PM PT","","Y","N","N","Y","N","N","N","",,"N","Limited Liability Company","","12","DE","United States","N"
2003707,"","SILVER LAKE MANAGEMENT COMPANY IV, L.L.C.",296021,4590,"Y","","","","","","","","(650) 233-8120","(650) 233-8125","N","","","","","","","N","MONFRI","","9:00AM-5:00PM PT","","Y","N","N","Y","N","N","N","",,"N","Limited Liability Company","","12","DE","United States","N"
2003707,"","SILVER LAKE MANAGEMENT COMPANY V, L.L.C.",296025,4594,"Y","","","","","","","","(650) 233-8120","(650) 233-8125","N","","","","","","","N","MONFRI","","9:00AM-5:00PM PT","","Y","N","N","Y","N","N","N","",,"N","Limited Liability Company","","12","DE","United States","N"
2003707,"","SILVER LAKE KRAFTWERK MANAGEMENT COMPANY, L.L.C.",296112,4672,"Y","","","","","","","","(650) 233-8120","(650) 233-8125","N","","","","","","","N","MONFRI","","9:00AM-5:00PM PT","","Y","N","N","Y","N","N","N","",,"N","Limited Liability Company","","12","DE","United States","N"
2003707,"","SILVER LAKE WATERMAN MANAGEMENT COMPANY, L.L.C.",296114,4673,"Y","","","","","","","","(650) 233-8120","(650) 233-8125","N","","","","","","","N","MONFRI","","9:00AM-5:00PM PT","","Y","N","N","Y","N","N","N","",,"N","Limited Liability Company","","12","DE","United States","N"
2003707,"","SILVER LAKE MANAGEMENT COMPANY SPV-1, L.L.C.",296126,4685,"Y","","","","","","","","(650) 233-8120","(650) 233-8125","N","","","","","","","N","MONFRI","","9:00AM-5:00PM PT","","Y","N","N","Y","N","N","N","",,"N","Limited Liability Company","","12","DE","United States","N"
2003707,"","SILVER LAKE ALPINE MANAGEMENT COMPANY, L.L.C.",297891,5409,"Y","","","","","","","","(650) 233-8120","(650) 233-8125","N","","","","","","","N","MONFRI","","9:00AM-5:00PM PT","","Y","N","N","Y","N","N","N","",,"N","Limited Liability Company","","12","DE","United States","N"
2003707,"","SILVER LAKE MANAGEMENT COMPANY SPV-2, L.L.C.",300843,5841,"Y","","","","","","","","(650) 233-8120","(650) 233-8125","N","","","","","","","N","MONFRI","","9:00AM-5:00PM PT","","Y","N","N","Y","N","N","N","",,"N","Limited Liability Company","","12","DE","United States","N"
2003707,"","SILVER LAKE WATERMAN MANAGEMENT COMPANY III, L.L.C.",301831,6255,"Y","","","","","","","","(650) 233-8120","(650) 233-8125","N","","","","","","","N","MONFRI","","9:00AM-5:00PM PT","","Y","N","N","Y","N","N","N","",,"N","Limited Liability Company","","12","DE","United States","N"
2003707,"","SILVER LAKE ALPINE MANAGEMENT COMPANY II, L.L.C.",307320,6891,"Y","","","","","","","","(650) 233-8120","(650) 233-8125","N","","","","","","","N","MONFRI","","9:00AM-5:00PM PT","","Y","N","N","Y","N","N","N","",,"N","Limited Liability Company","","12","DE","United States","N"
2003707,"","SILVER LAKE MANAGEMENT COMPANY VI, L.L.C.",307321,6892,"Y","","","","","","","","(650) 233-8120","(650) 233-8125","N","","","","","","","N","MONFRI","","9:00AM-5:00PM PT","","Y","N","N","Y","N","N","N","",,"N","Limited Liability Company","","12","DE","United States","N"
2003707,"","SILVER LAKE MANAGEMENT COMPANY LTC, L.L.C.",311151,7850,"Y","","","","","","","","(650) 233-8120","(650) 233-8125","N","","","","","","","N","MONFRI","","9:00AM-5:00PM PT","","Y","N","N","Y","N","N","N","",,"N","Limited Liability Company","","12","DE","United States","N"
2003707,"","SILVER LAKE MANAGEMENT COMPANY SPV-3, L.L.C.",312186,8006,"Y","","","","","","","","(650) 233-8120","(650) 233-8125","N","","","","","","","N","MONFRI","","9:00AM-5:00PM PT","","Y","N","N","Y","N","N","N","",,"N","Limited Liability Company","","12","DE","United States","N"
2003707,"","SILVER LAKE MANAGEMENT COMPANY VII, L.L.C.",316916,8983,"Y","","","","","","","","(650) 233-8120","(650) 233-8125","N","","","","","","","N","MONFRI","","9:00AM-5:00PM PT","","Y","N","N","Y","N","N","N","",,"N","Limited Liability Company","","12","DE","United States","N"
2003707,"","SILVER LAKE MANAGEMENT COMPANY SPV-4, L.L.C.",331070,11543,"Y","","","","","","","","(650) 233-8120","(650) 233-8125","N","","","","","","","N","MONFRI","","9:00AM-5:00PM PT","","N","N","N","Y","N","N","N","",,"N","Limited Liability Company","","12","DE","United States","N"
2003707,"","SLPE MANAGEMENT COMPANY, L.L.C.",335961,12499,"Y","","","","","","","","(650) 233-8120","(650) 233-8125","N","","","","","","","N","MONFRI","","9:00AM-5:00PM PT","","N","N","N","Y","N","N","N","",,"N","Limited Liability Company","","12","DE","United States","N"
2003014,"MAVEN FUND MANAGER","MAVEN FUND MANAGER, LLC",338082,12858,"Y","","","","","","","","248-436-0006","","Y","","","","","","","","MONFRI","","9:00AM-5:00PM","","N","N","N","Y","N","N","N","",,"N","Limited Liability Company","","12","DE","United States","N"
2002165,"LIGHTBAY CAPITAL","LIGHTBAY CAPITAL LP",334173,12130,"Y","","","","","","","","310-919-4300","","Y","","","","","","","","MONFRI","","8:00 AM - 5:00 PM","","Y","N","N","Y","N","N","N","",,"N","Limited Partnership","","12","DE","United States","N"
2001573,"GRIP ENERGY TRANSITION MANAGEMENT, LLC","GRIP ENERGY TRANSITION MANAGEMENT, LLC",322209,9821,"Y","","","","","","","","214-396-2850","","Y","","","","","","","","MONFRI","","9AM-5PM","","Y","N","N","Y","N","N","N","",,"N","Limited Liability Company","","12","DE","United States","N"
2001573,"GREY ROCK MANAGEMENT PARTNERS V, LLC","GREY ROCK MANAGEMENT PARTNERS V, LLC",332728,11873,"Y","","","","","","","","214-396-2850","","Y","","","","","","","","MONFRI","","9AM TO 5PM","","Y","N","N","Y","N","N","N","",,"N","Limited Liability Company","","12","TX","United States",""
2005708,"","CHICAGO ATLANTIC EQUITY ADVISERS, LLC",322808,9904,"Y","","","","","","","","5857398892","","Y","","","","","","","","MONFRI","","8AM - 4PM","","Y","N","N","N","N","N","N","",,"N","Limited Liability Company","","12","DE","United States","N"
2005708,"","CHICAGO ATLANTIC CO3 ADVISERS, LLC",327910,10983,"Y","","","","","","","","3128097002","","Y","","","","","","","","MONFRI","","9 A.M. - 5 P.M.","","N","N","N","Y","N","N","N","",,"N","Limited Liability Company","","12","DE","United States","N"
2005708,"","CHICAGO ATLANTIC INVESTMENT MANAGEMENT, LLC",327912,10984,"Y","","","","","","","","3128097002","","Y","","","","","","","","MONFRI","","9 A.M. - 5 P.M.","","N","N","N","Y","N","N","N","",,"N","Limited Liability Company","","12","DE","United States","N"
2005708,"","CHICAGO ATLANTIC BDC HOLDINGS, LLC",331986,11723,"Y","","","","","","","","(585) 739-8892","","Y","","","","","","","","MONFRI","","8AM - 4PM","","N","N","N","Y","N","N","N","",,"N","Limited Liability Company","","12","DE","United States","N"
2001858,"MOTIVE UK ADVISORS, LLP","MOTIVE UK ADVISORS, LLP",292688,6416,"N","THE COLUMBUS BUILDING, 7 WESTFERRY CIRCUS","CANARY WHARF","LONDON","","United Kingdom","E14 4HB","N","+442037616133","","N","THE COLUMBUS BUILDING, 7 WESTFERRY CIRCUS","CANARY WHARF","LONDON","","United Kingdom","E14 4HB","N","MONFRI","","9-5","","N","N","Y","N","N","N","N","",,"N","Limited Liability Partnership","","12","","United Kingdom","N"
2001858,"MOTIVE VENTURES","MOTIVE VENTURES MANAGEMENT GMBH",325748,10357,"N","KURFÜRSTENDAMM 185","","BERLIN","","Germany","10707","N","+491778181044","","N","","","","","","","N","MONFRI","","9:00 AM - 5:00 PM","","N","N","Y","N","N","N","N","",,"N","Other (specify)","GMBH","12","","Germany","N"
2001858,"MOTIVE VENTURES","MOTIVE VENTURES, B.V.",329388,11179,"N","","","","","","","Y","+31612717157","","Y","","","","","","","","MONFRI","","9 - 5","","N","N","Y","N","N","N","N","",,"N","Other (specify)","B.V.","12","","Netherlands","N"
2001733,"","DISTRIBUTED GLOBAL VENTURES MANAGER LLC",310521,8664,"Y","","","","","","","","213-725-7514","","Y","","","","","","","","MONFRI","","9:00 A.M. - 5:00 P.M.","","N","N","N","Y","N","N","N","",,"N","Limited Liability Company","","12","DE","United States","N"
2001733,"","DG SPV GP LLC",314781,8665,"Y","","","","","","","","213-725-7514","","Y","","","","","","","","MONFRI","","9:00 A.M. - 5:00 P.M.","","N","N","N","Y","N","N","N","",,"N","Limited Liability Company","","12","DE","United States","N"
2001733,"","DISTRIBUTED GLOBAL VENTURES II MANAGER LLC",314941,8696,"Y","","","","","","","","213-725-7514","","Y","","","","","","","","MONFRI","","9:00 A.M. - 5:00 P.M.","","N","N","N","Y","N","N","N","",,"N","Limited Liability Company","","12","DE","United States","N"
2001733,"DISTRIBUTED GLOBAL BH MANAGER, LLC","DISTRIBUTED GLOBAL BH MANAGER, LLC",315340,8750,"Y","","","","","","","","213-725-7514","","Y","","","","","","","","MONFRI","","9:00 A.M. - 5:00 P.M.","","Y","N","N","Y","N","N","N","",,"N","Limited Liability Company","","12","DE","United States","N"
2001733,"","DISTRIBUTED GLOBAL VENTURES III MANAGER LLC",289332,9587,"Y","","","","","","","","213-725-7514","","Y","","","","","","","","MONFRI","","9:00 A.M. - 5:00 P.M.","","Y","N","N","Y","N","N","N","",,"N","Limited Liability Company","","12","DE","United States","N"
2001733,"","DISTRIBUTED GLOBAL VENTURES IV MANAGER LLC",331893,11699,"Y","","","","","","","","213-725-7514","","Y","","","","","","","","MONFRI","","9:00 A.M. - 5:00 P.M.","","N","N","N","Y","N","N","N","",,"N","Limited Liability Company","","12","DE","United States","N"
2000883,"POWER INNOVATION GP, LLC","POWER INNOVATION GP, LLC",331757,11674,"Y","","","","","","","","307-421-6700","","N","","","","","","","N","MONFRI","","9AM-5PM","98450090E76E4AC4IE04","N","N","N","Y","N","N","N","",,"N","Limited Liability Company","","12","DE","United States","N"
1986919,"CERCANO MANAGEMENT ASIA PTE. LTD.","CERCANO MANAGEMENT ASIA PTE. LTD.",324464,10081,"N","328 NORTH BRIDGE ROAD #02-20","","RAFFLES SHOPPING ARCADE","","Singapore","188719","N","+65- 91000483","","N","","","","","","","N","MONFRI","","9AM - 5PM","","N","N","Y","N","N","N","N","",,"N","Limited Liability Company","","12","","Singapore","N"
2005398,"PIONEER SECONDARY MANAGERS LLC","PIONEER SECONDARY MANAGERS, LLC",324203,10060,"Y","","","","","","","","2128385577","2128387614","Y","","","","","","","","MONFRI","","9AM-5PM","","Y","N","N","N","N","N","N","",,"N","Limited Liability Company","","12","DE","United States","N"
1999874,"","BAIN CAPITAL CREDIT U.S. CLO MANAGER, LLC",298188,5464,"Y","","","","","","","","6175162000","6175162010","Y","","","","","","","","MONFRI","","8:30 - 5:30","","Y","N","N","N","N","N","N","",,"N","Limited Liability Company","","12","DE","United States","N"
1999874,"","BAIN CAPITAL CREDIT CLO ADVISORS, LP",285892,7062,"Y","","","","","","","","617-516-2318","617-516-2289","Y","","","","","","","","MONFRI","","7:30 AM - 8:00 PM","","Y","N","N","N","N","N","N","",,"N","Limited Partnership","","12","DE","United States","N"
1999874,"","BAIN CAPITAL CREDIT U.S. CLO MANAGER II, LP",317877,9112,"Y","","","","","","","","6175162000","6175162010","Y","","","","","","","","MONFRI","","8:30 - 5:30","","Y","N","N","N","N","N","N","",,"N","Limited Partnership","","12","DE","United States","N"
1999874,"","BAIN CAPITAL SPECIAL SITUATIONS, LP.",334804,12233,"N","200 CLARENDON ST.","","BOSTON","MA","United States","02116","N","617-516-2318","617-516-2289","Y","","","","","","","","MONFRI","","7:30AM-8:00PM","","N","N","N","Y","N","N","N","",,"N","Limited Partnership","","12","DE","United States","N"
1999874,"","BAIN CAPITAL CREDIT CLO MANAGEMENT III (DE), LP",337224,12742,"Y","","","","","","","","6175162000","6175162010","Y","","","","","","","","MONFRI","","8:30 - 5:30","","N","N","N","Y","N","N","N","",,"N","Limited Partnership","","12","DE","United States","N"
2005487,"","MACQUARIE ALLIANCE PARTNERS MANAGEMENT, LLC",324742,10141,"Y","","","","","","","","212-231-1000","","N","","","","","","","N","MONFRI","","9 AM TO 6 PM","","Y","N","N","N","N","N","N","",,"N","Limited Liability Company","","03","DE","United States","N"
2005487,"","MACQUARIE REAL ESTATE MANAGEMENT (US), LLC",327094,10830,"Y","","","","","","","","212-231-1000","","Y","","","","","","","","MONFRI","","9 AM TO 6 PM","","N","N","N","Y","N","N","N","",,"N","Limited Liability Company","","03","DE","United States","N"
2005210,"GRAHAM PARTNERS MANAGEMENT III, L.P.","GRAHAM PARTNERS MANAGEMENT III, L.P.",295690,4277,"Y","","","","","","","","610-408-0500","610-408-0600","N","","","","","","","N","MONFRI","","9AM - 5PM","","N","N","N","Y","N","N","N","",,"N","Limited Partnership","","12","DE","United States","N"
2005210,"GRAHAM PARTNERS MANAGEMENT IV, L.P.","GRAHAM PARTNERS MANAGEMENT IV, L.P.",295691,4278,"Y","","","","","","","","610-408-0500","610-408-0600","N","","","","","","","N","MONFRI","","9AM - 5PM","","N","N","N","Y","N","N","N","",,"N","Limited Partnership","","12","DE","United States","N"
2005210,"GRAHAM PARTNERS GROWTH, LLC","GRAHAM PARTNERS GROWTH, LLC",313433,8164,"Y","","","","","","","","610-408-0500","610-408-0600","N","","","","","","","N","MONFRI","","9AM - 5PM","","N","N","N","Y","N","N","N","",,"N","Limited Liability Company","","12","DE","United States","N"
2005210,"GCI OPPORTUNITIES I (GCIO I), LLC","GCI OPPORTUNITIES I (GCIO I), LLC",331424,11645,"Y","","","","","","","","610-408-0500","610-408-0600","Y","","","","","","","","MONFRI","","9:00 AM - 5:00 PM","","N","N","N","Y","N","N","N","",,"N","Limited Liability Company","","12","DE","United States","Y"
2000214,"BRIDGE INVESTMENT GROUP","BRIDGE SENIORS HOUSING FUND MANAGER LLC",305980,6692,"Y","","","","","","","","8017164553","","Y","","","","","","","","MONFRI","","8 AM TO 5 PM","","Y","N","N","N","N","N","N","",,"N","Limited Liability Company","","12","DE","United States","N"
2000214,"BRIDGE INVESTMENT GROUP","BRIDGE DEBT STRATEGIES FUND MANAGER LLC",306019,6696,"Y","","","","","","","","8017164553","","Y","","","","","","","","MONFRI","","8 AM TO 5 PM","","Y","N","N","N","N","N","N","",,"N","Limited Liability Company","","12","DE","United States","N"
2000214,"BRIDGE INVESTMENT GROUP","BRIDGE OFFICE FUND MANAGER LLC",306024,6697,"Y","","","","","","","","8017164553","","Y","","","","","","","","MONFRI","","8 AM TO 5 PM","","Y","N","N","N","N","N","N","",,"N","Limited Liability Company","","12","DE","United States","N"
2000214,"BRIDGE INVESTMENT GROUP","BRIDGE DEVELOPMENT FUND MANAGER LLC",306027,6698,"Y","","","","","","","","8017164553","","Y","","","","","","","","MONFRI","","8 AM TO 5 PM","","Y","N","N","N","N","N","N","",,"N","Limited Liability Company","","12","DE","United States","N"
2000214,"BRIDGE INVESTMENT GROUP","BRIDGE AGENCY MBS FUND MANAGER LLC",306028,6699,"Y","","","","","","","","8017164553","","Y","","","","","","","","MONFRI","","8 AM TO 5 PM","","Y","N","N","N","N","N","N","",,"N","Limited Liability Company","","12","DE","United States","N"
2000214,"BRIDGE INVESTMENT GROUP","BRIDGE LOGISTICS PROPERTIES FUND MANAGER LLC",316625,8944,"Y","","","","","","","","801-716-4500","","Y","","","","","","","","MONFRI","","8 AM TO 5 PM","","Y","N","N","N","N","N","N","",,"N","Limited Liability Company","","12","DE","United States","N"
2000214,"BRIDGE INVESTMENT GROUP","BRIDGE SINGLE-FAMILY RENTAL FUND MANAGER LLC",318846,9247,"Y","","","","","","","","801-716-4500","","Y","","","","","","","","MONFRI","","8 AM TO 5 PM","","Y","N","N","N","N","N","N","",,"N","Limited Liability Company","","12","DE","United States","Y"
2000214,"BRIDGE INVESTMENT GROUP","BRIDGE RENEWABLE ENERGY FUND MANAGER LLC",325392,10277,"Y","","","","","","","","801-716-4500","","Y","","","","","","","","MONFRI","","8 AM TO 5 PM","","Y","N","N","N","N","N","N","",,"N","Limited Liability Company","","12","DE","United States","N"
2000214,"BRIDGE INVESTMENT GROUP","NEWBURY PARTNERS-BRIDGE LLC",326384,10690,"Y","","","","","","","","801-716-4500","","Y","","","","","","","","MONFRI","","8:00 AM - 5:00 PM","","Y","N","N","N","N","N","N","",,"N","Limited Liability Company","","12","DE","United States","N"
2001331,"","ARGAND PARTNERS FUND GP, LP",296620,5111,"Y","","","","","","","","212.588.6470","","N","","","","","","","N","MONFRI","","8:30AM-6:30PM","","Y","N","N","N","N","N","N","",,"N","Limited Partnership","","12","","Cayman Islands","N"
2001331,"","ARGAND PARTNERS SEA FUND GP, LP",296623,5113,"Y","","","","","","","","212.588.6470","","N","","","","","","","N","MONFRI","","8:30AM-6:30PM","","Y","N","N","N","N","N","N","",,"N","Limited Partnership","","12","","Cayman Islands","N"
2002229,"","TRINITY LEGACY ALTERNATIVE STRATEGIES, LLC",310938,7832,"Y","","","","","","","","713-999-8053","713-574-5782","N","","","","","","","N","MONFRI","","8AM - 5PM","","Y","N","N","N","N","N","N","",,"N","Limited Liability Company","","12","DE","United States",""
2004324,"","CORIGIN VENTURES INVESTMENT MANAGEMENT LLC",326392,10697,"Y","","","","","","","","860-501-0289","","Y","","","","","","","","MONFRI","","9AM - 6PM","","N","N","N","Y","N","N","N","",,"N","Limited Liability Company","","12","DE","United States","N"
2004324,"","ALPACA DIRECT INVEST MANAGER LLC",326394,10699,"Y","","","","","","","","860-501-0289","","Y","","","","","","","","MONFRI","","9AM - 6PM","","N","N","N","Y","N","N","N","",,"N","Limited Liability Company","","12","DE","United States","N"
2004153,"","VÄRDE PARTNERS EUROPE LIMITED",293341,2442,"N","3RD FLOOR","2 ST. JAMES'S MARKET","LONDON","","United Kingdom","SW1Y4AH","N","44 (0)20 7808 3370","44 (0)20 7808 3371","N","","","","","","","N","MONFRI","","7:00 AM - 6:00 PM","549300TFSGB38HXR0G07","N","N","Y","N","N","N","N","",,"N","Other (specify)","LIMITED COMPANY","12","","United Kingdom","N"
2004153,"","VARDE PARTNERS ASIA PTE. LTD.",293342,2443,"N","88 MARKET STREET","#23-04","SINGAPORE","","Singapore","048948","N","65 6579 0800","65 6579 0801","N","","","","","","","N","MONFRI","","8:30 AM - 6:00 PM","5493004UVHSITXBRU248","N","N","Y","N","N","N","N","",,"N","Other (specify)","PRIVATE LIMITED COMPANY","12","","Singapore","N"
2004153,"","VARDE INDIA INVESTMENT ADVISER PRIVATE LIMITED",300345,5765,"N","NO 77, 3 NORTH AVENUE, MAKER MAXITY","BANDRA KURLA COMPLEX","MUMBAI","","India","400051","N","91 22 4921 7300","91 22 4921 7399","N","","","","","","","N","MONFRI","","8:30 AM - 6:00 PM","","N","N","Y","N","N","N","N","",,"N","Other (specify)","PRIVATE LIMITED COMPANY","03","","India","N"
2004153,"","MPOWERED CAPITAL, LLC",317880,9114,"N","350 N 5TH STREET","SUITE 800","MINNEAPOLIS","MN","United States","55401","N","952-374-5100","","N","","","","","","","N","MONFRI","","8:30 AM - 6:00 PM","","Y","N","N","N","N","N","N","",,"N","Limited Liability Company","","12","DE","United States","N"
2004153,"","VP COLLATERAL MANAGEMENT LLC",320843,9583,"Y","","","","","","","","212-321-3780","212-321-3799","Y","","","","","","","","MONFRI","","7:00 AM - 6:00 PM","","N","N","N","Y","N","N","N","",,"N","Limited Liability Company","","12","DE","United States","N"
2004153,"","UNITY INVESTMENT MANAGEMENT LLC",332589,11842,"Y","","","","","","","","212-321-3780","212-321-3799","Y","","","","","","","","MONFRI","","7:00 AM - 6:00 PM","","N","N","N","Y","N","N","N","",,"N","Limited Liability Company","","12","DE","United States","N"
2004205,"","GA-IP MANAGEMENT, LLC",336608,12692,"N","3000 SANDHILL RD","STE 245","MENLO PARK","CA","United States","94025","N","(650) 704-4311","","N","","","","","","","N","MONFRI","","9AM-5PM","","N","Y","N","N","N","N","N","",,"N","Limited Liability Company","","12","DE","United States",""
2001238,"WIL STRATEGIC PARTNERS, LLC","WIL STRATEGIC PARTNERS, LLC",306010,9804,"Y","","","","","","","","650-308-4907","","N","","","","","","","N","MONFRI","","8:00AM - 5:00PM","","Y","N","N","N","N","N","N","",,"N","Limited Liability Company","","12","DE","United States","N"
2004855,"","ABBOTT CAPITAL (EUROPE) LTD",292282,1872,"N","53 DAVIES STREET","","LONDON","","United Kingdom","W1K5JH","N","+442031782613","","N","","","","","","","N","MONFRI","","9AM TO 5:30PM GMT","","N","N","Y","N","N","N","N","",,"N","Other (specify)","U.K. LTD","12","","United Kingdom","Y"
2004465,"THE INVUS GROUP, LLC","THE INVUS GROUP, LLC",332381,11804,"N","750 LEXINGTON AVENUE","30TH FLOOR","NEW YORK","NY","United States","10022","N","212-371-1717","","N","","","","","","","N","MONFRI","","9:00AM - 6:00PM","25490080SCDNSZQET771","Y","N","N","N","N","N","N","",,"N","Limited Liability Company","","12","DE","United States","N"
2004465,"AVICENNA MANAGEMENT LP","AVICENNA MANAGEMENT LP",332382,11805,"N","750 LEXINGTON AVENUE","30TH FLOOR","NEW YORK","NY","United States","10022","N","212-371-1717","","N","","","","","","","N","MONFRI","","9:00AM - 6:00PM","254900EJ7FT8J2D16244","Y","N","N","N","N","N","N","",,"N","Limited Partnership","","12","DE","United States","N"
2006769,"","BLACKROCK US LOAN FUNDING LLC, MANAGEMENT SERIES",336174,12646,"Y","","","","","","","","212 810 5300","","N","","","","","","","N","MONFRI","","7:30AM TO 7:30PM","","N","N","N","Y","N","N","N","",,"N","Limited Liability Company","","12","DE","United States","N"
2002517,"SOUNDCORE CAPITAL PARTNERS MANAGEMENT, LLC","SOUNDCORE CAPITAL PARTNERS MANAGEMENT, LLC",288290,5320,"Y","","","","","","","","212-812-1180","646-349-1697","N","","","","","","","N","MONFRI","","9:30 AM - 5:30  PM","","N","N","N","Y","N","N","N","",,"N","Limited Liability Company","","12","DE","United States","N"
2000746,"ASTO CONSUMER PARTNERS LP","ASTO CONSUMER PARTNERS LP",332653,11861,"N","600 WEST 5TH STREET","SUITE 1200","AUSTIN","TX","United States","78701","N","512-785-9710","","Y","","","","","","","","OTHER","BY APPOINTMENT","BY APPOINTMENT","","Y","N","N","N","N","N","N","",,"N","Limited Liability Company","","12","DE","United States","N"
2000806,"","FARALLON CAPITAL ASIA PTE. LTD.",292836,2140,"N","250 NORTH BRIDGE ROAD","NO. 24-00 RAFFLES CITY TOWER","FOREIGN","","Singapore","179101","N","65-6338-2132","","N","","","","","","","N","MONFRI","","8:00 A.M. TO 5:00 P.M.","549300EVLT6DQBN6IB08","N","N","Y","N","N","N","N","",,"N","Corporation","","12","","Singapore","N"
2000806,"","FARALLON CAPITAL JAPAN LLC",292839,2141,"N","ATAGO GREEN HILLS MORI TOWER 35F","5-1 ATAGO 2-CHOME, MINATO-KU","TOKYO","","Japan","105-6235","N","81-3-6450-1991","","N","","","","","","","N","MONFRI","","8:00 A.M. TO 5:00 P.M.","","N","N","Y","N","N","N","N","",,"N","Limited Liability Company","","12","","Japan","N"
2000806,"","FARALLON CAPITAL ASIA (HK) LIMITED",292861,2149,"N","TWO INTERNATIONAL FINANCIAL CTR, NO. 8 FINANCE ST.","SUITE 5701, 57TH FLOOR","CENTRAL","","Hong Kong","","N","852-2597-0100","","N","","","","","","","N","MONFRI","","8:00 A.M. TO 5:00 P.M.","549300QNPWJWLUQY1E23","N","N","Y","N","N","N","N","",,"N","Corporation","","12","","Hong Kong","N"
2000806,"","FARALLON LATIN AMERICA INVESTIMENTOS LTDA.",292862,2150,"N","AV. BRIG. FARIA LIMA, 2277 - CJ. 1603","","SÂO PAULO","","Brazil","04536-001","N","55 11 2050 9303","","N","","","","","","","N","MONFRI","","8:00 A.M. TO 5:00 P.M.","","N","N","Y","N","N","N","N","",,"N","Corporation","","12","","Brazil","N"
2000806,"","FARALLON CAPITAL EUROPE LLP",138713,12382,"N","ONE HOOPER'S COURT","","LONDON","","United Kingdom","SW3 1AF","N","0044-207-395-7200","","N","","","","","","","N","MONFRI","","8:00AM - 5:00PM","Z6OMQP4TE39U16VF3F78","N","N","Y","N","N","N","N","",,"N","Limited Liability Partnership","","03","","United Kingdom","N"
2003450,"","LINEPOINT INVESTMENTS GP, LLC",334650,12208,"Y","","","","","","","","(323) 886-3635","FAX: (323) 538-8740","Y","","","","","","","","MONFRI","","8:00 AM TO 5:00 PM","","N","N","N","Y","N","N","N","",,"N","Limited Liability Company","","12","DE","United States","N"
1999383,"STONECUTTER VENTURES LLC","STONECUTTER VENTURES LLC",298590,10992,"Y","","","","","","","","212-920-6376","","Y","","","","","","","","MONFRI","","9 AM TO 5 PM","","N","N","N","Y","N","N","N","",,"N","Limited Liability Company","","12","DE","United States","N"
2002266,"TVV GP II, LLC","TVV GP II, LLC",319542,9908,"Y","","","","","","","","925-621-1003","","Y","","","","","","","","MONFRI","","9 A.M. TO 5 P.M.","","N","N","N","Y","N","N","N","",,"N","Limited Liability Company","","12","DE","United States","N"
2002266,"TVV GP, LLC","TVV GP, LLC",319541,9909,"Y","","","","","","","","925-621-1001","","Y","","","","","","","","MONFRI","","9 A.M. TO 5 P.M.","","N","N","N","Y","N","N","N","",,"N","Limited Liability Company","","12","DE","United States","N"
2002285,"","GALAXY VISION HILL ASSET MANAGEMENT LLC",315734,8815,"Y","","","","","","","","212-499-0081","","N","","","","","","","N","MONFRI","","9:00AM - 5:00PM","","Y","N","N","N","N","N","N","",,"N","Limited Liability Company","","12","DE","United States","N"
2002413,"","CLOVER CLO ADVISORS, LLC",294623,7824,"N","345 PARK AVENUE","31ST FLOOR","NEW YORK","NY","United States","10154","N","212-503-2100","212-503-6930","N","","","","","","","N","MONFRI","","8:30 AM - 5:30 PM","","Y","N","N","N","N","N","N","",,"N","Limited Liability Company","","12","DE","United States","Y"
2002455,"","TREE LINE DIRECT LENDING GP, LLC",293883,2810,"Y","","","","","","","","415-795-7575","","N","","","","","","","N","MONFRI","","9-5","","N","N","N","Y","N","N","N","",,"N","Limited Liability Company","","12","DE","United States","Y"
2002455,"","TREE LINE DIRECT LENDING II GP, LLC",301323,5975,"Y","","","","","","","","415-795-7575","","N","","","","","","","N","MONFRI","","9-5","","N","N","N","Y","N","N","N","",,"N","Limited Liability Company","","12","DE","United States","Y"
2002455,"","TLDL (SC) GP, LLC",301798,6239,"Y","","","","","","","","415-795-7575","","N","","","","","","","N","MONFRI","","9-5","","N","N","N","Y","N","N","N","",,"N","Limited Liability Company","","12","DE","United States","Y"
2002455,"","ENHANCED SBIC II GP, LLC",314096,8441,"Y","","","","","","","","415-795-7575","","N","","","","","","","N","MONFRI","","9-5","","N","N","N","Y","N","N","N","",,"N","Limited Liability Company","","12","DE","United States","N"
2002455,"","TREE LINE DIRECT LENDING III GP, LLC",320837,9579,"Y","","","","","","","","415-795-7575","","N","","","","","","","N","MONFRI","","9-5","","N","N","N","Y","N","N","N","",,"N","Limited Liability Company","","12","DE","United States","Y"
2002455,"","PPC-TL SENIOR SECONDARY LOANS GP, LLC",326293,10637,"Y","","","","","","","","415-795-7575","","N","","","","","","","N","MONFRI","","9-5","","N","N","N","Y","N","N","N","",,"N","Limited Liability Company","","12","DE","United States","N"
2002455,"","TREE LINE DIRECT LENDING IV GP, LLC",335937,12475,"Y","","","","","","","","415-795-7575","","N","","","","","","","N","MONFRI","","9-5","","N","N","N","Y","N","N","N","",,"N","Limited Liability Company","","12","DE","United States","N"
2002455,"","TREE LINE SBIC GP, LLC",336001,12523,"Y","","","","","","","","415-795-7575","","N","","","","","","","N","MONFRI","","9-5","","N","N","N","Y","N","N","N","",,"N","Limited Liability Company","","12","DE","United States","N"
2002455,"","TREE LINE ISAR SENIOR LOAN FUND GP, LLC",336071,12573,"Y","","","","","","","","415-795-7575","","N","","","","","","","N","MONFRI","","9-5","","N","N","N","Y","N","N","N","",,"N","Limited Liability Company","","12","DE","United States","N"
2002466,"","TREE LINE DIRECT LENDING GP, LLC",293883,2810,"Y","","","","","","","","415-795-7575","","N","","","","","","","N","MONFRI","","9-5","","N","N","N","Y","N","N","N","",,"N","Limited Liability Company","","12","DE","United States","Y"
2002466,"","TREE LINE DIRECT LENDING II GP, LLC",301323,5975,"Y","","","","","","","","415-795-7575","","N","","","","","","","N","MONFRI","","9-5","","N","N","N","Y","N","N","N","",,"N","Limited Liability Company","","12","DE","United States","Y"
2002466,"","TLDL (SC) GP, LLC",301798,6239,"Y","","","","","","","","415-795-7575","","N","","","","","","","N","MONFRI","","9-5","","N","N","N","Y","N","N","N","",,"N","Limited Liability Company","","12","DE","United States","Y"
2002466,"","ENHANCED SBIC II GP, LLC",314096,8441,"Y","","","","","","","","415-795-7575","","N","","","","","","","N","MONFRI","","9-5","","N","N","N","Y","N","N","N","",,"N","Limited Liability Company","","12","DE","United States","N"
2002466,"","TREE LINE DIRECT LENDING III GP, LLC",320837,9579,"Y","","","","","","","","415-795-7575","","N","","","","","","","N","MONFRI","","9-5","","N","N","N","Y","N","N","N","",,"N","Limited Liability Company","","12","DE","United States","Y"
2002466,"","PPC-TL SENIOR SECONDARY LOANS GP, LLC",326293,10637,"Y","","","","","","","","415-795-7575","","N","","","","","","","N","MONFRI","","9-5","","N","N","N","Y","N","N","N","",,"N","Limited Liability Company","","12","DE","United States","N"
2002466,"","TREE LINE DIRECT LENDING IV GP, LLC",335937,12475,"Y","","","","","","","","415-795-7575","","N","","","","","","","N","MONFRI","","9-5","","N","N","N","Y","N","N","N","",,"N","Limited Liability Company","","12","DE","United States","N"
2002466,"","TREE LINE SBIC GP, LLC",336001,12523,"Y","","","","","","","","415-795-7575","","N","","","","","","","N","MONFRI","","9-5","","N","N","N","Y","N","N","N","",,"N","Limited Liability Company","","12","DE","United States","N"
2002466,"","TREE LINE ISAR SENIOR LOAN FUND GP, LLC",336071,12573,"Y","","","","","","","","415-795-7575","","N","","","","","","","N","MONFRI","","9-5","","N","N","N","Y","N","N","N","",,"N","Limited Liability Company","","12","DE","United States","N"
1997787,"","SAVA PARTNERS LLC",337550,12788,"N","1411 BROADWAY","16TH FLOOR, SUITE 25","NEW YORK","NY","United States","10018","N","914-924-4988","","N","","","","","","","N","MONFRI","","9-5","","Y","N","N","N","N","N","N","",,"N","Limited Liability Company","","12","DE","United States",""
2001032,"KELLY PARK MANAGEMENT LLC","KELLY PARK MANAGEMENT LLC",300778,5821,"Y","","","","","","","","212 710 4111","","N","","","","","","","N","MONFRI","","8AM-6PM","","N","N","N","Y","N","N","N","",,"N","Limited Liability Company","","12","DE","United States","N"
2003944,"HOUSATONIC PARTNERS","HOUSATONIC PARTNERS MANAGEMENT CO., INC.",294549,3323,"Y","","","","","","","","415-955-9020","","Y","","","","","","","","MONFRI","","9 AM - 5 PM","","Y","N","N","N","N","N","N","",,"N","Corporation","","12","DE","United States",""
2005377,"","LHP IRELAND FUND MANAGEMENT LIMITED",291561,1639,"N","2ND FLOOR, BEAUX LANE HOUSE","MERCER STREET LOWER","DUBLIN","","Ireland","2","N","+353 (0)1 697 3200","+353 (1) 697 3300","N","2ND FLOOR, BEAUX LANE HOUSE","MERCER STREET LOWER","DUBLIN","","Ireland","2","N","MONFRI","","8:30 A.M. TO 5:30 P.M.","54930076KWFQNLV57I60","Y","N","Y","N","N","N","N","",,"N","Corporation","","06","","Ireland","N"
2005377,"","NORTH ROCK CAPITAL MANAGEMENT, LLC",291563,1640,"Y","","","","","","","","1-561-741-0820","1-561-748-9046","Y","","","","","","","","MONFRI","","8:30 A.M. TO 5:30 P.M.","549300EOKK5V31Q6OT17","Y","N","N","N","N","N","N","",,"N","Limited Liability Company","","06","DE","United States","N"
2005377,"","MISSION CREST CAPITAL MANAGEMENT, LLC",314352,8605,"Y","","","","","","","","1-561-741-0820","1-561-748-9046","Y","","","","","","","","MONFRI","","8:30 A.M. TO 5:30 P.M.","549300DUJ9FYC2MEDP52","Y","N","N","Y","N","N","N","",,"N","Limited Liability Company","","06","DE","United States","N"
2005377,"","NORTH ROCK CAPITAL MANAGEMENT (UK) LLP",314524,8636,"N","48-49 PALL MALL","ST. JAMES","LONDON","","United Kingdom","SW1Y5JG","N","+442031899470","","Y","","","","","","","","MONFRI","","8:30 A.M. TO 5:30 P.M.","549300IL8TQT0JMDJJ80","N","N","Y","N","N","N","N","",,"N","Limited Liability Partnership","","06","","United Kingdom","N"
2005377,"","PIER61 PARTNERS, LLC",319687,9409,"Y","","","","","","","","1-561-741-0820","1-561-748-9046","Y","","","","","","","","MONFRI","","8:30 A.M. TO 5:30 P.M.","549300DLSCCVGLFUV503","Y","N","N","Y","N","N","N","",,"N","Limited Liability Company","","06","DE","United States","N"
2005377,"","NORTH ROCK CAPITAL MANAGEMENT (HK) LIMITED",326539,10749,"N","31 QUEEN'S ROAD CENTRAL","28TH FLOOR","HONG KONG","","Hong Kong","","N","+852 5806 3400","","N","","","","","","","N","MONFRI","","8:30 AM TO 5:30PM","549300ITQZJFRAVUTR37","N","N","Y","N","N","N","N","",,"N","Other (specify)","LIMITED COMPANY","06","","Hong Kong","N"
2005377,"","LIGHTHOUSE PARTNERS (DIFC) LIMITED",328468,11039,"N","UNIT GD-GB-00-15-BC-06","LEVEL 15, GATE BUILDING, DIFC","DUBAI","","United Arab Emirates","","N","971 4 40 19741","","N","","","","","","","N","MONFRI","","8:30 A.M. TO 5:30 P.M.","","N","N","Y","N","N","N","N","",,"N","Other (specify)","PRIVATE COMPANY","06","","United Arab Emirates","N"
2005377,"","LIGHTHOUSE QUANTRARIAN CAPITAL MANAGEMENT, LLC",330617,11354,"Y","","","","","","","","1-561-741-0820","1-561-748-9046","Y","","","","","","","","MONFRI","","8:30 A.M. TO 5:30 P.M.","254900E4KI6DWEQXQA96","N","N","N","Y","N","N","N","",,"N","Limited Liability Company","","06","DE","United States","N"
2005377,"","NORTH ROCK CAPITAL MANAGEMENT (SG) PTE. LTD.",331800,11682,"N","138 MARKET STREET","#05-00 CAPITAGREEN","SINGAPORE","","Singapore","048946","N","+65 6018 8233","","N","","","","","","","N","MONFRI","","8:30 A.M. TO 5:30 P.M","254900VU5HNT9U4T6S31","N","N","Y","N","N","N","N","",,"N","Other (specify)","PRIVATE LIMITED COMPANY","06","","Singapore","N"
2005377,"","PENGLAI PEAK CAPITAL MANAGEMENT, LLC",332529,11833,"Y","","","","","","","","1-561-741-0820","1-561-748-9046","Y","","","","","","","","MONFRI","","8:30 A.M. TO 5:30 P.M.","254900M02VUKPN740867","Y","N","N","Y","N","N","N","",,"N","Limited Liability Company","","06","DE","United States","N"
2005377,"","LH CREDIT PARTNERS LLC",334976,12249,"Y","","","","","","","","1-561-741-0820","1-561-748-9046","Y","","","","","","","","MONFRI","","8:30 A.M. TO 5:30 P.M.","","N","N","N","Y","N","N","N","",,"N","Limited Liability Company","","06","DE","United States","N"
2001838,"","VIKING GLOBAL HONG KONG LIMITED",296072,4635,"N","TWO INTERNATIONAL FINANCE CENTRE, SUITES 4109-4112","8 FINANCE STREET, CENTRAL","HONG KONG SAR","","Hong Kong","","N","852 2351 5100","852 2521 3893","N","","","","","","","N","MONFRI","","8AM - 5PM","549300J5UEEU4CGIOR54","Y","N","N","N","N","N","N","",,"N","Corporation","","12","","Hong Kong","N"
2001838,"","VIKING GLOBAL INVESTORS EUROPE LLP",296208,4758,"N","77 GROSVENOR STREET","","LONDON, W1K 3JR","","United Kingdom","","N","44 207 025 1570","44 207 437 1727","N","","","","","","","N","MONFRI","","8AM - 5PM","549300KKXGLDFUDZ0Q43","Y","N","N","N","N","N","N","",,"N","Limited Liability Partnership","","12","","United Kingdom","N"
2000657,"","BIP GP LLC",293213,2369,"Y","","","","","","","","617-778-7780","617-778-7781","Y","","","","","","","","MONFRI","","8:30 AM - 6:30 PM","","Y","N","N","Y","N","N","N","",,"N","Limited Liability Company","","12","DE","United States","N"
2000657,"","FUNDAMENTAL RESEARCH ASSOCIATES INC.",301070,5878,"N","150 CALIFORNIA STREET","23RD FLOOR","SAN FRANCISCO","CA","United States","94111","N","650-459-2667","","Y","","","","","","","","MONFRI","","8:30 AM - 6:30 PM","","Y","N","N","N","N","N","N","",,"N","Corporation","","12","DE","United States","N"
2000657,"","PLOVER COVE MANAGEMENT LIMITED",308756,7450,"N","29 QUEEN'S ROAD CENTRAL, SUITE 1816, CENTRAL","","HONG KONG","","Hong Kong","999077","N","+852-3469-5200","","Y","","","","","","","","MONFRI","","8:30 AM - 6:30 PM","","Y","N","N","N","N","N","N","",,"N","Corporation","","12","","Hong Kong","N"
2000657,"","WAM LP UK II LTD",334291,12145,"Y","","","","","","","","+1 617-778-7780","","Y","","","","","","","","MONFRI","","8:30 AM - 6:30 PM","","Y","N","N","Y","N","N","N","",,"N","Corporation","","12","","United Kingdom","N"
1978215,"","PRETIUM SMA MANAGER, LLC",309635,7669,"Y","","","","","","","","212-257-5757","","Y","","","","","","","","MONFRI","","8:30 AM - 5:30 PM","","Y","N","N","N","N","N","N","",,"N","Limited Liability Company","","12","DE","United States","N"
1978204,"","PRETIUM CREDIT CLO MANAGEMENT, LLC",309747,7683,"Y","","","","","","","","917-942-8289","","N","","","","","","","N","MONFRI","","8:30AM - 5:30PM","","Y","N","N","N","N","N","N","",,"N","Limited Liability Company","","12","DE","United States","N"
2000317,"","GREE LP FUND US, LLC",324948,10221,"N","","","","","","","Y","312-874-1123","","N","","","","","","","Y","MONFRI","","9:00 A.M. - 5:00 P.M.","","N","N","N","Y","N","N","N","",,"N","Limited Liability Company","","06","DE","United States","N"
1998446,"","A&M CAPITAL PARTNERS II ADVISOR, LP",305457,6575,"Y","","","","","","","","203-742-5880","203-742-5900","Y","","","","","","","","MONFRI","","9AM TO 5PM","","Y","N","N","N","N","N","N","",,"N","Limited Partnership","","12","DE","United States","N"
1998446,"","A&M CAPITAL PARTNERS III ADVISOR, LP",318145,9144,"Y","","","","","","","","203-742-5880","203-742-5900","Y","","","","","","","","MONFRI","","9AM TO 5PM","","Y","N","N","N","N","N","N","",,"N","Limited Partnership","","12","DE","United States","N"
1998446,"","A&M CAPITAL CO-INVESTMENT ADVISORS, LP",330857,11428,"Y","","","","","","","","203-742-5880","203-742-5900","Y","","","","","","","","MONFRI","","9AM TO 5PM","","Y","N","N","N","N","N","N","",,"N","Limited Partnership","","12","DE","United States","N"
2001129,"LT VENTURE ACCESS MANAGER LLC","LT VENTURE ACCESS MANAGER LLC",320794,9559,"Y","","","","","","","","212-644-4200","","N","","","","","","","N","MONFRI","","9:30 -5:30","","N","N","N","Y","N","N","N","",,"N","Limited Liability Company","","12","DE","United States",""
2005572,"STABLE ASSET MANAGEMENT LTD","STABLE ASSET MANAGEMENT LTD.",294044,7979,"N","25 OLD BURLINGTON STREET","MAYFAIR","LONDON","","United Kingdom","W1S 3AN","N","(+44) 020 7016 3163","","N","","","","","","","N","MONFRI","","9AM-6PM","","Y","N","N","N","N","N","N","",,"N","Other (specify)","PRIVATE LIMITED COMPANY","12","","United Kingdom","N"
2005572,"STABLE ASSET MANAGEMENT INVESTMENTS, LTD.","STABLE ASSET MANAGEMENT INVESTMENTS, LTD.",293574,7980,"N","2D LANDMARK SQUARE, 64 EARTH CLOSE","SEVEN MILE BEACH","GRAND CAYMAN","","Cayman Islands","KY1-1201","N","0044-20-70163163","","N","","","","","","","N","MONFRI","","9AM-6PM","","Y","N","N","N","N","N","N","",,"N","Corporation","","12","","Cayman Islands","N"
2002581,"","POWER SUSTAINABLE INFRASTRUCTURE CREDIT MANAGER, L.P.",325313,10261,"Y","","","","","","","","1-514-286-7400","","N","751 SQUARE VICTORIA","","MONTREAL, QUEBEC","","Canada","H2Y 2J3","N","MONFRI","","8:00 - 5:00","","Y","N","N","N","N","N","N","",,"N","Limited Partnership","","12","DE","United States","N"
2002581,"","POWER SUSTAINABLE DECARBONIZATION MANAGER, L.P.",335832,12416,"N","66 HUDSON BLVD E","FLOORS 23 AND 24","NEW YORK","NY","United States","10001","N","5142867400","","Y","","","","","","","","MONFRI","","8:00 AM - 5:00 PM","","Y","N","N","Y","N","N","N","",,"N","Limited Partnership","","12","DE","United States","N"
2002724,"","MARBLE POINT CREDIT MANAGEMENT LLC",284749,11065,"Y","","","","","","","","212-599-4700","","Y","","","","","","","","MONFRI","","9AM - 5PM","549300KK72XPIDGF5O79","Y","N","N","N","N","N","N","",,"N","Limited Liability Company","","12","DE","United States","N"
2002724,"","MARBLE POINT CLO MANAGEMENT LLC",291917,11066,"Y","","","","","","","","212-599-4700","","Y","","","","","","","","MONFRI","","9AM - 5PM","549300VHCTXU4GWJT893","Y","N","N","N","N","N","N","",,"N","Limited Liability Company","","12","DE","United States","N"
2002724,"","MP CLO MANAGEMENT LLC",291918,11067,"Y","","","","","","","","212-599-4700","","Y","","","","","","","","MONFRI","","9AM - 5PM","549300DQ06IQGNE73W18","Y","N","N","N","N","N","N","",,"N","Limited Liability Company","","12","DE","United States","N"
2002723,"OMNI BRIDGEWAY (CAYMAN) LIMITED","OMNI BRIDGEWAY (CAYMAN) LIMITED",315801,8827,"Y","","","","","","","","214-488-5331","","Y","","","","","","","","MONFRI","","9 AM - 6 PM","","Y","N","N","Y","N","N","N","",,"N","Other (specify)","CAYMAN LIMITED","12","","Cayman Islands","N"
2002533,"","SPINNAKER CAPITAL LLC",292304,1877,"Y","","","","","","","","617.720.5800","617.720.3490","N","","","","","","","N","MONFRI","","8:30AM - 5:30PM","","N","N","N","Y","N","N","N","",,"N","Limited Liability Company","","12","DE","United States","N"
2002533,"","SPINNAKER CAPITAL 2007 GP LLC",292593,2024,"Y","","","","","","","","617.720.5800","617.720.3490","N","","","","","","","N","MONFRI","","8:30AM - 5:30PM","","N","N","N","Y","N","N","N","",,"N","Limited Liability Company","","12","DE","United States","N"
2002533,"","SPINNAKER CAPITAL 2011 GP LLC",292594,2025,"Y","","","","","","","","617.720.5800","617.720.3490","N","","","","","","","N","MONFRI","","8:30AM - 5:30PM","","N","N","N","Y","N","N","N","",,"N","Limited Liability Company","","12","DE","United States","N"
2002533,"","SPINNAKER CAPITAL 2014 GP LLC",292595,2026,"Y","","","","","","","","617.720.5800","617.720.3490","N","","","","","","","N","MONFRI","","8:30AM - 5:30PM","","N","N","N","Y","N","N","N","",,"N","Limited Liability Company","","12","DE","United States","N"
2002533,"","MACINTOSH II LLC",292596,2027,"Y","","","","","","","","617.720.5800","617.720.3490","N","","","","","","","N","MONFRI","","8:30AM - 5:30PM","","N","N","N","Y","N","N","N","",,"N","Limited Liability Company","","12","DE","United States","N"
2002533,"","SPINNAKER CAPITAL 2018 GP LLC",301387,6005,"Y","","","","","","","","617-720-5800","617-720-3490","N","","","","","","","N","MONFRI","","8:30 AM - 5:30 PM","","N","N","N","Y","N","N","N","",,"N","Limited Liability Company","","12","DE","United States","N"
2002533,"","SPINNAKER CAPITAL 2022 GP LLC",325568,10312,"Y","","","","","","","","617.720.5800","617.720.3490","N","","","","","","","N","MONFRI","","8:30AM - 5:30PM","","N","N","N","Y","N","N","N","",,"N","Limited Liability Company","","12","DE","United States","N"
2002992,"","BLUE OWL REAL ESTATE DEBT ADVISORS LLC",331939,11712,"N","2 OVERHILL ROAD","SUITE 215","SCARSDALE","NY","United States","10583","N","(212) 419-3000","","N","","","","","","","N","MONFRI","","9:00AM-5:00PM","254900TN98BKRKVJ9P44","Y","N","N","N","N","N","N","",,"N","Limited Liability Company","","12","DE","United States","N"
2002992,"","BLUE OWL DIGITAL INFRASTRUCTURE ADVISORS LLC",334466,12176,"Y","","","","","","","","(212) 419-3000","","N","","","","","","","N","MONFRI","","9:00 AM -5:00PM","","Y","N","N","Y","N","N","N","",,"N","Limited Liability Company","","12","DE","United States","N"
2002992,"","BLUE OWL REAL ASSETS ADVISORS LLC",336832,12745,"Y","","","","","","","","(212) 419-3000","","N","","","","","","","N","MONFRI","","9:00AM-5:00PM","","N","N","N","Y","N","N","N","",,"N","Limited Liability Company","","12","DE","United States","N"
1998800,"DIAMETER CLO ADVISORS LLC","DIAMETER CLO ADVISORS LLC",313127,8121,"Y","","","","","","","","212-655-1400","","Y","","","","","","","","MONFRI","","8AM - 6PM","2549005HEXMB15DWHL94","N","N","N","Y","N","N","N","",,"N","Limited Liability Company","","12","DE","United States","N"
1998800,"","DIAMETER PRINCIPAL FINANCE PARTNERSHIP LP",328145,11013,"Y","","","","","","","","212-655-1400","","Y","","","","","","","","MONFRI","","8AM - 6PM","254900DTFWK81DJEKC73","N","N","N","Y","N","N","N","",,"N","Limited Partnership","","12","DE","United States","N"
1998800,"DIAMETER EU CLO ADVISORS, ACTING THROUGH ITS MANAGEMENT SERIES","DIAMETER EU CLO ADVISORS, ACTING THROUGH ITS MANAGEMENT SERIES",335903,12455,"Y","","","","","","","","212-655-1428","","N","","","","","","","N","MONFRI","","8:00 AM - 6:00 PM","","N","N","N","Y","N","N","N","",,"N","Limited Liability Company","","12","DE","United States","N"
2003037,"AKKADIAN VENTURES, LLC","AKKADIAN VENTURES, LLC",309046,7589,"Y","","","","","","","","707-653-6892","","Y","","","","","","","","MONFRI","","8:30AM-5:30PM","","N","N","N","Y","N","N","N","",,"N","Limited Liability Company","","12","DE","United States","N"
2003037,"AKKADIAN VENTURES MANAGEMENT, LLC","AKKADIAN VENTURES MANAGEMENT, LLC",322124,9809,"Y","","","","","","","","707-653-6892","","Y","","","","","","","","MONFRI","","8:30AM-5:30PM","","N","N","N","Y","N","N","N","",,"N","Limited Liability Company","","12","DE","United States","N"
2002879,"","57 STARS INTERNATIONAL ADVISORS, LLC",293411,2492,"Y","","","","","","","","202-824-1600","202-824-4300","Y","","","","","","","","MONFRI","","9:00 - 6:00","","N","N","N","Y","N","N","N","",,"N","Limited Liability Company","","12","DE","United States","N"
2002879,"","57 STARS GLOBAL OPPORTUNITIES FUND 2 ADVISOR, LLC",293425,2497,"Y","","","","","","","","202-824-1600","202-824-4300","N","","","","","","","N","MONFRI","","9:00 - 6:00","","N","N","N","Y","N","N","N","",,"N","Limited Liability Company","","12","DE","United States","N"
2002879,"","57 STARS EMERGING EUROPE ADVISOR, LLC",293426,2498,"Y","","","","","","","","202-824-1600","202-824-4300","N","","","","","","","N","MONFRI","","9:00 - 6:00","","N","N","N","Y","N","N","N","",,"N","Limited Liability Company","","12","DE","United States","N"
2002298,"1789 CAPITAL FUND I GP, LLC","1789 CAPITAL FUND I GP, LLC",337878,12833,"Y","","","","","","","","5618053588","","Y","","","","","","","","MONFRI","","8AM-6PM","","Y","N","N","N","N","N","N","",,"N","Limited Liability Company","","12","DE","United States","N"
2002298,"1789 OPPORTUNITIES MANAGEMENT LLC","1789 OPPORTUNITIES MANAGEMENT LLC",337880,12835,"Y","","","","","","","","5618053588","N/A","Y","","","","","","","","MONFRI","","8AM-6PM","N/A","Y","N","N","N","N","N","N","",,"N","Limited Liability Company","","12","DE","United States","N"
2003258,"LG OPERATING COMPANY, LLC","LG OPERATING COMPANY, LLC",285906,12777,"Y","","","","","","","","214-865-8082","N/A","Y","","","","","","","","MONFRI","","8:00- 5:00PM","","N","N","N","Y","N","N","N","",,"N","Limited Liability Company","","12","TX","United States","N"
2006940,"","VIKING GLOBAL HONG KONG LIMITED",296072,4635,"N","TWO INTERNATIONAL FINANCE CENTRE, SUITE 4514","8 FINANCE STREET, CENTRAL","HONG KONG SAR","","Hong Kong","","N","852 2351 5100","852 2521 3893","N","","","","","","","N","MONFRI","","8AM - 5PM","549300J5UEEU4CGIOR54","Y","N","N","N","N","N","N","",,"N","Corporation","","12","","Hong Kong","N"
2006940,"","VIKING GLOBAL INVESTORS EUROPE LLP",296208,4758,"N","77 GROSVENOR STREET","","LONDON, W1K 3JR","","United Kingdom","","N","44 207 025 1570","44 207 437 1727","N","","","","","","","N","MONFRI","","8AM - 5PM","549300KKXGLDFUDZ0Q43","Y","N","N","N","N","N","N","",,"N","Limited Liability Partnership","","12","","United Kingdom","N"
2006421,"","FIC MANAGERS, LLC",329203,11153,"Y","","","","","","","","713.337.7980","","N","","","","","","","N","MONFRI","","9:00 AM - 5:00 PM","","Y","N","N","N","N","N","N","",,"N","Limited Liability Company","","12","DE","United States",""
2006879,"","OAKWOOD MULTIFAMILY PARTNERS, LLC",328697,11082,"Y","","","","","","","","3035957670","","Y","","","","","","","","MONFRI","","9-5PM","","N","N","N","Y","N","N","N","",,"N","Limited Liability Company","","12","DE","United States","N"
2006879,"","OMP FUND MANAGER, LLC",328796,11110,"Y","","","","","","","","3035957670","","Y","","","","","","","","MONFRI","","9-5PM","","N","N","N","Y","N","N","N","",,"N","Limited Liability Company","","12","DE","United States","N"
1976475,"","ADAMS STREET CREDIT ADVISORS LP",294196,3030,"Y","","","","","","","","312-553-7890","312-553-7891","N","1230 6TH AVENUE","20TH FLOOR","NEW YORK","NY","United States","10020","N","MONFRI","","8:00 A.M-5:00 P.M.","","Y","N","N","N","N","N","N","",,"N","Limited Partnership","","12","DE","United States","N"
1976475,"","ADAMS STREET PARTNERS (BEIJING) CO., LTD",294198,3031,"Y","","","","","","","","312-553-7890","312-553-7891","N","UNIT 2603, LEVEL 26 TOWER 2, CHINA CENTRAL PLACE","79 JIANGUO ROAD","BEIJING","","China","100025","N","MONFRI","","8:00 A.M.- 5:00 P.M.","","N","N","N","Y","N","N","N","",,"N","Other (specify)","CHINA WHOLLY FOREIGN OWNED ENTERPRISE","12","","China","N"
1976475,"","ADAMS STREET PARTNERS SINGAPORE PTE. LTD.",294199,3032,"Y","","","","","","","","312-553-7890","312-553-7891","N","250 NORTH BRIDGE ROAD","#14-02 RAFFLES CITY TOWER","SINGAPORE","","Singapore","179101","N","MONFRI","","8:00 A.M.-5:00 P.M.","","N","N","N","Y","N","N","N","",,"N","Other (specify)","PRIVATE LIMITED COMPANY (PTE LTD)","12","","Singapore",""
1976475,"","ADAMS STREET PARTNERS UK LLP",294204,3037,"Y","","","","","","","","312-553-7890","312-553-7891","N","ONE GREAT CUMBERLAND PLACE","7TH FLOOR","LONDON","","United Kingdom","W1H7AL","N","MONFRI","","8:00AM-5:00PM","","N","N","N","Y","N","N","N","",,"N","Limited Liability Partnership","","12","","United Kingdom","N"
1976475,"","ADAMS STREET PARTNERS, INC.",294770,3506,"Y","","","","","","","","312-553-7890","312-553-7891","Y","","","","","","","","MONFRI","","8:00 AM- 5:00 PM","","N","N","N","Y","N","N","N","",,"N","Corporation","","12","DE","United States","N"
2002768,"QUANTBIO MANAGEMENT LLC","QUANTBIO MANAGEMENT LLC",321719,9762,"N","1700 BROADWAY","24TH FLOOR","NEW YORK","NY","United States","10019","N","212-257-5850","212-257-5851","Y","","","","","","","","MONFRI","","9:00-5:30","254900PIKWIZUN4T8C19","N","N","N","Y","N","N","N","",,"N","Limited Liability Company","","12","DE","United States","N"
2002258,"","57 STARS INTERNATIONAL ADVISORS, LLC",293411,2492,"Y","","","","","","","","202-824-1600","202-824-4300","Y","","","","","","","","MONFRI","","9:00 - 6:00","","N","N","N","Y","N","N","N","",,"N","Limited Liability Company","","12","DE","United States","N"
2002258,"","57 STARS GLOBAL OPPORTUNITIES FUND 2 ADVISOR, LLC",293425,2497,"Y","","","","","","","","202-824-1600","202-824-4300","N","","","","","","","N","MONFRI","","9:00 - 6:00","","N","N","N","Y","N","N","N","",,"N","Limited Liability Company","","12","DE","United States","N"
2002258,"","57 STARS EMERGING EUROPE ADVISOR, LLC",293426,2498,"Y","","","","","","","","202-824-1600","202-824-4300","N","","","","","","","N","MONFRI","","9:00 - 6:00","","N","N","N","Y","N","N","N","",,"N","Limited Liability Company","","12","DE","United States","N"
2001190,"EAST ROCK FOCUS FUND MANAGEMENT, LLC","EAST ROCK FOCUS FUND MANAGEMENT, LLC",161085,2349,"Y","","","","","","","","212-630-5000","212-624-0231","N","","","","","","","N","MONFRI","","9AM - 5PM","5493007UATCBG02ZW152","Y","N","N","Y","N","N","N","",,"N","Limited Liability Company","","12","DE","United States","N"
2000529,"","ROSEMAWR SUSTAINABLE INFRASTRUCTURE MANAGEMENT LLC",337731,12815,"Y","","","","","","","","212-286-9474","646-350-0094","Y","","","","","","","","MONFRI","","9 AM - 5 PM","","N","N","N","Y","N","N","N","",,"N","Limited Liability Company","","12","DE","United States","N"
2005969,"GRAHAM PARTNERS MANAGEMENT III, L.P.","GRAHAM PARTNERS MANAGEMENT III, L.P.",295690,4277,"Y","","","","","","","","610-408-0500","610-408-0600","N","","","","","","","N","MONFRI","","9AM - 5PM","","N","N","N","Y","N","N","N","",,"N","Limited Partnership","","12","DE","United States","N"
2005969,"GRAHAM PARTNERS MANAGEMENT IV, L.P.","GRAHAM PARTNERS MANAGEMENT IV, L.P.",295691,4278,"Y","","","","","","","","610-408-0500","610-408-0600","N","","","","","","","N","MONFRI","","9AM - 5PM","","N","N","N","Y","N","N","N","",,"N","Limited Partnership","","12","DE","United States","N"
2005969,"GRAHAM PARTNERS GROWTH, LLC","GRAHAM PARTNERS GROWTH, LLC",313433,8164,"Y","","","","","","","","610-408-0500","610-408-0600","N","","","","","","","N","MONFRI","","9AM - 5PM","","N","N","N","Y","N","N","N","",,"N","Limited Liability Company","","12","DE","United States","N"
2005969,"GCI OPPORTUNITIES I (GCIO I), LLC","GCI OPPORTUNITIES I (GCIO I), LLC",331424,11645,"Y","","","","","","","","610-408-0500","610-408-0600","Y","","","","","","","","MONFRI","","9:00 AM - 5:00 PM","","N","N","N","Y","N","N","N","",,"N","Limited Liability Company","","12","DE","United States","Y"
2001066,"MANIKAY GLOBAL MANAGEMENT LLC","MANIKAY GLOBAL MANAGEMENT LLC",331109,11568,"N","600 MADISON AVENUE","21ST FLOOR","NEW YORK","NY","United States","10022","N","212-588-6200","","Y","","","","","","","","MONFRI","","9:00 A.M. TO 5:00 P.M.","","N","N","N","Y","N","N","N","",,"N","Limited Liability Company","","12","DE","United States","N"
2002851,"QUADRATURE GROUP","QUADRATURE CAPITAL LIMITED",331740,11815,"N","THE LEADENHALL BUILDING","122 LEADENHALL STREET","LONDON","","United Kingdom","EC3 V4AB","N","442037430400","","N","","","","","","","N","MONFRI","","9:00 AM - 5:00 PM","213800N9JUVIRHYAQA73","N","N","Y","N","N","N","N","",,"N","Other (specify)","PRIVATE LIMITED COMPANY","01","","United Kingdom","N"
2002108,"","LOST COAST COLLECTIVE LLC",335445,12309,"N","7400 GLADES ROAD","SUITE 540","BOCA RATON","FL","United States","33434","N","212-451-3000","","N","","","","","","","N","MONFRI","","9:00AM - 5:00PM","","Y","N","N","N","N","N","N","",,"N","Limited Liability Company","","12","FL","United States","Y"
2003769,"ALTERNA CAPITAL PARTNERS LLC","ALTERNA GENERAL PARTNER LLC",301583,6111,"Y","","","","","","","","203-210-7333","","Y","","","","","","","","MONFRI","","9:00-5:00","","Y","N","N","N","N","N","N","",,"N","Limited Liability Company","","12","DE","United States","N"
2003769,"ALTERNA CAPITAL PARTNERS LLC","ALTERNA GENERAL PARTNER II LLC",301590,6117,"Y","","","","","","","","203-210-7333","","Y","","","","","","","","MONFRI","","9:00-5:00","","Y","N","N","N","N","N","N","",,"N","Limited Liability Company","","12","DE","United States","N"
2003769,"ALTERNA CAPITAL PARTNERS LLC","ALTERNA LAVACA GENERAL PARTNER LLC",301591,6118,"Y","","","","","","","","203-210-7333","","Y","","","","","","","","MONFRI","","9:00-5:00","","Y","N","N","N","N","N","N","",,"N","Limited Liability Company","","12","DE","United States","N"
2003769,"ALTERNA CAPITAL PARTNERS LLC","ALTERNA TARAWA GP LLC",301592,6119,"Y","","","","","","","","203-210-7333","","Y","","","","","","","","MONFRI","","9:00-5:00","","Y","N","N","N","N","N","N","",,"N","Limited Liability Company","","12","DE","United States","N"
2003776,"ALTERNA CAPITAL PARTNERS LLC","ALTERNA GENERAL PARTNER LLC",301583,6111,"Y","","","","","","","","203-210-7333","","Y","","","","","","","","MONFRI","","9:00-5:00","","Y","N","N","N","N","N","N","",,"N","Limited Liability Company","","12","DE","United States","N"
2003776,"ALTERNA CAPITAL PARTNERS LLC","ALTERNA GENERAL PARTNER II LLC",301590,6117,"Y","","","","","","","","203-210-7333","","Y","","","","","","","","MONFRI","","9:00-5:00","","Y","N","N","N","N","N","N","",,"N","Limited Liability Company","","12","DE","United States","N"
2003776,"ALTERNA CAPITAL PARTNERS LLC","ALTERNA LAVACA GENERAL PARTNER LLC",301591,6118,"Y","","","","","","","","203-210-7333","","Y","","","","","","","","MONFRI","","9:00-5:00","","Y","N","N","N","N","N","N","",,"N","Limited Liability Company","","12","DE","United States","N"
2003776,"ALTERNA CAPITAL PARTNERS LLC","ALTERNA TARAWA GP LLC",301592,6119,"Y","","","","","","","","203-210-7333","","Y","","","","","","","","MONFRI","","9:00-5:00","","Y","N","N","N","N","N","N","",,"N","Limited Liability Company","","12","DE","United States","N"
2001432,"BAUM CAPITAL PARTNERS II, LLC","BAUM CAPITAL PARTNERS II, LLC",337633,12798,"Y","","","","","","","","816-283-5200","","Y","","","","","","","","MONFRI","","8:30 - 5:00","","N","N","N","Y","N","N","N","",,"N","Limited Liability Company","","12","DE","United States","N"
2001432,"BAUM CAPITAL PARTNERS, LLC","BAUM CAPITAL PARTNERS, LLC",337637,12799,"Y","","","","","","","","816-283-5200","","Y","","","","","","","","MONFRI","","8:30 - 5:00","","N","N","N","Y","N","N","N","",,"N","Limited Liability Company","","12","DE","United States","N"
2003742,"","GIM ADVISORY SERVICES, LLC",293184,2351,"Y","","","","","","","","2123158100","","Y","","","","","","","","MONFRI","","9:00 AM TO 5:00 PM","","N","N","N","Y","N","N","N","",,"N","Limited Liability Company","","12","DE","United States","N"
2003742,"","GIM EM MANAGER, LLC",308171,7090,"Y","","","","","","","","212-815-8100","","Y","","","","","","","","MONFRI","","9:00 AM TO 5:00 PM","","N","N","N","Y","N","N","N","",,"N","Limited Liability Company","","12","DE","United States","N"
2003947,"","LIBERTY ADVISORS LLC",332711,11870,"Y","","","","","","","","2124177000","","Y","","","","","","","","MONFRI","","9-5","","N","N","N","Y","N","N","N","",,"N","Limited Liability Company","","12","DE","United States","N"
2005560,"","ALPHADYNE ASSET MANAGEMENT (UK) LLP",164919,2104,"N","2 ST. JAMES'S MARKET","2ND FLOOR","LONDON","","United Kingdom","SW1Y 4AH","N","44 2075312400","","N","","","","","","","N","MONFRI","","8:00AM GMT - 6:00PM GMT","549300UEV4XWPQ0V8826","Y","N","N","N","N","N","N","",,"N","Limited Liability Partnership","","12","","United Kingdom","N"
2005560,"","ALPHADYNE ASSET MANAGEMENT HOLDINGS LIMITED",292744,2106,"N","OTEMACHI PARK BUILDING","1-1-1 OTEMACHI","CHIYODA-KU, TOKYO","","Japan","100-0004","N","81 03 4588 3100","","N","","","","","","","N","MONFRI","","8:00AM UTC - 6:00PM UTC","549300LWFTJNUKY8VG93","Y","N","N","N","N","N","N","",,"N","Other (specify)","CAYMAN ISLANDS LIMITED COMPANY","12","","Cayman Islands","N"
2005560,"","ALPHADYNE ASSET MANAGEMENT (HONG KONG) LIMITED",299023,5552,"N","AIA CENTRAL","ONE CONNAUGHT ROAD, UNIT 508-09, CENTRAL","HONG KONG","","Hong Kong","","N","852 39701700","","N","","","","","","","N","MONFRI","","8:00AM HKT - 6:00PM HKT","549300QVUYY540O5F706","Y","N","N","N","N","N","N","",,"N","Corporation","","12","","Hong Kong","N"
2005560,"","ALPHADYNE (SINGAPORE) PTE. LTD.",312344,8022,"N","10 COLLYER QUAY, RAFFLES PLACE","OCEAN FINANCIAL CENTRE UNITS #03-01, 03-02, 03-03","SINGAPORE","","Singapore","049315","N","65 6982 7500","","N","","","","","","","N","MONFRI","","8:00AM SGT - 6:00PM SKT","549300L1EM7K9JDUMS94","Y","N","N","N","N","N","N","",,"N","Other (specify)","SINGAPORE LIMITED COMPANY","12","","Singapore","N"
2005560,"","ALPHADYNE ASSET MANAGEMENT FONDSMÆGLERSELSKAB (EUROPE) A/S",334559,12188,"N","ESPLANADEN 7, 3. FLOOR","1263 COPENHAGEN K","COPENHAGEN","","Denmark","","N","+45 3515-3100","","N","","","","","","","N","MONFRI","","8:00AM GMT+1 - 6:00PM GMT+1","213800GUP98E7G6YPI28","Y","N","N","N","N","N","N","",,"N","Other (specify)","PUBLIC LIMITED LIABILITY COMPANY","12","","Denmark","N"
2001683,"","GARDA CAPITAL PARTNERS COPENHAGEN FONDSMÆGLERSELSKAB A/S",292225,1853,"N","HAVNEGADE 25 GR.","","COPENHAGEN","","Denmark","1058","N","+45 32722315","","N","","","","","","","N","MONFRI","","8 A.M. - 5 P.M.","549300ZXYXP7E88KB815","N","N","Y","N","N","N","N","",,"N","Other (specify)","AKTIESELSKAB (A/S)","12","","Denmark","N"
2001683,"","GARDA CAPITAL PARTNERS SARL",292228,1854,"N","RUE DE LA CORRATERIE 5","","GENEVA","","Switzerland","1204","N","+41 415607844","","N","","","","","","","N","MONFRI","","8 A.M. - 5 P.M.","549300DDT5O7UW8IQ492","N","N","Y","N","N","N","N","",,"N","Other (specify)","SOCIÉTÉ À RESPONSABILITÉ LIMITÉE","12","","Switzerland","N"
2001683,"","GARDA CAPITAL PARTNERS SINGAPORE PTE. LTD.",313026,8105,"N","ASIA SQUARE TOWER 1 #27-04","8 MARINA VIEW","SINGAPORE","","Singapore","018960","N","+65 659-32050","","N","","","","","","","N","MONFRI","","8:00AM - 5:00PM","549300HHWJRRTR390X97","N","N","Y","N","N","N","N","",,"N","Other (specify)","EXEMPT PRIVATE COMPANY LIMITED BY SHARES","12","","Singapore","N"
2003814,"","BPG HOLDINGS GROUP INC.",295539,4158,"N","BROOKFIELD PLACE","181 BAY STREET, SUITE 100","TORONTO","","Canada","M5J 2T3","N","416-369-2300","416-369-2301","N","","","","","","","N","MONFRI","","9 AM - 5 PM","","N","N","Y","N","N","N","N","",,"N","Corporation","","12","","Canada","N"
2003814,"","BROOKFIELD PROPERTY GROUP AUSTRALIA PTY LTD",295637,4240,"N","BROOKFIELD PLACE, LEVEL 19","10 CARRINGTON STREET","SYDNEY","","Australia","NSW 2000","N","61 2 9158 5100","","N","","","","","","","N","MONFRI","","8AM - 5 PM","","N","N","N","Y","N","N","N","",,"N","Corporation","","12","","Australia","N"
2003814,"","BPG INDIA LLC",295853,4431,"Y","","","","","","","","212-417-7000","","N","","","","","","","N","MONFRI","","9 AM - 5 PM","","N","N","N","Y","N","N","N","",,"N","Limited Liability Company","","12","DE","United States","N"
2003814,"","BROOKFIELD REAL ESTATE FINANCIAL PARTNERS LLC",295862,4438,"Y","","","","","","","","212-417-7000","","N","","","","","","","N","MONFRI","","9 AM - 5 PM","","N","N","N","Y","N","N","N","",,"N","Limited Liability Company","","12","DE","United States","N"
2003814,"","BROOKFIELD REAL ESTATE PARTNERS F GP LLC",295893,4467,"Y","","","","","","","","212-417-7000","","N","","","","","","","N","MONFRI","","9 AM - 5 PM","","N","N","N","Y","N","N","N","",,"N","Limited Liability Company","","12","DE","United States","N"
2003814,"","BROOKFIELD STRATEGIC REAL ESTATE PARTNERS GP LLC",295898,4472,"Y","","","","","","","","212-417-7000","","N","","","","","","","N","MONFRI","","9 AM - 5 PM","","N","N","N","Y","N","N","N","",,"N","Limited Liability Company","","12","DE","United States","N"
2003814,"","BSREP GP BERMUDA LIMITED",295901,4475,"N","73 FRONT STREET","5TH FLOOR","HAMILTON","","Bermuda","HM12","N","441 294-3304","","N","","","","","","","N","MONFRI","","9 AM - 5 PM","","N","N","Y","N","N","N","N","",,"N","Corporation","","12","","Bermuda","N"
2003814,"","BROOKFIELD GLOBAL PROPERTY ADVISOR LIMITED",296352,4882,"N","CANARY WHARF","1 CANADA SQUARE LEVEL 25","LONDON","","United Kingdom","E14 5AA","N","4402076593500","","N","","","","","","","N","MONFRI","","9 AM - 5 PM","213800NTDL7H6DXPCZ37","N","N","N","Y","N","N","N","",,"N","Corporation","","12","","United Kingdom","N"
2003814,"","BSREP THG AIV A-FF AUSTRALIA GP PTY LTD",296387,4911,"N","BROOKFIELD PLACE, LEVEL 19","10 CARRINGTON STREET","SYDNEY","","Australia","NSW 2000","N","61 2 9158 5100","","N","","","","","","","N","MONFRI","","8AM - 5 PM","","N","N","Y","N","N","N","N","",,"N","Corporation","","12","","Australia","N"
2003814,"","VAMF ADVISOR LLC",301892,6281,"Y","","","","","","","","212-417-7000","","N","","","","","","","N","MONFRI","","9 AM - 5 PM","","N","N","N","Y","N","N","N","",,"N","Limited Liability Company","","12","DE","United States","N"
2003814,"","BROOKFIELD SINGLE FAMILY RENTAL MANAGER LLC",310453,7789,"Y","","","","","","","","212-417-7000","","N","","","","","","","N","MONFRI","","9 AM - 5 PM","","N","N","N","Y","N","N","N","",,"N","Limited Liability Company","","12","DE","United States","N"
2003814,"","BROOKPROP MANAGEMENT SERVICES PRIVATE LIMITED",314191,8499,"N","ONE BKC, A WING G-BLOCK BANDRA KURLA COMPLEX","UNIT 804, 8TH FLOOR","MUMBAI","","India","400 051","N","91 22 6600 0700","91 22 6600 0777","N","","","","","","","N","MONFRI","","9AM TO 5PM","","N","N","Y","N","N","N","N","",,"N","Corporation","","03","","India","N"
2003814,"","BROOKFIELD REIT ADVISER LLC",317478,9076,"Y","","","","","","","","212-417-7000","","N","","","","","","","N","MONFRI","","9AM TO 5PM","","N","N","N","Y","N","N","N","",,"N","Limited Liability Company","","12","DE","United States","N"
2003814,"","BROOKFIELD REAL ESTATE CANADIAN ADVISER L.P.",325352,10265,"N","181 BAY STREET, SUITE 100","","TORONTO","","Canada","M5J 2T3","N","416-363-9491","","N","","","","","","","N","MONFRI","","9 AM - 5 PM","","N","N","Y","N","N","N","N","",,"N","Corporation","","12","","Canada","N"
2002271,"","GAP (BERMUDA), L.P.",292386,1923,"Y","","","","","","","","(212) 715.4087","(212) 759-5708","N","CLARENDON HOUSE, 2 CHURCH STREET","PO BOX HM 666","HAMILTON","","Bermuda","HM CX","N","MONFRI","","8:30AM - 5:00PM","","N","N","N","Y","N","N","N","",,"N","Other (specify)","BERMUDA LIMITED PARTNERSHIP","12","","Bermuda","Y"
2002271,"","GENERAL ATLANTIC SINGAPORE FUND MANAGEMENT PTE LTD",292387,1924,"N","ASIA SQUARE TOWER 1","8 MARINA VIEW, #41-04","SINGAPORE","","Singapore","18960","N","(65) 6661-6700","(65) 6661-6701","N","","","","","","","N","MONFRI","","8:30AM - 5:00PM","","N","N","N","Y","N","N","N","",,"N","Other (specify)","SINGAPORE COMPANY (PTE. LTD.)","12","","Singapore","Y"
2002271,"","GASC APF, L.P.",309567,7656,"Y","","","","","","","","212 714 4000","","Y","","","","","","","","MONFRI","","8:30AM - 5:30PM","","N","N","N","Y","N","N","N","",,"N","Limited Partnership","","12","DE","United States","Y"
2002271,"GASC BNZ, L.P.","GASC BNZ, L.P.",317188,9037,"Y","","","","","","","","212 714 4000","","Y","","","","","","","","MONFRI","","8:30AM - 5:30PM","","N","N","N","Y","N","N","N","",,"N","Limited Partnership","","12","DE","United States","Y"
2002271,"","GENERAL ATLANTIC, L.P.",292384,9600,"Y","","","","","","","","(212) 715.4087","(212) 759-5708","N","PARK AVENUE PLAZA","55 EAST 52ND STREET, 33RD FLOOR","NEW YORK","NY","United States","10055","N","MONFRI","","8:30AM - 5:00PM","549300UN4G2I918FRM05","N","N","N","Y","N","N","N","",,"N","Limited Partnership","","12","DE","United States","Y"
2002271,"GENERAL ATLANTIC PRISM, L.P.","GENERAL ATLANTIC PRISM, L.P.",327651,10950,"Y","","","","","","","","212 714 4000","","Y","","","","","","","","MONFRI","","8:30AM - 5:30PM","","N","N","N","Y","N","N","N","",,"N","Limited Partnership","","12","DE","United States","N"
2002271,"","GENERAL ATLANTIC CERPI MANAGER, S. DE R.L. DE C.V.",331117,11576,"Y","","","","","","","","+525541646500","","Y","","","","","","","","MONFRI","","8:30-530PM","","N","N","N","Y","N","N","N","",,"N","Corporation","","12","","Mexico","N"
2002271,"ACTIS","ACTIS, LLP",160424,11914,"N","2 MORE LONDON RIVERSIDE","","LONDON","","United Kingdom","SE1 2JT","N","+44 20 7234 5000","+44 20 7234 5010","N","","","","","","","N","MONFRI","","9:00AM - 5:00PM","2138004Q14AQ8NHXMU02","N","N","Y","N","N","N","N","",,"N","Limited Liability Partnership","","12","","United Kingdom","N"
2002271,"ACTIS UK ADVISERS LIMITED","ACTIS UK ADVISERS LIMITED",328002,11963,"N","2 MORE LONDON RIVERSIDE","","LONDON","","United Kingdom","SE1 2JT","N","+44 20 7234 5000","+44 20 7234 5010","N","","","","","","","N","MONFRI","","9:00AM - 5:00PM","2138006PDDS4KFOKZ397","N","N","Y","N","N","N","N","",,"N","Corporation","","12","","United Kingdom","N"
2002271,"ACTIS EU MANAGEMENT S.À R.L.","ACTIS EU MANAGEMENT S.À R.L.",328083,12015,"N","1 RUE HILDEGARD VON BINGEN","","LUXEMBOURG","","Luxembourg","L-1282","N","+44-7909-320-382","","N","","","","","","","N","MONFRI","","9:00AM - 5:00PM","2138008W48I34B3P5E78","N","N","Y","N","N","N","N","",,"N","Corporation","","12","","Luxembourg","N"
2002271,"ACTIS GP","ACTIS GP LLP",168712,12016,"N","2 MORE LONDON RIVERSIDE","","LONDON","","United Kingdom","SE1 2JT","N","+44 20 7234 5000","+44 20 7234 5010","N","","","","","","","N","MONFRI","","9:00AM - 5:00PM","213800UD3T4K8JUR5V23","N","N","Y","N","N","N","N","",,"N","Limited Liability Partnership","","12","","United Kingdom","N"
2002271,"NEOMA MANAGER (MAURITIUS) LIMITED","NEOMA MANAGER (MAURITIUS) LIMITED",300942,12018,"N","33 EDITH CAVELL STREET","","PORT LOUIS","","Mauritius","11324","N","+230 212 9800","","N","","","","","","","N","MONFRI","","9:00AM - 5:00PM","","N","N","Y","N","N","N","N","",,"N","Other (specify)","MAURITIUS LIMITED COMPANY","12","","Mauritius","N"
1996816,"","VEPF MANAGEMENT, L.P.",291287,1537,"Y","","","","","","","","415-765-6500","415-765-6666","N","","","","","","","N","MONFRI","","8:00AM CST TO 5:00PM PST","","Y","N","N","N","N","N","N","",,"N","Limited Partnership","","12","DE","United States","N"
1996816,"","VFF MANAGEMENT, L.P.",291289,1539,"Y","","","","","","","","415-765-6500","415-765-6666","N","","","","","","","N","MONFRI","","8:00AM CST TO 5:00PM PST","","Y","N","N","N","N","N","N","",,"N","Limited Partnership","","12","DE","United States","N"
1996816,"","VEEF MANAGEMENT, L.P.",291293,1542,"Y","","","","","","","","415-765-6500","415-765-6666","N","","","","","","","N","MONFRI","","8:00AM CST TO 5:00PM PST","","Y","N","N","N","N","N","N","",,"N","Limited Partnership","","12","DE","United States","N"
2001806,"ELDA RIVER CAPITAL MANAGEMENT, LLC","ELDA RIVER INFRASTRUCTURE PARTNERS, LLC",330679,11370,"Y","","","","","","","","346 614 4250","","Y","","","","","","","","MONFRI","","8:30 - 5:30","","Y","N","N","Y","N","N","N","",,"N","Limited Liability Company","","12","DE","United States","N"
2001151,"ELDA RIVER CAPITAL MANAGEMENT, LLC","ELDA RIVER INFRASTRUCTURE PARTNERS, LLC",330679,11370,"Y","","","","","","","","346 614 4250","","Y","","","","","","","","MONFRI","","8:30 - 5:30","","Y","N","N","Y","N","N","N","",,"N","Limited Liability Company","","12","DE","United States","N"
2001852,"FF INT MANAGEMENT CORP","FF INT MANAGEMENT CORP",337664,12800,"Y","","","","","","","","209-265-8990","","Y","","","","","","","","MONFRI","","8:00 AM - 5:00 PM","","Y","N","N","Y","N","N","N","",,"N","Corporation","","12","","British Virgin Islands","N"
2001852,"SJM MANAGER, LP","SJM MANAGER, LP",337666,12801,"Y","","","","","","","","209-265-8990","","Y","","","","","","","","MONFRI","","8:00 AM - 5:00 PM","","N","N","N","Y","N","N","N","",,"N","Limited Partnership","","12","DE","United States","N"
1995655,"","HAWKE'S POINT MANAGER L.P.",295188,3861,"Y","","","","","","","","212-359-7300","212-359-7301","N","","","","","","","N","MONFRI","","9:00 AM - 5:00 PM","","Y","N","N","Y","N","N","N","",,"N","Limited Partnership","","12","","Cayman Islands","N"
1995655,"","ACASTA PARTNERS L.P.",295216,3881,"Y","","","","","","","","212-359-7300","212-359-7301","N","","","","","","","N","MONFRI","","9:00 AM - 5:00 PM","","Y","N","N","Y","N","N","N","",,"N","Limited Partnership","","12","","Cayman Islands","N"
1995655,"","WESTBOURNE RIVER PARTNERS L.P.",295220,3884,"Y","","","","","","","","212-359-7300","212-359-7301","N","","","","","","","N","MONFRI","","9:00 AM - 5:00 PM","","Y","N","N","Y","N","N","N","",,"N","Limited Partnership","","12","","Cayman Islands","N"
1995655,"","TFG ASSET MANAGEMENT GLOBAL EQUITIES L.P.",295222,3886,"Y","","","","","","","","212-359-7300","212-359-7301","N","","","","","","","N","MONFRI","","9:00 AM - 5:00 PM","","Y","N","N","Y","N","N","N","",,"N","Limited Partnership","","12","","Cayman Islands","N"
1995655,"","POLYGON RECOVERY MANAGER LP",295225,3888,"Y","","","","","","","","212-359-7300","212-359-7301","N","","","","","","","N","MONFRI","","9:00 AM - 5:00 PM","","N","N","N","Y","N","N","N","",,"N","Limited Partnership","","12","","Cayman Islands","N"
1995655,"","TCI CAPITAL MANAGEMENT II LLC",295229,3892,"Y","","","","","","","","212-359-7300","212-359-7301","N","","","","","","","N","MONFRI","","9:00 AM - 5:00 PM","","Y","N","N","Y","N","N","N","",,"N","Limited Liability Company","","12","DE","United States","N"
1995655,"","TCI CAPITAL MANAGEMENT LLC",295241,3902,"Y","","","","","","","","212-359-7300","212-359-7301","N","","","","","","","N","MONFRI","","9:00 AM - 5:00 PM","5493007SXL7WWXEROJ58","Y","N","N","Y","N","N","N","",,"N","Limited Liability Company","","12","DE","United States","N"
1995655,"","LCM ASSET MANAGEMENT LLC",295257,3916,"Y","","","","","","","","212-359-7300","212-359-7301","N","","","","","","","N","MONFRI","","9:00 AM - 5:00 PM","549300ETDURMIOW5VG58","Y","N","N","Y","N","N","N","",,"N","Limited Liability Company","","12","DE","United States","N"
1995655,"","TFG ASSET MANAGEMENT UK LLP",295259,3918,"N","4 SLOANE TERRACE","","LONDON","","United Kingdom","SW1X 9DQ","N","011 44 0 207 901 8300","011 44 0 201 901 8301","N","","","","","","","N","MONFRI","","9:00 AM - 5:00 PM","549300K5MB1CG23DBD13","Y","N","N","Y","N","N","N","",,"N","Limited Liability Partnership","","12","","Cayman Islands","N"
1995655,"","TFG ASSET MANAGEMENT US LP",295265,3924,"Y","","","","","","","","212-359-7300","212-359-7301","N","","","","","","","N","MONFRI","","9:00 AM - 5:00 PM","549300HLIFL0ZO19FQ27","Y","N","N","Y","N","N","N","",,"N","Limited Partnership","","12","DE","United States","N"
1995655,"","TETRAGON CREDIT INCOME PARTNERS II LTD.",295472,4110,"Y","","","","","","","","212-359-7300","212-359-7301","N","","","","","","","N","MONFRI","","9:00 AM - 5:00 PM","549300L1HPD6L8ZCUY42","N","N","N","Y","N","N","N","",,"N","Corporation","","12","","Cayman Islands","N"
1995655,"","TETRAGON CREDIT INCOME PARTNERS III LTD.",295476,4112,"Y","","","","","","","","212-359-7300","212-359-7301","N","","","","","","","N","MONFRI","","9:00 AM - 5:00 PM","","Y","N","N","Y","N","N","N","",,"N","Corporation","","12","","Cayman Islands","N"
1995655,"","BANYAN SQUARE PARTNERS L.P.",308568,7292,"Y","","","","","","","","212-359-7300","212-359-7301","N","","","","","","","N","MONFRI","","9:00 AM - 5:00 PM","","Y","N","N","Y","N","N","N","",,"N","Limited Partnership","","12","","Cayman Islands","N"
1995655,"","TETRAGON CREDIT INCOME PARTNERS IV LTD.",308572,7294,"Y","","","","","","","","212-359-7300","212-359-7301","N","","","","","","","N","MONFRI","","9:00 AM - 5:00 PM","","Y","N","N","Y","N","N","N","",,"N","Corporation","","12","","Cayman Islands","N"
1995655,"","CONTINGENCY CAPITAL LLC",313873,8343,"Y","","","","","","","","2123597300","212-359-7301","Y","","","","","","","","MONFRI","","9:00 AM - 5:00 PM","","Y","N","N","Y","N","N","N","",,"N","Limited Liability Company","","12","DE","United States","N"
1995655,"","LCM EURO LLC",313876,8344,"Y","","","","","","","","2123597300","212-359-7301","Y","","","","","","","","MONFRI","","9:00 AM - 5:00 PM","","Y","N","N","Y","N","N","N","",,"N","Limited Liability Company","","12","DE","United States","N"
1995655,"","LCM EURO II LLC",323464,9954,"Y","","","","","","","","2123597300","212-359-7301","Y","","","","","","","","MONFRI","","9:00 AM - 5:00 PM","","Y","N","N","Y","N","N","N","",,"N","Limited Liability Company","","12","DE","United States","N"
1995655,"","TETRAGON CREDIT INCOME PARTNERS V LTD.",335364,12295,"Y","","","","","","","","212-359-7300","212-359-7301","N","","","","","","","N","MONFRI","","9:00 AM - 5:00 PM","","Y","N","N","Y","N","N","N","",,"N","Corporation","","12","","Cayman Islands","N"
1995655,"","TETRAGON LIFE SCIENCES L.P.",336743,12712,"Y","","","","","","","","212-359-7300","212-359-7301","N","","","","","","","N","MONFRI","","9:00 AM - 5:00 PM","","N","N","N","Y","N","N","N","",,"N","Limited Partnership","","12","","Cayman Islands","N"
1987181,"SCIENS WATER","SCIENS WATER OPPORTUNITIES MANAGEMENT LLC",299986,8674,"Y","","","","","","","","212-471-6100","212-471-6199","N","","","","","","","N","MONFRI","","9:00 AM - 6:00 PM","","Y","N","N","N","N","N","N","",,"N","Limited Liability Company","","12","DE","United States","N"
1987181,"","SCIENS AVIATION SERVICES II GP LLC",299993,8682,"Y","","","","","","","","212-471-6100","212-471-6199","N","","","","","","","N","MONFRI","","9:00 AM - 6:00 PM","","Y","N","N","N","N","N","N","",,"N","Limited Liability Company","","12","DE","United States","N"
1987181,"","SCIENS AVIATION SERVICES IV GP LLC",299994,8683,"Y","","","","","","","","212-471-6100","212-471-6199","N","","","","","","","N","MONFRI","","9:00 AM - 6:00 PM","","Y","N","N","N","N","N","N","",,"N","Limited Liability Company","","12","DE","United States","N"
1999704,"","TURTLE CREEK CAPITAL, LLC",330737,11379,"Y","","","","","","","","214-214-3110","214-214-3129","N","","","","","","","N","MONFRI","","9:00AM - 5:00PM","","N","N","N","Y","N","N","N","",,"N","Limited Liability Company","","12","DE","United States","N"
2002359,"","CENTEROAK GP I, INC.",294255,3075,"Y","","","","","","","","214.301.4201","214.756.6505","N","","","","","","","N","MONFRI","","8:30 AM - 5:30 PM CENTRAL TIME","","N","N","N","Y","N","N","N","",,"N","Corporation","","12","TX","United States","N"
2002359,"","CENTEROAK GP II, INC.",308352,7186,"Y","","","","","","","","214.301.4201","214.756.6505","N","","","","","","","N","MONFRI","","8:30 AM - 5:30 PM CENTRAL TIME","","N","N","N","Y","N","N","N","",,"N","Corporation","","12","TX","United States","N"
2002359,"","CENTEROAK GP III, INC.",335842,12420,"Y","","","","","","","","214.301.4201","214.756.6505","N","","","","","","","N","MONFRI","","8:30 AM - 5:30 PM CENTRAL TIME","","N","N","N","Y","N","N","N","",,"N","Corporation","","12","TX","United States","N"
