"Filing ID","Relying Advisor Business Name","Relying Advisor Legal Name","Relying Advisor CRD Number","Reference ID","Principal Address Same as Filer","Main Office Street Address 1","Main Office Street Address 2","Main Office City","Main Office State","Main Office Country","Main Office Postal Code","Main Office Private Residence Flag","Main Office Telephone Number","Main Office Facsimile Number","Mail Address Same as Filer","Mail Office Street Address 1","Mail Office Street Address 2","Mail Office City","Mail Office State","Mail Office Country","Mail Office Postal Code","Mail Office Private Residence Flag","1E2Days","1E2DaysOther","1E2Hours","1G","2A(1)","2A(2)","2A(4)","2A(5)","2A(6)","2A(7)","2A(8)","2A(8) Application","2A(8) Order Date","2A(9)","3A","3AOther","3B","3C-State","3C-Country","4C"
1997183,"MESA WEST DSA, LLC","MESA WEST DSA, LLC",293993,2884,"Y","","","","","","","","310-806-6300","310-806-6301","Y","","","","","","","","MONFRI","","9AM- 7PM","","Y","N","N","N","N","N","N","",,"N","Limited Liability Company","","12","DE","United States","N"
1997313,"","GRAHAM CAPITAL LLP",293697,2679,"N","55 BAKER STREET","","LONDON","","United Kingdom","W1U8EW","N","442078712122","","N","","","","","","","N","MONFRI","","8AM-6PM","549300XFQHPG7JLL5E23","Y","N","N","N","N","N","N","",,"N","Limited Liability Partnership","","12","","United Kingdom","N"
1997398,"SAROFIM GP LLC","SAROFIM GP LLC",321014,9695,"Y","","","","","","","","2146944200","2146924201","Y","","","","","","","","MONFRI","","8:00-5:30","","Y","N","N","N","N","N","N","",,"N","Limited Liability Company","","12","DE","United States",""
1999277,"DDELTA REI","DELTA TALENT, LLC",328971,11126,"Y","","","","","","","","512-457-0300","","N","","","","","","","N","MONFRI","","8:00 AM - 5:00PM","","N","N","N","Y","N","N","N","",,"N","Limited Liability Company","","12","TX","United States","N"
1999277,"DDELTA REI","DDELTA REAL ESTATE VENTURES, LLC",328972,11127,"Y","","","","","","","","512-457-0300","","N","","","","","","","N","MONFRI","","8:00 AM - 5:00PM","","N","N","N","Y","N","N","N","",,"N","Limited Liability Company","","12","TX","United States","N"
1999277,"DDELTA REI","FONDEUSA DELTA, LLC",328973,11128,"Y","","","","","","","","512-457-0300","","N","","","","","","","N","MONFRI","","8:00 AM - 5:00PM","","N","N","N","Y","N","N","N","",,"N","Limited Liability Company","","12","TX","United States","N"
1999277,"3N STRATEGIES, LLC","3N STRATEGIES, LLC",328974,11129,"Y","","","","","","","","512-457-0300","","N","","","","","","","N","MONFRI","","8:00 AM - 5:00PM","","N","N","N","Y","N","N","N","",,"N","Limited Liability Company","","12","TX","United States","N"
1999937,"","VISTRIA REAL ESTATE MANAGEMENT COMPANY, LP",337621,12797,"N","175 GREENWICH STREET","68TH FLOOR","NEW YORK","NY","United States","10007","N","312-626-1100","312-453-1651","N","175 GREENWICH STREET","68TH FLOOR","NEW YORK","NY","United States","10007","N","MONFRI","","8AM TO 5-M","","Y","N","N","N","N","N","N","",,"N","Limited Partnership","","12","DE","United States","N"
1999665,"IBORROW SPECIAL OPPORTUNITIES GP, INC.","IBORROW SPECIAL OPPORTUNITIES GP, INC.",322456,9847,"Y","","","","","","","","(310) 903-4300","(310) 843-0888","N","","","","","","","N","MONFRI","","9:00AM-6:00PM","","N","N","N","Y","N","N","N","",,"N","Corporation","","12","CA","United States","N"
1998850,"","ALINDA CAPITAL PARTNERS IV LLC",311096,8008,"Y","","","","","","","","203-930-3800","","N","","","","","","","N","MONFRI","","9:00 AM - 5:00 PM","","N","N","N","Y","N","N","N","",,"N","Limited Liability Company","","12","DE","United States","N"
1998850,"","ATA MANAGER 2 LLC",311480,8009,"Y","","","","","","","","203-930-3800","","N","","","","","","","N","MONFRI","","9:00 AM - 5:00 PM","","N","N","N","Y","N","N","N","",,"N","Limited Liability Company","","12","DE","United States","N"
1998850,"","ASTATINE ADVISORS LLC",324078,10042,"Y","","","","","","","","203-930-3800","","N","","","","","","","N","MONFRI","","9:00 AM - 5:00 PM","254900LUTQX8YXMNM116","N","N","N","Y","N","N","N","",,"N","Limited Liability Company","","12","DE","United States","N"
1989583,"","WALLEYE CAPITAL (UK) LIMITED",329477,11195,"N","MOSS HOUSE, FLOOR 2","15-16 BROOKS MEWS","LONDON","","United Kingdom","W1K 4DS","N","+44 020 391 23129","","N","","","","","","","N","MONFRI","","8:00AM - 6:00PM","","N","N","Y","N","N","N","N","",,"N","Corporation","","12","","United Kingdom",""
1989583,"DOCKSIDE PLATFORMS","DOCKSIDE LLC",330606,11351,"N","120 FIFTH AVENUE","11TH FLOOR","NEW YORK","NY","United States","10011","N","646-756-1199","","N","","","","","","","N","MONFRI","","8:00AM - 6:00PM","","Y","N","N","N","N","N","N","",,"N","Limited Liability Company","","12","DE","United States",""
1989583,"","WALLEYE CAPITAL (DIFC) LIMITED",330782,11397,"N","OFFICE 8, LEVEL 5","GATE DISTRICT PRECINCT BUILDING 04, DIFC","DUBAI","","United Arab Emirates","","N","00971544065172","","N","","","","","","","N","MONFRI","","8:00AM - 6:00PM","","N","N","Y","N","N","N","N","",,"N","Corporation","","12","","United Arab Emirates",""
1999955,"","VISTRIA REAL ESTATE MANAGEMENT COMPANY, LP",337621,12797,"N","175 GREENWICH STREET","68TH FLOOR","NEW YORK","NY","United States","10007","N","312-626-1100","312-453-1651","N","175 GREENWICH STREET","68TH FLOOR","NEW YORK","NY","United States","10007","N","MONFRI","","8AM TO 5-M","","Y","N","N","N","N","N","N","",,"N","Limited Partnership","","12","DE","United States","N"
1992757,"","CITIGROUP PRIVATE EQUITY LP (RELYING ADVISER)",292089,1814,"Y","","","","","","","","212-816-4350","646-861-6413","N","","","","","","","N","MONFRI","","8-5","549300LKHVLWE87ZDI43","N","N","N","Y","N","N","N","",,"N","Limited Partnership","","12","DE","United States","N"
1992757,"","CITIGROUP PRIVATE EQUITY (OFFSHORE) LLC (RELYING ADVISER)",293188,2353,"Y","","","","","","","","212-816-4350","646-861-6413","N","","","","","","","N","MONFRI","","8-5","549300UWW4XPZS0R3H05","N","N","N","Y","N","N","N","",,"N","Limited Liability Company","","12","DE","United States","N"
1992757,"","CITIGROUP PRIVATE EQUITY (CVCI GP) LLC (RELYING ADVISER)",293193,2356,"Y","","","","","","","","212-816-4350","646-861-6413","N","","","","","","","N","MONFRI","","8-5","549300PMG7OQ05418U47","N","N","N","Y","N","N","N","",,"N","Limited Liability Company","","12","DE","United States","N"
1996589,"KINGSWOOD CAPITAL MANAGEMENT, LLC","KINGSWOOD CAPITAL MANAGEMENT, LLC",304661,6461,"Y","","","","","","","","424-200-6600","","Y","","","","","","","","MONFRI","","9:00AM - 5:00PM","","Y","N","N","N","N","N","N","",,"N","Limited Liability Company","","12","DE","United States","N"
1999130,"PHOENIX MERCHANT SOLUTIONS, LP","PHOENIX MERCHANT SOLUTIONS, LP",329755,11233,"Y","","","","","","","","212-804-9990","","Y","","","","","","","","MONFRI","","9 AM - 5 PM","","Y","N","N","Y","N","N","N","",,"N","Limited Partnership","","12","DE","United States","N"
1999840,"","TIKEHAU STRUCTURED CREDIT MANAGEMENT LLC",316480,8925,"Y","","","","","","","","212-922-3734","","N","","","","","","","N","MONFRI","","8-6","","Y","N","N","N","N","N","N","",,"N","Limited Liability Company","","12","NY","United States","N"
2000654,"SCHF MANAGEMENT, L.P.","SCHF MANAGEMENT, L.P.",294908,3622,"Y","","","","","","","","650-397-9070","650-397-9468","Y","","","","","","","","MONFRI","","8:00 AM - 5:00 PM","","Y","N","N","N","N","N","N","",,"N","Limited Partnership","","12","DE","United States","N"
2000654,"SCHF (GPE) KY LLC","SCHF (GPE) KY LLC",316546,8934,"Y","","","","","","","","650-397-9070","650-397-9468","Y","","","","","","","","MONFRI","","8:00AM - 5:00PM","","N","N","N","Y","N","N","N","",,"N","Limited Liability Company","","01","DE","United States","N"
1995474,"","VERITION ADVISORS (SINGAPORE) PTE. LTD.",323896,10017,"N","12 MARINA VIEW","#21-06, ASIA SQUARE TOWER 2","SINGAPORE","","Singapore","018961","N","+65 63515661","","N","","","","","","","N","MONFRI","","9:00 AM - 6:00 PM","875500BDHDRK3IF4TD98","N","N","Y","N","N","N","N","",,"N","Other (specify)","PRIVATE LIMITED COMPANY","12","","Singapore","N"
1995474,"","VERITION MANAGEMENT (DIFC) LIMITED",327648,10949,"N","THE GATE BUILDING (EAST)","LEVEL 12","DIFC, DUBAI","","United Arab Emirates","","N","+97144392400","","N","","","","","","","N","MONFRI","","9:00 AM - 6:00 PM","5493000LZ530EWANYE14","N","N","Y","N","N","N","N","",,"N","Other (specify)","PRIVATE COMPANY","12","","United Arab Emirates","N"
1995474,"","VERITION ADVISORS (UK PARTNERS) LLP",328204,11020,"N","LUCENT, 1 SHERWOOD STREET","THIRD FLOOR","LONDON","","United Kingdom","W1F 7BL","N","+4402039981850","","N","","","","","","","N","MONFRI","","8:00 AM - 5:00 PM","549300HFMODQMLAHNU32","N","N","Y","N","N","N","N","",,"N","Limited Liability Partnership","","12","","United Kingdom","N"
1995474,"","COOPER RIVER CAPITAL MANAGEMENT LLC",329658,11220,"Y","","","","","","","","203-742-7700","203-742-7790","Y","","","","","","","","MONFRI","","9:00 AM - 6:00 PM","894500IN5YVRP4WWOL76","N","N","N","Y","N","N","N","",,"N","Limited Liability Company","","12","DE","United States","N"
1995474,"","VERITION ADVISORS (CANADA) ULC",330815,11409,"N","","","","","","","Y","203-742-7700","203-742-7790","N","","","","","","","N","MONFRI","","9AM - 6PM EST","549300M9F4H4E6CX2P38","N","N","Y","N","N","N","N","",,"N","Other (specify)","UNLIMITED LIABILITY CORPORATION","12","","Canada","N"
1995474,"","VERITION ADVISORS (HONG KONG) LIMITED",333171,11965,"N","JARDINE HOUSE, 1 CONNAUGHT PLACE","SUITE 1910-1917","CENTRAL HONG KONG","","Hong Kong","","N","852 31078078","","N","","","","","","","N","MONFRI","","9:00 AM - 6:00 PM","894500S4D7TMFPJ62Z65","N","N","Y","N","N","N","N","",,"N","Other (specify)","LIMITED COMPANY","12","","Hong Kong","N"
1995474,"","BRAVERA ASSET MANAGEMENT LLC",314954,12739,"Y","","","","","","","","203-742-7700","203-742-7790","Y","","","","","","","","MONFRI","","9AM -6 PM EST","5493007E4840FJWMXP13","N","N","N","Y","N","N","N","",,"N","Limited Liability Company","","12","DE","United States","N"
1988693,"NEWMARKET GLOBAL MANAGEMENT, LP","NEWMARKET GLOBAL MANAGEMENT, LP",309894,7702,"Y","","","","","","","","215-701-9690","","Y","","","","","","","","MONFRI","","9:00 AM- 5:00 PM","","Y","N","N","N","N","N","N","",,"N","Limited Partnership","","12","DE","United States","N"
1988693,"BATTERY FINANCE, INC.","BATTERY FINANCE, INC.",329734,11231,"Y","","","","","","","","215-701-9690","","Y","","","","","","","","MONFRI","","9:00 AM- 5:00 PM","9845006EXFF2C01D4","Y","N","N","N","N","N","N","",,"N","Corporation","","12","DE","United States","N"
1995368,"SILVER POINT DISTRESSED OPPORTUNITIES MANAGEMENT, LLC","SILVER POINT DISTRESSED OPPORTUNITIES MANAGEMENT, LLC",295465,4106,"Y","","","","","","","","(203) 542-4200","(203) 542-4100","N","","","","","","","N","MONFRI","","9:00 AM TO 5:00 PM","","N","N","N","Y","N","N","N","",,"N","Limited Liability Company","","12","DE","United States","N"
1995368,"SILVER POINT SPECIALTY CREDIT FUND II MANAGEMENT, LLC","SILVER POINT SPECIALTY CREDIT FUND II MANAGEMENT, LLC",305374,6565,"Y","","","","","","","","(203) 542-4200","(203) 542-4100","N","","","","","","","N","MONFRI","","9:00 AM TO 5:00 PM","","N","N","N","Y","N","N","N","",,"N","Limited Liability Company","","12","DE","United States","N"
1995368,"SILVER POINT SPECIALTY CREDIT SILVER STAR FUND MANAGEMENT, LLC","SILVER POINT SPECIALTY CREDIT SILVER STAR FUND MANAGEMENT, LLC",317818,9108,"Y","","","","","","","","(203) 542-4200","(203) 542-4100","N","","","","","","","N","MONFRI","","9:00 AM TO 5:00 PM","","N","N","N","Y","N","N","N","",,"N","Limited Liability Company","","12","DE","United States","N"
1995368,"SILVER POINT LOAN FUNDING MANAGEMENT, LLC","SILVER POINT LOAN FUNDING MANAGEMENT, LLC",318618,9214,"Y","","","","","","","","(203) 542-4200","(203) 542-4100","N","","","","","","","N","MONFRI","","9:00 AM TO 5:00 PM","","N","N","N","Y","N","N","N","",,"N","Limited Liability Company","","12","DE","United States","N"
1995368,"SILVER POINT SPECIALTY CREDIT FUND III MANAGEMENT, LLC","SILVER POINT SPECIALTY CREDIT FUND III MANAGEMENT, LLC",322137,9812,"Y","","","","","","","","(203) 542-4200","(203) 542-4100","N","","","","","","","N","MONFRI","","9:00 AM TO 5:00 PM","","N","N","N","Y","N","N","N","",,"N","Limited Liability Company","","12","DE","United States","N"
1995368,"SILVER POINT DISTRESSED OPPORTUNITY INST. PARTNERS II MGMT, LLC","SILVER POINT DISTRESSED OPPORTUNITY INST. PARTNERS II MGMT, LLC",323634,9974,"Y","","","","","","","","(203) 542-4200","(203) 542-4100","N","","","","","","","N","MONFRI","","9:00 AM TO 5:00 PM","","N","N","N","Y","N","N","N","",,"N","Limited Liability Company","","12","DE","United States","N"
1995368,"SILVER POINT RR MANAGER, L.P.","SILVER POINT RR MANAGER, L.P.",323639,9975,"Y","","","","","","","","(203) 542-4200","(203) 542-4100","N","","","","","","","N","MONFRI","","9:00 AM TO 5:00 PM","","N","N","N","Y","N","N","N","",,"N","Limited Partnership","","12","DE","United States","N"
1995368,"SILVER POINT CLO MANAGEMENT, LLC","SILVER POINT CLO MANAGEMENT, LLC",325724,10349,"Y","","","","","","","","(203) 542-4200","(203) 542-4100","Y","","","","","","","","MONFRI","","9:00 AM TO 5:00 PM","","N","N","N","Y","N","N","N","",,"N","Limited Liability Company","","12","DE","United States","N"
1995368,"SILVER POINT SELECT B MANAGEMENT, LLC","SILVER POINT SELECT B MANAGEMENT, LLC",328445,11037,"Y","","","","","","","","(203) 542-4200","(203) 542-4100","N","","","","","","","N","MONFRI","","9:00 AM TO 5:00 PM","","N","N","N","Y","N","N","N","",,"N","Limited Liability Company","","12","DE","United States","N"
1995368,"SILVER POINT PRIVATE CREDIT FUND MANAGEMENT, LLC","SILVER POINT PRIVATE CREDIT FUND MANAGEMENT, LLC",332374,11802,"Y","","","","","","","","(203) 542-4200","(203) 542-4100","N","","","","","","","N","MONFRI","","9:00 AM TO 5:00 PM","","N","N","N","Y","N","N","N","",,"N","Limited Liability Company","","12","DE","United States","N"
1995368,"SILVER POINT CAPITAL DENMARK, LLC","SILVER POINT CAPITAL DENMARK, LLC",333137,11962,"Y","","","","","","","","(203) 542-4200","(203) 542-4100","N","","","","","","","N","MONFRI","","9:00 AM TO 5:00 PM","","N","N","N","Y","N","N","N","",,"N","Limited Liability Company","","12","DE","United States","N"
1995368,"SILVER POINT SELECT OVERFLOW FUND MANAGEMENT, LLC","SILVER POINT SELECT OVERFLOW FUND MANAGEMENT, LLC",333818,12062,"Y","","","","","","","","(203) 542-4200","(203) 542-4100","N","","","","","","","N","MONFRI","","9:00 AM TO 5:00 PM","","N","N","N","Y","N","N","N","",,"N","Limited Liability Company","","12","DE","United States","N"
1995368,"SILVER POINT SCF (U) III MANAGEMENT, LLC","SILVER POINT SCF (U) III MANAGEMENT, LLC",334781,12226,"Y","","","","","","","","(203) 542-4200","(203) 542-4100","N","","","","","","","N","MONFRI","","9:00 AM TO 5:00 PM","","N","N","N","Y","N","N","N","",,"N","Limited Liability Company","","12","DE","United States","N"
1995368,"SILVER POINT SELECT C MANAGEMENT, LLC","SILVER POINT SELECT C MANAGEMENT, LLC",334782,12227,"Y","","","","","","","","(203) 542-4200","(203) 542-4100","N","","","","","","","N","MONFRI","","9:00 AM TO 5:00 PM","","N","N","N","Y","N","N","N","",,"N","Limited Liability Company","","12","DE","United States","N"
1995368,"SILVER POINT SELECT C CLO MANAGER, LLC","SILVER POINT SELECT C CLO MANAGER, LLC",334994,12250,"Y","","","","","","","","(203) 542-4200","(203) 542-4100","N","","","","","","","N","MONFRI","","9:00 AM TO 5:00 PM","","N","N","N","Y","N","N","N","",,"N","Limited Liability Company","","12","DE","United States",""
1995368,"SILVER POINT EUROPE, LLP","SILVER POINT EUROPE, LLP",336617,12696,"N","CHARLES HOUSE, 4TH FLOOR","5-11 REGENT STREET","SAINT JAMES'S, LONDON","","United Kingdom","SW1Y 4LR","N","+44 (0) 203 6507 945","","N","","","","","","","N","MONFRI","","9:00 AM TO 5:00 PM","","N","N","Y","N","N","N","N","",,"N","Limited Liability Partnership","","12","","United Kingdom","N"
1995368,"SILVER POINT TACTICAL CREDIT OPPORTUNITIES MANAGEMENT, LLC","SILVER POINT TACTICAL CREDIT OPPORTUNITIES MANAGEMENT, LLC",337387,12762,"Y","","","","","","","","(203) 542-4200","(203) 542-4100","N","","","","","","","N","MONFRI","","9:00 AM TO 5:00 PM","","N","N","N","Y","N","N","N","",,"N","Limited Liability Company","","12","DE","United States","N"
1995544,"","DTA II LLC",307946,7027,"Y","","","","","","","","(424) 205-6850","","N","","","","","","","N","MONFRI","","8:00AM - 6:00PM (PST)","","N","N","N","Y","N","N","N","",,"N","Limited Liability Company","","12","DE","United States","N"
1995544,"","DTA LIQUIDITY FUND I GP, LLC",308668,7364,"Y","","","","","","","","(424) 205-6850","","N","","","","","","","N","MONFRI","","8:00AM - 6:00PM (PST)","","N","N","N","Y","N","N","N","",,"N","Limited Liability Company","","12","DE","United States","N"
1996707,"ARGOS CAPITAL PARTNERS, LLC","SAIL POINT CAPITAL, LLC",316086,8869,"Y","","","","","","","","314-898-9893","314-898-9901","N","","","","","","","N","MONFRI","","9AM - 4PM","","Y","N","N","N","N","N","N","",,"N","Limited Liability Company","","12","MO","United States","N"
1993301,"","WINONA CAPITAL MANAGEMENT II, LLC",295179,3854,"Y","","","","","","","","312-334-8800","312-223-9484","N","","","","","","","N","MONFRI","","8:30AM - 5:00PM","","N","N","N","Y","N","N","N","",,"N","Limited Liability Company","","12","DE","United States","N"
1995285,"ICG CHARGE ME DIRECTIVES LLC","ICG CHARGE ME DIRECTIVES LLC",318879,9254,"Y","","","","","","","","(212) 705-5000","(212) 705-5001","N","","","","","","","N","MONFRI","","9:00AM-5:30PM","","N","N","N","Y","N","N","N","",,"N","Limited Liability Company","","12","DE","United States","N"
1995285,"MV ESC DIRECTIVES LLC","MV ESC DIRECTIVES LLC",322737,10026,"Y","","","","","","","","(212) 705-5000","(212) 705-5001","N","","","","","","","N","MONFRI","","9:00AM-5:30PM","","N","N","N","Y","N","N","N","",,"N","Limited Liability Company","","12","DE","United States","N"
1995285,"ISLAND TLCC DIRECTIVES LLC","ISLAND TLCC DIRECTIVES LLC",329600,11209,"Y","","","","","","","","212-705-5000","212-705-5001","Y","","","","","","","","MONFRI","","9:00AM-5:30PM","","N","N","N","Y","N","N","N","",,"N","Limited Liability Company","","12","DE","United States",""
1995285,"ISLAND HS-CG DIRECTIVES I LLC","ISLAND HS-CG DIRECTIVES I LLC",334624,12201,"Y","","","","","","","","212-705-5000","212-705-5001","Y","","","","","","","","MONFRI","","9:00AM-5:30PM","","N","N","N","Y","N","N","N","",,"N","Limited Liability Company","","12","DE","United States",""
1995249,"","ELMWOOD RR CLO LLC, MANAGEMENT SERIES",321845,9782,"Y","","","","","","","","646-876-2350","","N","","","","","","","N","MONFRI","","9:00 AM - 5:00 PM","","N","N","N","Y","N","N","N","",,"N","Limited Liability Company","","12","DE","United States","N"
1995082,"","26NORTH DIRECT LENDING II LP",327799,10973,"Y","","","","","","","","212-257-5220","","Y","","","","","","","","MONFRI","","8AM-6PM","","Y","N","N","Y","N","N","N","",,"N","Limited Partnership","","12","DE","United States","N"
1995082,"","26NORTH PRIVATE EQUITY LP",329403,11180,"Y","","","","","","","","212-257-5220","","Y","","","","","","","","MONFRI","","8AM-6PM","","Y","N","N","Y","N","N","N","",,"N","Limited Partnership","","12","DE","United States","N"
1995082,"","26NORTH IGA LP",330509,11334,"Y","","","","","","","","212-257-5220","","Y","","","","","","","","MONFRI","","8AM-6PM","","N","N","N","Y","N","N","N","",,"N","Limited Partnership","","12","DE","United States","N"
1997115,"ENTRUST GLOBAL PARTNERS OFFSHORE LP","ENTRUST GLOBAL PARTNERS OFFSHORE LP",108035,8426,"Y","","","","","","","","212-888-1040","212- 225-8469","Y","","","","","","","","MONFRI","","9:00AM TO 6:00 PM","2549000NUWWVM0NQUO73","N","N","N","Y","N","N","N","",,"N","Limited Partnership","","12","DE","United States","N"
1997115,"BLUE OCEAN GP LLC","BLUE OCEAN GP LLC",297988,8427,"Y","","","","","","","","212-888-1040","212-225-8469","Y","","","","","","","","MONFRI","","9:00AM TO 6:00 PM","","N","N","N","Y","N","N","N","",,"N","Limited Liability Company","","12","DE","United States","N"
1997143,"FREESTONE INVESTMENTS LLC","FREESTONE INVESTMENTS LLC",294345,3144,"Y","","","","","","","","206-707-7300","206-707-7399","Y","","","","","","","","MONFRI","","7:30 AM TO 4:30 PM","","N","N","N","Y","N","N","N","",,"N","Limited Liability Company","","12","DE","United States","N"
1989752,"","CLEARLAKE CAPITAL MANAGEMENT III, L.P.",291704,1702,"Y","","","","","","","","310-400-8800","310-400-8801","Y","","","","","","","","MONFRI","","9AM - 5PM","","Y","N","N","Y","N","N","N","",,"N","Limited Partnership","","12","DE","United States","N"
1989752,"","CLEARLAKE CAPITAL MANAGEMENT IV, L.P.",291705,1703,"Y","","","","","","","","310-400-8800","310-400-8801","Y","","","","","","","","MONFRI","","9AM - 5PM","549300WD725GJCJW9N69","Y","N","N","Y","N","N","N","",,"N","Limited Partnership","","12","DE","United States","N"
1989752,"","CLEARLAKE CAPITAL MANAGEMENT V, L.P.",291706,1704,"Y","","","","","","","","310-400-8800","310-400-8801","Y","","","","","","","","MONFRI","","9AM - 5PM","549300XHUJQRM7RVQS98","Y","N","N","Y","N","N","N","",,"N","Limited Partnership","","12","DE","United States","N"
1989752,"","CLEARLAKE CAPITAL MANAGEMENT OPPORTUNITIES, L.P.",291707,1705,"Y","","","","","","","","310-400-8800","310-400-8801","Y","","","","","","","","MONFRI","","9AM - 5PM","54930033UDVWVVGDYS55","Y","N","N","Y","N","N","N","",,"N","Limited Partnership","","12","DE","United States","N"
1989752,"","CLEARLAKE CAPITAL MANAGEMENT OPPORTUNITIES II, L.P.",301120,5896,"Y","","","","","","","","310-400-8800","310-400-8801","Y","","","","","","","","MONFRI","","9AM - 5PM","5493008G2VNRY5LEQV81","Y","N","N","Y","N","N","N","",,"N","Limited Partnership","","12","DE","United States","N"
1989752,"","CLEARLAKE CAPITAL MANAGEMENT VI, L.P.",306798,6817,"Y","","","","","","","","310-400-8800","310-400-8801","Y","","","","","","","","MONFRI","","9AM - 5PM","549300VY8F4YIGVZ8Q2","Y","N","N","Y","N","N","N","",,"N","Limited Partnership","","12","DE","United States","N"
1989752,"","CLEARLAKE CAPITAL MANAGEMENT FLAGSHIP PLUS, L.P.",310844,7818,"Y","","","","","","","","310-400-8800","310-400-8801","Y","","","","","","","","MONFRI","","9AM - 5PM","54930003EHZAV8YXUJ29","Y","N","N","Y","N","N","N","",,"N","Limited Partnership","","12","DE","United States","N"
1989752,"","ICON SOFTWARE MANAGEMENT, L.P.",310845,7819,"Y","","","","","","","","310-400-8800","310-400-8801","Y","","","","","","","","MONFRI","","9AM - 5PM","","Y","N","N","Y","N","N","N","",,"N","Limited Partnership","","12","DE","United States","N"
1989752,"","ICON MANAGEMENT II, L.P.",314305,8580,"Y","","","","","","","","310-400-8800","310-400-8801","Y","","","","","","","","MONFRI","","9AM - 5PM","","Y","N","N","Y","N","N","N","",,"N","Limited Partnership","","12","DE","United States","N"
1989752,"","ICON MANAGEMENT III, L.P.",314306,8581,"Y","","","","","","","","310-400-8800","310-400-8801","Y","","","","","","","","MONFRI","","9AM - 5PM","","N","N","N","Y","N","N","N","",,"N","Limited Partnership","","12","DE","United States","N"
1989752,"","CLEARLAKE CAPITAL MANAGEMENT VII, L.P.",315748,8818,"N","233 WILSHIRE BLVD","STE 800","SANTA MONICA","CA","United States","90401","N","310400-8800","310400-8801","N","","","","","","","N","MONFRI","","9AM-5PM","549300ZBWMVEFHHQYT09","Y","N","N","Y","N","N","N","",,"N","Limited Partnership","","12","DE","United States","N"
1989752,"","CLEARLAKE CAPITAL MANAGEMENT OPPORTUNITIES III, L.P.",315749,8819,"Y","","","","","","","","3104008800","3104008801","Y","","","","","","","","MONFRI","","9AM-5PM","549300QBPNV625O88Y36","Y","N","N","Y","N","N","N","",,"N","Limited Partnership","","12","DE","United States","N"
1989752,"","ICON MANAGEMENT IV, L.P.",315750,8820,"Y","","","","","","","","3104008800","3104008801","Y","","","","","","","","MONFRI","","9AM-5PM","","Y","N","N","Y","N","N","N","",,"N","Limited Partnership","","12","DE","United States","N"
1989752,"","ICON MANAGEMENT V, L.P.",319539,9375,"Y","","","","","","","","3104008800","3104008801","Y","","","","","","","","MONFRI","","9AM-5PM","","Y","N","N","Y","N","N","N","",,"N","Limited Partnership","","12","DE","United States","N"
1989752,"","CLEARLAKE CAPITAL MANAGEMENT FLAGSHIP PLUS (BLUES), L.P.",325973,10452,"Y","","","","","","","","310-400-8800","310-400-8801","Y","","","","","","","","MONFRI","","9AM - 5PM","","N","N","N","Y","N","N","N","",,"N","Limited Partnership","","12","","Cayman Islands","Y"
1989752,"","CLEARLAKE CAPITAL MANAGEMENT OPPORTUNITIES II (BLUES), L.P.",325974,10453,"Y","","","","","","","","310-400-8800","310-400-8801","Y","","","","","","","","MONFRI","","9AM - 5PM","","N","N","N","Y","N","N","N","",,"N","Limited Partnership","","12","","Cayman Islands","Y"
1989752,"","CLEARLAKE CAPITAL MANAGEMENT OPPORTUNITIES III (BLUES), L.P.",325976,10455,"Y","","","","","","","","310-400-8800","310-400-8801","Y","","","","","","","","MONFRI","","9AM - 5PM","","N","N","N","Y","N","N","N","",,"N","Limited Partnership","","12","","Cayman Islands","Y"
1989752,"","CLEARLAKE CAPITAL MANAGEMENT VII (BLUES), L.P.",325977,10456,"Y","","","","","","","","310-400-8800","310-400-8801","Y","","","","","","","","MONFRI","","9AM - 5PM","","Y","N","N","Y","N","N","N","",,"N","Limited Partnership","","12","","Cayman Islands","Y"
1989752,"","CLEARLAKE CAPITAL MANAGEMENT VIII, L.P.",325978,10457,"Y","","","","","","","","310-400-8800","310-400-8801","Y","","","","","","","","MONFRI","","9AM - 5PM","254900OY52DC0RO6A025","Y","N","N","Y","N","N","N","",,"N","Limited Partnership","","12","DE","United States","N"
1989752,"","ICON MANAGEMENT VI, L.P.",335776,12394,"Y","","","","","","","","3104008800","3104008801","Y","","","","","","","","MONFRI","","9AM-5PM","","Y","N","N","Y","N","N","N","",,"N","Limited Partnership","","12","DE","United States","N"
1989752,"CLEARLAKE CREDIT","MV CREDIT SARL",313205,12396,"N","51 AVENUE JOHN .F. KENNEDY","","LUXEMBOURG","","Luxembourg","L-1855","N","00 352 20 21 35 24","","N","","","","","","","N","MONFRI","","9AM-6PM","2549004NI22HTC0JSH97","Y","N","Y","N","N","N","N","",,"N","Limited Liability Company","","12","","Luxembourg",""
1989752,"CLEARLAKE CREDIT","CLEARLAKE CAPITAL (UK) LLP",288259,12397,"N","45 OLD BOND STREET","","LONDON","","United Kingdom","W1S 4QT","N","44 203 961 8840","","N","","","","","","","N","MONFRI","","9AM-6PM","254900NPLH10R06TSC32","Y","N","Y","N","N","N","N","",,"N","Limited Liability Partnership","","12","","United Kingdom","N"
1989752,"","CLEARLAKE CAPITAL MANAGEMENT IDF, L.P.",325979,12491,"N","233 WILSHIRE BLVD., SUITE 800","","SANTA MONICA","CA","United States","90401","N","3104008800","3104008801","Y","","","","","","","","MONFRI","","9AM-5PM","","Y","N","N","Y","N","N","N","",,"N","Limited Partnership","","12","DE","United States","N"
1989752,"","CLEARLAKE CAPITAL MANAGEMENT VIII (M), L.P.",335956,12494,"Y","","","","","","","","3104008800","","Y","","","","","","","","MONFRI","","9AM-5PM","","N","N","N","Y","N","N","N","",,"N","Limited Partnership","","12","DE","United States",""
1998316,"","CITADEL ASIA LIMITED",292034,1784,"N","59/F TWO INTERNATIONAL FINANCE CENTRE","8 FINANCE STREET","HONG KONG","","Hong Kong","CENTRAL","N","852 3667-5500","","N","","","","","","","N","MONFRI","","8:00 AM TO 5:00 PM","54930005JTULKGVNLU11","N","N","Y","N","N","N","N","",,"N","Other (specify)","LIMITED COMPANY","12","","Hong Kong","N"
1998316,"","CITADEL FRANCE SAS",313551,8201,"N","40-42 RUE LA BOETIE","","PARIS","","France","75008","N","+33 1 78 95 0900","","N","","","","","","","N","MONFRI","","8:00 AM TO 5:00 PM","549300PD3MYDT7QR0C92","N","N","Y","N","N","N","N","",,"N","Other (specify)","SOCIÉTÉ PAR ACTIONS SIMPLIFIÉE","12","","France","N"
1998316,"","CITADEL ADVISORS SINGAPORE PTE. LIMITED",314103,8448,"N","12 MARINA VIEW","#22-01/02 ASIA SQUARE TOWER 2","SINGAPORE","","Singapore","018961","N","+65 6351 5200","","N","","","","","","","N","MONFRI","","8:00 AM TO 5:00 PM","","N","N","Y","N","N","N","N","",,"N","Other (specify)","PRIVATE LIMITED COMPANY","12","","Singapore","N"
1998316,"","CITADEL ADVISORS EUROPE LIMITED",318548,9204,"N","120 LONDON WALL","","LONDON","","United Kingdom","EC2Y 5ET","N","+44 (0) 20-7645-9700","","N","","","","","","","N","MONFRI","","8:00 AM TO 5:00 PM","5493003FS3JD468P6Z37","N","N","Y","N","N","N","N","",,"N","Other (specify)","PRIVATE LIMITED COMPANY","12","","United Kingdom","N"
1998360,"","PINE RIVER DOMESTIC MANAGEMENT L.P.",290701,1275,"Y","","","","","","","","612-238-3300","612-238-3301","Y","","","","","","","","MONFRI","","8:00 A.M. - 5:00 P.M.","","N","N","N","Y","N","N","N","",,"N","Limited Partnership","","12","DE","United States","N"
1997695,"HUDSON BAY CAPITAL MANAGEMENT (DIFC) LTD.","HUDSON BAY CAPITAL MANAGEMENT (DIFC) LTD.",327184,10841,"N","UNIT 16, LEVEL 03, GATE VILLAGE BUILDING 10","","DUBAI INTERNATIONAL FINANCIAL CENTRE","","United Arab Emirates","","N","04-2605100","","N","","","","","","","N","MONFRI","","9-5 (GST)","","Y","N","N","N","N","N","N","",,"N","Corporation","","12","","United Arab Emirates","Y"
1997695,"HUDSON BAY CAPITAL UK LLP","HUDSON BAY CAPITAL UK LLP",332832,11904,"N","16 ST. JAMES'S STREET, 5TH FLOOR","","LONDON","","United Kingdom","SW1A1ER","N","+44.20.3893.3022","","N","","","","","","","N","MONFRI","","9AM - 5 PM","984500FB021B94B4D109","Y","N","N","N","N","N","N","",,"N","Limited Liability Partnership","","12","","United Kingdom","Y"
1997695,"","HUDSON BAY CAPITAL MANAGEMENT (HONG KONG) LIMITED",337534,12787,"N","1 CONNAUGHT ROAD","AIA CENTRAL SUITES 2901-2902","CENTRAL","","Hong Kong","","N","852 3548 1888","","N","","","","","","","N","MONFRI","","9-5 (GST)","","Y","N","N","N","N","N","N","",,"N","Corporation","","12","","Hong Kong","Y"
1999493,"","BTG PACTUAL TIMBERLAND INVESTMENT GROUP LLC",293095,2295,"Y","","","","","","","","2122934600","","Y","","","","","","","","MONFRI","","9:00 AM TO 06:00 PM","","Y","N","N","N","N","N","N","",,"N","Limited Liability Company","","12","DE","United States","N"
1995680,"","LEXINGTON PARTNERS ASIA LIMITED",295842,4422,"N","SUITES 2903-2909, 29/F, TWO IFC","8 FINANCE STREET","CENTRAL, HONG KONG","","Hong Kong","","N","85239871600","","N","","","","","","","N","MONFRI","","9:00AM TO 5:00PM","","N","N","Y","N","N","N","N","",,"N","Other (specify)","LIMITED COMPANY","09","","Hong Kong","N"
1995680,"","LEXINGTON PARTNERS CHILE SPA",295869,4444,"N","3477 ISIDORA GOYENECHEA AVE.","17TH FLOOR, SUITE 170 B","LAS CONDES, SANTIAGO","","Chile","","N","56 2 24876700","","N","","","","","","","N","MONFRI","","9:00 AM TO 5:00 PM","","N","N","Y","N","N","N","N","",,"N","Other (specify)","LIMITED PARTNERSHIP WITH SHARES","09","","Chile","N"
1995680,"","LEXINGTON PARTNERS UK LLP",295872,4447,"N","1 MEDICI COURTYARD","2ND FLOOR","LONDON","","United Kingdom","W1S 1BR","N","442073993940","","N","","","","","","","N","MONFRI","","9:00AM TO 5:00PM","","N","N","Y","N","N","N","N","",,"N","Limited Liability Partnership","","09","","United Kingdom","N"
1995680,"","ADMINISTRADORA LEXINGTON PARTNERS, S.C.",297932,5422,"N","N/A","","N/A","","Mexico","N/A","N","N/A","N/A","N","","","","","","","N","OTHER","N/A","N/A","","N","N","Y","N","N","N","N","",,"N","Other (specify)","SOCIEDAD CIVIL","09","","Mexico","N"
1995680,"","LEXINGTON PARTNERS LUXEMBOURG S.A R.L.",320941,9646,"N","2, PLACE DE PARIS","","LUXEMBOURG","","Luxembourg","L-2314","N","35220410431","","N","","","","","","","N","MONFRI","","9:00AM TO 5:00PM","","N","N","Y","N","N","N","N","",,"N","Other (specify)","S.A R.L.","09","","Luxembourg","N"
1996022,"","VERITION ADVISORS (SINGAPORE) PTE. LTD.",323896,10017,"N","12 MARINA VIEW","#21-06, ASIA SQUARE TOWER 2","SINGAPORE","","Singapore","018961","N","+65 63515661","","N","","","","","","","N","MONFRI","","9:00 AM - 6:00 PM","875500BDHDRK3IF4TD98","N","N","Y","N","N","N","N","",,"N","Other (specify)","PRIVATE LIMITED COMPANY","12","","Singapore","N"
1996022,"","VERITION MANAGEMENT (DIFC) LIMITED",327648,10949,"N","THE GATE BUILDING (EAST)","LEVEL 12","DIFC, DUBAI","","United Arab Emirates","","N","+97144392400","","N","","","","","","","N","MONFRI","","9:00 AM - 6:00 PM","5493000LZ530EWANYE14","N","N","Y","N","N","N","N","",,"N","Other (specify)","PRIVATE COMPANY","12","","United Arab Emirates","N"
1996022,"","VERITION ADVISORS (UK PARTNERS) LLP",328204,11020,"N","LUCENT, 1 SHERWOOD STREET","THIRD FLOOR","LONDON","","United Kingdom","W1F 7BL","N","+4402039981850","","N","","","","","","","N","MONFRI","","8:00 AM - 5:00 PM","549300HFMODQMLAHNU32","N","N","Y","N","N","N","N","",,"N","Limited Liability Partnership","","12","","United Kingdom","N"
1996022,"","COOPER RIVER CAPITAL MANAGEMENT LLC",329658,11220,"Y","","","","","","","","203-742-7700","203-742-7790","Y","","","","","","","","MONFRI","","9:00 AM - 6:00 PM","894500IN5YVRP4WWOL76","N","N","N","Y","N","N","N","",,"N","Limited Liability Company","","12","DE","United States","N"
1996022,"","VERITION ADVISORS (CANADA) ULC",330815,11409,"N","","","","","","","Y","203-742-7700","203-742-7790","N","","","","","","","N","MONFRI","","9AM - 6PM EST","549300M9F4H4E6CX2P38","N","N","Y","N","N","N","N","",,"N","Other (specify)","UNLIMITED LIABILITY CORPORATION","12","","Canada","N"
1996022,"","VERITION ADVISORS (HONG KONG) LIMITED",333171,11965,"N","JARDINE HOUSE, 1 CONNAUGHT PLACE","SUITE 1910-1917","CENTRAL HONG KONG","","Hong Kong","","N","852 31078078","","N","","","","","","","N","MONFRI","","9:00 AM - 6:00 PM","894500S4D7TMFPJ62Z65","N","N","Y","N","N","N","N","",,"N","Other (specify)","LIMITED COMPANY","12","","Hong Kong","N"
1994798,"","BLUE OWL LIQUID CREDIT ADVISORS LLC",294941,9720,"N","1 GREENWICH PLAZA","SUITE C, FLOOR 2","GREENWICH","CT","United States","06830","N","(888) 215-1944","","N","","","","","","","N","MONFRI","","9:00AM-5:00PM","254900A3FFNBP8Z5QE05","Y","N","N","N","N","N","N","",,"N","Limited Liability Company","","12","DE","United States","N"
1994798,"","BLUE OWL STRATEGIC EQUITY PARTNERS ADVISORS LLC",329319,11169,"Y","","","","","","","","(212) 419-3000","","N","","","","","","","N","MONFRI","","9:00AM-5:00PM","","Y","N","N","Y","N","N","N","",,"N","Limited Liability Company","","12","DE","United States","N"
1994798,"","BLUE OWL HEALTHCARE OPPORTUNITIES ADVISORS LLC",329382,11178,"Y","","","","","","","","(212) 419-3000","","N","","","","","","","N","MONFRI","","9:00AM-5:00PM","","Y","N","N","Y","N","N","N","",,"N","Limited Liability Company","","12","DE","United States","N"
1994798,"","BLUE OWL INSURANCE LOAN MANAGEMENT LLC",332164,11756,"Y","","","","","","","","(212) 419-3000","","N","","","","","","","N","MONFRI","","9:00 AM - 5:00 PM","","Y","N","N","Y","N","N","N","",,"N","Limited Liability Company","","12","DE","United States","N"
1994798,"","BLUE OWL ALTERNATIVE CREDIT ADVISORS LLC",333241,11976,"Y","","","","","","","","(212) 419-3000","","N","","","","","","","N","MONFRI","","9:00AM-5:00PM","2549007KV0MEUNARXE23","Y","N","N","Y","N","N","N","",,"N","Limited Liability Company","","12","DE","United States","N"
2000766,"","RISING SUN MANAGEMENT LTD.",310497,7791,"N","C/O CAYMAN NATIONAL FUND SERVICES LTD., SUITE 6201","62 FORUM LANE, CAMANA BAY","GRAND CAYMAN","","Cayman Islands","KY1 1201","N","310-318-9000","310-318-1156","Y","","","","","","","","MONFRI","","8:00 A.M. TO 5:00 P.M.","","N","N","Y","N","N","N","N","",,"N","Other (specify)","CAYMAN ISLANDS EXEMPTED LIMITED COMPANY","12","","Cayman Islands","N"
2000761,"","CANTERBURY CONSULTING GP I, LLC",305193,6551,"Y","","","","","","","","9497219580","9497219973","Y","","","","","","","","MONFRI","","8:00 AM - 5:00 PM","","N","N","N","Y","N","N","N","",,"N","Limited Liability Company","","12","DE","United States","N"
2000761,"","CANTERBURY CONSULTING GP II, LLC",308185,7095,"Y","","","","","","","","9497219580","9497219973","Y","","","","","","","","MONFRI","","8:00 AM - 5:00 PM","","N","N","N","Y","N","N","N","",,"N","Limited Liability Company","","12","DE","United States","N"
2000761,"","CANTERBURY CONSULTING GP III, LLC",308281,7160,"Y","","","","","","","","9497219580","9497219973","Y","","","","","","","","MONFRI","","8:00 AM - 5:00 PM","","N","N","N","Y","N","N","N","",,"N","Limited Liability Company","","12","DE","United States","N"
2000761,"","CANTERBURY CONSULTING GP IV, LLC",319647,9396,"Y","","","","","","","","9497219580","9497219973","Y","","","","","","","","MONFRI","","8:00 AM - 5:00 PM","","N","N","N","Y","N","N","N","",,"N","Limited Liability Company","","12","DE","United States","N"
2000761,"","CANTERBURY CONSULTING GP V, LLC",325488,10294,"Y","","","","","","","","9497219580","9497219973","Y","","","","","","","","MONFRI","","8:00 AM - 5:00 PM","","N","N","N","Y","N","N","N","",,"N","Limited Liability Company","","12","DE","United States","N"
2000761,"","CANTERBURY CONSULTING GP VI, LLC",335161,12268,"Y","","","","","","","","9497219580","9497219973","Y","","","","","","","","MONFRI","","8:00 AM - 5:00 PM","","N","N","N","Y","N","N","N","",,"N","Limited Liability Company","","12","DE","United States","N"
2000761,"","CANTERBURY CONSULTING GP VII, LLC",335356,12294,"Y","","","","","","","","9497219580","9497219973","Y","","","","","","","","MONFRI","","8:00 AM - 5:00 PM","","N","N","N","Y","N","N","N","",,"N","Limited Liability Company","","12","DE","United States","N"
2000761,"","CANTERBURY CONSULTING GP VIII, LLC",335639,12352,"Y","","","","","","","","9497219580","9497219973","Y","","","","","","","","MONFRI","","8:00 AM - 5:00 PM","","N","N","N","Y","N","N","N","",,"N","Limited Liability Company","","12","DE","United States","N"
2000761,"","CANTERBURY CONSULTING GP IX, LLC",337383,12761,"Y","","","","","","","","9497219580","","Y","","","","","","","","MONFRI","","8:00 AM - 5:00 PM","","N","N","N","Y","N","N","N","",,"N","Limited Liability Company","","12","DE","United States",""
1990357,"AVX MANAGEMENT, LLC","AVX MANAGEMENT, LLC",325442,10288,"Y","","","","","","","","512-423-0410","","N","","","","","","","N","MONFRI","","9:00 A.M. -5:00 P.M.","","Y","N","N","N","N","N","N","",,"N","Limited Liability Company","","12","DE","United States","N"
1998030,"","BARINGTON COMPANIES MANAGEMENT, LLC",294316,3122,"Y","","","","","","","","212-974-5710","212-586-7684","Y","","","","","","","","MONFRI","","9-5:30","","Y","N","N","N","N","N","N","",,"N","Limited Liability Company","","12","DE","United States","N"
1998572,"","ASTATINE CAPITAL PARTNERS LLP",296272,4819,"N","AUGUSTINE HOUSE AUSTIN FRIARS","","LONDON","","United Kingdom","EC2N 2HA","N","44 20 7101 2500","44 20 7101 7721","N","","","","","","","N","MONFRI","","9:00 AM - 5:00 PM","","N","N","Y","N","N","N","N","",,"N","Limited Liability Partnership","","12","","United Kingdom","N"
1998572,"","ALINDA CAPITAL PARTNERS II LTD.",296286,4830,"Y","","","","","","","","203-930-3800","203-930-3880","N","","","","","","","N","MONFRI","","9:00 AM - 5:00 PM","549300HYJGCPALDZS18","N","N","N","Y","N","N","N","",,"N","Other (specify)","EXEMPTED COMPANY","12","","Cayman Islands","N"
1998572,"","ALINDA CAPITAL PARTNERS III LTD.",296290,4834,"Y","","","","","","","","203-930-3800","203-930-3800","N","","","","","","","N","MONFRI","","9:00 AM - 5:00 PM","549300D31SB8GGCHLZ52","N","N","N","Y","N","N","N","",,"N","Other (specify)","EXEMPTED COMPANY","12","","Cayman Islands","N"
1998572,"","ASTATINE CAPITAL PARTNERS LLC",296335,4866,"Y","","","","","","","","203-930-3800","203-930-3880","N","","","","","","","N","MONFRI","","9:00 AM - 5:00 PM","549300FR5FPWVSULK140","N","N","N","Y","N","N","N","",,"N","Limited Liability Company","","12","DE","United States","N"
1998572,"","ATA LTD.",296337,4868,"Y","","","","","","","","203-930-3800","203-930-3880","N","","","","","","","N","MONFRI","","9:00 AM - 5:00 PM","","N","N","N","Y","N","N","N","",,"N","Other (specify)","EXEMPTED COMPANY","12","","Cayman Islands","N"
1995955,"","AGL CLO CREDIT MANAGEMENT LLC",305647,6641,"Y","","","","","","","","212-973-8600","","Y","","","","","","","","MONFRI","","8AM-6PM","","Y","N","N","N","N","N","N","",,"N","Limited Liability Company","","12","DE","United States","N"
2000677,"","COASTAL VENTURES I, LLC",332330,11794,"Y","","","","","","","","888-411-2280","","Y","","","","","","","","MONFRI","","9-5","","Y","N","N","N","N","N","N","",,"N","Limited Liability Company","","12","FL","United States",""
1991678,"","ALIGN VENTURES MC, INC.",337724,12813,"Y","","","","","","","","415-300-0759","","Y","","","","","","","","OTHER","BY APPOINTMENT ONLY","BY APPOINTMENT ONLY","","N","N","N","Y","N","N","N","",,"N","Corporation","","12","DE","United States",""
1998815,"","BLACKROCK US LOAN FUNDING LLC, MANAGEMENT SERIES",336174,12646,"Y","","","","","","","","212 810 5300","","N","","","","","","","N","MONFRI","","7:30AM TO 7:30PM","","N","N","N","Y","N","N","N","",,"N","Limited Liability Company","","12","DE","United States","N"
1995750,"JVP MANAGEMENT","JVP CRE MANAGER LLC",326298,10640,"Y","","","","","","","","3478317031","","Y","","","","","","","","MONFRI","","9-5PM","","N","N","N","Y","N","N","N","",,"N","Limited Liability Company","","12","DE","United States","N"
1995750,"JVP MANAGEMENT","JVA RE INVESTMENTS LLC",330998,11504,"Y","","","","","","","","6072039401","","Y","","","","","","","","MONFRI","","8:30 - 5:30","","N","N","N","Y","N","N","N","",,"N","Limited Liability Company","","12","DE","United States","N"
1995750,"JVP MANAGEMENT","JVP CRE MANAGER II LLC",337231,12743,"Y","","","","","","","","6072039401","","Y","","","","","","","","MONFRI","","9AM - 5PM","","N","N","N","Y","N","N","N","",,"N","Limited Liability Company","","12","DE","United States",""
2000750,"","LNC MANAGEMENT, L.P.",334663,12210,"Y","","","","","","","","703-651-2150","","Y","","","","","","","","MONFRI","","8:00 AM - 5:00 PM ET","","Y","N","N","N","N","N","N","",,"N","Limited Partnership","","12","DE","United States","N"
1999777,"SECOR INVESTMENT ADVISORS (UK), LLP","SECOR INVESTMENT ADVISORS (UK), LLP",295817,4401,"N","1 KING WILLIAM STREET","3RD FLOOR","LONDON","","United Kingdom","EC4N 7AF","N","11-44-20-3750-0666","11-44-20-3750-0667","N","","","","","","","N","MONFRI","","8AM - 5PM GMT","","N","N","Y","N","N","N","N","",,"N","Limited Liability Partnership","","12","","United Kingdom","N"
2000576,"WEBSTER EQUITY PARTNERS, L.P.","WASQUE PARTNERS II GP, LLC",320747,9537,"Y","","","","","","","","781-419-1515","781-419-1516","Y","","","","","","","","MONFRI","","9-6","","N","N","N","Y","N","N","N","",,"N","Limited Liability Company","","12","DE","United States","Y"
2000576,"WEBSTER EQUITY PARTNERS, L.P.","CRACKATUXET PARTNERS GP, LLC",320750,9540,"Y","","","","","","","","7814191515","781-419-1516","Y","","","","","","","","MONFRI","","9-6","","N","N","N","Y","N","N","N","",,"N","Limited Liability Company","","12","DE","United States","Y"
2000576,"WEBSTER EQUITY PARTNERS, L.P.","WASQUE PARTNERS GP, LLC",321814,9776,"Y","","","","","","","","781-419-1515","781-419-1516","Y","","","","","","","","MONFRI","","9-6","","N","N","N","Y","N","N","N","",,"N","Limited Liability Company","","12","DE","United States","Y"
2000552,"STABLE ASSET MANAGEMENT LTD","STABLE ASSET MANAGEMENT LTD.",294044,7979,"N","25 OLD BURLINGTON STREET","MAYFAIR","LONDON","","United Kingdom","W1S 3AN","N","(+44) 020 7016 3163","","N","","","","","","","N","MONFRI","","9AM-6PM","","Y","N","N","N","N","N","N","",,"N","Other (specify)","PRIVATE LIMITED COMPANY","12","","United Kingdom","N"
2000552,"STABLE ASSET MANAGEMENT INVESTMENTS, LTD.","STABLE ASSET MANAGEMENT INVESTMENTS, LTD.",293574,7980,"N","2D LANDMARK SQUARE, 64 EARTH CLOSE","SEVEN MILE BEACH","GRAND CAYMAN","","Cayman Islands","KY1-1201","N","0044-20-70163163","","N","","","","","","","N","MONFRI","","9AM-6PM","","Y","N","N","N","N","N","N","",,"N","Corporation","","12","","Cayman Islands","N"
1995295,"SAGARD HALSEY POINT CLO MANAGEMENT LP","SAGARD HALSEY POINT CLO MANAGEMENT LP",337382,12760,"Y","","","","","","","","424-220-6440","","Y","","","","","","","","MONFRI","","9:00AM-5:00PM","","N","N","N","Y","N","N","N","",,"N","Limited Partnership","","12","DE","United States","N"
2000646,"","IRON WEALTH HOLDINGS LLC",332402,11809,"Y","","","","","","","","8477153200","","Y","","","","","","","","MONFRI","","8:30-5:00 CST","","N","N","N","Y","N","N","N","",,"N","Limited Liability Company","","12","DE","United States","N"
1988032,"","MACQUARIE INFRASTRUCTURE AND REAL ASSETS INC.",297846,5402,"Y","","","","","","","","212-231-1000","212-231-1828","Y","","","","","","","","MONFRI","","9:00AM - 6:00PM","","N","N","N","Y","N","N","N","",,"N","Corporation","","03","DE","United States","N"
1999618,"","CAPSTONE INVESTMENT ADVISORS (UK), LLP",292460,1949,"N","UK HOUSE, 2 GREAT TITCHFIELD STREET","2ND FLOOR","LONDON","","United Kingdom","W1D 1NN","N","+44-207-297-0444","","N","","","","","","","N","MONFRI","","7:00 AM - 7:00PM","549300W3IVMGOR2OUL22","Y","N","Y","N","N","N","N","",,"N","Limited Liability Partnership","","12","","United Kingdom","Y"
1999618,"","CAPSTONE INVESTMENT ADVISORS (NETHERLANDS), B.V.",292461,1950,"N","THE ONE","PROFESSOR W.H. KEESOMLAAN 1, UNIT 5A1","AMSTELVEEN","","Netherlands","1183 DJ","N","+31-20-894-2900","","N","","","","","","","N","MONFRI","","7:00 AM - 7:00PM","549300DKATF11MXSJK67","Y","N","Y","N","N","N","N","",,"N","Other (specify)","B.V.","12","","Netherlands","N"
1999618,"","CAPSTONE INVESTMENT ADVISORS (HK) LIMITED",322772,9901,"N","18/F, 33 DES VOEUX ROAD CENTRAL","","HONG KONG","","Hong Kong","","N","+852-3422-8914","","N","","","","","","","N","MONFRI","","7:00 AM - 7:00 PM","549300E56J90B2EWMP66","Y","N","Y","N","N","N","N","",,"N","Corporation","","12","","Hong Kong","N"
1999618,"","CAPSTONE INVESTMENT ADVISORS (ITALY) S.R.L.",329544,11203,"N","VIA CIOVASSINO 1","","MILAN","","Italy","20121","N","+39-02-82943614","","N","","","","","","","N","MONFRI","","7:00 AM - 7:00 PM","25490045MSJI5VXL9Q41","Y","N","Y","N","N","N","N","",,"N","Other (specify)","S.R.L.","12","","Italy","N"
1993544,"CYPF MANAGER V, LLC","CYPF MANAGER V, LLC",307280,12769,"Y","","","","","","","","301-807-6390","","Y","","","","","","","","MONFRI","","9 AM TO 5 PM","","N","N","N","Y","N","N","N","",,"N","Limited Liability Company","","12","DE","United States","N"
1993544,"CYPF MANAGER VI, LLC","CYPF MANAGER VI, LLC",320866,12770,"Y","","","","","","","","301-807-6390","","Y","","","","","","","","MONFRI","","9 AM TO 5 PM","","N","N","N","Y","N","N","N","",,"N","Limited Liability Company","","12","DE","United States","N"
1993544,"CYPF MANAGER VII, LLC","CYPF MANAGER VII, LLC",329228,12771,"Y","","","","","","","","301-807-6390","","Y","","","","","","","","MONFRI","","9 AM TO 5 PM","","N","N","N","Y","N","N","N","",,"N","Limited Liability Company","","12","DE","United States","N"
1993544,"CYPF MANAGER IV, LLC","CYPF MANAGER IV, LLC",293235,12773,"Y","","","","","","","","301-807-6390","","Y","","","","","","","","MONFRI","","9:00 AM - 5:00 PM","","N","N","N","Y","N","N","N","",,"N","Limited Liability Company","","12","DE","United States","N"
1993544,"CYPF MANAGER III, LLC","CYPF MANAGER III, LLC",284883,12774,"Y","","","","","","","","301-807-6390","","Y","","","","","","","","MONFRI","","9:00 PM - 5:00 PM","","N","N","N","Y","N","N","N","",,"N","Limited Liability Company","","12","DE","United States",""
1993544,"CYPF MANAGER, LLC","CYPF MANAGER, LLC",172392,12781,"Y","","","","","","","","301-807-6390","","Y","","","","","","","","MONFRI","","9:00 AM - 5:00 PM","","N","N","N","Y","N","N","N","",,"N","Limited Liability Company","","12","DE","United States","N"
1998826,"","HUGHES & COMPANY INVESTMENT PARTNERS, LLC",337614,12794,"Y","","","","","","","","312-238-9600","312-854-2963","N","","","","","","","N","MONFRI","","9AM- 5PM","","N","N","N","Y","N","N","N","",,"N","Limited Liability Company","","12","DE","United States","N"
1990545,"BEDFORD RIDGE CAPITAL GP LLC","BEDFORD RIDGE CAPITAL GP LLC",312713,8066,"Y","","","","","","","","312-530-9983","","Y","","","","","","","","MONFRI","","8:30AM - 5:30PM","","N","N","N","Y","N","N","N","",,"N","Limited Liability Company","","12","DE","United States","N"
1996000,"","FIC MANAGERS, LLC",329203,11153,"Y","","","","","","","","713.337.7980","","N","","","","","","","N","MONFRI","","9:00 AM - 5:00 PM","","Y","N","N","N","N","N","N","",,"N","Limited Liability Company","","12","DE","United States",""
1996000,"","EMERALD BRIDGE CAPITAL, LP",328966,12047,"Y","","","","","","","","713.337.7980","","N","","","","","","","N","MONFRI","","9:00AM - 5:00PM","","Y","N","N","N","N","N","N","",,"N","Limited Partnership","","12","DE","United States","N"
1999389,"ORION CAPITAL MANAGEMENT II LLC","ORION CAPITAL MANAGEMENT II LLC",293300,2416,"Y","","","","","","","","212-838-9000","646-205-1240","Y","","","","","","","","MONFRI","","9:00AM TO 5:00PM","","N","N","N","Y","N","N","N","",,"N","Limited Liability Company","","12","DE","United States","N"
1999389,"ARTEMIS FP LLC","ARTEMIS FP LLC",308172,7091,"Y","","","","","","","","212-838-9000","646-205-1240","Y","","","","","","","","MONFRI","","9:00AM TO 5:00PM","","N","N","N","Y","N","N","N","",,"N","Limited Liability Company","","12","DE","United States",""
1999077,"","ICG CREDIT OPPORTUNITIES GP LLC",293061,2271,"Y","","","","","","","","424-270-8900","424-270-8921","Y","","","","","","","","MONFRI","","8:00AM - 5:00PM","","N","N","N","Y","N","N","N","",,"N","Limited Liability Company","","12","DE","United States","Y"
1999077,"","ICG CREDIT OPPORTUNITIES II GP LLC",311071,7841,"Y","","","","","","","","424-270-8900","424-270-8921","Y","","","","","","","","MONFRI","","8:00AM - 5:00PM","","N","N","N","Y","N","N","N","",,"N","Limited Liability Company","","12","DE","United States","Y"
1999077,"","ICG CORESCI HOLDINGS GP, LLC",319521,9370,"Y","","","","","","","","424-270-8900","424-270-8921","Y","","","","","","","","MONFRI","","8:00 AM  - 5:00PM","","N","N","N","Y","N","N","N","",,"N","Limited Liability Company","","12","DE","United States","Y"
1999077,"","ICG SPECIAL OPPORTUNITIES I GP LLC",319524,9371,"Y","","","","","","","","424-270-8900","424-270-8921","Y","","","","","","","","MONFRI","","8:00 AM  - 5:00PM","","N","N","N","Y","N","N","N","",,"N","Limited Liability Company","","12","DE","United States","Y"
1999077,"","ICG CREDIT OPPORTUNITIES III GP LLC",335229,12279,"Y","","","","","","","","424-270-8900","424-270-8921","Y","","","","","","","","MONFRI","","8:00AM - 5:00PM","","N","N","N","Y","N","N","N","",,"N","Limited Liability Company","","12","DE","United States","Y"
2001078,"SECOR INVESTMENT ADVISORS (UK), LLP","SECOR INVESTMENT ADVISORS (UK), LLP",295817,4401,"N","1 KING WILLIAM STREET","3RD FLOOR","LONDON","","United Kingdom","EC4N 7AF","N","11-44-20-3750-0666","11-44-20-3750-0667","N","","","","","","","N","MONFRI","","8AM - 5PM GMT","","N","N","Y","N","N","N","N","",,"N","Limited Liability Partnership","","12","","United Kingdom","N"
1989267,"","D. E. SHAW & CO. (ASIA PACIFIC) LIMITED",294484,3262,"N","19TH FLOOR, YORK HOUSE, THE LANDMARK","15 QUEEN'S ROAD CENTRAL","HONG KONG","","Hong Kong","","N","852-3521-2500","852-3521-2600","N","","","","","","","N","MONFRI","","9 AM - 5 PM","549300IKAFQ7KFD49545","N","N","Y","Y","N","N","N","",,"N","Other (specify)","PRIVATE COMPANY LIMITED BY SHARES","12","","Hong Kong","N"
1989267,"","D. E. SHAW ADVISER II, L.L.C.",294586,3353,"Y","","","","","","","","212-478-0000","212-478-0100","Y","","","","","","","","MONFRI","","9 AM - 5 PM","5493003P6IU5NSQZB433","N","N","N","Y","N","N","N","",,"N","Limited Liability Company","","12","DE","United States","N"
1989267,"","D. E. SHAW ADVISER, L.L.C.",294591,3357,"Y","","","","","","","","212-478-0000","212-478-0100","Y","","","","","","","","MONFRI","","9 AM - 5 PM","549300CK4WGQJAWVBD19","N","N","N","Y","N","N","N","",,"N","Limited Liability Company","","12","DE","United States","N"
1989267,"","D. E. SHAW COMPOSITE ADVISER, L.L.C.",294595,3361,"Y","","","","","","","","212-478-0000","212-478-0100","Y","","","","","","","","MONFRI","","9AM - 5 PM","549300Z98P478RESMH57","N","N","N","Y","N","N","N","",,"N","Limited Liability Company","","12","DE","United States","N"
1989267,"","D. E. SHAW MULTI-ASSET ADVISER, L.L.C.",294600,3366,"Y","","","","","","","","212-478-0000","212-478-0100","Y","","","","","","","","MONFRI","","9 AM - 5 PM","54930017NC6N1PVP5P55","N","N","N","Y","N","N","N","",,"N","Limited Liability Company","","12","DE","United States","N"
1989267,"","D. E. SHAW & CO. (LONDON), LLP",294624,3385,"N","55 BAKER STREET","SEVENTH FLOOR","LONDON","","United Kingdom","W1U 8EW","N","44-20-7409-4300","44-20-7409-4350","N","","","","","","","N","MONFRI","","9 AM - 5 PM","549300C4RWHVOOSD9T96","N","N","Y","Y","N","N","N","",,"N","Limited Liability Partnership","","03","","United Kingdom","N"
1989267,"","D. E. SHAW HELIANT ADVISER, L.L.C.",295202,3870,"Y","","","","","","","","212-478-0000","212-478-0100","Y","","","","","","","","MONFRI","","9 AM - 5 PM","549300IJ4CBL16FZYU93","N","N","N","Y","N","N","N","",,"N","Limited Liability Company","","12","DE","United States","N"
1989267,"","D. E. SHAW DIRECT CAPITAL, L.L.C.",147212,5911,"Y","","","","","","","","212-478-0000","212-478-0100","Y","","","","","","","","MONFRI","","9AM - 5PM","","N","N","N","Y","N","N","N","",,"N","Limited Liability Company","","12","DE","United States","N"
1989267,"","D. E. SHAW ESC ADVISER, L.L.C.",315169,8731,"Y","","","","","","","","212-478-0000","212-478-0100","Y","","","","","","","","MONFRI","","9AM - 5PM","549300OR3DPPR1QREW50","N","N","N","Y","N","N","N","",,"N","Limited Liability Company","","12","DE","United States","N"
1989267,"","D. E. SHAW & CO. (SINGAPORE) PTE. LTD.",316816,8968,"N","10 MARINA BOULEVARD","#16-03 MARINA BAY FINANCIAL CENTRE TOWER 2","SINGAPORE","","Singapore","018983","N","+65 6983 5700","+65 6983 5701","N","","","","","","","N","MONFRI","","9 AM - 5 PM","549300UTJS5JB85DAR61","N","N","Y","Y","N","N","N","",,"N","Other (specify)","PRIVATE COMPANY LIMITED BY SHARES","12","","Singapore","N"
1989267,"","D. E. SHAW ADVISER III, L.L.C.",318551,9205,"Y","","","","","","","","212-478-0000","212-478-0100","Y","","","","","","","","MONFRI","","9 AM - 5 PM","549300VGMTCJ6LEI3Z69","N","N","N","Y","N","N","N","",,"N","Limited Liability Company","","12","DE","United States","N"
1989267,"","D. E. SHAW DIOPTER ADVISER, L.L.C.",323457,9953,"Y","","","","","","","","212-478-0000","212-478-0100","Y","","","","","","","","MONFRI","","9 AM - 5 PM","549300HL1WQKS3ITPF60","N","N","N","Y","N","N","N","",,"N","Limited Liability Company","","12","DE","United States","N"
1989267,"","D. E. SHAW ALKALI ADVISER VI, L.L.C.",326962,10814,"Y","","","","","","","","212-478-0000","212-478-0100","Y","","","","","","","","MONFRI","","9 AM - 5 PM","5493000HCNHPUSESAI43","N","N","N","Y","N","N","N","",,"N","Limited Liability Company","","12","DE","United States","N"
1989267,"","D. E. SHAW DIOPTER ADVISER II, L.L.C.",331972,11721,"Y","","","","","","","","212-478-0000","212-478-0100","Y","","","","","","","","MONFRI","","9 AM - 5 PM","254900U1XIO8N6CIF563","N","N","N","Y","N","N","N","",,"N","Limited Liability Company","","12","DE","United States","N"
1996109,"JVP MANAGEMENT","JVP CRE MANAGER LLC",326298,10640,"Y","","","","","","","","3478317031","","Y","","","","","","","","MONFRI","","9-5PM","","N","N","N","Y","N","N","N","",,"N","Limited Liability Company","","12","DE","United States","N"
1996109,"JVP MANAGEMENT","JVA RE INVESTMENTS LLC",330998,11504,"Y","","","","","","","","6072039401","","Y","","","","","","","","MONFRI","","8:30 - 5:30","","N","N","N","Y","N","N","N","",,"N","Limited Liability Company","","12","DE","United States","N"
1996109,"JVP MANAGEMENT","JVP CRE MANAGER II LLC",337231,12743,"Y","","","","","","","","6072039401","","Y","","","","","","","","MONFRI","","9AM - 5PM","","N","N","N","Y","N","N","N","",,"N","Limited Liability Company","","12","DE","United States",""
1995294,"","CANTERBURY CONSULTING GP I, LLC",305193,6551,"Y","","","","","","","","9497219580","9497219973","Y","","","","","","","","MONFRI","","8:00 AM - 5:00 PM","","N","N","N","Y","N","N","N","",,"N","Limited Liability Company","","12","DE","United States","N"
1995294,"","CANTERBURY CONSULTING GP II, LLC",308185,7095,"Y","","","","","","","","9497219580","9497219973","Y","","","","","","","","MONFRI","","8:00 AM - 5:00 PM","","N","N","N","Y","N","N","N","",,"N","Limited Liability Company","","12","DE","United States","N"
1995294,"","CANTERBURY CONSULTING GP III, LLC",308281,7160,"Y","","","","","","","","9497219580","9497219973","Y","","","","","","","","MONFRI","","8:00 AM - 5:00 PM","","N","N","N","Y","N","N","N","",,"N","Limited Liability Company","","12","DE","United States","N"
1995294,"","CANTERBURY CONSULTING GP IV, LLC",319647,9396,"Y","","","","","","","","9497219580","9497219973","Y","","","","","","","","MONFRI","","8:00 AM - 5:00 PM","","N","N","N","Y","N","N","N","",,"N","Limited Liability Company","","12","DE","United States","N"
1995294,"","CANTERBURY CONSULTING GP V, LLC",325488,10294,"Y","","","","","","","","9497219580","9497219973","Y","","","","","","","","MONFRI","","8:00 AM - 5:00 PM","","N","N","N","Y","N","N","N","",,"N","Limited Liability Company","","12","DE","United States","N"
1995294,"","CANTERBURY CONSULTING GP VI, LLC",335161,12268,"Y","","","","","","","","9497219580","9497219973","Y","","","","","","","","MONFRI","","8:00 AM - 5:00 PM","","N","N","N","Y","N","N","N","",,"N","Limited Liability Company","","12","DE","United States","N"
1995294,"","CANTERBURY CONSULTING GP VII, LLC",335356,12294,"Y","","","","","","","","9497219580","9497219973","Y","","","","","","","","MONFRI","","8:00 AM - 5:00 PM","","N","N","N","Y","N","N","N","",,"N","Limited Liability Company","","12","DE","United States","N"
1995294,"","CANTERBURY CONSULTING GP VIII, LLC",335639,12352,"Y","","","","","","","","9497219580","9497219973","Y","","","","","","","","MONFRI","","8:00 AM - 5:00 PM","","N","N","N","Y","N","N","N","",,"N","Limited Liability Company","","12","DE","United States","N"
1995294,"","CANTERBURY CONSULTING GP IX, LLC",337383,12761,"Y","","","","","","","","9497219580","","Y","","","","","","","","MONFRI","","8:00 AM - 5:00 PM","","N","N","N","Y","N","N","N","",,"N","Limited Liability Company","","12","DE","United States",""
1995909,"","STERLING GROUP MANAGEMENT IV, L.P.",294220,3050,"Y","","","","","","","","713-877-8257","713-877-1824","N","","","","","","","N","MONFRI","","8:30-5:30","","Y","N","N","Y","N","N","N","",,"N","Limited Partnership","","12","DE","United States","N"
1995909,"","STERLING GROUP CREDIT MANAGEMENT, L.P.",294236,3062,"Y","","","","","","","","713-877-8257","713-877-1824","N","","","","","","","N","MONFRI","","8:30-5:30","","Y","N","N","Y","N","N","N","",,"N","Limited Partnership","","12","DE","United States","N"
1995909,"","STERLING GROUP MANAGEMENT V, L.P.",313772,8297,"Y","","","","","","","","713-877-8257","713-877-1824","N","","","","","","","N","MONFRI","","8:30-5:30","","Y","N","N","Y","N","N","N","",,"N","Limited Partnership","","12","DE","United States","N"
1995909,"","STERLING GROUP CREDIT MANAGEMENT II, L.P.",320840,9582,"Y","","","","","","","","713-877-8257","713-877-1824","N","","","","","","","N","MONFRI","","8:30-5:30","","Y","N","N","Y","N","N","N","",,"N","Limited Partnership","","12","DE","United States","N"
1995909,"","STERLING GROUP FOUNDATION MANAGEMENT, L.P.",326145,10541,"Y","","","","","","","","713-877-8257","713-877-1824","N","","","","","","","N","MONFRI","","8:30-5:30","","Y","N","N","Y","N","N","N","",,"N","Limited Partnership","","12","DE","United States","N"
1995909,"","STERLING GROUP CREDIT MANAGEMENT III, L.P.",335989,12511,"Y","","","","","","","","713-877-8257","713-877-1824","N","","","","","","","N","MONFRI","","8:30-5:30","","Y","N","N","Y","N","N","N","",,"N","Limited Partnership","","12","DE","United States","N"
1995909,"","STERLING GROUP MANAGEMENT VI, L.P.",335990,12512,"Y","","","","","","","","713-877-8257","713-877-1824","N","","","","","","","N","MONFRI","","8:30-5:30","","Y","N","N","Y","N","N","N","",,"N","Limited Partnership","","12","DE","United States","N"
1995995,"WINCOVE","WPH MANAGEMENT LLC",334376,12166,"Y","","","","","","","","(603) 770-9785","","N","","","","","","","N","MONFRI","","9:00AM TO 5:00PM","47-2540894","Y","N","N","N","N","N","N","",,"N","Limited Liability Company","","12","DE","United States","N"
1996560,"THIRD POINT REAL ESTATE STRATEGIES LLC","TRAWLER CAPITAL MANAGEMENT LLC (D/B/A) TP PRIVATE CRE CREDIT LLC",286000,10449,"N","11850 SOUTHEAST DIXIE HIGHWAY","UNIT A","HOBE SOUND","FL","United States","33455","N","631-897-4174","","N","","","","","","","N","MONFRI","","9 AM - 5 PM","","Y","N","N","N","N","N","N","",,"N","Limited Liability Company","","12","DE","United States","N"
1996560,"BIRCH GROVE LP","BIRCH GROVE CAPITAL LP",168245,12456,"Y","","","","","","","","212-715-3880","212-224-7401","Y","","","","","","","","MONFRI","","8:00 A.M. - 6:00 P.M.","549300NCU5RNR2BD3Y25","Y","N","N","N","N","N","N","",,"N","Limited Partnership","","12","DE","United States","N"
1996560,"BGOF ADVISORS LLC","BGOF ADVISORS LLC",167218,12458,"Y","","","","","","","","212-715-3880","212-224-7401","Y","","","","","","","","MONFRI","","8:00 A.M. - 6:00 P.M.","","Y","N","N","N","N","N","N","",,"N","Limited Liability Company","","12","DE","United States","N"
1996560,"BIRCH GROVE CLO MANAGEMENT LP","BIRCH GROVE CLO MANAGEMENT LP",331155,12460,"Y","","","","","","","","212-715-3880","212-224-7401","Y","","","","","","","","MONFRI","","8:00 A.M. - 6:00 P.M.","","Y","N","N","N","N","N","N","",,"N","Limited Partnership","","12","DE","United States","N"
1998092,"CVC CREDIT PARTNERS INVESTMENT MANAGEMENT LIMITED","CVC CREDIT PARTNERS INVESTMENT MANAGEMENT LIMITED",295483,4117,"N","105-109 STRAND","","LONDON","","United Kingdom","WC2R 0AA","N","44 207 520 4950","","N","","","","","","","N","MONFRI","","9:00-5:00PM GMT","549300D0OIQKHM2H3S04","Y","N","N","N","N","N","N","",,"N","Other (specify)","PRIVATELY HELD LIMITED COMPANY","12","","United Kingdom","N"
1998092,"CVC CREDIT PARTNERS EUROPEAN INVESTMENT FUND MANAGER LIMITED","CVC CREDIT PARTNERS EUROPEAN INVESTMENT FUND MANAGER LIMITED",295484,4118,"N","27 ESPLANADE","","ST. HELIER","","Jersey","JE1 1SG","N","44 (0) 1534 813800","44 (0) 1534 850750","N","","","","","","","N","MONFRI","","8:30-6:00PM GMT","549300EE3CT80DVJO118","Y","N","N","N","N","N","N","",,"N","Other (specify)","PRIVATELY HELD LIMITED COMPANY","12","","Jersey","N"
1997374,"MONOMOY CAPITAL MANAGEMENT C, L.P.","MONOMOY CAPITAL MANAGEMENT C, L.P.",311849,7953,"Y","","","","","","","","212-699-4000","212-699-4010","Y","","","","","","","","MONFRI","","8:30 AM - 6:00 PM","","Y","N","N","N","N","N","N","",,"N","Limited Partnership","","12","DE","United States","N"
1997374,"MONOMOY CAPITAL MANAGEMENT II, L.P.","MONOMOY CAPITAL MANAGEMENT II, L.P.",312867,8086,"Y","","","","","","","","212-699-4000","212-699-4010","Y","","","","","","","","MONFRI","","8:30 AM - 6:00 PM","","Y","N","N","N","N","N","N","",,"N","Limited Partnership","","12","DE","United States","N"
1997374,"","MONOMOY CAPITAL MANAGEMENT C II, L.P.",320600,9464,"Y","","","","","","","","212-699-4000","212-699-4010","Y","","","","","","","","MONFRI","","8:30 AM - 6:00 PM","","N","N","N","Y","N","N","N","",,"N","Limited Partnership","","12","DE","United States","N"
1997374,"MONOMOY CAPITAL MANAGEMENT III, L.P.","MONOMOY CAPITAL MANAGEMENT III, L.P.",330973,11492,"Y","","","","","","","","212-699-4000","212-699-4010","Y","","","","","","","","MONFRI","","8:30 AM - 6:00 PM","","Y","N","N","N","N","N","N","",,"N","Limited Partnership","","12","DE","United States","N"
1997374,"","MONOMOY CAPITAL MANAGEMENT C III, L.P.",334975,12248,"Y","","","","","","","","212-699-4000","212-699-4010","Y","","","","","","","","MONFRI","","8:30 AM - 6:00 PM","","Y","N","N","N","N","N","N","",,"N","Limited Partnership","","12","DE","United States","N"
2000293,"SCHRODERS CAPITAL MANAGEMENT (SWITZERLAND) AG","SCHRODERS CAPITAL MANAGEMENT (SWITZERLAND) AG",293914,2829,"N","TALSTRASSE 11","","ZURICH","","Switzerland","8001","N","41 (0)44 250 11 11","","N","","","","","","","N","MONFRI","","8:00AM-5.00PM","","Y","N","Y","N","N","N","N","",,"N","Corporation","","12","","Switzerland","N"
2000293,"SCHRODERS CAPITAL INVESTMENT MANAGEMENT (BEIJING) CO., LTD","SCHRODERS CAPITAL INVESTMENT MANAGEMENT (BEIJING) CO., LTD",294437,3225,"N","UNIT F1929-F1930, 19TH FLOOR, NO.7 FINANCE AVENUE","XICHENG DISTRICT","BEIJING","","China","100033","N","86-1088013088","","N","","","","","","","N","MONFRI","","9AM-6PM","","Y","N","Y","N","N","N","N","",,"N","Limited Liability Company","","12","","China","N"
1984358,"","PSC MANAGEMENT, L.L.C.",294133,2978,"Y","","","","","","","","617-897-9200","617-897-9201","Y","","","","","","","","MONFRI","","9:00AM - 5:00PM","","N","N","N","Y","N","N","N","",,"N","Limited Liability Company","","12","DE","United States","N"
1995193,"","HARBOURVEST INVESTMENT CONSULTING (BEIJING) COMPANY LIMITED",293166,2340,"N","SUITE 5608 56/F CHINA WORLD TOWER A","1 JIANGUOMENWAI AVENUE, CHAOYANG DISTRICT","BEIJING","","China","100004","N","86-10-5706-8600","86-10-5706-8601","N","","","","","","","N","MONFRI","","8:00 AM-5:00 PM","","N","N","Y","N","N","N","N","",,"N","Other (specify)","WHOLLY FOREIGN-OWNED ENTERPRISE","12","","China","N"
1995193,"","HARBOURVEST PARTNERS (CANADA) LIMITED",293845,2780,"N","BAY ADELAIDE CENTRE, 333 BAY STREET","SUITE 2720","TORONTO","","Canada","M5H 2R2","N","1-647-484-3022","1-647-498-1448","N","","","","","","","N","MONFRI","","9:00 AM-5:00 PM","","N","N","Y","N","N","N","N","",,"N","Corporation","","12","","Canada","N"
1995193,"","HARBOURVEST PARTNERS (ASIA) LIMITED",293874,2803,"N","CHAMPION TOWER SUITE 1207","3 GARDEN ROAD","CENTRAL","","Hong Kong","","N","852-2525-2214","852-2525-2241","N","","","","","","","N","MONFRI","","9:00 AM - 6:00 PM","","N","N","Y","N","N","N","N","",,"N","Other (specify)","PRIVATE COMPANY LIMITED BY SHARES","12","","Hong Kong","N"
1995193,"","HARBOURVEST PARTNERS (JAPAN) LIMITED",293890,2815,"N","MARUNOUCHI BUILDING, 34TH FLOOR","2-4-1 MARUNOUCHI, CHIYODA-KU","TOKYO","","Japan","100-6334","N","81-3-4578-0100","","N","","","","","","","N","MONFRI","","9:00 AM - 6:00 PM","","N","N","Y","N","N","N","N","",,"N","Corporation","","12","","Japan","N"
1995193,"","HARBOURVEST PARTNERS (U.K.) LIMITED",293891,2816,"N","20 AIR STREET","2ND FLOOR","LONDON","","United Kingdom","W1B 5AN","N","44 20 7399 9820","","N","","","","","","","N","MONFRI","","9:00 AM - 5:30 PM","","N","N","Y","N","N","N","N","",,"N","Other (specify)","PRIVATE LIMITED COMPANY","12","","United Kingdom","N"
1995193,"","HARBOURVEST PARTNERS L.P.",293901,2822,"Y","","","","","","","","1-617-348-3707","1-617-350-0305","N","","","","","","","N","MONFRI","","8:00 AM- 5:30 PM","54930029KR62LTFQ8M21","N","N","N","Y","N","N","N","",,"N","Limited Partnership","","12","MA","United States","N"
1995193,"","HARBOURVEST ADVISERS L.P.",293905,2824,"Y","","","","","","","","1-617-348-3707","1-617-350-0305","N","","","","","","","N","MONFRI","","8:00 AM - 5:30PM","","N","N","N","Y","N","N","N","",,"N","Limited Partnership","","12","DE","United States","N"
1995193,"","HARBOURVEST SENIOR LOAN ADVISERS L.P.",293911,2827,"Y","","","","","","","","1-617-348-3707","1-617-350-0305","N","","","","","","","N","MONFRI","","8:30 AM - 5:30 PM","","N","N","N","Y","N","N","N","",,"N","Limited Partnership","","12","DE","United States","N"
1995193,"","HARBOURVEST PARTNERS (ISRAEL) LTD.",293916,2830,"N","3 HANECHOSHET STREET","BUILDING B","TEL AVIV","","Israel","6971068","N","972 3 3720001","972-3-7618120","N","","","","","","","N","MONFRI","","9:00 AM - 5:00 PM","","N","N","Y","N","N","N","N","",,"N","Other (specify)","PRIVATE COMPANY","12","","Israel","N"
1995193,"","HARBOURVEST PARTNERS, LLC OFICINA DE REPRESENTACION",293921,2835,"N","CARRERA 7 #113 - 43","OFICINA 904 EDIFICIO SAMSUNG","BOGOTÁ","","Colombia","110111","N","57-601-580-2449","","N","","","","","","","N","MONFRI","","8:30 AM - 5:30 PM","","N","N","Y","N","N","N","N","",,"N","Other (specify)","REPRESENTATIVE OFFICE","12","","Colombia","N"
1995193,"","HARBOURVEST PARTNERS KOREA LTD.",293923,2837,"N","GRAN SEOUL TOWER 1, 8TH FLOOR","33 JONGRO, JONGNO-GU","SEOUL","","Korea, South","03159","N","82-70-4570-8270","82-2-6322-9870","N","","","","","","","N","MONFRI","","9:00 AM - 6:00 PM","","N","N","Y","N","N","N","N","",,"N","Corporation","","12","","Korea, South",""
1995193,"","HARBOURVEST PARTNERS MEXICO, S. DE R.L. DE C.V.",301172,5924,"N","PASEO DE LAS PALMAS 405, INT. 1702","COL. LOMAS DE CHAPULTEPEC I SECCIÓN, DELEGACIÓN MI","MEXICO CITY","","Mexico","11000","N","N/A","N/A","Y","","","","","","","","MONFRI","","8:00 AM TO 5:30 PM","","N","N","Y","N","N","N","N","",,"N","Corporation","","12","","Mexico","N"
1995193,"","HARBOURVEST PARTNERS (IRELAND) LIMITED",301174,5926,"N","SECOND FLOOR, ONE HADDINGTON BUILDINGS","HADDINGTON ROAD","DUBLIN 4","","Ireland","D04 X4C9","N","353 1 566 4410","","N","","","","","","","N","MONFRI","","8:00 AM TO 5:30 PM","","N","N","Y","N","N","N","N","",,"N","Other (specify)","PRIVATE COMPANY","12","","Ireland","N"
1995193,"","HARBOURVEST PARTNERS (SINGAPORE) PTE. LTD.",315383,8759,"N","1 RAFFLES QUAY","#37-02 NORTH TOWER","SINGAPORE","","Singapore","048583","N","+65 6978 9800","","N","","","","","","","N","MONFRI","","9:00AM - 6:00PM","","N","N","Y","N","N","N","N","",,"N","Other (specify)","PRIVATE COMPANY LIMITED BY SHARES","12","","Singapore","N"
1995193,"","HARBOURVEST PARTNERS (SWITZERLAND) GMBH",329827,11239,"N","CLARIDENSTRASSE 41","","ZURICH","","Switzerland","8002","N","41 43 215 34 90","","N","","","","","","","N","MONFRI","","9:00 AM - 5:30 PM","","N","N","Y","N","N","N","N","",,"N","Limited Liability Company","","12","","Switzerland",""
1995193,"","HARBOURVEST PARTNERS (AUSTRALIA) PTE. LTD.",329987,11262,"N","LEVELS 2-3, QUAY QUARTER TOWER","50 BRIDGE STREET","SYDNEY","","Australia","2000","N","61 2 4072 7760","N/A","N","","","","","","","N","MONFRI","","9:00 AM - 6:00 PM","","N","N","Y","N","N","N","N","",,"N","Other (specify)","PRIVATE COMPANY LIMITED BY SHARES","12","","Australia",""
1994916,"NORTH BRANCH CAPITAL, LLC","NORTH BRANCH CAPITAL, LLC",300492,7652,"Y","","","","","","","","630-782-1590","","N","","","","","","","N","MONFRI","","9:00 AM - 5:00 PM CT","","N","N","N","Y","N","N","N","",,"N","Limited Liability Company","","12","IL","United States","N"
1992472,"","BTG PACTUAL TIMBERLAND INVESTMENT GROUP LLC",293095,2295,"Y","","","","","","","","2122934600","","Y","","","","","","","","MONFRI","","9:00 AM TO 06:00 PM","","Y","N","N","N","N","N","N","",,"N","Limited Liability Company","","12","DE","United States","N"
1996440,"JJFT MANAGEMENT, LLC","JJFT MANAGEMENT, LLC",316526,8932,"Y","","","","","","","","516-305-9438","","Y","","","","","","","","MONFRI","","8:00 AM - 5:00PM","","Y","N","N","N","N","N","N","",,"N","Limited Liability Company","","12","DE","United States","N"
1996440,"KAJJ MANAGEMENT, LLC","KAJJ MANAGEMENT, LLC",326167,10556,"Y","","","","","","","","516-305-9438","","N","","","","","","","N","MONFRI","","8:00 AM - 5:00 PM","","N","N","N","Y","N","N","N","",,"N","Limited Liability Company","","12","DE","United States","N"
1996440,"JJC ASSET MANAGEMENT, LLC","JJC ASSET MANAGEMENT, LLC",326168,10557,"Y","","","","","","","","516-305-9428","","N","","","","","","","N","MONFRI","","8:00 AM - 5:00 PM","","Y","N","N","N","N","N","N","",,"N","Limited Liability Company","","12","DE","United States","N"
1998269,"DRAWBRIDGE LDVF PATENT ADVISORS LLC","DRAWBRIDGE LDVF PATENT ADVISORS LLC",290783,1300,"Y","","","","","","","","212-798-6100","","Y","","","","","","","","MONFRI","","8AM - 6PM","","N","N","N","Y","N","N","N","",,"N","Limited Liability Company","","12","DE","United States","N"
1998269,"DRAWBRIDGE LONG DATED VALUE ADVISORS LLC","DRAWBRIDGE LONG DATED VALUE ADVISORS LLC",139322,1301,"Y","","","","","","","","212-798-6100","","Y","","","","","","","","MONFRI","","8AM - 6PM","YMFNCFHBYJG8ANAKA811","N","N","N","Y","N","N","N","",,"N","Limited Liability Company","","12","DE","United States","N"
1998269,"DRAWBRIDGE SPECIAL OPPORTUNITIES ADVISORS LLC","DRAWBRIDGE SPECIAL OPPORTUNITIES ADVISORS LLC",290786,1303,"Y","","","","","","","","212-798-6100","","Y","","","","","","","","MONFRI","","8AM - 6PM","54930043USPUUZXIUW30","N","N","N","Y","N","N","N","",,"N","Limited Liability Company","","12","DE","United States","N"
1998269,"FCF JPEL MANAGEMENT LLC","FCF JPEL MANAGEMENT LLC",290790,1307,"Y","","","","","","","","212-798-6100","","Y","","","","","","","","MONFRI","","8AM - 6PM","","N","N","N","Y","N","N","N","",,"N","Limited Liability Company","","12","DE","United States","N"
1998269,"FCO MA CENTRE ADVISORS LLC","FCO MA CENTRE ADVISORS LLC",290796,1313,"Y","","","","","","","","212-798-6100","","Y","","","","","","","","MONFRI","","8AM - 6PM","X837XEVL3MMTVJ8OAS91","N","N","N","Y","N","N","N","",,"N","Limited Liability Company","","12","DE","United States","N"
1998269,"FCO MA III ADVISORS LLC","FCO MA III ADVISORS LLC",290797,1314,"Y","","","","","","","","212-798-6100","","Y","","","","","","","","MONFRI","","8AM - 6PM","RPUGBG34FPH870NOJA84","N","N","N","Y","N","N","N","",,"N","Limited Liability Company","","12","DE","United States","N"
1998269,"FCO MA IV ADVISORS LLC","FCO MA IV ADVISORS LLC",290798,1315,"Y","","","","","","","","212-798-6100","","Y","","","","","","","","MONFRI","","8AM - 6PM","2549005MAMUG05NZ9B62","N","N","N","Y","N","N","N","",,"N","Limited Liability Company","","12","DE","United States","N"
1998269,"FCO MA LSS ADVISORS LLC","FCO MA LSS ADVISORS LLC",290799,1316,"Y","","","","","","","","212-798-6100","","Y","","","","","","","","MONFRI","","8AM - 6PM","UPDT2C27JQL7JKJEG706","N","N","N","Y","N","N","N","",,"N","Limited Liability Company","","12","DE","United States","N"
1998269,"FCO MA MI ADVISORS LLC","FCO MA MI ADVISORS LLC",290800,1317,"Y","","","","","","","","212-798-6100","","Y","","","","","","","","MONFRI","","8AM - 6PM","2549004VCL186HFH6F71","N","N","N","Y","N","N","N","",,"N","Limited Liability Company","","12","DE","United States","N"
1998269,"FCO MA SC ADVISORS LLC","FCO MA SC ADVISORS LLC",290801,1318,"Y","","","","","","","","212-798-6100","","Y","","","","","","","","MONFRI","","8AM - 6PM","6TX0PH676ZY7J0C6FF93","N","N","N","Y","N","N","N","",,"N","Limited Liability Company","","12","DE","United States","N"
1998269,"FCO MA SUP ADVISORS LLC","FCO MA SUP ADVISORS LLC",290802,1319,"Y","","","","","","","","212-798-6100","","Y","","","","","","","","MONFRI","","8AM - 6PM","549300DFXOUAKUOFQ942","N","N","N","Y","N","N","N","",,"N","Limited Liability Company","","12","DE","United States","N"
1998269,"FCOO CLO MANAGEMENT LLC","FCOO CLO MANAGEMENT LLC",290804,1321,"Y","","","","","","","","212-798-6100","","Y","","","","","","","","MONFRI","","8AM - 6PM","","N","N","N","Y","N","N","N","",,"N","Limited Liability Company","","12","DE","United States","N"
1998269,"FORTRESS BERMUDA INFRASTRUCTURE PARTNERS ADVISORS LLC","FORTRESS BERMUDA INFRASTRUCTURE PARTNERS ADVISORS LLC",290809,1326,"Y","","","","","","","","212-798-6100","","Y","","","","","","","","MONFRI","","8AM - 6PM","","N","N","N","Y","N","N","N","",,"N","Limited Liability Company","","12","DE","United States","N"
1998269,"FORTRESS CREDIT ADVISORS LLC","FORTRESS CREDIT ADVISORS LLC",290811,1328,"Y","","","","","","","","212-798-6100","","Y","","","","","","","","MONFRI","","8AM - 6PM","549300U43C3DVFZBMN71","N","N","N","Y","N","N","N","",,"N","Limited Liability Company","","12","DE","United States","N"
1998269,"FORTRESS CREDIT OPPORTUNITIES ADVISORS LLC","FORTRESS CREDIT OPPORTUNITIES ADVISORS LLC",290815,1332,"Y","","","","","","","","212-798-6100","","Y","","","","","","","","MONFRI","","8AM - 6PM","5493000PP1SE3RZEH313","N","N","N","Y","N","N","N","",,"N","Limited Liability Company","","12","DE","United States","N"
1998269,"FORTRESS CREDIT OPPORTUNITIES III ADVISORS LLC","FORTRESS CREDIT OPPORTUNITIES III ADVISORS LLC",290817,1334,"Y","","","","","","","","212-798-6100","","Y","","","","","","","","MONFRI","","8AM - 6PM","549300R6XJNLY2I7JR30","N","N","N","Y","N","N","N","",,"N","Limited Liability Company","","12","DE","United States","N"
1998269,"FORTRESS CREDIT OPPORTUNITIES IV ADVISORS LLC","FORTRESS CREDIT OPPORTUNITIES IV ADVISORS LLC",290818,1335,"Y","","","","","","","","212-798-6100","","Y","","","","","","","","MONFRI","","8AM - 6PM","254900Y0XT43VNHMDV95","N","N","N","Y","N","N","N","",,"N","Limited Liability Company","","12","DE","United States","N"
1998269,"FORTRESS CREDIT OPPORTUNITIES IVA ADVISORS LLC","FORTRESS CREDIT OPPORTUNITIES IVA ADVISORS LLC",290819,1336,"Y","","","","","","","","212-798-6100","","Y","","","","","","","","MONFRI","","8AM - 6PM","","N","N","N","Y","N","N","N","",,"N","Limited Liability Company","","12","DE","United States","N"
1998269,"FORTRESS CREDIT OPPORTUNITIES MA ADVISORS LLC","FORTRESS CREDIT OPPORTUNITIES MA ADVISORS LLC",290820,1337,"Y","","","","","","","","212-798-6100","","Y","","","","","","","","MONFRI","","8AM - 6PM","8B4B41953SV0JUQRXL53","N","N","N","Y","N","N","N","",,"N","Limited Liability Company","","12","DE","United States","N"
1998269,"FORTRESS CREDIT OPPORTUNITIES MA II ADVISORS LLC","FORTRESS CREDIT OPPORTUNITIES MA II ADVISORS LLC",290821,1338,"Y","","","","","","","","212-798-6100","","Y","","","","","","","","MONFRI","","8AM - 6PM","549300EDOZ6O4912YI50","N","N","N","Y","N","N","N","",,"N","Limited Liability Company","","12","DE","United States","N"
1998269,"FORTRESS CREDIT OPPORTUNITIES MA MAPLE LEAF ADVISORS LLC","FORTRESS CREDIT OPPORTUNITIES MA MAPLE LEAF ADVISORS LLC",290822,1339,"Y","","","","","","","","212-798-6100","","Y","","","","","","","","MONFRI","","8AM - 6PM","HYB3GQ9PI1KHNY91K187","N","N","N","Y","N","N","N","",,"N","Limited Liability Company","","12","DE","United States","N"
1998269,"FORTRESS GLOBAL OPPORTUNITIES (YEN) ADVISORS LLC","FORTRESS GLOBAL OPPORTUNITIES (YEN) ADVISORS LLC",290823,1340,"Y","","","","","","","","212-798-6100","","Y","","","","","","","","MONFRI","","8AM - 6PM","0SZ57UG4M1OM6494D655","N","N","N","Y","N","N","N","",,"N","Limited Liability Company","","12","DE","United States","N"
1998269,"FORTRESS INVESTMENT GROUP (AUSTRALIA) PTY LTD","FORTRESS INVESTMENT GROUP (AUSTRALIA) PTY LTD",290824,1341,"N","LEVEL 19 GATEWAY","1 MACQUARIE PLACE","SYDNEY NSW 2000","","Australia","2000","N","61 2 8239 1900","61 2 8239 1999","N","LEVEL 19 GATEWAY","1 MACQUARIE PLACE","SYDNEY NSW 2000","","Australia","2000","N","MONFRI","","8AM - 6PM","254900KFGILP20FBEC03","N","N","Y","N","N","N","N","",,"N","Other (specify)","PRIVATE LIMITED COMPANY","12","","Australia","N"
1998269,"FORTRESS INVESTMENT GROUP (JAPAN) GK","FORTRESS INVESTMENT GROUP (JAPAN) GK",290825,1342,"N","ROPPONGI HILLS MORI TOWER 29F","6-10-1 ROPPONGI, MINATO-KU","TOKYO","","Japan","106-6129","N","81 3 6438 4400","81 3 6438 4214","N","ROPPONGI HILLS MORI TOWER 29F","6-10-1 ROPPONGI, MINATO-KU","TOKYO","","Japan","106-6129","N","MONFRI","","8AM - 6PM","","N","N","Y","N","N","N","N","",,"N","Other (specify)","JAPANESE LIMITED LIABILITY COMPANY","12","","Japan","N"
1998269,"FORTRESS INVESTMENT GROUP (UK) LTD","FORTRESS INVESTMENT GROUP (UK) LTD",290826,1343,"N","7 CLARGES STREET","4TH FLOOR","LONDON","","United Kingdom","W1J 8AE","N","44 207290 5600","","N","7 CLARGES STREET","4TH FLOOR","LONDON","","United Kingdom","W1J 8AE","N","MONFRI","","8AM - 6PM","549300LEZHA2TKDDC034","N","N","Y","N","N","N","N","",,"N","Other (specify)","PRIVATE LIMITED COMPANY","12","","United Kingdom","N"
1998269,"FORTRESS IP ADVISORS LLC","FORTRESS IP ADVISORS LLC",290827,1344,"Y","","","","","","","","212-798-6100","","Y","","","","","","","","MONFRI","","8AM - 6PM","","N","N","N","Y","N","N","N","",,"N","Limited Liability Company","","12","DE","United States","N"
1998269,"FORTRESS ITALIAN NPL OPPORTUNITIES FUND ADVISORS LLC","FORTRESS ITALIAN NPL OPPORTUNITIES FUND ADVISORS LLC",290828,1345,"Y","","","","","","","","212-798-6100","","Y","","","","","","","","MONFRI","","8AM - 6PM","","N","N","N","Y","N","N","N","",,"N","Limited Liability Company","","12","DE","United States","N"
1998269,"FORTRESS ITALIAN REAL ESTATE OPPORTUNITIES FUND ADVISORS LLC","FORTRESS ITALIAN REAL ESTATE OPPORTUNITIES FUND ADVISORS LLC",290829,1346,"Y","","","","","","","","212-798-6100","","Y","","","","","","","","MONFRI","","8AM - 6PM","","N","N","N","Y","N","N","N","",,"N","Limited Liability Company","","12","DE","United States","N"
1998269,"FORTRESS JAPAN INCOME MANAGEMENT LLC","FORTRESS JAPAN INCOME MANAGEMENT LLC",290830,1347,"Y","","","","","","","","212-798-6100","","Y","","","","","","","","MONFRI","","8AM - 6PM","","N","N","N","Y","N","N","N","",,"N","Limited Liability Company","","12","DE","United States","N"
1998269,"FORTRESS JAPAN OPPORTUNITY MANAGEMENT LLC","FORTRESS JAPAN OPPORTUNITY MANAGEMENT LLC",290831,1348,"Y","","","","","","","","212-798-6100","","Y","","","","","","","","MONFRI","","8AM - 6PM","FWGVFLIFKJ37MG1FIT88","N","N","N","Y","N","N","N","",,"N","Limited Liability Company","","12","DE","United States","N"
1998269,"FORTRESS MK ADVISORS LLC","FORTRESS MK ADVISORS LLC",290833,1350,"Y","","","","","","","","212-798-6100","","Y","","","","","","","","MONFRI","","8AM - 6PM","","N","N","N","Y","N","N","N","",,"N","Limited Liability Company","","12","DE","United States","N"
1998269,"FORTRESS REAL ESTATE (HK) LIMITED","FORTRESS REAL ESTATE (HK) LIMITED",290838,1355,"N","500 HENNESSY ROAD","31ST FLOOR HYSAN PLACE","CAUSEWAY BAY","","Hong Kong","","N","852 5803 6500","","N","500 HENNESSY ROAD","31ST FLOOR HYSAN PLACE","CAUSEWAY BAY","","Hong Kong","","N","MONFRI","","8AM - 6PM","","N","N","Y","N","N","N","N","",,"N","Other (specify)","PRIVATE LIMITED COMPANY","12","","Hong Kong","N"
1998269,"FORTRESS REAL ESTATE OPPORTUNITIES ADVISORS IIIA LLC","FORTRESS REAL ESTATE OPPORTUNITIES ADVISORS IIIA LLC",290839,1356,"Y","","","","","","","","212-798-6100","","Y","","","","","","","","MONFRI","","8AM - 6PM","","N","N","N","Y","N","N","N","",,"N","Limited Liability Company","","12","DE","United States","N"
1998269,"FORTRESS REAL ESTATE OPPORTUNITIES ADVISORS LLC","FORTRESS REAL ESTATE OPPORTUNITIES ADVISORS LLC",290840,1357,"Y","","","","","","","","212-798-6100","","Y","","","","","","","","MONFRI","","8AM - 6PM","549300GECYVCOD38BM71","N","N","N","Y","N","N","N","",,"N","Limited Liability Company","","12","DE","United States","N"
1998269,"FORTRESS SPECIAL OPPORTUNITIES ADVISORS LLC","FORTRESS SPECIAL OPPORTUNITIES ADVISORS LLC",290842,1359,"Y","","","","","","","","212-798-6100","","Y","","","","","","","","MONFRI","","8AM - 6PM","8LU3LHUQAJD1PE3VR065","N","N","N","Y","N","N","N","",,"N","Limited Liability Company","","12","DE","United States","N"
1998269,"FRO REOC ADVISORS LLC","FRO REOC ADVISORS LLC",290844,1361,"Y","","","","","","","","212-798-6100","","Y","","","","","","","","MONFRI","","8AM - 6PM","HHV2OTVPBGZ1ZMKSWA03","N","N","N","Y","N","N","N","",,"N","Limited Liability Company","","12","DE","United States","N"
1998269,"TABERNA EUROPEAN CAPITAL MANAGEMENT, LLC","TABERNA EUROPEAN CAPITAL MANAGEMENT, LLC",152652,1365,"Y","","","","","","","","212-798-6100","","Y","","","","","","","","MONFRI","","8AM - 6PM","549300EQNQFHJ8WXTW87","N","N","N","Y","N","N","N","",,"N","Limited Liability Company","","12","DE","United States","N"
1998269,"FORTRESS IP ADVISORS C LLC","FORTRESS IP ADVISORS C LLC",290961,1404,"Y","","","","","","","","212-798-6100","","Y","","","","","","","","MONFRI","","8AM - 6PM","","N","N","N","Y","N","N","N","",,"N","Limited Liability Company","","12","DE","United States","N"
1998269,"FC BSL MANAGEMENT LLC","FC BSL MANAGEMENT LLC",291020,1427,"Y","","","","","","","","212-798-6100","","Y","","","","","","","","MONFRI","","8AM - 6PM","","N","N","N","Y","N","N","N","",,"N","Limited Liability Company","","12","DE","United States","N"
1998269,"FDF MANAGEMENT LLC","FDF MANAGEMENT LLC",291022,1429,"Y","","","","","","","","212-798-6100","","Y","","","","","","","","MONFRI","","8AM - 6PM","","N","N","N","Y","N","N","N","",,"N","Limited Liability Company","","12","DE","United States","N"
1998269,"FDF MANAGEMENT LLC SERIES III","FDF MANAGEMENT LLC SERIES III",291023,1430,"Y","","","","","","","","212-798-6100","","Y","","","","","","","","MONFRI","","8AM - 6PM","","N","N","N","Y","N","N","N","",,"N","Limited Liability Company","","12","DE","United States","N"
1998269,"FORTRESS CLO ADVISORS LLC","FORTRESS CLO ADVISORS LLC",291162,1475,"Y","","","","","","","","212-798-6100","","Y","","","","","","","","MONFRI","","8AM - 6PM","","N","N","N","Y","N","N","N","",,"N","Limited Liability Company","","12","DE","United States","N"
1998269,"FCOD CLO MANAGEMENT LLC","FCOD CLO MANAGEMENT LLC",291682,1688,"Y","","","","","","","","212-798-6100","","Y","","","","","","","","MONFRI","","8AM - 6PM","25490069XF67XYNTW741","N","N","N","Y","N","N","N","",,"N","Limited Liability Company","","12","DE","United States","N"
1998269,"FC BSL MANAGEMENT LLC SERIES V","FC BSL MANAGEMENT LLC SERIES V",292143,1833,"Y","","","","","","","","212-798-6100","","Y","","","","","","","","MONFRI","","8AM - 6PM","","N","N","N","Y","N","N","N","",,"N","Limited Liability Company","","12","DE","United States","N"
1998269,"FC BSL MANAGEMENT LLC SERIES III","FC BSL MANAGEMENT LLC SERIES III",296548,5047,"Y","","","","","","","","212-798-6100","","Y","","","","","","","","MONFRI","","8AM - 6PM","","N","N","N","Y","N","N","N","",,"N","Limited Liability Company","","12","DE","United States","N"
1998269,"FORTRESS NSR ADVISOR LLC","FORTRESS NSR ADVISOR LLC",296558,5057,"Y","","","","","","","","212-798-6100","","Y","","","","","","","","MONFRI","","8AM - 6PM","","N","N","N","Y","N","N","N","",,"N","Limited Liability Company","","12","DE","United States","N"
1998269,"FORTRESS REAL ESTATE OPPORTUNITIES ADVISORS III LLC","FORTRESS REAL ESTATE OPPORTUNITIES ADVISORS III LLC",296972,5260,"Y","","","","","","","","212-798-6100","","Y","","","","","","","","MONFRI","","8AM - 6PM","","N","N","N","Y","N","N","N","",,"N","Limited Liability Company","","12","DE","United States","N"
1998269,"FDF MANAGEMENT LLC SERIES IV","FDF MANAGEMENT LLC SERIES IV",297352,5318,"Y","","","","","","","","212-798-6100","","Y","","","","","","","","MONFRI","","8AM - 6PM","","N","N","N","Y","N","N","N","",,"N","Limited Liability Company","","12","DE","United States","N"
1998269,"FORTRESS TSX BROADWAY ADVISORS LLC","FORTRESS TSX BROADWAY ADVISORS LLC",297994,5433,"Y","","","","","","","","212-798-6100","","Y","","","","","","","","MONFRI","","8AM - 6PM","","N","N","N","Y","N","N","N","",,"N","Limited Liability Company","","12","DE","United States","N"
1998269,"FORTRESS LENDING ADVISORS LLC","FORTRESS LENDING ADVISORS LLC",298118,5451,"Y","","","","","","","","212-798-6100","","Y","","","","","","","","MONFRI","","8AM - 6PM","","N","N","N","Y","N","N","N","",,"N","Limited Liability Company","","12","DE","United States","N"
1998269,"FC BSL VI MANAGEMENT LLC","FC BSL VI MANAGEMENT LLC",298261,5473,"Y","","","","","","","","212-798-6100","","Y","","","","","","","","MONFRI","","8AM - 6PM","","N","N","N","Y","N","N","N","",,"N","Limited Liability Company","","12","DE","United States","N"
1998269,"FORTRESS CREDIT OPPORTUNITIES V-C ADVISORS LLC","FORTRESS CREDIT OPPORTUNITIES V-C ADVISORS LLC",298313,5481,"Y","","","","","","","","212-798-6100","","Y","","","","","","","","MONFRI","","8AM - 6PM","","N","N","N","Y","N","N","N","",,"N","Limited Liability Company","","12","DE","United States","N"
1998269,"FORTRESS CREDIT OPPORTUNITIES V ADVISORS LLC","FORTRESS CREDIT OPPORTUNITIES V ADVISORS LLC",298314,5482,"Y","","","","","","","","212-798-6100","","Y","","","","","","","","MONFRI","","8AM - 6PM","254900C4HL0GJ5673A70","N","N","N","Y","N","N","N","",,"N","Limited Liability Company","","12","DE","United States","N"
1998269,"FRO MA I ADVISORS LLC","FRO MA I ADVISORS LLC",298414,5491,"Y","","","","","","","","212-798-6100","","Y","","","","","","","","MONFRI","","8AM - 6PM","","N","N","N","Y","N","N","N","",,"N","Limited Liability Company","","12","DE","United States","N"
1998269,"FORTRESS EUROPEAN NPL OPPORTUNITIES II ADVISORS LLC","FORTRESS EUROPEAN NPL OPPORTUNITIES II ADVISORS LLC",299784,5679,"Y","","","","","","","","212-798-6100","","Y","","","","","","","","MONFRI","","8AM - 6PM","254900ZGONEVY2EOKP81","N","N","N","Y","N","N","N","",,"N","Limited Liability Company","","12","DE","United States","N"
1998269,"FC BSL VII MANAGEMENT LLC","FC BSL VII MANAGEMENT LLC",300441,5776,"Y","","","","","","","","212-798-6100","","Y","","","","","","","","MONFRI","","8AM - 6PM","","N","N","N","Y","N","N","N","",,"N","Limited Liability Company","","12","DE","United States","N"
1998269,"FCO MA V ADVISORS LLC","FCO MA V ADVISORS LLC",300976,5865,"Y","","","","","","","","212-798-6100","","Y","","","","","","","","MONFRI","","8AM - 6PM","","N","N","N","Y","N","N","N","",,"N","Limited Liability Company","","12","DE","United States","N"
1998269,"FCO MA J5 ADVISORS LLC","FCO MA J5 ADVISORS LLC",301064,5876,"Y","","","","","","","","212-798-6100","","Y","","","","","","","","MONFRI","","8AM - 6PM","","N","N","N","Y","N","N","N","",,"N","Limited Liability Company","","12","DE","United States","N"
1998269,"FC BSL VIII MANAGEMENT LLC","FC BSL VIII MANAGEMENT LLC",301080,5883,"Y","","","","","","","","212-798-6100","","Y","","","","","","","","MONFRI","","8AM - 6PM","","N","N","N","Y","N","N","N","",,"N","Limited Liability Company","","12","DE","United States","N"
1998269,"FCO MA MI II ADVISORS LLC","FCO MA MI II ADVISORS LLC",304158,6399,"Y","","","","","","","","212-798-6100","","Y","","","","","","","","MONFRI","","8AM - 6PM","","N","N","N","Y","N","N","N","",,"N","Limited Liability Company","","12","DE","United States","N"
1998269,"FORTRESS EUROPEAN NPL MA I ADVISORS LLC","FORTRESS EUROPEAN NPL MA I ADVISORS LLC",304635,6459,"Y","","","","","","","","212-798-6100","","Y","","","","","","","","MONFRI","","8AM - 6PM","","N","N","N","Y","N","N","N","",,"N","Limited Liability Company","","12","DE","United States","N"
1998269,"DBSO TRG FUND (A) ADVISORS LLC","DBSO TRG FUND (A) ADVISORS LLC",305190,6548,"Y","","","","","","","","212-798-6100","","Y","","","","","","","","MONFRI","","8AM - 6PM","2549008DGTA51BQFZL09","N","N","N","Y","N","N","N","",,"N","Limited Liability Company","","12","DE","United States","N"
1998269,"FCO V LSS SUBCO ADVISORS LLC","FCO V LSS SUBCO ADVISORS LLC",305192,6550,"Y","","","","","","","","212-798-6100","","Y","","","","","","","","MONFRI","","8AM - 6PM","","N","N","N","Y","N","N","N","",,"N","Limited Liability Company","","12","DE","United States","N"
1998269,"FDF V MANAGEMENT LLC","FDF V MANAGEMENT LLC",306012,6695,"Y","","","","","","","","212-798-6100","","Y","","","","","","","","MONFRI","","8AM - 6PM","","N","N","N","Y","N","N","N","",,"N","Limited Liability Company","","12","DE","United States","N"
1998269,"FCO MA CENTRE II ADVISORS LLC","FCO MA CENTRE II ADVISORS LLC",306908,6829,"Y","","","","","","","","212-798-6100","","Y","","","","","","","","MONFRI","","8AM - 6PM","","N","N","N","Y","N","N","N","",,"N","Limited Liability Company","","12","DE","United States","N"
1998269,"FORTRESS LEGAL ASSETS ADVISORS LLC","FORTRESS LEGAL ASSETS ADVISORS LLC",307938,7025,"Y","","","","","","","","212-798-6100","","Y","","","","","","","","MONFRI","","8AM - 6PM","","N","N","N","Y","N","N","N","",,"N","Limited Liability Company","","12","DE","United States","N"
1998269,"FC BSL IX MANAGEMENT LLC","FC BSL IX MANAGEMENT LLC",308175,7092,"Y","","","","","","","","212-798-6100","","Y","","","","","","","","MONFRI","","8AM - 6PM","","N","N","N","Y","N","N","N","",,"N","Limited Liability Company","","12","DE","United States","N"
1998269,"FORTRESS LENDING ADVISORS II LLC","FORTRESS LENDING ADVISORS II LLC",308925,7567,"Y","","","","","","","","212-798-6100","","Y","","","","","","","","MONFRI","","8AM - 6PM","","N","N","N","Y","N","N","N","",,"N","Limited Liability Company","","12","DE","United States","N"
1998269,"FORTRESS VINTAGE SECURITIES FUND ADVISORS LLC","FORTRESS VINTAGE SECURITIES FUND ADVISORS LLC",309215,7608,"Y","","","","","","","","212-798-6100","","Y","","","","","","","","MONFRI","","8AM - 6PM","254900TU5MMQ1QA61488","N","N","N","Y","N","N","N","",,"N","Limited Liability Company","","12","DE","United States","N"
1998269,"FORTRESS FCO FUND V MA-C ADVISORS LLC","FORTRESS FCO FUND V MA-C ADVISORS LLC",311433,7904,"Y","","","","","","","","212-798-6100","","Y","","","","","","","","MONFRI","","8AM - 6PM","","N","N","N","Y","N","N","N","",,"N","Limited Liability Company","","12","DE","United States","N"
1998269,"FLF II MA-CRPTF ADVISORS LLC","FLF II MA-CRPTF ADVISORS LLC",311826,7948,"Y","","","","","","","","212-798-6100","","Y","","","","","","","","MONFRI","","8AM - 6PM","","N","N","N","Y","N","N","N","",,"N","Limited Liability Company","","12","DE","United States","N"
1998269,"FORTRESS MBI ADVISOR LLC","FORTRESS MBI ADVISOR LLC",311883,7955,"Y","","","","","","","","212-798-6100","","Y","","","","","","","","MONFRI","","8AM - 6PM","","N","N","N","Y","N","N","N","",,"N","Limited Liability Company","","12","DE","United States","N"
1998269,"FORTRESS NLI ADVISORS LLC","FORTRESS NLI ADVISORS LLC",312654,8062,"Y","","","","","","","","212-798-6100","","Y","","","","","","","","MONFRI","","8AM - 6PM","","N","N","N","Y","N","N","N","",,"N","Limited Liability Company","","12","DE","United States","N"
1998269,"FORTRESS IP ADVISORS II LLC","FORTRESS IP ADVISORS II LLC",312953,8092,"Y","","","","","","","","212-798-6100","","Y","","","","","","","","MONFRI","","8AM - 6PM","","N","N","N","Y","N","N","N","",,"N","Limited Liability Company","","12","DE","United States","N"
1998269,"FORTRESS IP ADVISORS II C LLC","FORTRESS IP ADVISORS II C LLC",312954,8093,"Y","","","","","","","","212-798-6100","","Y","","","","","","","","MONFRI","","8AM - 6PM","","N","N","N","Y","N","N","N","",,"N","Limited Liability Company","","12","DE","United States","N"
1998269,"FORTRESS FCO FUND V MA-CRPTF ADVISORS LLC","FORTRESS FCO FUND V MA-CRPTF ADVISORS LLC",313474,8170,"Y","","","","","","","","212-798-6100","","Y","","","","","","","","MONFRI","","8AM - 6PM","","N","N","N","Y","N","N","N","",,"N","Limited Liability Company","","12","DE","United States","N"
1998269,"FC BSL XII MANAGEMENT LLC","FC BSL XII MANAGEMENT LLC",313883,8350,"Y","","","","","","","","212-798-6100","","Y","","","","","","","","MONFRI","","8AM - 6PM","","N","N","N","Y","N","N","N","",,"N","Limited Liability Company","","12","DE","United States","N"
1998269,"FC BSL XI MANAGEMENT LLC","FC BSL XI MANAGEMENT LLC",313884,8351,"Y","","","","","","","","212-798-6100","","Y","","","","","","","","MONFRI","","8AM - 6PM","","N","N","N","Y","N","N","N","",,"N","Limited Liability Company","","12","DE","United States","N"
1998269,"FC BSL XIII MANAGEMENT LLC","FC BSL XIII MANAGEMENT LLC",315715,8810,"Y","","","","","","","","212-798-6100","","Y","","","","","","","","MONFRI","","8AM - 6PM","","N","N","N","Y","N","N","N","",,"N","Limited Liability Company","","12","DE","United States","N"
1998269,"FC BSL CLO MANAGER LLC","FC BSL CLO MANAGER LLC",316692,8948,"Y","","","","","","","","212-798-6100","","Y","","","","","","","","MONFRI","","8AM - 6PM","","N","N","N","Y","N","N","N","",,"N","Limited Liability Company","","12","DE","United States","N"
1998269,"FORTRESS LENDING ADVISORS III LLC","FORTRESS LENDING ADVISORS III LLC",316835,8973,"Y","","","","","","","","212-798-6100","","Y","","","","","","","","MONFRI","","8AM - 6PM","","N","N","N","Y","N","N","N","",,"N","Limited Liability Company","","12","DE","United States","N"
1998269,"FC BSL CLO MANAGER II LLC","FC BSL CLO MANAGER II LLC",317367,9063,"Y","","","","","","","","212-798-6100","","Y","","","","","","","","MONFRI","","8AM - 6PM","254900SRYYTLN3EIRO71","N","N","N","Y","N","N","N","",,"N","Limited Liability Company","","12","DE","United States","N"
1998269,"FC BSL XIV MANAGEMENT LLC","FC BSL XIV MANAGEMENT LLC",317445,9075,"Y","","","","","","","","212-798-6100","","Y","","","","","","","","MONFRI","","8AM - 6PM","","N","N","N","Y","N","N","N","",,"N","Limited Liability Company","","12","DE","United States","N"
1998269,"DC VALUE RECOVERY II MANAGER LLC","DC VALUE RECOVERY II MANAGER LLC",318178,9146,"Y","","","","","","","","212-798-6100","","Y","","","","","","","","MONFRI","","8AM - 6PM","","N","N","N","Y","N","N","N","",,"N","Limited Liability Company","","12","DE","United States","N"
1998269,"DC VALUE RECOVERY III MANAGER LLC","DC VALUE RECOVERY III MANAGER LLC",318179,9147,"Y","","","","","","","","212-798-6100","","Y","","","","","","","","MONFRI","","8AM - 6PM","","N","N","N","Y","N","N","N","",,"N","Limited Liability Company","","12","DE","United States","N"
1998269,"DC VALUE RECOVERY IV MANAGER LLC","DC VALUE RECOVERY IV MANAGER LLC",318180,9148,"Y","","","","","","","","212-798-6100","","Y","","","","","","","","MONFRI","","8AM - 6PM","","N","N","N","Y","N","N","N","",,"N","Limited Liability Company","","12","DE","United States","N"
1998269,"DC VALUE RECOVERY V MANAGER LLC","DC VALUE RECOVERY V MANAGER LLC",318181,9149,"Y","","","","","","","","212-798-6100","","Y","","","","","","","","MONFRI","","8AM - 6PM","","N","N","N","Y","N","N","N","",,"N","Limited Liability Company","","12","DE","United States","N"
1998269,"DCVR INVESTMENT ADVISORS LLC","DCVR INVESTMENT ADVISORS LLC",318182,9150,"Y","","","","","","","","212-798-6100","","Y","","","","","","","","MONFRI","","8AM - 6PM","","N","N","N","Y","N","N","N","",,"N","Limited Liability Company","","12","DE","United States","N"
1998269,"FCO XVII CLO CM LLC","FCO XVII CLO CM LLC",319215,9315,"Y","","","","","","","","212-798-6100","","Y","","","","","","","","MONFRI","","8AM - 6PM","","N","N","N","Y","N","N","N","",,"N","Limited Liability Company","","12","DE","United States","N"
1998269,"FORT CRE 2022-FL3 CM LLC","FORT CRE 2022-FL3 CM LLC",319303,9325,"Y","","","","","","","","212-798-6100","","Y","","","","","","","","MONFRI","","8AM - 6PM","","N","N","N","Y","N","N","N","",,"N","Limited Liability Company","","12","DE","United States","N"
1998269,"FC BSL XVIII MANAGEMENT LLC","FC BSL XVIII MANAGEMENT LLC",319488,9364,"Y","","","","","","","","212-798-6100","","Y","","","","","","","","MONFRI","","8AM - 6PM","","N","N","N","Y","N","N","N","",,"N","Limited Liability Company","","12","DE","United States","N"
1998269,"FC BSL X MANAGEMENT LLC","FC BSL X MANAGEMENT LLC",320887,9607,"Y","","","","","","","","212-798-6100","","Y","","","","","","","","MONFRI","","8AM - 6PM","","N","N","N","Y","N","N","N","",,"N","Limited Liability Company","","12","DE","United States","N"
1998269,"FCO XXI CLO CM LLC","FCO XXI CLO CM LLC",321677,9748,"Y","","","","","","","","212-798-6100","","Y","","","","","","","","MONFRI","","8AM - 6PM","","N","N","N","Y","N","N","N","",,"N","Limited Liability Company","","12","DE","United States","N"
1998269,"FC BSL XVII MANAGEMENT LLC","FC BSL XVII MANAGEMENT LLC",322114,9808,"Y","","","","","","","","212-798-6100","","Y","","","","","","","","MONFRI","","8AM - 6PM","","N","N","N","Y","N","N","N","",,"N","Limited Liability Company","","12","DE","United States","N"
1998269,"FCFE CM LLC","FCFE CM LLC",322566,9864,"Y","","","","","","","","212-798-6100","","Y","","","","","","","","MONFRI","","8AM - 6PM","254900RGCSIRL4WQUT37","N","N","N","Y","N","N","N","",,"N","Limited Liability Company","","12","DE","United States","N"
1998269,"FLF III-IV MA-CRPTF ADVISORS LLC","FLF III-IV MA-CRPTF ADVISORS LLC",322895,9911,"Y","","","","","","","","212-798-6100","","Y","","","","","","","","MONFRI","","8AM - 6PM","","N","N","N","Y","N","N","N","",,"N","Limited Liability Company","","12","DE","United States","N"
1998269,"FORTRESS REAL ESTATE OPPORTUNITIES ADVISORS IVA LLC","FORTRESS REAL ESTATE OPPORTUNITIES ADVISORS IVA LLC",322907,9913,"Y","","","","","","","","212-798-6100","","Y","","","","","","","","MONFRI","","8AM - 6PM","","N","N","N","Y","N","N","N","",,"N","Limited Liability Company","","12","DE","United States","N"
1998269,"FORTRESS REAL ESTATE OPPORTUNITIES ADVISORS IV LLC","FORTRESS REAL ESTATE OPPORTUNITIES ADVISORS IV LLC",323027,9927,"Y","","","","","","","","212-798-6100","","Y","","","","","","","","MONFRI","","8AM - 6PM","","N","N","N","Y","N","N","N","",,"N","Limited Liability Company","","12","DE","United States","N"
1998269,"FC BSL CLO MANAGER IV LLC","FC BSL CLO MANAGER IV LLC",323787,9993,"Y","","","","","","","","212-798-6100","","Y","","","","","","","","MONFRI","","8AM - 6PM","254900HO45ALHJT2YW61","N","N","N","Y","N","N","N","",,"N","Limited Liability Company","","12","DE","United States","N"
1998269,"FNLR MANAGEMENT LLC","FNLR MANAGEMENT LLC",325153,10253,"Y","","","","","","","","212-798-6100","","Y","","","","","","","","MONFRI","","8AM - 6PM","","N","N","N","Y","N","N","N","",,"N","Limited Liability Company","","12","DE","United States","N"
1998269,"FORTRESS LENDING ADVISORS IV (U) LLC","FORTRESS LENDING ADVISORS IV (U) LLC",325628,10325,"Y","","","","","","","","212-798-6100","","Y","","","","","","","","MONFRI","","8AM - 6PM","","N","N","N","Y","N","N","N","",,"N","Limited Liability Company","","12","DE","United States","N"
1998269,"FORTRESS CREDIT OPPORTUNITIES VI ADVISORS LLC","FORTRESS CREDIT OPPORTUNITIES VI ADVISORS LLC",325773,10367,"Y","","","","","","","","212-798-6100","","Y","","","","","","","","MONFRI","","8AM - 6PM","254900X09GU8UE81D169","N","N","N","Y","N","N","N","",,"N","Limited Liability Company","","12","DE","United States","N"
1998269,"FORTRESS CREDIT OPPORTUNITIES VI-C ADVISORS LLC","FORTRESS CREDIT OPPORTUNITIES VI-C ADVISORS LLC",325774,10368,"Y","","","","","","","","212-798-6100","","Y","","","","","","","","MONFRI","","8AM - 6PM","2549001KB2T9ST72GT44","N","N","N","Y","N","N","N","",,"N","Limited Liability Company","","12","DE","United States","N"
1998269,"FCF CONSULTING S.R.L.","FCF CONSULTING S.R.L.",326182,10567,"N","LUNGOTEVERE FLAMINIO, 18","","ROME","","Italy","00196","N","39 06 94501704","","N","LUNGOTEVERE FLAMINIO, 18","","ROME","","Italy","00196","N","MONFRI","","8AM - 6PM","","N","N","Y","N","N","N","N","",,"N","Other (specify)","ITALIAN LIMITED LIABILITY COMPANY","12","","Italy","N"
1998269,"FORTRESS INVESTMENT GROUP FRANCE SAS","FORTRESS INVESTMENT GROUP FRANCE SAS",326183,10568,"N","4 RUE BALZAC","1ST FLOOR","PARIS","","France","75008","N","33 1 7890 1425","","N","4 RUE BALZAC","1ST FLOOR","PARIS","","France","75008","N","MONFRI","","8AM - 6PM","","N","N","Y","N","N","N","N","",,"N","Other (specify)","FRENCH LIMITED LIABILITY COMPANY","12","","France","N"
1998269,"FIG NETHERLANDS B.V.","FIG NETHERLANDS B.V.",326184,10569,"N","STRAWINSKYLAAN 257","HOFF OFFICES","AMSTERDAM","","Netherlands","1077 XX","N","31 208 08 3400","","N","STRAWINSKYLAAN 257","HOFF OFFICES","AMSTERDAM","","Netherlands","1077 XX","N","MONFRI","","8AM - 6PM","","N","N","Y","N","N","N","N","",,"N","Other (specify)","DUTCH PRIVATE LIMITED COMPANY","12","","Netherlands","N"
1998269,"FORTRESS INVESTMENT GROUP LUXEMBOURG SARL","FORTRESS INVESTMENT GROUP LUXEMBOURG SARL",326185,10570,"N","26 BOULEVARD ROYAL","2ND FLOOR, SUITE 222","LUXEMBOURG","","Luxembourg","L-2449","N","352 26 20 6402","352 26 86 4501","N","26 BOULEVARD ROYAL","2ND FLOOR, SUITE 222","LUXEMBOURG","","Luxembourg","L-2449","N","MONFRI","","8AM - 6PM","","N","N","Y","N","N","N","N","",,"N","Other (specify)","LUXEMBOURG LIMITED LIABILITY COMPANY","12","","Luxembourg","N"
1998269,"FORTRESS INVESTMENT GROUP IBERIA S.L.","FORTRESS INVESTMENT GROUP IBERIA S.L.",326187,10572,"N","CALLE DE DON RAMÓN DE LA CRUZ 1","PISO 3","MADRID","","Spain","28001","N","34 9 1907 0848","","N","CALLE DE DON RAMÓN DE LA CRUZ 1","PISO 3","MADRID","","Spain","28001","N","MONFRI","","8AM - 6PM","","N","N","Y","N","N","N","N","",,"N","Other (specify)","SPANISH PRIVATE LIMITED COMPANY","12","","Spain","N"
1998269,"FORTRESS CREDIT INVESTMENTS (IRELAND) LIMITED","FORTRESS CREDIT INVESTMENTS (IRELAND) LIMITED",326435,10727,"N","1ST FLOOR, CAPE HOUSE","WESTEND OFFICE PARK, BLANCHARDSTOW","DUBLIN","","Ireland","15","N","353 1 513 5800","","N","1ST FLOOR, CAPE HOUSE","WESTEND OFFICE PARK, BLANCHARDSTOW","DUBLIN","","Ireland","15","N","MONFRI","","8AM - 6PM","","N","N","Y","N","N","N","N","",,"N","Other (specify)","PRIVATE LIMITED COMPANY","12","","Ireland","N"
1998269,"FC BSL CLO MANAGER III LLC","FC BSL CLO MANAGER III LLC",327070,10826,"Y","","","","","","","","212-798-6100","","Y","","","","","","","","MONFRI","","8AM - 6PM","","N","N","N","Y","N","N","N","",,"N","Limited Liability Company","","12","DE","United States","N"
1998269,"FORTRESS LENDING ADVISORS IV LLC","FORTRESS LENDING ADVISORS IV LLC",327366,10873,"Y","","","","","","","","212-798-6100","","Y","","","","","","","","MONFRI","","8AM - 6PM","25490066NJXJA0OZJK14","N","N","N","Y","N","N","N","",,"N","Limited Liability Company","","12","DE","United States","N"
1998269,"FC BSL CLO MANAGER V LLC","FC BSL CLO MANAGER V LLC",328389,11031,"Y","","","","","","","","212-798-6100","","Y","","","","","","","","MONFRI","","8AM - 6PM","","N","N","N","Y","N","N","N","",,"N","Limited Liability Company","","12","DE","United States","N"
1998269,"FORTRESS LEGAL ASSETS ADVISORS II LLC","FORTRESS LEGAL ASSETS ADVISORS II LLC",328393,11032,"Y","","","","","","","","212-798-6100","","Y","","","","","","","","MONFRI","","8AM - 6PM","","N","N","N","Y","N","N","N","",,"N","Limited Liability Company","","12","DE","United States","N"
1998269,"FORTRESS IMA MANAGEMENT LLC","FORTRESS IMA MANAGEMENT LLC",328558,11060,"Y","","","","","","","","212-798-6100","","Y","","","","","","","","MONFRI","","8AM - 6PM","254900GDQB94VT94RO77","N","N","N","Y","N","N","N","",,"N","Limited Liability Company","","12","DE","United States","N"
1998269,"FORTRESS MULTI-MANAGER ADVISORS LP","FORTRESS MULTI-MANAGER ADVISORS LP",329488,11197,"Y","","","","","","","","212-798-6100","","Y","","","","","","","","MONFRI","","8AM - 6PM","549300KAJ8XFS1GPNQ42","N","N","N","Y","N","N","N","",,"N","Limited Partnership","","12","DE","United States","N"
1998269,"FORTRESS MULTI-MANAGER ASIA ADVISORS LLC","FORTRESS MULTI-MANAGER ASIA ADVISORS LLC",330013,11263,"Y","","","","","","","","212-798-6100","","Y","","","","","","","","MONFRI","","8AM - 6PM","254900JDVT4GT6V5Z246","N","N","N","Y","N","N","N","",,"N","Limited Liability Company","","12","DE","United States","N"
1998269,"FORTRESS REDCO CO-INVESTMENT GP LLC","FORTRESS REDCO CO-INVESTMENT GP LLC",331492,11649,"Y","","","","","","","","212-798-6100","","Y","","","","","","","","MONFRI","","8AM - 6PM","","N","N","N","Y","N","N","N","",,"N","Limited Liability Company","","12","DE","United States","N"
1998269,"FCR ADVISORS LLC","FCR ADVISORS LLC",331961,11719,"Y","","","","","","","","212-798-6100","","Y","","","","","","","","MONFRI","","8AM - 6PM","","N","N","N","Y","N","N","N","",,"N","Limited Liability Company","","12","DE","United States","N"
1998269,"FORTRESS IP ADVISORS III LLC","FORTRESS IP ADVISORS III LLC",332079,11733,"Y","","","","","","","","212-798-6100","","Y","","","","","","","","MONFRI","","8AM - 6PM","","N","N","N","Y","N","N","N","",,"N","Limited Liability Company","","12","DE","United States","N"
1998269,"FORTRESS IP ADVISORS III C LLC","FORTRESS IP ADVISORS III C LLC",332080,11734,"Y","","","","","","","","212-798-6100","","Y","","","","","","","","MONFRI","","8AM - 6PM","","N","N","N","Y","N","N","N","",,"N","Limited Liability Company","","12","DE","United States","N"
1998269,"FPE MANAGEMENT LLC","FPE MANAGEMENT LLC",332178,11761,"Y","","","","","","","","212-798-6100","","Y","","","","","","","","MONFRI","","8AM - 6PM","","N","N","N","Y","N","N","N","",,"N","Limited Liability Company","","12","DE","United States","N"
1998269,"FORTRESS CLO MANAGER B LLC","FORTRESS CLO MANAGER B LLC",334600,12196,"Y","","","","","","","","212-798-6100","","Y","","","","","","","","MONFRI","","8AM - 6PM","","N","N","N","Y","N","N","N","",,"N","Limited Liability Company","","12","DE","United States","N"
1998269,"FC BSL CLO MANAGER VI LLC","FC BSL CLO MANAGER VI LLC",334633,12203,"Y","","","","","","","","212-798-6100","","Y","","","","","","","","MONFRI","","8AM - 6PM","","N","N","N","Y","N","N","N","",,"N","Limited Liability Company","","12","DE","United States","N"
1998269,"FORTRESS LHB ADVISORS LLC","FORTRESS LHB ADVISORS LLC",334684,12212,"Y","","","","","","","","212-798-6100","","Y","","","","","","","","MONFRI","","8AM - 6PM","","N","N","N","Y","N","N","N","",,"N","Limited Liability Company","","12","DE","United States","N"
1998269,"FORTRESS ABC II ADVISORS LLC","FORTRESS ABC II ADVISORS LLC",335423,12305,"Y","","","","","","","","212-798-6100","","Y","","","","","","","","MONFRI","","8AM - 6PM","","N","N","N","Y","N","N","N","",,"N","Limited Liability Company","","12","DE","United States","N"
1998269,"FORTRESS MIC MA ADVISORS LLC","FORTRESS MIC MA ADVISORS LLC",335472,12312,"Y","","","","","","","","212-798-6100","","Y","","","","","","","","MONFRI","","8AM - 6PM","","N","N","N","Y","N","N","N","",,"N","Limited Liability Company","","12","DE","United States","N"
1998269,"FCO XXIX CLO CM LLC","FCO XXIX CLO CM LLC",335526,12323,"Y","","","","","","","","212-798-6100","","Y","","","","","","","","MONFRI","","8AM - 6PM","","N","N","N","Y","N","N","N","",,"N","Limited Liability Company","","12","DE","United States","N"
1998269,"FORTRESS EUROPEAN NPL & ASSET RECOVERY III ADVISORS LLC","FORTRESS EUROPEAN NPL & ASSET RECOVERY III ADVISORS LLC",335620,12350,"Y","","","","","","","","212-798-6100","","Y","","","","","","","","MONFRI","","8AM - 6PM","","N","N","N","Y","N","N","N","",,"N","Limited Liability Company","","12","DE","United States","N"
1997729,"Z CAPITAL CLO MANAGEMENT, LLC","Z CAPITAL CLO MANAGEMENT, L.L.C.",292794,2785,"Y","","","","","","","","847-235-8100","847-235-8111","N","","","","","","","N","MONFRI","","9:00 AM - 5:00 PM","","Y","N","N","N","N","N","N","",,"N","Limited Liability Company","","12","DE","United States","N"
1997729,"","Z CAPITAL CREDIT PARTNERS ADVISER, L.P",293855,2786,"Y","","","","","","","","847-235-8100","847-235-8111","N","","","","","","","N","MONFRI","","9:00 AM - 5:00 PM","","Y","N","N","N","N","N","N","",,"N","Limited Partnership","","12","DE","United States","N"
1997729,"","Z CAPITAL CREDIT PARTNERS, L.L.C.",293857,2787,"Y","","","","","","","","847-235-8100","847-235-8111","N","","","","","","","N","MONFRI","","9:00 AM - 5:00 PM","","Y","N","N","N","N","N","N","",,"N","Limited Liability Company","","12","DE","United States","N"
1997729,"","Z CAPITAL CREDIT TACTICAL GP, L.P.",293858,2788,"Y","","","","","","","","847-235-8100","847-235-8111","N","","","","","","","N","MONFRI","","9:00 AM - 5:00 PM","","Y","N","N","N","N","N","N","",,"N","Limited Partnership","","12","DE","United States","N"
1997729,"","Z CAPITAL PARTNERS ADVISER, L.P.",293859,2789,"Y","","","","","","","","847-235-8100","847-235-8111","N","","","","","","","N","MONFRI","","9:00 AM - 5:00 PM","","Y","N","N","N","N","N","N","",,"N","Limited Partnership","","12","DE","United States","N"
1997729,"","Z CAPITAL PARTNERS GP I, L.P.",293860,2790,"Y","","","","","","","","847-235-8100","847-235-8111","N","","","","","","","N","MONFRI","","9:00 AM - 5:00 PM","","Y","N","N","N","N","N","N","",,"N","Limited Partnership","","12","DE","United States","N"
1997729,"","Z CAPITAL PARTNERS GP II, L.P.",293861,2791,"Y","","","","","","","","847-235-8100","847-235-8111","N","","","","","","","N","MONFRI","","9:00 AM - 5:00 PM","","Y","N","N","N","N","N","N","",,"N","Limited Partnership","","12","DE","United States","N"
1997729,"","Z CAPITAL PARTNERS GP III, L.P.",293862,2792,"Y","","","","","","","","847-235-8100","847-235-8111","N","","","","","","","N","MONFRI","","9:00 AM - 5:00 PM","","Y","N","N","N","N","N","N","",,"N","Limited Partnership","","12","DE","United States","N"
1997729,"","ZCG STRATEGIC EQUITY GP, L.P.",320949,9651,"Y","","","","","","","","847-235-8100","847-235-8111","N","","","","","","","N","MONFRI","","9:00 AM - 5:00 PM","","Y","N","N","N","N","N","N","",,"N","Limited Partnership","","12","DE","United States","N"
1997258,"ALPHAKEYS FUND ADVISOR, L.L.C.","ALPHAKEYS FUND ADVISOR, L.L.C.",109213,10021,"Y","","","","","","","","212-994-7400","","N","","","","","","","N","MONFRI","","9:00AM - 5:00PM","","Y","N","N","N","N","N","N","",,"N","Limited Liability Company","","12","DE","United States","N"
1996445,"","SRP CONTINUATION PARTNERS MANAGER, LLC",324018,10038,"Y","","","","","","","","404-364-2084","404-364-2985","Y","","","","","","","","MONFRI","","9AM-5PM","","N","N","N","Y","N","N","N","",,"N","Limited Liability Company","","12","DE","United States","N"
1996445,"","NFP CONTINUATION PARTNERS MANAGER, LLC",326441,10733,"Y","","","","","","","","404-364-2084","404-364-2985","Y","","","","","","","","MONFRI","","9AM-5PM","","N","N","N","Y","N","N","N","",,"N","Limited Liability Company","","12","DE","United States","N"
1996445,"","RCG INVESTMENT MANAGER, LLC",333999,12100,"N","ONE BUCKHEAD PLAZA","3060 PEACHTREE ROAD NW, SUITE 400","ATLANTA","GA","United States","30305-2239","N","404-816-5454","404-816-5445","N","","","","","","","N","MONFRI","","9AM-5PM","","N","N","N","Y","N","N","N","",,"N","Limited Liability Company","","12","DE","United States","Y"
1993584,"","3I NORTH AMERICAN INFRASTRUCTURE PARTNERS, LLC",318060,9137,"Y","","","","","","","","1 212 848 1400","1 212 848 1401","Y","","","","","","","","MONFRI","","9-5","","N","N","N","Y","N","N","N","",,"N","Limited Liability Company","","03","DE","United States","N"
1996025,"","RP MANAGEMENT IRELAND LTD.",294286,3099,"N","78 SIR JOHN ROGERSON'S QUAY","","DUBLIN","","Ireland","2","N","212-883-0200","212-883-2260","Y","","","","","","","","MONFRI","","9 A.M. - 5 P.M.","","Y","N","N","N","N","N","N","",,"N","Corporation","","12","","Ireland","N"
1994171,"","MACQUARIE ALLIANCE PARTNERS MANAGEMENT, LLC",324742,10141,"Y","","","","","","","","212-231-1000","","N","","","","","","","N","MONFRI","","9 AM TO 6 PM","","Y","N","N","N","N","N","N","",,"N","Limited Liability Company","","03","DE","United States","N"
1994171,"","MACQUARIE REAL ESTATE MANAGEMENT (US), LLC",327094,10830,"Y","","","","","","","","212-231-1000","","Y","","","","","","","","MONFRI","","9 AM TO 6 PM","","N","N","N","Y","N","N","N","",,"N","Limited Liability Company","","03","DE","United States","N"
1996233,"FF III GP LLC","FF III GP LLC",335734,12383,"Y","","","","","","","","858-208-3588","","Y","","","","","","","","MONFRI","","9 AM TO 5 PM PST","","N","N","N","Y","N","N","N","",,"N","Limited Liability Company","","12","DE","United States","N"
1996233,"KARMEL CAPITAL LLC","KARMEL CAPITAL LLC",335735,12384,"Y","","","","","","","","858-208-3588","","Y","","","","","","","","MONFRI","","9 AM TO 5 PM PST","","N","N","N","Y","N","N","N","",,"N","Limited Liability Company","","12","DE","United States",""
1997259,"","SQUAREPOINT CAPITAL LLP",173911,4629,"N","CITYPOINT, FLOOR 33 & 35","ONE ROPEMAKER STREET","LONDON","","United Kingdom","EC2Y 9AW","N","(+44) 2039917418","","N","","","","","","","N","MONFRI","","9AM - 6PM","549300I4ETOFV4DVJG14","N","N","Y","N","N","N","N","",,"N","Limited Liability Partnership","","12","","United Kingdom","N"
1997259,"","SQUAREPOINT OPERATIONS PRIVATE LIMITED",296073,4636,"N","88 MARKET STREET","CAPITASPRING LEVEL 49","SINGAPORE","","Singapore","048948","N","(+852) 25925248","","N","","","","","","","N","MONFRI","","9AM - 6PM","549300JEREEEPA0WV508","N","N","Y","N","N","N","N","",,"N","Other (specify)","SINGAPORE PRIVATE LIMITED COMPANY","12","","Singapore","N"
1997259,"","SQUAREPOINT (DIFC) LIMITED",335962,12500,"N","UNIT L29-07, LEVEL 29, ICD BROOKFIELD PLACE","DUBAI INTERNATIONAL FINANCIAL CENTRE","DUBAI","","United Arab Emirates","","N","(+971) 45415628","","N","","","","","","","N","MONFRI","","9AM - 6PM","98450082E14IEF09YR42","N","N","Y","N","N","N","N","",,"N","Other (specify)","DIFC PRIVATE LIMITED COMPANY","12","","United Arab Emirates","N"
1993877,"","MSD REAL ESTATE MANAGEMENT, LLC",304589,6450,"Y","","","","","","","","2123031650","","Y","","","","","","","","MONFRI","","8:00 AM - 7:00 PM","254900XHJTKSUTR2EG21","Y","N","N","N","N","N","N","",,"N","Limited Liability Company","","12","DE","United States","N"
1985147,"","FIDELITY CLO ADVISERS LP",336587,12684,"Y","","","","","","","","617-563-7000","","Y","","","","","","","","MONFRI","","9:00 AM - 5:00 PM EST","254900XWKPGLHHCB0Y37","N","N","N","Y","N","N","N","",,"N","Limited Partnership","","12","DE","United States","N"
1999113,"TZP FUND MANAGER II, L.P.","TZP FUND MANAGER II, L.P.",293261,2395,"Y","","","","","","","","212-398-0300","","N","","","","","","","N","MONFRI","","9:00 AM - 5:00 PM","","N","N","N","Y","N","N","N","",,"N","Limited Partnership","","12","DE","United States","N"
1999113,"TZP FUND MANAGER III, L.P.","TZP FUND MANAGER III, L.P.",293262,2396,"Y","","","","","","","","212-398-0300","","N","","","","","","","N","MONFRI","","9:00 AM - 5:00 PM","","N","N","N","Y","N","N","N","",,"N","Limited Partnership","","12","DE","United States","N"
1999113,"TZP SMALL CAP FUND MANAGER I, L.P.","TZP SMALL CAP FUND MANAGER I, L.P.",293263,2397,"Y","","","","","","","","212-398-0300","","N","","","","","","","N","MONFRI","","9:00 AM - 5:00 PM","","N","N","N","Y","N","N","N","",,"N","Limited Partnership","","12","DE","United States","N"
1999113,"TZP SMALL CAP FUND MANAGER II, L.P.","TZP SMALL CAP FUND MANAGER II, L.P.",301805,6246,"Y","","","","","","","","212-398-0300","","N","","","","","","","N","MONFRI","","9:00 AM - 5:00 PM","","N","N","N","Y","N","N","N","",,"N","Limited Partnership","","12","DE","United States","N"
1999113,"TZP GROUP INVESTMENTS MANAGER, L.P.","TZP GROUP INVESTMENTS MANAGER, L.P.",306085,6711,"Y","","","","","","","","212-398-0300","","N","","","","","","","N","MONFRI","","9:00AM - 5:00PM","","N","N","N","Y","N","N","N","",,"N","Limited Partnership","","12","DE","United States","N"
1999113,"TZP FUND MANAGER IV, L.P.","TZP FUND MANAGER IV, L.P.",160910,11038,"Y","","","","","","","","212-398-0300","","N","","","","","","","N","MONFRI","","9:00 AM - 5:00 PM","","N","N","N","Y","N","N","N","",,"N","Limited Partnership","","12","DE","United States","N"
1999113,"TZP SBIC FUND MANAGER I, L.P.","TZP SBIC FUND MANAGER I, L.P.",330884,11447,"Y","","","","","","","","212-398-2395","","Y","","","","","","","","MONFRI","","9:00 AM - 5:00 PM","","N","N","N","Y","N","N","N","",,"N","Limited Partnership","","12","DE","United States","N"
1997048,"PCM FUTURE ADVISOR, LLC","PCM FUTURE ADVISOR, LLC",323943,12725,"Y","","","","","","","","440-528-0333","440-528-0334","Y","","","","","","","","MONFRI","","8:30 A.M. - 4:00 P.M.","","N","N","N","Y","N","N","N","",,"N","Limited Liability Company","","12","DE","United States","Y"
1996283,"CORNER VENTURE PARTNERS LLC","CORNER VENTURE PARTNERS LLC",300723,9072,"N","251 LYTTON AVE","SUITE 200","PALO ALTO","CA","United States","94301","N","650-543-8180","650-328-2921","Y","","","","","","","","MONFRI","","9-5","","Y","N","N","N","N","N","N","",,"N","Limited Liability Company","","12","DE","United States","N"
1999018,"","VISTRIA REAL ESTATE MANAGEMENT COMPANY, LP",337621,12797,"N","175 GREENWICH STREET","68TH FLOOR","NEW YORK","NY","United States","10007","N","312-626-1100","312-453-1651","N","175 GREENWICH STREET","68TH FLOOR","NEW YORK","NY","United States","10007","N","MONFRI","","8AM TO 5-M","","Y","N","N","N","N","N","N","",,"N","Limited Partnership","","12","DE","United States","N"
1998726,"LYNX1 CAPITAL ADVISORS LLC","LYNX1 CAPITAL ADVISORS LLC",317017,10328,"N","151 CALLE DE SAN FRANCISCO","SUITE 200 PMB 1237","SAN JUAN","PR","United States","00901","N","929-888-7476","","N","","","","","","","N","MONFRI","","9:00 AM - 5:00 PM","","Y","N","N","N","N","N","N","",,"N","Limited Liability Company","","12","PR","United States","N"
1997267,"MOTIVE UK ADVISORS, LLP","MOTIVE UK ADVISORS, LLP",292688,6416,"N","THE COLUMBUS BUILDING, 7 WESTFERRY CIRCUS","CANARY WHARF","LONDON","","United Kingdom","E14 4HB","N","+442037616133","","N","THE COLUMBUS BUILDING, 7 WESTFERRY CIRCUS","CANARY WHARF","LONDON","","United Kingdom","E14 4HB","N","MONFRI","","9-5","","N","N","Y","N","N","N","N","",,"N","Limited Liability Partnership","","12","","United Kingdom","N"
1997267,"MOTIVE VENTURES","MOTIVE VENTURES MANAGEMENT GMBH",325748,10357,"N","KURFÜRSTENDAMM 185","","BERLIN","","Germany","10707","N","+491778181044","","N","","","","","","","N","MONFRI","","9:00 AM - 5:00 PM","","N","N","Y","N","N","N","N","",,"N","Other (specify)","GMBH","12","","Germany","N"
1997267,"MOTIVE VENTURES","MOTIVE VENTURES, B.V.",329388,11179,"N","","","","","","","Y","+31612717157","","Y","","","","","","","","MONFRI","","9 - 5","","N","N","Y","N","N","N","N","",,"N","Other (specify)","B.V.","12","","Netherlands","N"
1982486,"L SQUARED CAPITAL MANAGEMENT LLC","L SQUARED CAPITAL MANAGEMENT LLC",293248,2388,"Y","","","","","","","","949-398-0168","","Y","","","","","","","","MONFRI","","8AM - 5PM","","Y","N","N","N","N","N","N","",,"N","Limited Liability Company","","12","DE","United States","N"
1982486,"FINELINE CV GP LLC","FINELINE CV GP LLC",335940,12478,"Y","","","","","","","","949-398-0168","","Y","","","","","","","","MONFRI","","8AM - 5PM","","Y","N","N","N","N","N","N","",,"N","Limited Liability Company","","12","DE","United States","N"
1992359,"","BLUE OWL REAL ESTATE DEBT ADVISORS LLC",331939,11712,"N","2 OVERHILL ROAD","SUITE 215","SCARSDALE","NY","United States","10583","N","(212) 419-3000","","N","","","","","","","N","MONFRI","","9:00AM-5:00PM","254900TN98BKRKVJ9P44","Y","N","N","N","N","N","N","",,"N","Limited Liability Company","","12","DE","United States","N"
1992359,"","BLUE OWL DIGITAL INFRASTRUCTURE ADVISORS LLC",334466,12176,"Y","","","","","","","","(212) 419-3000","","N","","","","","","","N","MONFRI","","9:00 AM -5:00PM","","Y","N","N","Y","N","N","N","",,"N","Limited Liability Company","","12","DE","United States","N"
1992359,"","BLUE OWL REAL ASSETS ADVISORS LLC",336832,12745,"Y","","","","","","","","(212) 419-3000","","N","","","","","","","N","MONFRI","","9:00AM-5:00PM","","N","N","N","Y","N","N","N","",,"N","Limited Liability Company","","12","DE","United States","N"
1998162,"HILLCREST FINANCE, HILLCREST","HILLCREST FINANCE LLC",156653,8114,"Y","","","","","","","","646-889-2505","","Y","","","","","","","","MONFRI","","8:00AM-6:00PM","","N","N","N","Y","N","N","N","",,"N","Limited Liability Company","","12","DE","United States","N"
1998162,"HILLCREST FINANCE","HILLCREST EQT MANAGER LLC",314062,8429,"Y","","","","","","","","646-889-2505","","Y","","","","","","","","MONFRI","","8:00AM-6:00PM","","N","N","N","Y","N","N","N","",,"N","Limited Liability Company","","12","DE","United States","N"
1998162,"HILLCREST ENHANCED YIELD & INCOME FUND I MANAGER, LLC","HILLCREST ENHANCED YIELD & INCOME FUND I MANAGER, LLC",319402,9341,"Y","","","","","","","","646-889-2505","","N","","","","","","","N","MONFRI","","8:00-6:00 PM","","N","N","N","Y","N","N","N","",,"N","Limited Liability Company","","12","DE","United States","N"
2000400,"","RESOURCE CAPITAL FUNDS MANAGEMENT PTY LTD",328141,11009,"N","24 KINGS PARK ROAD","LEVEL 1","WEST PERTH","","Australia","6005","N","+61 8 9476 1900","","N","","","","","","","N","MONFRI","","9AM-5PM","","N","N","N","Y","N","N","N","",,"N","Other (specify)","PROPRIETARY COMPANY","12","","Australia","N"
2000400,"","RCF MANAGEMENT (TORONTO) INC.",328142,11010,"N","25 YORK STREET","SUITE 610","TORONTO","","Canada","M5J 2V5","N","+1 647 726 0640","","N","","","","","","","N","MONFRI","","9AM-5PM","","N","N","N","Y","N","N","N","",,"N","Corporation","","12","","Canada","N"
2000400,"","RCF MANAGEMENT (CHILE) SPA",328144,11012,"N","NUEVA COSTANERA 4040","#31","VITACURA SANTIAGO","","Chile","7630000","N","+1 647 726 0640","","N","","","","","","","N","MONFRI","","9AM-5PM","","N","N","N","Y","N","N","N","",,"N","Other (specify)","CHILEAN SPA","12","","Chile","N"
2000400,"","RCF MANAGEMENT (UK) LTD",328148,11015,"N","22A ST JAMES'S SQUARE","","LONDON","","United Kingdom","SW1Y 4JH","N","+44 20 8132 7672","","N","","","","","","","N","MONFRI","","9AM-5PM","","N","N","N","Y","N","N","N","",,"N","Other (specify)","PRIVATE LIMITED COMPANY","12","","United Kingdom","N"
1996628,"OMNI BRIDGEWAY (CAYMAN) LIMITED","OMNI BRIDGEWAY (CAYMAN) LIMITED",315801,8827,"Y","","","","","","","","214-488-5331","","Y","","","","","","","","MONFRI","","9 AM - 6 PM","","Y","N","N","Y","N","N","N","",,"N","Other (specify)","CAYMAN LIMITED","12","","Cayman Islands","N"
1996316,"ARA ADVISERS II, LLC","ARA ADVISERS II, LLC",330877,11441,"N","4201 MAIN STREET","SUITE 370","HOUSTON","TX","United States","77002","N","(713) 337-9150","","N","","","","","","","N","MONFRI","","9-5","","Y","N","N","Y","N","N","N","",,"N","Limited Liability Company","","12","DE","United States","N"
1998508,"ROOM40 MANAGEMENT, LLC","ROOM40 MANAGEMENT, LLC",299241,12795,"Y","","","","","","","","646-690-2810","","N","","","","","","","N","MONFRI","","9:00 AM - 5:00 PM (ET)","","N","N","N","Y","N","N","N","",,"N","Limited Liability Company","","12","DE","United States","N"
1998508,"ROOM40 BERMUDA LLC","ROOM40 BERMUDA LLC",337616,12796,"N","","","","","","","Y","646-690-2810","","N","","","","","","","N","MONFRI","","9:00 AM - 5:00 PM ET","","N","N","Y","N","N","N","N","",,"N","Limited Liability Company","","12","","Bermuda","N"
1996685,"THE RISE FUND MANAGEMENT, LLC","THE RISE FUND MANAGEMENT, LLC",293766,2728,"Y","","","","","","","","817-871-4000","817-871-4001","Y","","","","","","","","MONFRI","","8:30 A.M. - 5:30 P.M.","81-3365780","Y","N","N","N","N","N","N","",,"N","Limited Liability Company","","12","DE","United States","N"
1996685,"TPG ART MANAGEMENT, LLC","TPG ART MANAGEMENT, LLC",295728,4314,"Y","","","","","","","","817-871-4000","817-871-4001","Y","","","","","","","","MONFRI","","8:30 A.M. - 5:30 P.M.","45-5334427","Y","N","N","N","N","N","N","",,"N","Limited Liability Company","","12","DE","United States","N"
1996685,"TPG ASIA VI MANAGEMENT, LLC","TPG ASIA VI MANAGEMENT, LLC",295729,4315,"Y","","","","","","","","817-871-4000","817-871-4001","Y","","","","","","","","MONFRI","","8:30 A.M. - 5:30 P.M.","45-4925474","Y","N","N","N","N","N","N","",,"N","Limited Liability Company","","12","DE","United States","N"
1996685,"TPG ASIA VII MANAGEMENT, LLC","TPG ASIA VII MANAGEMENT, LLC",295731,4317,"Y","","","","","","","","817-871-4000","817-871-4001","Y","","","","","","","","MONFRI","","8:30 A.M. - 5:30 P.M.","81-4793021","Y","N","N","N","N","N","N","",,"N","Limited Liability Company","","12","DE","United States","N"
1996685,"TPG BIOTECHNOLOGY IV MANAGEMENT, LLC","TPG BIOTECHNOLOGY IV MANAGEMENT, LLC",295732,4318,"Y","","","","","","","","817-871-4000","817-871-4001","Y","","","","","","","","MONFRI","","8:30 A.M. - 5:30 P.M.","45-0569498","Y","N","N","N","N","N","N","",,"N","Limited Liability Company","","12","DE","United States","N"
1996685,"TPG BIOTECHNOLOGY V MANAGEMENT, LLC","TPG BIOTECHNOLOGY V MANAGEMENT, LLC",295733,4319,"Y","","","","","","","","817-871-4000","817-871-4001","Y","","","","","","","","MONFRI","","8:30 A.M. - 5:30 P.M.","81-2847779","Y","N","N","N","N","N","N","",,"N","Limited Liability Company","","12","DE","United States","N"
1996685,"TPG CAPITAL MANAGEMENT, L.P.","TPG CAPITAL MANAGEMENT, L.P.",295734,4320,"Y","","","","","","","","817-871-4000","817-871-4001","Y","","","","","","","","MONFRI","","8:30 A.M. - 5:30 P.M.","20-5927066","Y","N","N","N","N","N","N","",,"N","Limited Partnership","","12","TX","United States","N"
1996685,"TPG CAPITAL MANAGEMENT, LLC","TPG CAPITAL MANAGEMENT, LLC",295740,4326,"Y","","","","","","","","817-871-4000","817-871-4001","Y","","","","","","","","MONFRI","","8:30 A.M. - 5:30 P.M.","45-3848446","Y","N","N","N","N","N","N","",,"N","Limited Liability Company","","12","DE","United States","N"
1996685,"TPG DASA MANAGEMENT, LLC","TPG DASA MANAGEMENT, LLC",295742,4328,"Y","","","","","","","","817-871-4000","817-871-4001","Y","","","","","","","","MONFRI","","8:30 A.M. - 5:30 P.M.","45-4860246","Y","N","N","N","N","N","N","",,"N","Limited Liability Company","","12","DE","United States","N"
1996685,"TPG DIGITAL MEDIA MANAGEMENT, LLC","TPG DIGITAL MEDIA MANAGEMENT, LLC",295745,4331,"Y","","","","","","","","817-871-4000","817-871-4001","Y","","","","","","","","MONFRI","","8:30 A.M. - 5:30 P.M.","82-1842118","Y","N","N","N","N","N","N","",,"N","Limited Liability Company","","12","DE","United States","N"
1996685,"TPG ENERGY SOLUTIONS MANAGEMENT, LLC","TPG ENERGY SOLUTIONS MANAGEMENT, LLC",295746,4332,"Y","","","","","","","","817-871-4000","817-871-4001","Y","","","","","","","","MONFRI","","8:30 A.M. - 5:30 P.M.","81-3522215","Y","N","N","N","N","N","N","",,"N","Limited Liability Company","","12","DE","United States","N"
1996685,"TPG GROWTH II MANAGEMENT, LLC","TPG GROWTH II MANAGEMENT, LLC",295747,4333,"Y","","","","","","","","817-871-4000","817-871-4001","Y","","","","","","","","MONFRI","","8:30 A.M. - 5:30 P.M.","45-2842847","Y","N","N","N","N","N","N","",,"N","Limited Liability Company","","12","DE","United States","N"
1996685,"TPG GROWTH III MANAGEMENT, LLC","TPG GROWTH III MANAGEMENT, LLC",295748,4334,"Y","","","","","","","","817-871-4000","817-871-4001","Y","","","","","","","","MONFRI","","8:30 A.M. - 5:30 P.M.","47-2059336","Y","N","N","N","N","N","N","",,"N","Limited Liability Company","","12","DE","United States","N"
1996685,"TPG GROWTH IV MANAGEMENT, LLC","TPG GROWTH IV MANAGEMENT, LLC",295749,4335,"Y","","","","","","","","817-871-4000","817-871-4001","Y","","","","","","","","MONFRI","","8:30 A.M. - 5:30 P.M.","82-1915648","Y","N","N","N","N","N","N","",,"N","Limited Liability Company","","12","DE","United States","N"
1996685,"TPG RMB MANAGEMENT, LLC","TPG RMB MANAGEMENT, LLC",295758,4344,"Y","","","","","","","","817-871-4000","817-871-4001","Y","","","","","","","","MONFRI","","8:30 A.M. - 5:30 P.M.","45-3847123","Y","N","N","N","N","N","N","",,"N","Limited Liability Company","","12","DE","United States","N"
1996685,"TPG VI MANAGEMENT, LLC","TPG VI MANAGEMENT, LLC",295759,4345,"Y","","","","","","","","817-871-4000","817-871-4001","Y","","","","","","","","MONFRI","","8:30 A.M. - 5:30 P.M.","45-3846799","Y","N","N","N","N","N","N","",,"N","Limited Liability Company","","12","DE","United States","N"
1996685,"TPG VII MANAGEMENT, LLC","TPG VII MANAGEMENT, LLC",295760,4346,"Y","","","","","","","","817-871-4000","817-871-4001","Y","","","","","","","","MONFRI","","8:30 A.M. - 5:30 P.M.","46-3180847","Y","N","N","N","N","N","N","",,"N","Limited Liability Company","","12","DE","United States","N"
1996685,"TSI MANAGEMENT, LLC","TSI MANAGEMENT, LLC",295761,4347,"Y","","","","","","","","817-871-4000","817-871-4001","Y","","","","","","","","MONFRI","","8:30 A.M. - 5:30 P.M.","81-4066788","Y","N","N","N","N","N","N","",,"N","Limited Liability Company","","12","DE","United States","N"
1996685,"TPG VIII MANAGEMENT, LLC","TPG VIII MANAGEMENT, LLC",295762,4348,"Y","","","","","","","","817-871-4000","817-871-4001","Y","","","","","","","","MONFRI","","8:30 A.M. - 5:30 P.M.","82-4959805","Y","N","N","N","N","N","N","",,"N","Limited Liability Company","","12","DE","United States","N"
1996685,"TPG TECH ADJACENCIES MANAGEMENT, LLC","TPG TECH ADJACENCIES MANAGEMENT, LLC",295763,4349,"Y","","","","","","","","817-871-4000","817-871-4001","Y","","","","","","","","MONFRI","","8:30 A.M. - 5:30 P.M.","82-4675861","Y","N","N","N","N","N","N","",,"N","Limited Liability Company","","12","DE","United States","N"
1996685,"TPG HEALTHCARE PARTNERS MANAGEMENT, LLC","TPG HEALTHCARE PARTNERS MANAGEMENT, LLC",295764,4350,"Y","","","","","","","","817-871-4000","817-871-4001","Y","","","","","","","","MONFRI","","8:30 A.M. - 5:30 P.M.","82-4959974","Y","N","N","N","N","N","N","",,"N","Limited Liability Company","","12","DE","United States","N"
1996685,"THE RISE FUND II MANAGEMENT, LLC","THE RISE FUND II MANAGEMENT, LLC",299556,5622,"Y","","","","","","","","817-871-4000","817-871-4001","Y","","","","","","","","MONFRI","","8:30 A.M. - 5:30 P.M.","83-2276748","Y","N","N","N","N","N","N","",,"N","Limited Liability Company","","12","DE","United States","N"
1996685,"EVERCARE HEALTH FUND MANAGEMENT, LLC","EVERCARE HEALTH FUND MANAGEMENT, LLC",304377,6421,"Y","","","","","","","","817-871-4000","817-871-4001","Y","","","","","","","","MONFRI","","8:30 A.M. - 5:30 P.M.","83-3413760","Y","N","N","N","N","N","N","",,"N","Limited Liability Company","","12","DE","United States","N"
1996685,"TPG GROWTH II GATOR MANAGEMENT, LLC","TPG GROWTH II GATOR MANAGEMENT, LLC",306728,6803,"Y","","","","","","","","817-871-4000","817-871-4001","Y","","","","","","","","MONFRI","","8:30 A.M. - 5:30 P.M.","84-2925580","Y","N","N","N","N","N","N","",,"N","Limited Liability Company","","12","DE","United States","N"
1996685,"TPG STRATEGIC CAPITAL MANAGEMENT, LLC","TPG STRATEGIC CAPITAL MANAGEMENT, LLC",308419,7219,"Y","","","","","","","","817-871-4000","817-871-4001","Y","","","","","","","","MONFRI","","8:30 A.M. - 5:30 P.M.","84-4528480","Y","N","N","N","N","N","N","",,"N","Limited Liability Company","","12","DE","United States","N"
1996685,"TPG GROWTH V MANAGEMENT, LLC","TPG GROWTH V MANAGEMENT, LLC",309124,7594,"Y","","","","","","","","817-871-4000","817-871-4001","Y","","","","","","","","MONFRI","","8:30 A.M. - 5:30 P.M.","85-0697931","Y","N","N","N","N","N","N","",,"N","Limited Liability Company","","12","DE","United States","N"
1996685,"TPG MMI MANAGEMENT, LLC","TPG MMI MANAGEMENT, LLC",310853,7820,"Y","","","","","","","","817-871-4000","817-871-4001","Y","","","","","","","","MONFRI","","8:30 A.M. - 5:30 P.M.","85-2720088","Y","N","N","N","N","N","N","",,"N","Limited Liability Company","","12","DE","United States","N"
1996685,"TPG TECH ADJACENCIES II MANAGEMENT, LLC","TPG TECH ADJACENCIES II MANAGEMENT, LLC",314106,8451,"Y","","","","","","","","817-871-4000","817-871-4001","Y","","","","","","","","MONFRI","","8:30 A.M. - 5:30 P.M.","86-1727967","Y","N","N","N","N","N","N","",,"N","Limited Liability Company","","12","DE","United States","N"
1996685,"TPG RISE CLIMATE MANAGEMENT, LLC","TPG RISE CLIMATE MANAGEMENT, LLC",314136,8462,"Y","","","","","","","","817-871-4000","817-871-4001","Y","","","","","","","","MONFRI","","8:30 A.M. - 5:30 P.M.","86-2718550","Y","N","N","N","N","N","N","",,"N","Limited Liability Company","","12","DE","United States","N"
1996685,"TPG AAF PARTNERS MANAGEMENT, LLC","TPG AAF PARTNERS MANAGEMENT, LLC",314182,8491,"Y","","","","","","","","817-871-4000","817-871-4001","Y","","","","","","","","MONFRI","","8:30 A.M. - 5:30 P.M.","86-2939831","Y","N","N","N","N","N","N","",,"N","Limited Liability Company","","12","DE","United States","N"
1996685,"TPG ASIA VIII MANAGEMENT, LLC","TPG ASIA VIII MANAGEMENT, LLC",317793,9105,"Y","","","","","","","","817-871-4000","817-871-4001","Y","","","","","","","","MONFRI","","8:30 A.M. - 5:30 P.M.","87-3007833","Y","N","N","N","N","N","N","",,"N","Limited Liability Company","","12","DE","United States","N"
1996685,"TPG IX MANAGEMENT, LLC","TPG IX MANAGEMENT, LLC",318552,9206,"Y","","","","","","","","817-871-4000","817-871-4001","Y","","","","","","","","MONFRI","","8:30 A.M. - 5:30 P.M.","87-3894851","Y","N","N","N","N","N","N","",,"N","Limited Liability Company","","12","DE","United States","N"
1996685,"THE RISE FUND III MANAGEMENT, LLC","THE RISE FUND III MANAGEMENT, LLC",318553,9207,"Y","","","","","","","","817-871-4000","817-871-4001","Y","","","","","","","","MONFRI","","8:30 A.M. - 5:30 P.M.","87-4244799","Y","N","N","N","N","N","N","",,"N","Limited Liability Company","","12","DE","United States","N"
1996685,"TPG HEALTHCARE PARTNERS II MANAGEMENT, LLC","TPG HEALTHCARE PARTNERS II MANAGEMENT, LLC",318554,9208,"Y","","","","","","","","817-871-4000","817-871-4001","Y","","","","","","","","MONFRI","","8:30 A.M. - 5:30 P.M.","87-3896669","Y","N","N","N","N","N","N","",,"N","Limited Liability Company","","12","DE","United States","N"
1996685,"TPG AION MANAGEMENT, LLC","TPG AION MANAGEMENT, LLC",319300,9323,"Y","","","","","","","","817-871-4000","817-871-4001","Y","","","","","","","","MONFRI","","8:30 A.M. - 5:30 P.M.","86-1347806","Y","N","N","N","N","N","N","",,"N","Limited Liability Company","","12","DE","United States","N"
1996685,"TPG TIGER MANAGEMENT, LLC","TPG TIGER MANAGEMENT, LLC",322586,9867,"Y","","","","","","","","817-871-4000","817-871-4001","Y","","","","","","","","MONFRI","","8:30 A.M. - 5:30 P.M.","88-2860837","Y","N","N","N","N","N","N","",,"N","Limited Liability Company","","12","DE","United States","N"
1996685,"TPG LSI MANAGEMENT, LLC","TPG LSI MANAGEMENT, LLC",324070,10041,"Y","","","","","","","","817-871-4000","817-871-4001","Y","","","","","","","","MONFRI","","8:30 A.M. - 5:30 P.M.","88-3416196","Y","N","N","N","N","N","N","",,"N","Limited Liability Company","","12","DE","United States","N"
1996685,"TPG TIGER MANAGEMENT 2, LLC","TPG TIGER MANAGEMENT 2, LLC",324469,10082,"Y","","","","","","","","817-871-4000","817-871-4001","Y","","","","","","","","MONFRI","","8:30 A.M. - 5:30 P.M.","88-4169954","Y","N","N","N","N","N","N","",,"N","Limited Liability Company","","12","DE","United States","N"
1996685,"TPG GROWTH VI MANAGEMENT, LLC","TPG GROWTH VI MANAGEMENT, LLC",327120,10832,"Y","","","","","","","","817-871-4000","817-871-4001","Y","","","","","","","","MONFRI","","8:30 A.M. - 5:30 P.M.","92-3679582","Y","N","N","N","N","N","N","",,"N","Limited Liability Company","","12","DE","United States","N"
1996685,"TPG RISE CLIMATE TRANSITION INFRASTRUCTURE MANAGEMENT, LLC","TPG RISE CLIMATE TRANSITION INFRASTRUCTURE MANAGEMENT, LLC",328694,11081,"Y","","","","","","","","817-871-4000","817-871-4001","Y","","","","","","","","MONFRI","","8:30 A.M. - 5:30 P.M.","93-3668548","Y","N","N","N","N","N","N","",,"N","Limited Liability Company","","12","DE","United States","N"
1996685,"TPG RISE CLIMATE II MANAGEMENT, LLC","TPG RISE CLIMATE II MANAGEMENT, LLC",329649,11217,"Y","","","","","","","","817-871-4000","817-871-4001","Y","","","","","","","","MONFRI","","8:30 A.M. - 5:30 P.M.","93-4642509","Y","N","N","N","N","N","N","",,"N","Limited Liability Company","","12","DE","United States","N"
1996685,"TPG RISE CLIMATE GLOBAL SOUTH INITIATIVE MANAGEMENT, LLC","TPG RISE CLIMATE GLOBAL SOUTH INITIATIVE MANAGEMENT, LLC",329650,11218,"Y","","","","","","","","817-871-4000","817-871-4001","Y","","","","","","","","MONFRI","","8:30 A.M. - 5:30 P.M.","93-4956400","Y","N","N","N","N","N","N","",,"N","Limited Liability Company","","12","DE","United States","N"
1996685,"TPG EMERGING COMPANIES ASIA MANAGEMENT, LLC","TPG EMERGING COMPANIES ASIA MANAGEMENT, LLC",331784,11677,"Y","","","","","","","","817-871-4000","817-871-4001","Y","","","","","","","","MONFRI","","8:30 A.M. - 5:30 P.M.","99-2839813","Y","N","N","N","N","N","N","",,"N","Limited Liability Company","","12","DE","United States","N"
1996685,"TPG RISE CLIMATE GSI FICO MANAGEMENT, LLC","TPG RISE CLIMATE GSI FICO MANAGEMENT, LLC",332758,11885,"Y","","","","","","","","817-871-4000","817-871-4001","Y","","","","","","","","MONFRI","","8:30 A.M. - 5:30 P.M.","","Y","N","N","N","N","N","N","",,"N","Limited Liability Company","","12","DE","United States","N"
1996685,"TPG X MANAGEMENT, LLC","TPG X MANAGEMENT, LLC",333788,12056,"Y","","","","","","","","817-871-4000","817-871-4001","Y","","","","","","","","MONFRI","","8:30 A.M. - 5:30 P.M.","","Y","N","N","N","N","N","N","",,"N","Limited Liability Company","","12","DE","United States","N"
1996685,"TPG TECH ADJACENCIES III MANAGEMENT, LLC","TPG TECH ADJACENCIES III MANAGEMENT, LLC",335248,12280,"Y","","","","","","","","817-871-4000","817-871-4001","Y","","","","","","","","MONFRI","","8:30 A.M. - 5:30 P.M.","","Y","N","N","N","N","N","N","",,"N","Limited Liability Company","","12","DE","United States","N"
1996685,"TPG HEALTHCARE PARTNERS III MANAGEMENT, LLC","TPG HEALTHCARE PARTNERS III MANAGEMENT, LLC",336170,12644,"Y","","","","","","","","817-871-4000","817-871-4001","Y","","","","","","","","MONFRI","","8:30 A.M. - 5:30 P.M.","","Y","N","N","N","N","N","N","",,"N","Limited Liability Company","","12","DE","United States","N"
1996685,"THE RISE FUND IV MANAGEMENT, LLC","THE RISE FUND IV MANAGEMENT, LLC",336175,12647,"Y","","","","","","","","817-871-4000","817-871-4001","Y","","","","","","","","MONFRI","","8:30 A.M. - 5:30 P.M.","","Y","N","N","N","N","N","N","",,"N","Limited Liability Company","","12","DE","United States","N"
1996685,"TPG SPORTS MANAGEMENT, LLC","TPG SPORTS MANAGEMENT, LLC",336724,12707,"Y","","","","","","","","817-871-4000","817-871-4001","Y","","","","","","","","MONFRI","","8:30 A.M. - 5:30 P.M.","","Y","N","N","N","N","N","N","",,"N","Limited Liability Company","","12","DE","United States","N"
1996685,"TPG ATLAS MANAGEMENT, LLC","TPG ATLAS MANAGEMENT, LLC",337473,12780,"Y","","","","","","","","817-871-4000","817-871-4001","Y","","","","","","","","MONFRI","","8:30 A.M. - 5:30 P.M.","","Y","N","N","N","N","N","N","",,"N","Limited Liability Company","","12","DE","United States","N"
2000414,"","NIMBLE PARTNERS, LLC",308071,7054,"Y","","","","","","","","415-321-4600","415-321-4620","Y","","","","","","","","MONFRI","","9 AM - 5 PM","","N","N","N","Y","N","N","N","",,"N","Limited Liability Company","","12","DE","United States","N"
1999472,"FF INT MANAGEMENT CORP","FF INT MANAGEMENT CORP",337664,12800,"Y","","","","","","","","209-265-8990","","Y","","","","","","","","MONFRI","","8:00 AM - 5:00 PM","","Y","N","N","Y","N","N","N","",,"N","Corporation","","12","","British Virgin Islands","N"
1999472,"SJM MANAGER, LP","SJM MANAGER, LP",337666,12801,"Y","","","","","","","","209-265-8990","","Y","","","","","","","","MONFRI","","8:00 AM - 5:00 PM","","N","N","N","Y","N","N","N","",,"N","Limited Partnership","","12","DE","United States","N"
1997556,"BLACKCHAMBER REAL ESTATE OPPORTUNITY FUND MANAGEMENT, LLC","BLACKCHAMBER REAL ESTATE OPPORTUNITY FUND MANAGEMENT, LLC",308634,7342,"Y","","","","","","","","2022744768","","N","","","","","","","N","MONFRI","","8:30AM - 5:30PM","","Y","N","N","N","N","N","N","",,"N","Limited Liability Company","","12","DE","United States","N"
1997556,"BLACKCHAMBER REAL ESTATE OPPORTUNITY FUND GP, LLC","BLACKCHAMBER REAL ESTATE OPPORTUNITY FUND GP, LLC",308635,7343,"Y","","","","","","","","202-274-4768","","N","","","","","","","N","MONFRI","","8:30AM - 5:30PM","","Y","N","N","N","N","N","N","",,"N","Limited Liability Company","","12","DE","United States","N"
1997556,"","BLACKCHAMBER REAL ESTATE OPPORTUNITY FUND II MANAGEMENT, LLC",326321,10649,"Y","","","","","","","","2022744768","","Y","","","","","","","","MONFRI","","8:30AM - 5:30PM","","Y","N","N","N","N","N","N","",,"N","Limited Liability Company","","12","DE","United States","N"
1997556,"","BLACKCHAMBER REAL ESTATE OPPORTUNITY FUND II GP, LLC",326322,10650,"Y","","","","","","","","202-274-4768","","Y","","","","","","","","MONFRI","","8:30AM - 5:30PM","","Y","N","N","N","N","N","N","",,"N","Limited Liability Company","","12","DE","United States","N"
1997907,"PCM FUTURE ADVISOR, LLC","PCM FUTURE ADVISOR, LLC",323943,12725,"Y","","","","","","","","440-528-0333","440-528-0334","Y","","","","","","","","MONFRI","","8:30 A.M. - 4:00 P.M.","","N","N","N","Y","N","N","N","",,"N","Limited Liability Company","","12","DE","United States","Y"
1997926,"PCM FUTURE ADVISOR, LLC","PCM FUTURE ADVISOR, LLC",323943,12725,"Y","","","","","","","","440-528-0333","440-528-0334","Y","","","","","","","","MONFRI","","8:30 A.M. - 4:00 P.M.","","N","N","N","Y","N","N","N","",,"N","Limited Liability Company","","12","DE","United States","N"
2000614,"","SOLAMERE MANAGEMENT, LLC",295498,4131,"N","712 FIFTH AVENUE","45TH FLOOR","NEW YORK","NY","United States","10019","N","857-362-9200","","Y","","","","","","","","MONFRI","","9:00 A.M. - 5:00 P.M.","","Y","N","N","N","N","N","N","",,"N","Limited Liability Company","","12","DE","United States","N"
2000614,"","SOLAMERE CAPITAL IM, LP",295506,4136,"Y","","","","","","","","857-362-9200","781-915-0746","Y","","","","","","","","MONFRI","","9:00 A.M. - 5:00 P.M.","","Y","N","N","N","N","N","N","",,"N","Limited Partnership","","12","DE","United States","N"
1987826,"","GALAXY VISION HILL ASSET MANAGEMENT LLC",315734,8815,"Y","","","","","","","","212-499-0081","","N","","","","","","","N","MONFRI","","9:00AM - 5:00PM","","Y","N","N","N","N","N","N","",,"N","Limited Liability Company","","12","DE","United States","N"
2000525,"SALUDA GRADE VENTURES LLC","SALUDA GRADE VENTURES LLC",309809,9842,"N","5 BRYANT PARK","FLOOR 23","NEW YORK","NY","United States","10018","N","16469748560","","Y","","","","","","","","MONFRI","","9AM-5PM","","N","N","N","Y","N","N","N","",,"N","Limited Liability Company","","12","DE","United States",""
1993494,"FWG CAPITAL, LLC","FWG CAPITAL, LLC",322701,9888,"Y","","","","","","","","407-999-8998","407-601-3308","N","","","","","","","N","MONFRI","","9:00AM - 5:00PM","","N","N","N","Y","N","N","N","",,"N","Limited Liability Company","","12","FL","United States",""
1994194,"","ELEMENTUM (BERMUDA) LTD.",292100,1817,"N","1 VICTORIA STREET","9TH FLOOR","HAMILTON","","Bermuda","HM11","N","441-294-1279","","N","","","","","","","N","MONFRI","","9:00AM - 5:00PM","","Y","N","N","N","N","N","N","",,"N","Other (specify)","BERMUDA EXEMPTED COMPANY","12","","Bermuda","N"
1997375,"BENTALLGREENOAK","BENTALLGREENOAK REAL ESTATE ADVISORS LP",293437,2505,"Y","","","","","","","","212-359-7800","212-359-7801","Y","","","","","","","","MONFRI","","9:00AM TO 6:00PM","","Y","N","N","N","N","N","N","",,"N","Limited Partnership","","12","DE","United States","N"
1997375,"BENTALLGREENOAK","BENTALLGREENOAK ADVISORS (UK) LLP",293438,2506,"N","7 SEYMOUR STREET","","LONDON","","United Kingdom","W1H 7JW","N","02078668800","","N","","","","","","","N","MONFRI","","9:00AM TO 6:00PM","","N","N","Y","N","N","N","N","",,"N","Limited Liability Partnership","","12","","United Kingdom","N"
1997375,"BENTALLGREENOAK","GREENOAK INVESTMENT MANAGEMENT K.K.",293444,2511,"N","AOYAMA BUILDING, 7TH FLOOR","","TOKYO","","Japan","","N","+81 3 6972 5908","","N","","","","","","","N","MONFRI","","9:00AM TO 6:00PM","","N","N","Y","N","N","N","N","",,"N","Other (specify)","KABUSHIKI KAISHA","12","","Japan","N"
1997375,"BENTALLGREENOAK","GREENOAK MC REAL ESTATE MANAGEMENT LLC",293445,2512,"Y","","","","","","","","212-359-7800","212-359-7801","Y","","","","","","","","MONFRI","","9:00AM TO 6:00PM","","N","N","N","Y","N","N","N","",,"N","Limited Liability Company","","12","DE","United States","N"
1997375,"BENTALLGREENOAK","GREENOAK EUROPE II GP, LP",307402,6904,"Y","","","","","","","","212-359-7800","212-359-7801","Y","","","","","","","","MONFRI","","9:00AM TO 6:00PM","","N","N","N","Y","N","N","N","",,"N","Limited Partnership","","12","","Cayman Islands","N"
1997375,"BENTALLGREENOAK","GREENOAK EUROPE III GP, LP",308637,7344,"Y","","","","","","","","212-359-7800","212-359-7801","Y","","","","","","","","MONFRI","","9:00AM TO 6:00PM","","N","N","N","Y","N","N","N","",,"N","Limited Partnership","","12","","Cayman Islands","N"
1997375,"BENTALLGREENOAK","GO EUROPE ADVISOR, LP",308850,7532,"Y","","","","","","","","(212) 359 7800","","N","","","","","","","N","MONFRI","","9:00AM TO 6:00PM","","N","N","N","Y","N","N","N","",,"N","Limited Partnership","","12","","Cayman Islands","N"
1997375,"BENTALLGREENOAK","GREENOAK REAL ESTATE ADVISORS (JERSEY) LIMITED",308881,7555,"N","IFC 5 ST","","HELIER","","Jersey","JE1 1ST","N","+44 (0) 1534 722787","","N","","","","","","","N","MONFRI","","9:00AM TO 6:00PM","","N","N","Y","N","N","N","N","",,"N","Limited Partnership","","12","","Jersey","N"
1997375,"BENTALLGREENOAK","GREENOAK ASIA ADVISOR LP",308890,7560,"Y","","","","","","","","1 (212) 359 7800","","N","","","","","","","N","MONFRI","","9:00AM TO 6:00PM","","N","N","N","Y","N","N","N","",,"N","Limited Partnership","","12","","Cayman Islands","N"
1998031,"","MREG FUND MANAGEMENT LLC",292431,1942,"Y","","","","","","","","212-484-0050","212-484-0019","N","","","","","","","N","MONFRI","","9:00 AM - 5:00 PM","","Y","N","N","N","N","N","N","",,"N","Limited Liability Company","","12","DE","United States","N"
1993948,"GOLDENTREE ASSET MANAGEMENT UK LLP","GOLDENTREE ASSET MANAGEMENT UK LLP",294741,3480,"N","33 DAVIES STREET","","LONDON","","United Kingdom","W1K 4BP","N","+442079258800","+442079258841","N","","","","","","","N","MONFRI","","9AM TO 5PM","5493004NQ5KX34LFJH21","N","N","Y","N","N","N","N","",,"N","Limited Liability Partnership","","12","","United Kingdom","N"
1993948,"GOLDENTREE ASSET MANAGEMENT SINGAPORE PTE LTD","GOLDENTREE ASSET MANAGEMENT SINGAPORE PTE LTD",294748,3486,"N","8 MARINA VIEW","ASIA SQUARE TOWER 1 #34-02A","SINGAPORE","","Singapore","018960","N","+65 6320 7050","","N","","","","","","","N","MONFRI","","9AM TO 5PM","","N","N","Y","N","N","N","N","",,"N","Corporation","","12","","Singapore","N"
1993948,"","GTAM IRISH CO, LIMITED",301266,5954,"N","THE OBSERVATORY","SIR JOHN ROGERSON QUAY","DUBLIN","","Ireland","","N","+353-1-477-3033","","N","","","","","","","N","MONFRI","","9AM TO 5PM","","N","N","Y","N","N","N","N","",,"N","Corporation","","12","","Ireland","N"
1993948,"","GOLDENTREE LOAN MANAGEMENT II, LP",306715,6798,"Y","","","","","","","","212-847-3500","212-847-3494","N","","","","","","","N","MONFRI","","9AM TO 5PM","549300Z9T59LUUPDSW67","N","N","N","Y","N","N","N","",,"N","Limited Partnership","","12","","Cayman Islands","N"
1993948,"GOLDENTREE LOAN MANAGEMENT, LP","GOLDENTREE LOAN MANAGEMENT LP",282858,8111,"Y","","","","","","","","212-847-3500","","N","","","","","","","N","MONFRI","","9:00AM - 5:00PM","549300LSXHXSUK41RE21","N","N","N","Y","N","N","N","",,"N","Limited Partnership","","12","","Cayman Islands","N"
1993948,"","GOLDENTREE LOAN MANAGEMENT III LP",323273,9944,"Y","","","","","","","","212-847-3500","212-847-3494","N","","","","","","","N","MONFRI","","9AM TO 5PM","","N","N","N","Y","N","N","N","",,"N","Limited Partnership","","12","","Cayman Islands","N"
1993948,"","GLM, LP",326713,10771,"Y","","","","","","","","212-847-3500","","N","","","","","","","N","MONFRI","","9:00AM - 5:00PM","","N","N","N","Y","N","N","N","",,"N","Limited Partnership","","12","","Jersey","N"
1993948,"","GLM II, LP",326714,10772,"Y","","","","","","","","212-847-3500","","N","","","","","","","N","MONFRI","","9:00AM - 5:00PM","","N","N","N","Y","N","N","N","",,"N","Limited Partnership","","12","","Jersey","N"
1993948,"","GLM III, LP",326715,10773,"Y","","","","","","","","212-847-3500","","N","","","","","","","N","MONFRI","","9:00AM - 5:00PM","","N","N","N","Y","N","N","N","",,"N","Limited Partnership","","12","","Jersey","N"
1994851,"PCM FUTURE ADVISOR, LLC","PCM FUTURE ADVISOR, LLC",323943,12725,"Y","","","","","","","","440-528-0333","440-528-0334","Y","","","","","","","","MONFRI","","8:30 A.M. - 4:00 P.M.","","N","N","N","Y","N","N","N","",,"N","Limited Liability Company","","12","DE","United States","Y"
1998318,"","10K LAKES CAPITAL, LLC",309533,7651,"Y","","","","","","","","952-641-0300","NONE","N","","","","","","","N","MONFRI","","7:30 AM TO 5:00 PM","","Y","N","N","N","N","N","N","",,"N","Limited Liability Company","","12","DE","United States","N"
1993267,"","CORTLAND PARTNERS FUND II MANAGER, LLC",299656,5637,"Y","","","","","","","","404-965-3988","","Y","","","","","","","","MONFRI","","9:00 AM - 5:00 PM","","N","N","N","Y","N","N","N","",,"N","Limited Liability Company","","12","GA","United States","N"
1993267,"","CORTLAND PARTNERS FUND III MANAGER, LLC",299661,5638,"Y","","","","","","","","404-965-3988","","Y","","","","","","","","MONFRI","","9:00 AM - 5:00 PM","","N","N","N","Y","N","N","N","",,"N","Limited Liability Company","","12","DE","United States","N"
1993267,"","CORTLAND PARTNERS FUND IV MANAGER, LLC",299662,5639,"Y","","","","","","","","404-965-3988","","Y","","","","","","","","MONFRI","","9:00 AM - 5:00 PM","","Y","N","N","Y","N","N","N","",,"N","Limited Liability Company","","12","DE","United States","N"
1996463,"IVY CREDIT OPPORTUNITIES, LLC","IVY CREDIT OPPORTUNITIES, LLC",337449,12776,"Y","","","","","","","","843-606-6014","","N","","","","","","","N","MONFRI","","9AM - 5PM","","Y","N","N","N","N","N","N","",,"N","Limited Liability Company","","12","DE","United States","N"
1990065,"AKKADIAN VENTURES, LLC","AKKADIAN VENTURES, LLC",309046,7589,"Y","","","","","","","","707-653-6892","","Y","","","","","","","","MONFRI","","8:30AM-5:30PM","","N","N","N","Y","N","N","N","",,"N","Limited Liability Company","","12","DE","United States","N"
1990065,"AKKADIAN VENTURES MANAGEMENT, LLC","AKKADIAN VENTURES MANAGEMENT, LLC",322124,9809,"Y","","","","","","","","707-653-6892","","Y","","","","","","","","MONFRI","","8:30AM-5:30PM","","N","N","N","Y","N","N","N","",,"N","Limited Liability Company","","12","DE","United States","N"
2000182,"","SP SMC CAPITAL LLC",292103,1818,"Y","","","","","","","","212 716-2000","212 716-2001","Y","","","","","","","","MONFRI","","8:30 A.M. - 5:30 P.M.","","Y","N","N","N","N","N","N","",,"N","Limited Liability Company","","12","DE","United States","N"
2000593,"","NIMBLE PARTNERS, LLC",308071,7054,"Y","","","","","","","","415-321-4600","415-321-4620","Y","","","","","","","","MONFRI","","9 AM - 5 PM","","N","N","N","Y","N","N","N","",,"N","Limited Liability Company","","12","DE","United States","N"
1998781,"GLOBAL ENERGY & POWER INFRASTRUCTURE ADVISORS, L.L.C.","GLOBAL ENERGY & POWER INFRASTRUCTURE ADVISORS, L.L.C.",295653,4251,"Y","","","","","","","","212-810-5300","","N","","","","","","","N","MONFRI","","7:30AM TO 7:30PM","","Y","N","N","N","N","N","N","",,"N","Limited Liability Company","","12","DE","United States","N"
1998781,"GLOBAL ENERGY & POWER INFRASTRUCTURE II ADVISORS, L.L.C","GLOBAL ENERGY & POWER INFRASTRUCTURE II ADVISORS, L.L.C",295654,4252,"Y","","","","","","","","212-810-5300","","N","","","","","","","N","MONFRI","","7:30AM TO 7:30PM","","Y","N","N","N","N","N","N","",,"N","Limited Liability Company","","12","DE","United States","N"
1996394,"LG OPERATING COMPANY, LLC","LG OPERATING COMPANY, LLC",285906,12777,"Y","","","","","","","","214-865-8082","N/A","Y","","","","","","","","MONFRI","","8:00- 5:00PM","","N","N","N","Y","N","N","N","",,"N","Limited Liability Company","","12","TX","United States","N"
2000201,"","STRUCTURAL CAPITAL MANAGEMENT COMPANY IV, LLC",320806,9567,"Y","","","","","","","","626-437-2771","","Y","","","","","","","","MONFRI","","9:00AM - 5:00PM","","N","N","N","Y","N","N","N","",,"N","Limited Liability Company","","12","DE","United States",""
2000201,"STRUCTURAL CAPITAL MANAGEMENT COMPANY, LP","STRUCTURAL CAPITAL MANAGEMENT COMPANY, LP",171987,12617,"Y","","","","","","","","626-437-2771","","Y","","","","","","","","MONFRI","","9:00AM - 5:00PM","","N","N","N","Y","N","N","N","",,"N","Limited Partnership","","12","DE","United States",""
1996890,"BAUM CAPITAL PARTNERS II, LLC","BAUM CAPITAL PARTNERS II, LLC",337633,12798,"Y","","","","","","","","816-283-5200","","Y","","","","","","","","MONFRI","","8:30 - 5:00","","N","N","N","Y","N","N","N","",,"N","Limited Liability Company","","12","DE","United States","N"
1996890,"BAUM CAPITAL PARTNERS, LLC","BAUM CAPITAL PARTNERS, LLC",337637,12799,"Y","","","","","","","","816-283-5200","","Y","","","","","","","","MONFRI","","8:30 - 5:00","","N","N","N","Y","N","N","N","",,"N","Limited Liability Company","","12","DE","United States","N"
1993951,"","ORG AZ GP LLC",301635,6142,"Y","","","","","","","","216-468-0055","216-468-0054","Y","","","","","","","","MONFRI","","8:00 A.M. - 5:00 P.M.","","N","N","N","Y","N","N","N","",,"N","Limited Liability Company","","12","OH","United States","N"
1993951,"","ORG AZ GP II, LLC",313877,8345,"Y","","","","","","","","216-468-0055","216-468-0054","Y","","","","","","","","MONFRI","","8:00 A.M. - 5:00 P.M.","","N","N","N","Y","N","N","N","",,"N","Limited Liability Company","","12","OH","United States","N"
1993951,"","ORG AZ GP III, LLC",332214,11769,"Y","","","","","","","","216-468-0055","216-468-0054","Y","","","","","","","","MONFRI","","8:00 A.M. - 5:00 P.M.","","N","N","N","Y","N","N","N","",,"N","Limited Liability Company","","12","OH","United States","N"
2000008,"SUN CAPITAL SECURITIES MANAGEMENT, LP","SUN CAPITAL SECURITIES MANAGEMENT, LP",294083,2937,"Y","","","","","","","","561-394-0550","561-394-0540","Y","","","","","","","","MONFRI","","9:00 AM - 5:OO PM","","Y","N","N","Y","N","N","N","",,"N","Limited Partnership","","12","","Cayman Islands","N"
2000008,"SUN CAPITAL ADVISORS VII-AIFM, LLC","SUN CAPITAL ADVISORS VII-AIFM, LLC",297157,5292,"Y","","","","","","","","561-394-0550","561-394-0540","Y","","","","","","","","MONFRI","","9:00 AM - 5:00 PM","","N","N","N","Y","N","N","N","",,"N","Limited Liability Company","","12","DE","United States","N"
2000008,"","SUN CAPITAL ADVISORS VIII-AIFM, LLC",314058,8425,"Y","","","","","","","","561-394-0550","561-394-0540","Y","","","","","","","","MONFRI","","9:00 AM - 5:00 PM","","N","N","N","Y","N","N","N","",,"N","Limited Liability Company","","12","DE","United States","N"
2000008,"HUMILIS MANAGEMENT, LLC","HUMILIS MANAGEMENT, LLC",320893,9611,"Y","","","","","","","","561-394-0550","561-394-0540","Y","","","","","","","","MONFRI","","9:00 AM - 5:OO PM","","N","N","N","Y","N","N","N","",,"N","Limited Liability Company","","12","DE","United States","N"
2000008,"","SUN CAPITAL PARTNERS STAR FUND MANAGEMENT, LLC",330763,11391,"Y","","","","","","","","561-394-0550","561-394-0540","Y","","","","","","","","MONFRI","","9:00 AM - 5:00 PM","","N","N","N","Y","N","N","N","",,"N","Limited Liability Company","","12","DE","United States",""
2000008,"","SUN CAPITAL STAR FUND ADVISORS AIFM, LLC",330935,11468,"Y","","","","","","","","561-394-0550","561-394-0540","Y","","","","","","","","MONFRI","","9:00 AM - 5:00 PM","","N","N","N","Y","N","N","N","",,"N","Limited Liability Company","","12","DE","United States",""
1995379,"","CERBERUS CAPITAL MANAGEMENT II, L.P.",291203,1485,"Y","","","","","","","","212-891-2100","","Y","","","","","","","","MONFRI","","9:00 A.M. - 6:00 P.M.","","Y","N","N","N","N","N","N","",,"N","Limited Partnership","","12","DE","United States","N"
1995379,"","CERBERUS BUSINESS FINANCE, LLC",291206,1486,"Y","","","","","","","","212-891-2100","","Y","","","","","","","","MONFRI","","9:00 A.M. - 6:00 P.M.","","Y","N","N","N","N","N","N","",,"N","Limited Liability Company","","12","DE","United States","N"
1995379,"","CERBERUS CALIFORNIA, LLC",291207,1487,"Y","","","","","","","","212-891-2100","","Y","","","","","","","","MONFRI","","9:00 A.M. - 6:00 P.M.","","Y","N","N","N","N","N","N","",,"N","Limited Liability Company","","12","DE","United States","N"
1995379,"","CERBERUS CAPITAL CHICAGO LLC",291208,1488,"Y","","","","","","","","212-891-2100","","Y","","","","","","","","MONFRI","","9:00 A.M. - 6:00 P.M.","","Y","N","N","N","N","N","N","",,"N","Limited Liability Company","","12","DE","United States","N"
1995379,"","CERBERUS GLOBAL INVESTMENT ADVISORS, LLC",291209,1489,"Y","","","","","","","","212-891-2100","","Y","","","","","","","","MONFRI","","9:00 A.M. - 6:00 P.M.","","Y","N","N","N","N","N","N","",,"N","Limited Liability Company","","12","DE","United States","N"
1995379,"","CERBERUS GLOBAL INVESTMENTS, LLC",291210,1490,"Y","","","","","","","","212-891-2100","","Y","","","","","","","","MONFRI","","9:00 A.M. - 6:00 P.M.","","Y","N","N","N","N","N","N","",,"N","Limited Liability Company","","12","DE","United States","N"
1995379,"","CERBERUS INSTITUTIONAL INTERNATIONAL MANAGEMENT COMPANY, LLC",291235,1503,"Y","","","","","","","","212-891-2100","","Y","","","","","","","","MONFRI","","9:00 A.M. - 6:00 P.M.","","Y","N","N","N","N","N","N","",,"N","Limited Liability Company","","12","DE","United States","N"
1995379,"","CERBERUS INSTITUTIONAL MANAGEMENT II, LLC",291236,1504,"Y","","","","","","","","212-891-2100","","Y","","","","","","","","MONFRI","","9:00 A.M. - 6:00 P.M.","","Y","N","N","N","N","N","N","",,"N","Limited Liability Company","","12","DE","United States","N"
1995379,"","CERBERUS OPERATIONS AND ADVISORY COMPANY, LLC",291237,1505,"Y","","","","","","","","212-891-2100","","Y","","","","","","","","MONFRI","","9:00 A.M. - 6:00 P.M.","","Y","N","N","N","N","N","N","",,"N","Limited Liability Company","","12","DE","United States","N"
1995379,"","CERBERUS REAL ESTATE CAPITAL MANAGEMENT, LLC",291240,1507,"Y","","","","","","","","212-891-2100","","Y","","","","","","","","MONFRI","","9:00 A.M. - 6:00 P.M.","","Y","N","N","N","N","N","N","",,"N","Limited Liability Company","","12","DE","United States","N"
1995379,"","PARTRIDGE HILL OVERSEAS MANAGEMENT, LLC",291245,1510,"Y","","","","","","","","212-891-2100","","Y","","","","","","","","MONFRI","","9:00 A.M. - 6:00 P.M.","","Y","N","N","N","N","N","N","",,"N","Limited Liability Company","","12","DE","United States","N"
1995379,"","PARTRIDGE HILL SPV MANAGEMENT, LLC",291246,1511,"Y","","","","","","","","212-891-2100","","Y","","","","","","","","MONFRI","","9:00 A.M. - 6:00 P.M.","","Y","N","N","N","N","N","N","",,"N","Limited Liability Company","","12","DE","United States","N"
1995379,"","CBF MANAGER, L.P.",296451,4971,"Y","","","","","","","","212-891-2100","","Y","","","","","","","","MONFRI","","9:00 A.M. - 6:00 P.M.","","Y","N","N","N","N","N","N","",,"N","Limited Partnership","","12","DE","United States","N"
1995379,"","CERBERUS ASIA PACIFIC ADVISORS LIMITED",296460,4979,"N","SUITES 2111-2114, 21ST FLOOR","TWO INTERNATIONAL FINANCE CENTRE NO. 8 FINANCE ST.","CENTRAL","","Hong Kong","","N","212-891-2100","","Y","","","","","","","","MONFRI","","9:00 A.M. - 6:00 P.M.","","Y","N","N","N","N","N","N","",,"N","Corporation","","12","","Hong Kong","N"
1995379,"","CERBERUS BEIJING ADVISORS LIMITED",296464,4981,"N","ROOM 1539, 15TH FLOOR, CHINA WORLD TOWER III","NO 1, JIANGUOMENWAI AVENUE","BEIJING","","China","100004","N","212-891-2100","","Y","","","","","","","","MONFRI","","9:00 A.M. - 6:00 P.M.","","Y","N","N","N","N","N","N","",,"N","Corporation","","12","","China","N"
1995379,"","CERBERUS DEUTSCHLAND BETEILIGUNGSBERATUNG GMBH",296466,4982,"N","EUROTHEUM, 20TH FLOOR","NEUE MAINZER STR 66-68","60311 FRANKFURT","","Germany","","N","212-891-2100","","Y","","","","","","","","MONFRI","","9:00 A.M. - 6:00 P.M.","","Y","N","N","N","N","N","N","",,"N","Limited Liability Company","","12","","Germany","N"
1995379,"","CERBERUS EUROPEAN CAPITAL ADVISORS, LLP",296501,5009,"N","5 SAVILE ROW","","LONDON","","United Kingdom","W1S 3PB","N","212-891-2100","","Y","","","","","","","","MONFRI","","9:00 A.M. - 6:00 P.M.","","Y","N","N","N","N","N","N","",,"N","Limited Liability Partnership","","12","","United Kingdom","N"
1995379,"","CERBERUS IBERIA ADVISORS, S.L.U.",296516,5018,"N","PASEO DE LA CASTELLANA 28","","MADRID","","Spain","28046","N","212-891-2100","","Y","","","","","","","","MONFRI","","9:00 A.M. - 6:00 P.M.","","Y","N","N","N","N","N","N","",,"N","Limited Liability Company","","12","","Spain","N"
1995379,"","CERBERUS JAPAN K.K.",296524,5024,"N","MARUNOUCHI MITSUI BUILDING, 3RD FLOOR","2-2-2, MARUNOUCHI, CHIYODA-KU","TOKYO","","Japan","100-0005","N","212-891-2100","","Y","","","","","","","","MONFRI","","9:00 A.M. - 6:00 P.M.","","Y","N","N","N","N","N","N","",,"N","Corporation","","12","","Japan","N"
1995379,"","CERBERUS OPERATIONS AND ADVISORY COMPANY UK LIMITED",296529,5029,"N","5 SAVILE ROW","","LONDON","","United Kingdom","W1S 3PB","N","212-891-2100","","Y","","","","","","","","MONFRI","","9:00 A.M. - 6:00 P.M.","","Y","N","N","N","N","N","N","",,"N","Corporation","","12","","United Kingdom","N"
1995379,"","CERBERUS ASIA PACIFIC ADVISORS II LIMITED",296545,5044,"N","SUITES 2111-2114, 21ST FLOOR","TWO INTERNATIONAL FINANCE CENTRE NO. 8 FINANCE ST.","CENTRAL","","Hong Kong","","N","212-891-2100","","Y","","","","","","","","MONFRI","","9:00 A.M. - 6:00 P.M.","","Y","N","N","N","N","N","N","",,"N","Corporation","","12","","Hong Kong","N"
1995379,"","CERBERUS CAPITAL MANAGEMENT III, LLC",298963,5546,"Y","","","","","","","","212-891-2100","","Y","","","","","","","","MONFRI","","9:00 A.M. - 6:00 P.M.","","Y","N","N","N","N","N","N","",,"N","Limited Liability Company","","12","DE","United States","N"
1995379,"","CERBERUS (SINGAPORE) PTE LTD.",299612,5632,"N","20 COLLYER QUAY","#17-05","SINGAPORE","","Singapore","049319","N","212-891-2100","","N","","","","","","","N","MONFRI","","9:00 A.M. - 6:00 P.M.","201200172R","Y","N","N","N","N","N","N","",,"N","Other (specify)","PRIVATE LIMITED COMPANY","12","","Singapore","N"
1995379,"","SGI GEORGIA LLC",299613,5633,"N","2 LEONIDZE STREET","","TBILISI","","Georgia/Gruzinskaya","0105","N","212-891-2100","","N","","","","","","","N","MONFRI","","9:00 A.M. - 6:00 P.M.","404412131","Y","N","N","N","N","N","N","",,"N","Limited Liability Company","","12","","Georgia/Gruzinskaya","N"
1995379,"","SCHULZE GLOBAL ETHIOPIA ADVISORS, LIMITED",299670,5641,"N","ONE NEXUS WAY","CAMANA BAY","GRAND CAYMAN","","Cayman Islands","KY1-9005","N","212-891-2100","","N","","","","","","","N","MONFRI","","8:30 A.M. - 5:00 P.M.","WK-268113","Y","N","N","N","N","N","N","",,"N","Other (specify)","LIMITED COMPANY","06","","Cayman Islands","N"
1995379,"","CERBERUS AUSTRALIA ADVISORS PTY LTD",308602,7315,"N","SUITE 44.04, LEVEL 44","GOVERNOR PHILLIP TOWER, 1 FARRER PLACE","SYDNEY, NSW","","Australia","2000","N","212-891-2100","","N","","","","","","","N","MONFRI","","9:00A.M - 6:00PM","","Y","N","N","N","N","N","N","",,"N","Other (specify)","PROPRIETARY COMPANY","06","","Australia","N"
1995379,"","CERBERUS CAPITAL SERVICES PRIVATE LIMITED",308605,7318,"N","54, 5TH FLOOR, 3 NORTH AVENUE","MAKER MAXITY, BANDRA KURLA COMPLEX, BANDRA (EAST)","MUMBAI","","India","400051","N","212-891-2100","","N","","","","","","","N","MONFRI","","9:00A.M - 6:00PM","","Y","N","N","N","N","N","N","",,"N","Other (specify)","LIMITED COMPANY","03","","India","N"
1995379,"","CERBERUS MIDDLE EAST MANAGEMENT LIMITED",308607,7320,"N","INDEX TOWER, FLOOR 10 UNIT 1007, HAPPINESS STREET","DUBAI INTERNATIONAL FINANCIAL CENTER","DUBAI","","United Arab Emirates","","N","212-891-2100","","N","","","","","","","N","MONFRI","","9:00A.M - 6:00PM","","Y","N","N","N","N","N","N","",,"N","Other (specify)","PRIVATE COMPANY","12","","United Arab Emirates","N"
1995379,"","CERBERUS CAPITAL FLORIDA LLC",314102,8447,"Y","","","","","","","","212-891-2100","","Y","","","","","","","","MONFRI","","9:00 A.M. - 6:00 P.M.","","Y","N","N","N","N","N","N","",,"N","Limited Liability Company","","12","DE","United States",""
1995379,"","CERBERUS PSL MANAGER, LLC",296536,8496,"Y","","","","","","","","212-891-2100","","N","","","","","","","N","MONFRI","","9:00 A.M. - 6:00 P.M.","","Y","N","N","N","N","N","N","",,"N","Limited Liability Company","","12","DE","United States","N"
1995379,"","CERBERUS SOUTH AMERICA INVESTMENTS, LLC",301800,9630,"N","875 THIRD AVENUE","","NEW YORK","NY","United States","10022","N","212-891-2100","","Y","","","","","","","","MONFRI","","9:00A.M. - 6:00 P.M.","","Y","N","N","N","N","N","N","",,"N","Limited Liability Company","","12","DE","United States","N"
1995379,"","SGI AFRICA LIMITED",299669,10714,"N","NISIR BUILDING - 2ND FLOOR, CAPE VERDE STREET,","BOLE KIFLE KETEMA, WOREDA 03, HOUSE NUMBER 084","ADDIS ABABA","","Ethiopia","","N","212-891-2100","","N","","","","","","","N","MONFRI","","9:00 A.M. - 6:00 P.M.","1524771","Y","N","N","N","N","N","N","",,"N","Other (specify)","LIMITED COMPANY","12","","British Virgin Islands","N"
1995379,"","SCHULZE GLOBAL MONGOLIA LLC",326427,10719,"N","CITY CENTER 601, ALTANGEREL STREET #5","SUKHBAATAR DISTRICT, 8TH KHOROO","ULAANBAATAR","","Mongolia","","N","212-891-2100","","N","","","","","","","N","MONFRI","","9:00 A.M. - 6:00 P.M.","","Y","N","N","N","N","N","N","",,"N","Limited Liability Company","","12","","Mongolia","N"
1995379,"","CERBERUS CAPITAL LUXEMBOURG S.À R.L.",330949,11473,"N","OKSIGEN BUILDING 1ST FLOOR","2 RUE EDWARD STEICHEN, L-2540","LUXEMBOURG","","Luxembourg","","N","212-891-2100","","Y","","","","","","","","MONFRI","","9:00AM - 6:00PM","","Y","N","N","N","N","N","N","",,"N","Corporation","","12","","Luxembourg","N"
1995379,"","CERBERUS GULF MANAGEMENT COMPANY LLC",330974,11493,"N","OFFICE NUMBER G1","OLAYA TOWERS","RIYADH","","Saudi Arabia","","N","212-891-2100","","Y","","","","","","","","MONFRI","","9:00AM - 6:00PM","","Y","N","N","N","N","N","N","",,"N","Limited Liability Company","","12","","Saudi Arabia","N"
1995379,"","CERBERUS OPERATIONS & ADVISORY COMPANY AUSTRALIA PTY LTD.",330975,11494,"N","SUITE 44.04, LEVEL 44","GOVERNOR PHILLIP TOWER, 1 FARRER PLACE","SYDNEY, NSW","","Australia","2000","N","212-891-2100","","Y","","","","","","","","MONFRI","","9:00AM - 6:00PM","","Y","N","N","N","N","N","N","",,"N","Limited Liability Company","","12","","Australia","N"
1995379,"","CERBERUS OPERATIONS AND ADVISORY COMPANY DEUTSCHLAND GMBH",330976,11495,"N","EUROTHEUM, 20TH FLOOR","NEUE MAINZER STR 66-68","60311 FRANKFURT","","Germany","","N","212-891-2100","","Y","","","","","","","","MONFRI","","9:00AM - 6:00PM","","Y","N","N","N","N","N","N","",,"N","Limited Liability Company","","12","","Germany","N"
1995379,"","CERBERUS SPECIAL SITUATIONS MANAGER, LLC",334214,12138,"Y","","","","","","","","212-891-2100","","Y","","","","","","","","MONFRI","","9:00 A.M. - 6:00 P.M.","","Y","N","N","N","N","N","N","",,"N","Limited Liability Company","","12","DE","United States","N"
