"FilingID","Accountant Name","Street 1","Street 2","City","State","Country","Postal Code","Registered PCAOB","PCAOB Number","PCAOB Inspection","Audit","Examination","Report","Unqualified Opinion"
1992487,"ASHLAND PARTNERS & COMPANY LLP","3512 EXCEL DRIVE","SUITE 103","MEDFORD","OR","United States","97504-8047","Y",3783,"Y","N","Y","N",""
1992562,"ASHLAND PARTNERS & COMPANY LLP","3512 EXCEL DRIVE","SUITE 103","MEDFORD","OR","United States","97504-8047","Y",3783,"Y","N","Y","N",""
1992460,"DELOITTE & TOUCHE LLP","100 SOUTH MILL AVENUE","SUITE 1800","TEMPE","AZ","United States","85281","Y",34,"Y","N","Y","N",""
1992377,"KPMG","550 SOUTH HOPE STREET","SUITE 1500","LOS ANGLES","CA","United States","90071","Y",185,"Y","Y","N","N","Yes"
1992664,"ASHLAND PARTNERS & COMPANY LLP","3512 EXCEL DR.","SUITE 103","MEDFORD","OR","United States","97504","Y",3783,"Y","Y","Y","N","Yes"
1992438,"ASHLAND PARTNERS","3512 EXCEL DRIVE, SUITE 103","","MEDFORD","OR","United States","97504","Y",3783,"Y","N","Y","N",""
1990361,"CBIZ CPAS P.C.","11440 TOMAHAWK CREEK PARKWAY","","LEAWOOD","KS","United States","66211","Y",199,"Y","N","Y","N",""
1992674,"DELOITTE","111 S WACKER DR","","CHICAGO","IL","United States","60606","Y",34,"Y","Y","N","N","Yes"
1992674,"COHEN & COMPANY, LTD.","151 N. FRANKLIN ST. STE 575, CHICAGO, IL 60606","","CHICAGO","IL","United States","60606","Y",925,"Y","Y","N","N","Not Yet Received"
1992709,"ERNST & YOUNG LLP","801 GRAND AVENUE","SUITE 3100","DES MOINES","IA","United States","50309-2764","Y",42,"Y","N","Y","Y","Yes"
1987728,"PRICEWATERHOUSECOOPERS LLP","214 NORTH TRYON STREET","SUITE 4200","CHARLOTTE","NC","United States","28202","Y",238,"Y","Y","N","N","Yes"
1990168,"ARMANINO LLP","6 CITY PLACE DRIVE","SUITE 900","ST. LOUIS","MO","United States","63141","Y",643,"Y","N","Y","N",""
1989251,"EISNERAMPER","750 THIRD AVENUE","","NEW YORK","NY","United States","10017","Y",274,"Y","Y","Y","N","Yes"
1992887,"WEAVER AND TIDWELL, LLP","12221 MERIT DRIVE","SUITE 1400","DALLAS","TX","United States","75251","Y",410,"Y","Y","N","N","Yes"
1993410,"PRICEWATERHOUSECOOPERS LLP","4100 CORPORATE CENTER DRIVE","SUITE 400","SPRINGDALE","AR","United States","72762","Y",238,"Y","N","Y","N",""
1993321,"PIPARA & CO LLP","#13, 13TH FLOOR, TRADELINK, A BLOCK, KAMLA MILLS","SENAPATI BAPAT MARG, LOWER PAREL,","MUMBAI, MAHARASHTRA","","India","400013","Y",6841,"Y","N","Y","N",""
1991611,"COHEN & COMPANY","1350 EUCLID AVENUE","SUITE 800","CLEVELAND","OH","United States","44115","Y",925,"Y","N","Y","N",""
1991686,"SPICER JEFFRIES LLP","4601 DTC BOULEVARD, SUITE 700","","DENVER","CO","United States","80237","Y",349,"Y","Y","Y","N","Yes"
1988331,"BDO USA, LLP","211 EAST WATER STREET","","KALAMAZOO","MI","United States","49007","Y",243,"Y","N","Y","N",""
1987687,"BDO LLP","55 BAKER STREET","","LONDON","","United Kingdom","W1U 7EU","Y",1295,"Y","Y","N","N","Yes"
1987687,"DELOITTE & TOUCHE LLP","111 S. WACKER DR.","SUITE 2100","CHICAGO","IL","United States","60606","Y",34,"Y","Y","N","N","Yes"
1976928,"ADKF","9601 MCALLISTER FWY","SUITE 800","SAN ANTONIO","TX","United States","78216","Y",297,"Y","N","Y","N",""
1976928,"HBK CPAS AND CONSULTANTS (HBK)","100 PINEWOOD LANE","SUITE 201","WARRENDALE","PA","United States","15086","Y",2206,"Y","N","Y","N",""
1981867,"LAVINE, LOFGREN, MORRIS & ENGELBERG","4180 LA JOLLA VILLAGE DRIVE","SUITE 300","LA JOLLA","CA","United States","92037","Y",3496,"Y","N","Y","N",""
1987790,"KPMG LLP","345 PARK AVENUE","","NEW YORK","NY","United States","10154","Y",185,"Y","Y","N","N","Not Yet Received"
1987317,"ERNST & YOUNG LLP","5 TIMES SQUARE","","NEW YORK CITY","NY","United States","10036","Y",42,"Y","Y","N","N","Yes"
1987317,"ERNST & YOUNG LTD","62 FORUM LANE","CAMANA BAY, P.O. BOX 510","GRAND CAYMAN","","Cayman Islands","KY1-1106","Y",42,"Y","Y","N","N","Yes"
1987317,"KPMG","P.O. BOX 493","SIX CRICKET SQUARE","GRAND CAYMAN","","Cayman Islands","KY1-1106","Y",1323,"Y","Y","N","N","Yes"
1986639,"FRAZIER & DEETER","1230 PEACHTREE STREET","SUITE 1500","ATLANTA","GA","United States","30309","Y",215,"Y","N","Y","N",""
1987893,"PRICEWATERHOUSECOOPERS LLP","214 NORTH TRYON STREET","SUITE 4200","CHARLOTTE","NC","United States","28202","Y",238,"Y","Y","N","N","Not Yet Received"
1988677,"DELOITTE & TOUCHE LLP","30 ROCKEFELLER CENTER","","NEW YORK","NY","United States","10112","Y",34,"Y","N","Y","Y","Yes"
1977481,"PRICEWATERHOUSECOOPERS LLP","300 MADISON AVENUE","","NEW YORK","NY","United States","10017","Y",238,"Y","Y","N","N","Yes"
1977481,"PRICEWATERHOUSECOOPERS","P.O. BOX 258","STRATHVALE HOUSE","GEORGE TOWN","","Cayman Islands","KY1-1104","Y",1266,"Y","Y","N","N","Yes"
1987277,"DEMARCO SCIACCOTTA WILKENS & DUNLEAVY, LLP","20646 ABBEY WOODS CT N","SUITE 201","FRANKFORT","IL","United States","60423","Y",5376,"Y","N","Y","N",""
1988731,"KPMG LLP","550 SOUTH HOPE STREET","SUITE 1500","LOS ANGELES","CA","United States","90071","Y",185,"Y","N","Y","N",""
1988713,"ERNST & YOUNG","725 S. FIGUEROA STREET","","LOS ANGELES","CA","United States","90017","Y",42,"Y","N","Y","Y","Not Yet Received"
1987843,"EISNERAMPER LLP","ONE CALIFORNIA STREET","SUITE 1700","SAN FRANCISCO","CA","United States","94111","Y",274,"Y","N","Y","N",""
1989338,"ASHLAND PARTNERS","3512 EXCEL DR","SUITE 103","MEDFORD","OR","United States","97504","Y",3783,"Y","N","Y","N",""
1988212,"GRAY, GRAY & GRAY, LLP","34 SOUTHWEST PARK","","CANTON","MA","United States","02090","Y",889,"Y","Y","N","N","Yes"
1988212,"FIONDELLA, MILONE & LASARACINA, LLP","300 WINDING BROOK DRIVE","","GLASTONBURY","CT","United States","06033","Y",2230,"Y","N","Y","N",""
1989339,"DELOITTE & TOUCHE LLP","555 SEVENTEENTH ST.","SUITE 3600","DENVER","CO","United States","80202-3942","Y",34,"Y","Y","Y","Y","Yes"
1988294,"KPMG LLP","100 NORTH TAMPA STREET","SUITE 1700","TAMPA","FL","United States","33602-5145","Y",185,"Y","N","Y","Y","Yes"
1986719,"KNIGHT, ROLLERI, SHEPPARD, CPAS LLP","1499 POST ROAD","","FAIRFIELD","CT","United States","06824","Y",3437,"Y","N","Y","N",""
1988380,"RW GROUP, LLC","400 OLD FORGE LANE","SUITE 401","KENNETT SQUARE","PA","United States","19348","Y",5020,"Y","N","Y","N",""
1988455,"PRICEWATERHOUSECOOPERS LLP","2001 MARKET STREET","SUITE 1800","PHILADELPHIA","PA","United States","19103-7042","Y",238,"Y","N","Y","Y","Yes"
1988416,"MARCUM LLP","730 THIRD AVENUE","11TH FLOOR","NEW YORK","NY","United States","10017","Y",688,"Y","N","Y","N",""
1989234,"PRICEWATERHOUSECOOPERS LLP","ONE NORTH WACKER DRIVE","","CHICAGO","IL","United States","60606","Y",238,"Y","Y","N","N","Yes"
1989409,"ASHLAND PARTNERS & COMPANY LLP","3512 EXCEL DRIVE","SUITE 103","MEDFORD","OR","United States","97504-8047","Y",3783,"Y","N","Y","N",""
1989455,"LARRY D LIBERFARB CERTIFIED PUBLIC ACCOUNTANTS","11 VANDERBILT AVE","","NORWOOD","MA","United States","02062","Y",2560,"Y","N","Y","N",""
1977179,"ERNST & YOUNG LLP","ONE MANHATTAN WEST","","NEW YORK","NY","United States","10001","Y",42,"Y","Y","N","N","Yes"
1988378,"KPMG LLP","345 PARK AVENUE","","NEW YORK","NY","United States","10154-0102","Y",185,"Y","Y","Y","N","Yes"
1989833,"KPMG LLP","1601 MARKET STREET","","PHILADELPHIA","PA","United States","19103","Y",185,"Y","N","N","Y","Yes"
1989833,"PRICEWATERHOUSECOOPERS, LLP","100 EAST PRATT STREET, SUITE 2600","","BALTIMORE","MD","United States","21202","Y",238,"Y","N","Y","N",""
1991630,"MICHAEL COGLIANESE","300 NORTH STATE STREET","SUITE 5720","CHICAGO","IL","United States","60654","Y",3874,"Y","Y","N","N","No"
1989836,"PRICEWATERHOUSECOOPERS, LLP","100 EAST PRATT STREET, SUITE 2600","","BALTIMORE","MD","United States","21202","Y",238,"Y","Y","N","N","Yes"
1989213,"PRICEWATERHOUSECOOPERS LLP","2001 MARKET STREET","SUITE 1800","PHILADELPHIA","PA","United States","19103-7042","Y",238,"Y","N","Y","Y","Yes"
1987822,"KREISCHER MILLER","100 WITMER ROAD","SUITE 350","HORSHAM","PA","United States","19044","Y",1110,"Y","N","Y","N",""
1987822,"COHEN & COMPANY, LTD.","1350 EUCLID AVE.","SUITE 800","CLEVELAND","OH","United States","44115","Y",925,"Y","Y","N","N","Not Yet Received"
1989252,"BDO USA P.C.","ONE BUSH STREET, SUITE 1800","","SAN FRANCISCO","CA","United States","94104","Y",243,"Y","Y","N","N","Not Yet Received"
1987005,"DELOITTE & TOUCHE LLP","60 NEXUS WAY, 8TH FL","CAMARA BAY POB 1787","GRAND CAYMAN","","Cayman Islands","KY1-1109","Y",1096,"Y","Y","N","N","Yes"
1989273,"DELOITTE & TOUCHE LLP","60 NEXUS WAY, 8TH FL","CAMARA BAY POB 1787","GRAND CAYMAN","","Cayman Islands","KY1-1109","Y",1096,"Y","Y","N","N","Yes"
1989292,"ASHLAND PARTNERS AND COMPANY LLP","3512 EXCEL DRIVE","SUITE 103","MEDFORD","OR","United States","97504","Y",3783,"Y","N","Y","N",""
1988867,"WOLF & COMPANY, P.C.","99 HIGH STREET","","BOSTON","MA","United States","02110-2320","Y",392,"Y","N","Y","N",""
1988867,"KPMG LLP","55 SECOND STREET","SUITE 1400","SAN FRANCISCO","CA","United States","94105","Y",185,"Y","N","N","Y","Yes"
1988907,"ERNST & YOUNG LLP","111 W HOUSTON STREET","SUITE 1901","SAN ANTONIO","TX","United States","78205","Y",42,"Y","Y","Y","N","Yes"
1988907,"PRICEWATERHOUSECOOPERS LLP","2121 N. PEARL STREET","SUITE 2000","DALLAS","TX","United States","75201","Y",238,"Y","Y","N","N","Yes"
1989491,"ASSURANCE DIMENSIONS","4920 W CYPRESS STREET","SUITE 102","TAMPA","FL","United States","33607","Y",5036,"Y","N","Y","N",""
1990141,"ASHLAND PARTNERS & COMPANY LLP","3512 EXCEL DR","SUITE 103","MEDFORD","OR","United States","97504","Y",3783,"N","N","Y","N",""
1989341,"GRANT THORNTON LLP","757 THIRD AVENUE","9TH FLOOR","NEW YORK","NY","United States","10017","Y",248,"Y","Y","Y","N","Yes"
1988496,"GRANT THORNTON","757 THIRD AVE., 9TH FLOOR","","NEW YORK","NY","United States","10017","Y",1402,"Y","Y","N","N","Yes"
1988496,"ERNST & YOUNG LLP","1 MORE LONDON PLACE","","LONDON","","United Kingdom","SE1 2AF","Y",1438,"Y","Y","N","N","Yes"
1989379,"ASSURANCE DIMENSIONS","2000 BANKS ROAD","SUITE 218","MARGATE","FL","United States","33063","Y",5036,"Y","Y","N","Y","Yes"
1988253,"EDELSTEIN & COMPANY LLP","160 FEDERAL STREET","9TH FLOOR","BOSTON","MA","United States","02110","Y",3376,"Y","N","Y","N",""
1988253,"PRICEWATERHOUSECOOPERS LLP","101 SEAPORT BOULEVARD","","BOSTON","MA","United States","02210","Y",238,"Y","Y","N","N","Yes"
1991655,"ERNST & YOUNG","155 N. WACKER DRIVE","","CHICAGO","IL","United States","60606","Y",42,"Y","N","Y","Y","Yes"
1991655,"KATZ SAPPER & MILLER","800 EAST 96TH STREET, SUITE 500","","INDIANAPOLIS","IN","United States","46240","Y",2804,"Y","Y","N","N","Yes"
1991655,"BOBER, MARKEY, FEDEROVICH & COMPANY","3421 RIDGEWOOD ROAD","SUITE 300","AKRON","OH","United States","44333","Y",1172,"Y","Y","N","N","Yes"
1991655,"DELOITTE & TOUCHE LLP","111 SOUTH WACKER DRIVE","","CHICAGO","IL","United States","60606-4301","Y",34,"Y","Y","N","N","Yes"
1991675,"DELOITTE & TOUCHE LLP","7900 TYSONS ONE PLACE","","MCLEAN","VA","United States","22043","Y",34,"Y","Y","N","N","Yes"
1991675,"DELOITTE AUDIT S.A.R.L","20 BOULEVARD DE KOCKELSCHEUER","BP 1173","LUXEMBOURG","","Luxembourg","L-1011","Y",1287,"Y","Y","N","N","Yes"
1990170,"LARRY LIBERFARB, PC","11 VANDERBILT AVENUE","SUITE 220","NORWOOD","MA","United States","02062","Y",2560,"Y","N","Y","N",""
1985452,"KPMG LLP","333 BAY STREET, SUITE 4600","","TORONTO, ONTARIO","","Canada","M5H 2S5","Y",185,"Y","N","N","Y","Yes"
1987563,"ASHLAND PARTNERS","3152 EXCEL DRIVE","STE 103","MEDFORD","OR","United States","97504","Y",3783,"N","N","Y","N",""
1991771,"MENGEL METZGER BARR & CO. LLP","100 CHESTNUT STREET","SUITE 1200","ROCHESTER","NY","United States","14504","Y",557,"Y","N","Y","N",""
1989365,"KPMG LLP","ONE FINANCIAL PLAZA","755 MAIN STREET","HARTFORD","CT","United States","06103","Y",185,"Y","N","Y","N",""
1989383,"GRANT THORNTON LLP","171 N CLARK ST","SUITE 200","CHICAGO","IL","United States","60601","Y",248,"Y","Y","N","N","Yes"
1989683,"HBK CPA","100 PINEWOOD LN.","SUITE 201","WARRENDALE","PA","United States","15086","Y",2206,"Y","N","Y","N",""
1989684,"COHEN & COMPANY, LTD","1350 EUCLID AVE","SUITE 800","CLEVELAND","OH","United States","44115","Y",925,"Y","Y","N","Y","Yes"
1989798,"WEAVER & TIDWELL LLP","1230 ROSECRANS AVE","SUITE 510","LOS ANGELES","CA","United States","90266","Y",410,"Y","Y","Y","N","Yes"
1989314,"MAZARS USA LLP","135 WEST 50TH ST","","NEW YORK","NY","United States","10020","Y",339,"Y","N","Y","N",""
1985726,"PRICEWATERHOUSECOOPERS","300 MADISON AVENUE","SUITE 24","NEW YORK","NY","United States","10017","Y",238,"Y","Y","N","Y","Not Yet Received"
1992009,"ERNST & YOUNG LLP","200 CLAREDON ST.","","BOSTON","MA","United States","02116","Y",42,"Y","Y","N","Y","Not Yet Received"
1992009,"PRICEWATERHOUSECOOPERS","101 SEAPORT BOULEVARD","SUITE 100","BOSTON","MA","United States","02110","Y",238,"Y","Y","N","Y","Not Yet Received"
1982369,"KPMG AUDITORES INDEPENDENTES LTDA","RUA VERBO DIVINO 1400","8 ANDAR","SAO PAULO","","Brazil","04719911","Y",1124,"Y","Y","N","N","Yes"
1991727,"COHEN & COMPANY LTD","1350 EUCLID AVE","#800","CLEVELAND","OH","United States","44115","Y",925,"Y","Y","N","N","Yes"
1990551,"ARMANINO LLP","6 CITYPLACE DRIVE","SUITE 900","ST. LOUIS","MO","United States","63132","Y",643,"Y","N","Y","N",""
1992282,"MARCUM LLP","105 EISENHOWER PKWY","","ROSELAND","NJ","United States","07068","Y",688,"Y","Y","N","N","Yes"
1987485,"EISNERAMPER LLP","ONE CALIFORNIA STREET, SUITE 1700","","SAN FRANCISCO","CA","United States","94111-5413","Y",274,"Y","Y","N","N","Yes"
1991807,"COHEN & COMPANY, LTD.","1 W. PENNSYLVANIA AVE","SUITE 1000","TOWSON","MD","United States","21204","Y",925,"Y","N","Y","N",""
1991811,"RSM LLP","ONE SOUTH WACKER DRIVE STE. 800","","CHICAGO","IL","United States","60606","Y",49,"Y","N","Y","N",""
1991811,"DELOITTE & TOUCHE","111 S. WACKER DRIVE","","CHICAGO","IL","United States","60606","Y",34,"Y","Y","N","N","Not Yet Received"
1991811,"BDO USA, LLP","330 N WABASH AVENUE","","CHICAGO","IL","United States","60611","Y",243,"Y","Y","N","N","Not Yet Received"
1991811,"FORVIS MAZARS, LLP","1003 RED BANKS ROAD","","GREENVILLE","NC","United States","27858","Y",686,"Y","Y","N","N","Yes"
1991811,"ASHLAND PARTNERS & COMPANY LLP","3512 EXCEL DRIVE","SUITE 103","MEDFORD","OR","United States","97504","Y",3783,"Y","N","Y","N",""
1988883,"FORVIS MAZARS, LLP","135 WEST 50TH ST.","","NEW YORK","NY","United States","10020","Y",339,"Y","Y","Y","N","Not Yet Received"
1988547,"CAVANAUGH NELSON PLC","999 WATERSIDE DRIVE","SUITE 2250","NORFOLK","VA","United States","23510","N",,"","N","Y","N",""
1991891,"PRICEWATERHOUSECOOPERS LLP (PWC)","601 SOUTH FIGUEROA STREET","SUITE 900","LOS ANGELES","CA","United States","90071","Y",238,"Y","Y","N","N","Yes"
1991891,"EISNERAMPER LLP","ONE CALIFORNIA STREET","SUITE 1700","SAN FRANCISCO","CA","United States","94111","Y",274,"Y","Y","N","N","Yes"
1991870,"DELOITTE & TOUCHE LLP","30 ROCKEFELLER PLAZA","","NEW YORK","NY","United States","10111","Y",34,"Y","Y","N","N","Yes"
1982059,"PRICEWATERHOUSECOOPERS AG","BIRCHSTRASSE 160","","ZURICH","","Switzerland","8050","Y",1358,"Y","N","N","Y","No"
1993115,"PKF O'CONNOR DAVIES, LLP","665 FIFTH AVENUE","","NEW YORK","NY","United States","10022","Y",127,"Y","N","Y","N",""
1993133,"ELLIOTT DAVIS, LLC","629 MARKET STREET, SUITE 100","","CHATTANOOGA","TN","United States","37402","Y",149,"Y","N","Y","N",""
1993133,"MARGOLIN, WINER & EVENS LLP","ONE PENN PLAZA","SUITE 3000","NEW YORK","NY","United States","10119","Y",332,"Y","Y","N","N","Yes"
1993105,"IBARRA & ASSOCIATES","3604 GOLDEN TRIANGLE BLVD.","SUITE 432","KELLER","TX","United States","76244","N",,"N","N","Y","N",""
1990047,"CITRIN COOPERMAN & COMPANY, LLP","50 ROCKEFELLER PLAZA","","NEW YORK","NY","United States","10020","Y",2468,"Y","N","Y","N",""
1992122,"HILL, BARTH & KING, LLC","100 PINEWOOD LANE","SUITE 201","WARRENDALE","PA","United States","15086","Y",2206,"Y","N","Y","N",""
1987326,"PRICEWATERHOUSECOOPERS LLP","111 HIGH STREET","","BOSTON","MA","United States","02110","Y",238,"Y","Y","N","N","Yes"
1987326,"EDELSTEIN & COMPANY","160 FEDERAL STREET","9TH FLOOR","BOSTON","MA","United States","02110","Y",3376,"Y","N","Y","N",""
1987326,"PRICEWATERHOUSECOOPERS","ONE SPENCER DOCK","NORTH WALL QUAY","DUBLIN","","Ireland","","Y",1366,"Y","Y","N","N","Yes"
1987326,"PRICEWATERHOUSECOOPERS, SOCIÉTÉ COOPÉRATIVE","2 RUE GERHARD MERCATOR","","LUXEMBOURG","","Luxembourg","L-2182","Y",1328,"Y","Y","N","N","Yes"
1987326,"PRICEWATERHOUSECOOPERS","ONE INTERNATIONAL TOWERS SYDNEY","WATERMANS QUAY","SYDNEY","","Australia","","Y",1379,"Y","Y","N","N","Yes"
1987326,"PRICEWATERHOUSECOOPERS CI LLP","37 ESPLANADE","","ST HELIER","","Jersey","","Y",1412,"Y","Y","N","N","Yes"
1989851,"SPICER JEFFRIES","4601 DTC BOULEVARD","SUITE 700","DENVER","CO","United States","80237","Y",349,"Y","N","Y","N",""
1987852,"ADEPTUS PARTNERS LLC","244 W 54TH STREET","9TH FLOOR","NEW YORK","NY","United States","10019","Y",3686,"Y","N","Y","N",""
1991950,"GRASSI & CO., CPAS, P.C.","360 MADISON AVENUE","","NEW YORK","NY","United States","10017","Y",606,"Y","N","Y","N",""
1991950,"GRANT THORNTON LLP","757 THIRD AVENUE","9TH FLOOR","NEW YORK","NY","United States","10017","Y",248,"Y","Y","N","N","Yes"
1991987,"PLANTE & MORAN, PLLC","634 FRONT AVENUE N.W., SUITE 300","","GRAND RAPIDS","MI","United States","49504","Y",166,"Y","N","Y","N",""
1991981,"ERNST & YOUNG","1901 SIXTH AVENUE NORTH","SUITE 1200","BIRMINGHAM","AL","United States","35203-2618","Y",42,"Y","N","Y","Y","Yes"
1989651,"PRICEWATERHOUSECOOPERS","125 HIGH STREET","","BOSTON","MA","United States","02110","Y",238,"Y","Y","N","N","Yes"
1992014,"NOVOGRADAC & COMPANY LLP","1160 BATTERY ST","E BUILDING","SAN FRANCISCO","CA","United States","94111","Y",474,"Y","Y","N","N","Yes"
1991913,"ERNST & YOUNG LLP","801 GRAND AVE, SUITE 3000","","DES MOINES","IA","United States","50309","Y",42,"Y","Y","Y","N","Yes"
1991913,"DELOITTE & TOUCHE LLP","400 LOCUST STREET, SUITE 740","","DES MOINES","IA","United States","50309","Y",34,"Y","Y","N","N","Yes"
1989963,"DELOITTE & TOUCHE LLP","30 ROCKEFELLER PLAZA","","NEW YORK","NY","United States","10112","Y",34,"Y","Y","N","N","Yes"
1989154,"CITRIN COOPERMAN","30 BRAINTREE HILL OFFICE","PARK SUITE 300","BRAINTREE","MA","United States","02184","Y",2468,"Y","N","Y","N",""
1987406,"ERNST & YOUNG, LLP","725 S. FIGUEROA STREET","","LOS ANGELES","CA","United States","90017","Y",42,"Y","Y","N","N","Yes"
1992068,"ERNST & YOUNG, LLP","725 S. FIGUEROA STREET","","LOS ANGELES","CA","United States","90017","Y",42,"Y","Y","N","N","Yes"
1992262,"KPMG LLP","02 GODREJ BUSINESS DISTRICT, FIRST FLOOR BLOCK A","PIROJSHANAGAR, VIKHROLI - WEST","MUMBAI","","India","400 079","Y",185,"Y","N","N","Y","Not Yet Received"
1992227,"PLANTE & MORAN PLLC","27400 NORTHWESTERN HWY","","SOUTHFIELD","MI","United States","48034","Y",166,"Y","N","Y","N",""
1992485,"WEAVER AND TIDWELL, L.L.P.","1230 ROSECRANS AVE","SUITE 510","MANHATTAN BEACH","CA","United States","90266","Y",410,"Y","Y","N","N","Not Yet Received"
1992368,"TRACHTENBERG & PAUKER, LLP","100 CROSSWAYS PARK WEST","","WOODBURY","NY","United States","11797","Y",5507,"Y","N","Y","N",""
1992513,"WALTER & SHUFFAIN, P.C.","ONE INTERNATIONAL PLACE","SUITE 1010","BOSTON","MA","United States","02110","Y",5439,"Y","N","Y","N",""
1992454,"DELOITTE & TOUCHE LLP","100 SOUTH MILL AVENUE","SUITE 1800","TEMPE","AZ","United States","85281","Y",34,"Y","N","Y","N",""
1992446,"COHNREZNICK LLP","200 SOUTH WACKER DRIVE","SUITE 2600","CHICAGO","IL","United States","60606","Y",596,"Y","Y","N","N","Yes"
1992556,"SPICER JEFFRIES","4601 DTC BOULEVARD","SUITE 700","DENVER","CO","United States","80237","Y",349,"Y","N","Y","N",""
1992125,"DELOITTE & TOUCHE LLP","250 EAST 5TH STREET","SUITE 1900","CINCINNATI","OH","United States","45202","Y",34,"Y","N","Y","N",""
1989247,"GRANT THORNTON LLP","60 BROAD STREET","","NEW YORK","NY","United States","10004","Y",248,"Y","Y","N","N","Yes"
1992223,"DELOITTE & TOUCHE LLP","191 PEACHTREE ST.","SUITE 2000","ATLANTA","GA","United States","30303","Y",34,"Y","Y","N","Y","Yes"
1992223,"MOORE COLSON & COMPANY, P.C.","1640 POWERS FERRY ROAD","GOVERNOR'S RIDGE, BUILDING 11, SUITE 300","MARIETTA","GA","United States","30067","Y",5486,"Y","Y","N","N","Yes"
1992223,"RSM US LLP","ONE S. WACKER DRIVE","SUITE 800","CHICAGO","IL","United States","60606","Y",49,"Y","Y","N","N","Yes"
1992223,"GRANT THORNTON AG, WIRTSCHAFTSPRÜFUNGSGESELLSCHAFT","JOHANNSTRAßE 39","","DÜSSELDORF","","Germany","40476","Y",5772,"N","Y","N","N","Yes"
1992220,"PRICEWATERHOUSECOOPERS LLP","101 SEAPORT BOULEVARD","","BOSTON","MA","United States","02210","Y",238,"Y","Y","N","Y","Yes"
1986527,"PRICEWATERHOUSECOOPERS","18 FORUM LANE","CAMANA BAY","GEORGE TOWN","","Cayman Islands","KY1-1104","Y",1266,"Y","Y","N","N","Yes"
1986527,"PRICEWATERHOUSECOOPERS LLP","330 MADISON AVE","","NEW YORK","NY","United States","10017","Y",238,"Y","Y","N","N","Yes"
1986526,"BDO USA, LLP","1 BUSH ST. #1800","","SAN FRANCISCO","CA","United States","94104","Y",243,"Y","Y","N","N","Yes"
1986526,"KPMG, LLP","2175 NORTH CALIFORNIA BOULEVARD","10TH FLOOR","WALNUT CREEK","CA","United States","94596","Y",185,"Y","Y","N","N","Yes"
1985090,"GRANT THORNTON LLP","500 NORTH AKARD STREET","SUITE 1200","DALLAS","TX","United States","75201-4612","Y",248,"Y","Y","N","N","Not Yet Received"
1985090,"PRICEWATERHOUSE COOPERS","2121 NORTH PEARL STREET","SUITE 2000","DALLAS","TX","United States","75201","Y",238,"Y","Y","N","N","Not Yet Received"
1985090,"DELOITTE & TOUCHE LLP","2200 ROSS AVE #1600","","DALLAS","TX","United States","75201","Y",34,"Y","Y","N","N","Not Yet Received"
1986681,"RSM US","151 W 42ND ST 19TH FLOOR","","NEW YORK","NY","United States","10036","Y",106,"Y","Y","N","N","Not Yet Received"
1986681,"RSM US","151 WEST 42ND STREET, 19TH FLOOR","","NEW YORK","NY","United States","10036","Y",49,"Y","Y","N","N","Yes"
1992273,"PRICEWATERHOUSECOOPERS LLP","101 SEAPORT BOULEVARD","","BOSTON","MA","United States","02210","Y",238,"Y","Y","N","Y","Yes"
1992298,"FORVIS, LLP","910 E. ST. LOUIS","","SPRINGFIELD","MO","United States","65801-1190","Y",686,"Y","N","Y","Y","Yes"
1992298,"CALIBRE CPA GROUP PLLC","7501 WISCONSIN AVENUE #1200","","BETHESDA","MD","United States","20814","N",,"N","Y","N","N","Yes"
1992298,"DELOITTE AND TOUCHE LLP","7900 TYSONS ONE PLACE, SUITE 800","","MCLEAN","VA","United States","22102-4219","Y",34,"Y","Y","N","N","Yes"
1992298,"BAKER TILLY VIRCHOW KRAUSE","8219 LEESBURG PIKE, SUITE 800","","TYSONS","VA","United States","22182","Y",23,"Y","Y","N","N","Yes"
1990513,"SNYDER COHN, PC","11200 ROCKVILLE PIKE","SUITE 415","NORTH BETHESDA","MD","United States","20852","Y",5134,"Y","N","Y","N",""
1986723,"SPICER JEFFRIES LLP","5251 S QUEBEC STREET, SUITE 200","","GREENWOOD VILLAGE","CO","United States","80111","Y",349,"Y","Y","N","N","Yes"
1986729,"GRANT THORNTON LLP","1100 PEACHTREE ST. NE","SUITE 1200","ATLANTA","GA","United States","30309","Y",248,"Y","N","Y","N",""
1976133,"LARRY D. LIBERFARB, P.C., CERTIFIED PUBLIC ACCOUNTANTS","11 VANDERBILT AVENUE","SUITE 220","NORWOOD","MA","United States","02062","Y",2560,"Y","N","Y","N",""
1988797,"CBIZ CPAS P.C.","730 THIRD AVENUE, 11TH FLOOR","","NEW YORK","NY","United States","10017","Y",199,"Y","Y","Y","N","Yes"
1987383,"SPICER JEFFRIES LLP","4601 DTC BOULEVARD","SUITE 700","DENVER","CO","United States","80237","Y",349,"Y","N","Y","N",""
1987001,"LEONE, MCDONNELL & ROBERTS","5 NELSON STREET","","DOVER","NH","United States","03820","N",,"N","N","Y","N",""
1989102,"ARMANINO, LLP","6 CITY PLACE DRIVE","SUITE 900","ST. LOUIS","MO","United States","63141","Y",643,"Y","N","Y","N",""
1986793,"ANCHIN, BLOCK & ANCHIN LLP","3 TIMES SQUARE","24TH FLOOR","NEW YORK","NY","United States","10036","Y",168,"Y","Y","Y","N","Yes"
1989347,"ERNST & YOUNG, LLP","20O CLARENDON STREET","","BOSTON","MA","United States","02116","Y",42,"Y","Y","N","N","Not Yet Received"
1989347,"DELOITTE & TOUCHE","200 BERKELEY STREET","","BOSTON","MA","United States","02116","Y",34,"Y","Y","N","N","Not Yet Received"
1993276,"RSM USA LLP","44 MONTGOMERY ST #3900","","SAN FANCISCO","CA","United States","94104","Y",49,"Y","Y","N","N","Not Yet Received"
1990603,"PRICEWATERHOUSE COOPERS","3 EMBARCADERO","","SAN FRANCISCO","CA","United States","94111","Y",238,"Y","Y","N","N","Yes"
1993816,"MARCUM LLP","555 LONG WHARF DRIVE","12TH FLOOR","NEW HAVEN","CT","United States","06511","Y",688,"Y","N","N","Y","No"
1945290,"KPMG LLP","200 E RANDOLPH ST","#5500","CHICAGO","IL","United States","60601","Y",185,"Y","Y","Y","N","Yes"
1968785,"PRICEWATERHOUSECOOPERS LLP","300 MADISON AVENUE","24TH FLOOR","NEW YORK","NY","United States","10017","Y",238,"Y","Y","N","N","Yes"
1968785,"EISNERAMPER LLP","733 THIRD AVENUE","","NEW YORK","NY","United States","10017","Y",274,"Y","Y","N","N","Yes"
1968785,"PRICEWATERHOUSECOOPERS CAYMAN ISLANDS","18 FORUM LANE","","GRAND CAYMAN","","Cayman Islands","","Y",1266,"Y","Y","N","N","Yes"
1986835,"ROSEN KUSLANSKY, CPA, P.C.","7 PENN PLAZA","SUITE 1700","NEW YORK","NY","United States","10001","Y",3032,"Y","Y","N","N","Not Yet Received"
1986835,"EISNERAMPER LLP","733 THIRD AVENUE","","NEW YORK","NY","United States","10017","Y",274,"Y","Y","N","N","Not Yet Received"
1986773,"RSM US LLP","30 S. WACKER DRIVE","","CHICAGO","IL","United States","60606","Y",49,"Y","Y","N","N","Yes"
1979794,"ERNST & YOUNG LLP","312 WALNUT ST","SUITE 1900","CINCINNATI","OH","United States","45202","Y",42,"Y","Y","Y","N","Yes"
1985686,"BDO USA, P.C.","ONE BUSH STREET","","SAN FRANCISCO","CA","United States","94104","Y",243,"Y","Y","N","Y","Not Yet Received"
1986880,"DELOITTE & TOUCHE LLP","695 TOWN CENTER DRIVE","SUITE 1200","COSTA MESA","CA","United States","92626","Y",34,"Y","N","Y","N",""
1986880,"PRICEWATERHOUSECOOPERS LLP","601 SOUTH FIGUEROA STREET","","LOS ANGELES","CA","United States","90017","Y",238,"Y","Y","N","N","Yes"
1986899,"BDO USA, P.C.","ONE BUSH STREET","","SAN FRANCISCO","CA","United States","94104","Y",243,"Y","Y","N","Y","Not Yet Received"
1986903,"BDO USA, P.C.","ONE BUSH STREET","","SAN FRANCISCO","CA","United States","94104","Y",243,"Y","Y","N","Y","Not Yet Received"
1959898,"FORVIS MAZARS LLP","1155 AVENUE OF THE AMERICAS","STE 1200","NEW YORK","NY","United States","10036","Y",686,"Y","N","Y","Y","Not Yet Received"
1989508,"DELOITTE AND TOUCHE, LLP","115 FEDERAL STREET","","BOSTON","MA","United States","02110","Y",34,"Y","Y","N","N","Yes"
1989293,"ASHLAND PARTNERS & COMPANY LLP","3512 EXCEL DR. SUITE 103","","MEDFORD","OR","United States","97504","Y",3783,"Y","N","Y","N",""
1988315,"BDO USA, LLP","330 NORTH WABASH AVENUE","SUITE 3200","CHICAGO","IL","United States","60611","Y",243,"Y","Y","N","N","Yes"
1989600,"KPMG LLP","345 PARK AVENUE","","NEW YORK","NY","United States","10154","Y",185,"Y","Y","N","N","Yes"
1990154,"ASHLAND PARTNERS & COMPANY LLC","525 BIGHAM KNOLL, SUITE 200","","JACKSONVILLE","OR","United States","97530","Y",3783,"Y","N","Y","N",""
1990411,"PRICEWATERHOUSECOOPERS LLP","PRICEWATERHOUSECOOPERS CENTER","300 MADISON AVENUE","NEW YORK","NY","United States","10017","Y",238,"Y","N","Y","Y","No"
1989819,"KPMG LLP","02 GODREJ BUSINESS DISTRICT, FIRST FLOOR BLOCK A","PIROJSHANAGAR, VIKHROLI - WEST","MUMBAI","","India","400 079","Y",185,"Y","N","N","Y","Not Yet Received"
1989045,"BAKER NEWMAN & NOYES","280 FORE STREET","","PORTLAND","ME","United States","04101","Y",231,"Y","Y","Y","N","Not Yet Received"
1992536,"PRICEWATERHOUSECOOPERS LLP","125 HIGH STREET","","BOSTON","MA","United States","02110-1707","Y",238,"Y","Y","N","N","Yes"
1992573,"LUTZ & COMPANY, PC","13616 CALIFORNIA STREET","SUITE 300","OMAHA","NE","United States","68154-5336","Y",6473,"Y","N","Y","N",""
1992476,"KPMG LLP","10 SOUTH BROADWAY","SUITE 900","SAINT LOUIS","MO","United States","63102-1736","Y",185,"Y","N","Y","Y","Yes"
1992610,"PLANTE & MORAN, PLLC","634 FRONT AVENUE N.W., SUITE 300","","GRAND RAPIDS","MI","United States","49504","Y",166,"Y","N","Y","N",""
1989483,"HILL, BARTH & KING LLC","6603 SUMMIT DR.","","CANFIELD","OH","United States","44406","Y",2206,"Y","N","Y","N",""
1989434,"PLANTE & MORAN, PLLC","634 FRONT AVENUE","SUITE 400","GRAND RAPIDS","MI","United States","49504","Y",166,"Y","Y","Y","N","Yes"
1991647,"MCM CPAS & ADVISORS","2600 MEIDINGER TOWER","462 S 4TH STREET","LOUISVILLE","KY","United States","40202","Y",2276,"Y","N","Y","N",""
1989291,"ASHLAND PARTNERS & COMPANY LLP","3512 EXCEL DR","SUITE 103","MEDFORD","OR","United States","97504","Y",3783,"N","N","Y","N",""
1989291,"SANDLER & ASSOCIATES, P.C.","144 GOULD STREET","","NEEDHAM","MA","United States","02492","Y",3709,"Y","Y","N","N","Yes"
1991634,"ASHLAND PARTNERS & COMPANY LLP","3512 EXCEL DR","SUITE 103","MEDFORD","OR","United States","97504","Y",3783,"N","N","Y","N",""
1991634,"SANDLER & ASSOCIATES, P.C.","144 GOULD STREET","","NEEDHAM","MA","United States","02492","Y",3709,"Y","Y","N","N","Yes"
1990322,"EISNERAMPER LLP","733 THIRD AVENUE","","NEW YORK","NY","United States","10017","Y",274,"Y","N","N","N",""
1988234,"KPMG","P.O. BOX 493","SIX CRICKET SQUARE","GRAND CAYMAN","","Cayman Islands","KY1-1106","Y",1323,"Y","Y","N","N","Yes"
1987223,"BAKER TILLY US, LLP","790 N WATER STREET","SUITE 2000","MILWAUKEE","WI","United States","53202","Y",23,"Y","Y","Y","N","Not Yet Received"
1988094,"PRICEWATERHOUSECOOPERS LLP","PRICEWATERHOUSECOOPERS CENTER","300 MADISON AVENUE","NEW YORK","NY","United States","10017","Y",238,"Y","Y","Y","Y","Yes"
1978509,"GRASSI & CO., CPAS, P.C.","750 3RD AVE.","28TH FLOOR","NEW YORK","NY","United States","10017","Y",606,"Y","Y","N","N","Not Yet Received"
1988215,"DELOITTE & TOUCHE LLP","100 KIMBALL DRIVE","","PARSIPPANY","NJ","United States","07054","Y",34,"Y","Y","N","N","Yes"
1988234,"ERNST & YOUNG LLP","5 TIMES SQUARE","","NEW YORK CITY","NY","United States","10036","Y",42,"Y","Y","N","N","Yes"
1988234,"ERNST & YOUNG LTD","62 FORUM LANE","CAMANA BAY, P.O. BOX 510","GRAND CAYMAN","","Cayman Islands","KY1-1106","Y",42,"Y","Y","N","N","Yes"
1989981,"ADEPTUS PARTNERS, LLC","244 WEST 54TH STREET","9TH FLOOR","NEW YORK","NY","United States","10019","Y",3686,"N","N","Y","N",""
1989912,"MAYER HOFFMAN MCCANN P.C.","685 3RD AVENUE","","NEW YORK","NY","United States","10017","Y",199,"Y","N","Y","N",""
1989912,"KPMG LLC","345 PARK AVENUE","","NEW YORK","NY","United States","10154","Y",185,"Y","Y","N","N","Yes"
1990182,"MOSS ADAMS LLP","999 THIRD AVENUE, SUITE 2800","","SEATTLE","WA","United States","98104","Y",659,"Y","Y","N","N","Yes"
1990182,"PRICEWATERHOUSECOOPERS","18 FORUM LANE","","CAMANA BAY, GRAND CAYMAN","","Cayman Islands","","Y",1266,"Y","Y","N","N","Not Yet Received"
1991667,"PRICEWATERHOUSECOOPERS LLP","101 SEAPORT BLVD","","BOSTON","MA","United States","02210","Y",238,"Y","N","Y","Y","Yes"
1990266,"CROWE LLP","488 MADISON AVENUE","","NEW YORK","NY","United States","10022","Y",173,"Y","Y","Y","Y","No"
1989662,"COHEN AND COMPANY","1350 EUCLID AVENUE","","CLEVELAND","OH","United States","44115","Y",925,"Y","Y","N","N","Not Yet Received"
1990334,"ERNST & YOUNG LLP","18101 VON KARMAN AVE","SUITE 1700","IRVINE","CA","United States","92612","Y",42,"Y","Y","N","N","Yes"
1990334,"ERNST & YOUNG LLP","ONE RAFFLES QUAY","NORTH TOWER, LEVEL 18","SINGAPORE","","Singapore","048583","Y",1247,"Y","Y","N","N","Yes"
1990044,"PRICEWATERHOUSE COOPERS LLP","300 MADISON AVENUE","","NEW YORK","NY","United States","10017","Y",238,"Y","N","Y","Y","Not Yet Received"
1988317,"ERNST & YOUNG","HARCOURT CENTRE","HARCOURT STREET","DUBLIN","","Ireland","2","Y",1411,"Y","Y","N","N","Yes"
1989929,"ERNST & YOUNG","18101 VON KARMAN AVENUE","","IRVINE","CA","United States","92612","Y",42,"Y","Y","N","N","Yes"
1990494,"DANNIBLE & MCKEE, LLP","FINANCIAL PLAZA","221 S. WARREN ST.","SYRACUSE","NY","United States","13202-2687","Y",528,"Y","N","Y","N",""
1990494,"MEISEL TUTEUR & LEWIS","101 EISENHOWER PKWY","","ROSELAND","NJ","United States","07068","Y",3861,"Y","Y","N","N","Yes"
1993982,"CROWE LP","488 MADISON AVE., SUITE 1200","","NEW YORK","NY","United States","10022","Y",173,"Y","N","Y","N",""
1993982,"MEADOWS URQUHART ACREE & COOK LLP","1802 BAYBERRY COURT","SUITE 102","RICHMOND","VA","United States","23226","Y",3688,"Y","Y","N","N","Not Yet Received"
1988317,"GRANT THORNTON","GRANT THORNTON TOWER","171 N. CLARK STREET, SUITE 200","CHICAGO","IL","United States","60601-3370","Y",248,"Y","N","Y","N",""
1988317,"MAZARS","HARCOURT CENTRE","BLOCK 3 HARCOURT ROAD","DUBLIN 2","","Ireland","","N",,"","Y","N","N","Yes"
1988317,"ERNST & YOUNG","9F, 333 KEELUNG RD. SEC. 1","","TAIPEI","","Taiwan,  Republic of China","11012","Y",1443,"Y","Y","N","N","Yes"
1988317,"KPMG AUDIT SARL","39, AVENUE J.F. KENNEDY L-1855","","LUXEMBOURG","","Luxembourg","","Y",2831,"Y","Y","N","N","Yes"
1991739,"PRICEWATERHOUSECOOPERS","21/F, EDINBURGH TOWER, THE LANDMARK","15 QUEEN'S ROAD CENTRAL","HONG KONG","","Hong Kong","","Y",1389,"Y","Y","N","N","Yes"
1989493,"PRICEWATERHOUSECOOPERS","21/F, EDINBURGH TOWER, THE LANDMARK","15 QUEEN'S ROAD CENTRAL","HONG KONG","","Hong Kong","","Y",1389,"Y","Y","N","N","Yes"
1994000,"PLANTE & MORAN, PLLC","10 SOUTH RIVERSIDE PLAZA","9TH FLOOR","CHICAGO","IL","United States","60606","Y",166,"Y","N","Y","Y","No"
1993458,"GRANT THORNTON LLP","2001 MARKET STREET","SUITE 700","PHIADELPHIA","PA","United States","19103","Y",248,"Y","N","Y","N",""
1994144,"DEMARCO SCIACCOTTA WILKENS & DUNLEAVY, LLP","9501 W. 171ST STREET, H-103","","TINLEY PARK","IL","United States","60487","Y",5376,"Y","N","Y","N",""
1994090,"BPM","ONE CALIFORNIA ST., SUITE 2500","","SAN FRANCISCO","CA","United States","94111","Y",207,"Y","N","Y","N",""
1993454,"GRANT THORNTON LLP","2001 MARKET STREET","SUITE 700","PHILADELPHIA","PA","United States","19103-7080","Y",248,"Y","N","Y","N",""
1991893,"BAKER TILLY US, LLP","2500 DALLAS PARKWAY, SUITE 300","","PLANO","TX","United States","75093","Y",23,"Y","N","Y","N",""
1991893,"SPICER JEFFRIES LLP","5251 S. QUEBEC ST., SUITE 200","","GREENWOOD VILLAGE","CO","United States","80111","Y",349,"Y","Y","N","N","Yes"
1991893,"FRANK, RIMERMAN + CO, LLP","60 SOUTH MARKET STREET","SUITE 500","SAN JOSE","CA","United States","95113","Y",1596,"Y","Y","N","N","Yes"
1993171,"KPMG LLP","345 PARK AVENUE","","NEW YORK","NY","United States","10154","Y",185,"Y","Y","N","N","Yes"
1993796,"HILL, BARTH & KING LLC","100 PINEWOOD LANE","SUITE 201","WARRENDALE","PA","United States","15086","Y",2206,"Y","N","Y","N",""
1992984,"MYRON YANG CPA & ASSOCIATES, PLLC","38-08 UNION ST., #2A","","FLUSHING","NY","United States","11354","Y",6893,"Y","Y","N","N","Yes"
1994108,"KEITER, STEPHENS, HURST, GARY & SHREAVES, P.C.","4401 DOMINION BOULEVARD","","GLEN ALLEN","VA","United States","23060","Y",80,"Y","N","Y","N",""
1993749,"ERNST & YOUNG","BLOCK 1, HARCOURT CENTRE","HARCOURT STREET","DUBLIN 2","","Ireland","","Y",1411,"Y","Y","N","N","Yes"
1994190,"EIDE BAILLY LLP","US BANCORP CENTER, 800 NICOLLET MALL","STE. 1300","MINNEAPOLIS","MN","United States","55402","Y",286,"Y","N","Y","N",""
1975234,"BAKER TILLY US, LLP","205 N MICHIGAN AVENUE","28TH FLOOR","CHICAGO","IL","United States","60601-5927","Y",23,"Y","N","Y","N",""
1994264,"HILL, BARTH & KING, LLC","100 PINEWOOD LANE","SUITE 201","WARRENDALE","PA","United States","15086","Y",2206,"Y","N","Y","N",""
1990592,"ASHLAND PARTNERS & COMPANY LLP","3512 EXCEL DRIVE","UNIT 103","MEDFORD","OR","United States","98504","Y",3783,"Y","N","Y","N",""
1994196,"CITRIN COOPERMAN","30 BRAINTREE HILL OFFICE","PARK SUITE 300","BRAINTREE","MA","United States","02184","Y",2468,"Y","N","Y","N",""
1992243,"DEMARCO, SCIACCO HA, WILKENS & DUNLEAVY","9645 LINCOLNWAY LN","#241A","FRANKFORT","IL","United States","60423","Y",5376,"Y","Y","N","N","Yes"
1987179,"PRICEWATERHOUSECOOPERS, LLP","100 EAST PRATT STREET, SUITE 2600","","BALTIMORE","MD","United States","21202","Y",238,"Y","Y","N","N","Yes"
1993199,"CITRIN COOPERMAN & COMPANY, LLP","50 ROCKEFELLER PLAZA","","NEW YORK","NY","United States","10020","Y",2468,"Y","N","Y","N",""
1994053,"WOLF & COMPANY, P.C.","99 HIGH STREET","","BOSTON","MA","United States","02110-2320","Y",392,"Y","N","Y","N",""
1986181,"CROWE, LLP","225 W WACKER DRIVE","SUITE 2600","CHICAGO","IL","United States","60606","Y",137,"Y","N","Y","N",""
1990190,"KPMG","345 PARK AVENUE","","NEW YORK","NY","United States","10154","Y",185,"Y","N","Y","Y","Yes"
1987014,"DEMETRIUS BERKOWER LLC","155 WAYNE US RTE 46","","WAYNE","NJ","United States","07470","Y",5961,"Y","Y","N","Y","No"
1986792,"MOSS ADAMS LLP","14555 DALLAS PARKWAY","SUITE 300","DALLAS","TX","United States","75254","Y",659,"Y","N","Y","N",""
1987065,"CITRIN COOPERMAN & COMPANY LLP","50 ROCKEFELLER PLAZA","","NEW YORK","NY","United States","10020","Y",2468,"Y","N","Y","N",""
1987082,"CITRIN COOPERMAN & COMPANY LLP","50 ROCKEFELLER PLAZA","","NEW YORK","NY","United States","10020","Y",2468,"Y","N","Y","N",""
1972319,"DELOITTE & TOUCHE LLP","30 ROCKEFELLER PLAZA","","NEW YORK","NY","United States","10112","Y",34,"Y","Y","Y","N","Yes"
1990071,"ERNST & YOUNG, LLP","1001 LAKESIDE AVE","SUITE 1800","CLEVELAND","OH","United States","44114","Y",42,"Y","Y","N","N","Yes"
1977212,"ERNST & YOUNG LLP","725 SOUTH FIGUEROA ST","","LOS ANGELES","CA","United States","90017","Y",42,"Y","Y","N","Y","Not Yet Received"
1977212,"ERNST & YOUNG LTD.","62 FORUM LANE","CAMANA BAY","GEORGE TOWN, GRAND CAYMAN","","Cayman Islands","","Y",1655,"Y","Y","N","N","Not Yet Received"
1990162,"WEAVER AND TIDWELL, L.L.P.","4400 POST OAK PARKWAY","SUITE 1100","HOUSTON","TX","United States","77027","Y",410,"Y","N","Y","N",""
1987381,"DELOITTE & TOUCHE LP","695 TOWN CENTER DRIVE, SUITE 1000","","COSTA MESA","CA","United States","92626","Y",34,"Y","Y","N","N","Not Yet Received"
1987473,"ASSURANCE DIMENSIONS LLC","3111 N. UNIVERSITY DRIVE STE. 621","","CORAL SPRINGS","FL","United States","33065","Y",5036,"Y","N","Y","N",""
1975870,"KPMG","CENTURY YARD","CRICKET SQUARE","GEORGE TOWN","","Cayman Islands","","Y",1323,"Y","Y","N","N","Yes"
1975870,"KPMG ASSURANCE SERVICES","RUA DO PASSEIO, 38 - SETOR 2 - 17º ANDAR","ED. PASSEIO CORPORATE","RIO DE JANEIRO","","Brazil","","N",,"","Y","N","N","Yes"
1975870,"KPMG LLP","345 PARK AVENUE","","NEW YORK","NY","United States","10154-0102","Y",185,"Y","Y","N","N","Yes"
1988079,"EIDE BAILLY LLP","5 TRIAD CENTER, SUITE 750","","SALT LAKE CITY","UT","United States","84180-1128","Y",286,"Y","N","Y","Y","Yes"
1986825,"ERNST & YOUNG, LLP","4131 PARKALAKE AVENUE","SUITE 500","RALEIGH","NC","United States","27612-2389","Y",42,"Y","Y","Y","N","Not Yet Received"
1985917,"DEMETRIUS BERKOWER LLC","155 WAYNE US RTE 46","","WAYNE","NJ","United States","07470","Y",5961,"Y","Y","N","Y","No"
1987032,"ASHLAND PARTNERS","3512 EXCEL DR","SUITE 103","MEDFORD","OR","United States","97504","Y",3783,"N","N","Y","Y","Yes"
1987062,"CITRIN COOPERMAN & COMPANY LLP","50 ROCKEFELLER PLAZA","","NEW YORK","NY","United States","10020","Y",2468,"Y","N","Y","N",""
1987122,"PRICEWATERHOUSECOOPERS LLP","101 SEAPORT BLVD","","BOSTON","MA","United States","02210","Y",238,"Y","N","Y","Y","Not Yet Received"
1988543,"KPMG LLP","1601 MARKET STREET","","PHILADELPHIA","PA","United States","19103-7240","Y",185,"Y","Y","N","N","Yes"
1988424,"DELOITTE & TOUCHE LLP","30 ROCKEFELLER PLAZA","","NEW YORK","NY","United States","10112","Y",1046,"Y","N","Y","Y","Yes"
1982604,"PERELSON WEINER LLP","299 PARK AVENUE","","NEW YORK","NY","United States","10171","Y",588,"Y","N","Y","N",""
1988695,"ASHLAND PARTNERS & COMPANY, LLC","3512 EXCEL DRIVE","SUITE 103","MEDFORD","OR","United States","97504","Y",3783,"Y","N","Y","N",""
1988322,"BAKER TILLY US, LLP","66 HUDSON BOULEVARD E","SUITE 2200","NEW YORK","NY","United States","10001","Y",23,"Y","Y","Y","N","Not Yet Received"
1988694,"RSM US LLP","80 CITY SQUARE","","BOSTON","MA","United States","02129","Y",49,"Y","Y","N","N","Not Yet Received"
1988703,"DELOITTE & TOUCHE","695 TOWN CENTER DRIVE","","COSTA MESA","CA","United States","92626-7188","Y",34,"Y","Y","N","N","Yes"
1988047,"KPMG LLP","ONE FINANCIAL PLAZA","755 MAIN STREET","HARTFORD","CT","United States","06103","Y",185,"Y","N","Y","N",""
1986127,"SPICER JEFFRIES LLP","4601 DTC BOULEVARD","SUITE 700","DENVER","CO","United States","80237","Y",349,"Y","Y","N","N","Yes"
1988010,"CITRIN COOPERMAN & COMPANY LLP","50 ROCKEFELLER PLAZA","","NEW YORK","NY","United States","10020","Y",2468,"Y","N","Y","N",""
1987541,"LUTZ & COMPANY, PC","13616 CALIFORNIA STREET","SUITE 300","OMAHA","NE","United States","68154","N",,"","N","Y","N",""
1988205,"KPMG, LLP","350 N 5TH STREET","SUITE 500","MINNEAPOLIS","MN","United States","55401","Y",185,"Y","Y","N","N","Yes"
1987156,"ERNST & YOUNG LLP","LEVEL 18 ONE RAFFLES QUAY","","SINGAPORE","","Singapore","048583","Y",1247,"Y","Y","N","N","Yes"
1987156,"ERNST & YOUNG LTD","62 FORUM LN","","GEORGE TOWN","","Cayman Islands","","Y",1655,"Y","Y","N","N","Yes"
1987087,"SPICER JEFFRIES LLP","4601 DTC BLVD","SUITE 700","DENVER","CO","United States","80237","Y",349,"Y","Y","N","N","Yes"
1987336,"THE MP GROUP (FORMERLY MORIARTY & PRIMACK, P.C.)","1 MONARCH PL","STE 900","SPRINGFIELD","MA","United States","01144","N",,"","N","Y","N",""
1987336,"SANDLER & COMPANY, P.C.","50 CABOT ST","STE 204","NEEDHAM","MA","United States","02494","Y",3709,"Y","Y","N","N","Yes"
1987344,"COHNREZNICK LLP","1301 AVENUE OF THE AMERICAS","SEVENTH FLOOR","NEW YORK","NY","United States","10019-6032","Y",596,"Y","Y","N","N","Yes"
1988738,"COHNREZNICK LLP","1301 AVENUE OF THE AMERICAS","","NEW YORK","NY","United States","10019","Y",596,"Y","Y","N","N","Yes"
1988738,"EISNERAMPER LLP","733 THIRD AVENUE","","NEW YORK","NY","United States","10017","Y",274,"Y","N","Y","N",""
1988843,"ASHLAND PARTNERS & COMPANY LLP","3512 EXCEL DR","SUITE 103","MEDFORD","OR","United States","97504","Y",3783,"Y","N","Y","N",""
1985902,"DELOITTE & TOUCHE LLP","200 BERKELEY STREET","","BOSTON","MA","United States","02116","Y",34,"Y","N","Y","N",""
1988277,"ERNST & YOUNG LLP","62 FORUM LANE","SUITE 6401","GRAND CAYMAN","","Cayman Islands","KY1-1106","Y",1645,"Y","Y","N","N","Yes"
1987278,"ASHLAND PARTNERS & COMPANY LLP","3512 EXCEL DRIVE","SUITE 103","MEDFORD","OR","United States","97504","Y",3783,"N","N","Y","N",""
1988285,"KPMG LLP","100 NORTH TAMPA STREET","#1700","TAMPA","FL","United States","33602-5145","Y",185,"Y","N","Y","Y","Yes"
1983843,"EISNERAMPER","750 3RD AVE","","NEW YORK","NY","United States","10017","Y",274,"Y","Y","N","N","Not Yet Received"
1983843,"COHNREZNIK","1301 AVENUE OF THE AMERICAS","","NEW YORK","NY","United States","10019","Y",596,"Y","Y","N","N","Not Yet Received"
1988299,"KEITER, STEPHENS, HURST, GARY & SHREAVES, P.C.","4401 DOMINION BOULEVARD","","GLEN ALLEN","VA","United States","23060","Y",80,"Y","N","Y","N",""
1988302,"ERNST & YOUNG LLP","ONE MANHATTAN WEST, 395 9TH AVENUE","","NEW YORK","NY","United States","10001-8600","Y",42,"Y","Y","N","N","Yes"
1987463,"COHNREZNICK LLP","1301 AVENUE OF THE AMERICAS","10TH FLOOR","NEW YORK","NY","United States","10019","Y",596,"Y","Y","N","N","Yes"
1987706,"SC&H GROUP, LLC","910 RIDGEBROOK ROAD","","SPARKS","MD","United States","21152","Y",2297,"Y","Y","Y","N","Yes"
1988328,"PRICEWATERHOUSECOOPERS LLP","PRICEWATERHOUSECOOPERS CENTER","300 MADISON AVENUE","NEW YORK","NY","United States","10017","Y",238,"Y","Y","Y","Y","Yes"
1977805,"EISNERAMPER LLP","160 FEDERAL STREET","9TH FLOOR","BOSTON","MA","United States","02110-1700","Y",274,"Y","N","Y","N",""
1988352,"COHEN & CO.","342 N. WATER STREET","SUITE 830","MILWAUKEE","WI","United States","53202","Y",925,"Y","N","Y","N",""
1988355,"PRICEWATERHOUSECOOPERS","P.O BOX 258","STRATHVALE HOUSE, NORTH CHURCH STREET","GEORGETOWN","","Cayman Islands","KY1-1104","Y",1266,"Y","Y","N","N","Yes"
1989507,"PWC","125 HIGH STREET","","BOSTON","MA","United States","02110","Y",238,"Y","N","N","Y","Yes"
1989573,"C. DEWITT FOARD & COMPANY, PA, CPAS","817 EAST MOREHEAD STREET","SUITE 100","CHARLOTTE","NC","United States","28202","N",,"","N","Y","N",""
1989550,"BDO USA, LLP","600 THIRD AVE","","NEW YORK","NY","United States","10016","Y",243,"Y","Y","Y","N","Yes"
1989595,"ERNST & YOUNG","1700 ONE WILLIAMS CTR","","TULSA","OK","United States","74172-0172","Y",42,"Y","N","Y","Y","Yes"
1989595,"KPMG LLP","TWO NATIONWIDE PLAZA","","COLUMBUS","OH","United States","43215","Y",42,"Y","Y","N","N","Yes"
1989614,"BAKER TILLY US, LLP","18500 VON KARMAN AVE","10TH FLOOR","IRVINE","CA","United States","92612","Y",23,"Y","Y","Y","N","Yes"
1985807,"ERNST & YOUNG","155 NORTH WACKER DRIVE","","CHICAGO","IL","United States","60606","Y",42,"Y","Y","N","N","Yes"
1988399,"COHEN & CO.","1350 EUCLID AVE.","SUITE 800","CLEVELAND","OH","United States","44115","Y",925,"Y","N","Y","N",""
1988400,"KPMG LLP","10 SOUTH BROADWAY","SUITE 900","SAINT LOUIS","MO","United States","63102-1736","Y",185,"Y","N","Y","Y","Yes"
1988190,"LAPORTE CPAS & BUSINESS ADVISORS","111 VETERANS MEMORIAL BLVD","SUITE 600","METAIRIE","LA","United States","70005-4913","Y",601,"Y","Y","Y","N","Yes"
1986594,"ERNST & YOUNG LLP","801 GRAND AVENUE","SUITE 3000","DES MOINES","IA","United States","50309","N",,"","N","Y","Y","Yes"
1988300,"PRICEWATERHOUSECOOPERS LLP","PRICEWATERHOUSECOOPERS CENTER","300 MADISON AVENUE","NEW YORK","NY","United States","10017","Y",238,"Y","N","Y","Y","No"
1988462,"PLANTE & MORAN, PLLC","10 SOUTH RIVERSIDE PLAZA","9TH FLOOR","CHICAGO","IL","United States","60606","Y",166,"Y","N","Y","N",""
1988477,"ARMANINO, LLP","6 CITYPLACE DR","SUITE 900","ST LOUIS","MO","United States","63141","Y",32,"Y","N","Y","N",""
1988476,"DELOITTE IRELAND LLP","DELOITTE & TOUCHE HOUSE","29 EARLSFORT TERRACE","DUBLIN","","Ireland","D02 AY28","Y",1193,"Y","Y","N","N","Yes"
1988497,"ASHLAND PARTNERS & COMPANY LLP","3512 EXCEL DRIVE","SUITE 103","MEDFORD","OR","United States","97504","Y",3783,"N","N","Y","N",""
1989663,"ALDRIDGE, BORDEN & COMPANY, PC","74 COMMERCE STREET","","MONTGOMERY","AL","United States","36101","N",,"","N","Y","N",""
1989629,"ADEPTUS PARTNERS LLC","244 WEST 54TH STREET","9TH FLOOR","NEW YORK","NY","United States","10019","Y",3686,"Y","N","Y","N",""
1982840,"KPMG LLP","345 PARK AVENUE","","NEW YORK","NY","United States","10154","Y",185,"Y","Y","N","N","Yes"
1982840,"KPMG LLP","1 HARBOURMASTER PLACE","IFSC","DUBLIN 1","","Ireland","D01 F6F5","Y",1116,"Y","Y","N","N","Yes"
1982840,"KPMG LLP","SIX, CRICKET SQUARE","","GEORGE TOWN","","Cayman Islands","KY1-1106","Y",1323,"Y","Y","N","N","Yes"
1982840,"ERNST & YOUNG LLP","ONE MANHATTAN WEST","","NEW YORK","NY","United States","10001","Y",42,"Y","Y","N","N","Yes"
1982840,"ERNST & YOUNG LTD.","62 FORUM LANE","CAMANA BAY","GEORGE TOWN","","Cayman Islands","","Y",1655,"Y","Y","N","N","Yes"
1982840,"ERNST & YOUNG CHARTERED ACCOUNTANTS","HARCOURT CENTRE","HARCOURT STREET","DUBLIN","","Ireland","DUBLIN D2","Y",1411,"Y","Y","N","N","Yes"
1989693,"GALAXY ACCOUNTING SERVICES","15260 VENTURA BOULEVARD","SUITE 1200","SHERMAN OAKS","CA","United States","91403","N",,"","N","Y","N",""
1989722,"ERNST & YOUNG","1700 ONE WILLIAMS CENTER","","TULSA","OK","United States","74172-0172","Y",42,"Y","N","Y","Y","Yes"
1989579,"DRIVEN CONSULTANTS, PSC","1302 PONCE DE LEON AVE.","CORNER JOSE RAMON FIGUEROA","SAN JUAN","PR","United States","00907","Y",3259,"Y","Y","N","N","Yes"
1989579,"KEVANE GRANT THORTON LLP","33 CALLE BOLIVIA SUITE 400","","SAN JUAN","PR","United States","00917-2013","Y",838,"Y","Y","N","N","Yes"
1980799,"MOSS ADAMS LLP","999 THIRD AVENUE","SUITE 2800","SEATTLE","WA","United States","98104-4019","Y",659,"Y","Y","N","N","Yes"
1980799,"DELOITTE & TOUCHE LLP","925 FOURTH AVENUE","STE 3300","SEATTLE","WA","United States","98104-1126","Y",34,"Y","Y","N","N","Yes"
1993198,"ARMANINO LLP","6 CITY PLACE","SUITE 900","ST. LOUIS","MO","United States","63141","Y",32,"Y","N","Y","N",""
1987160,"WEAVER AND TIDWELL, LLP","24 GREENWAY PLAZA","SUITE 1800","HOUSTON","TX","United States","77046","Y",410,"Y","Y","N","N","Yes"
1993385,"ERNST WINTTER & ASSOCIATES LLP","675 YGNACIO VALLEY ROAD, SUITE A200","","WALNUT CREEK","CA","United States","94596","Y",3438,"Y","N","Y","N",""
1975735,"PRICEWATERHOUSECOOPERS LLC","300 MADISON AVE","","NEW YORK","NY","United States","10017","Y",238,"Y","N","Y","Y","Yes"
1987297,"BAKER TILLY US, LLP","66 HOUDSON BLVD E","SUITE 2200","NEW YORK","NY","United States","10001","Y",23,"Y","N","Y","N",""
1982949,"RICHEY MAY & CO.","9780 S MERIDIAN BLVD., SUITE 500","","ENGLEWOOD","CO","United States","80112","Y",673,"Y","Y","N","N","Yes"
1986561,"GRANT THORNTON LLP","171 N CLARK ST","SUITE 200","CHICAGO","IL","United States","60601","Y",248,"Y","Y","N","N","Yes"
1986577,"GBQ PARTNERS","230 WEST STREET","SUITE 700","COLUMBUS","OH","United States","43215","Y",1808,"Y","N","Y","N",""
1978817,"PRAGER METIS CPAS LLC","14 PENN PLAZA","SUITE 1800","NEW YORK","NY","United States","10122","Y",273,"N","N","Y","N",""
1986651,"BDO USA, P.C.","421 FAYETTEVILLE STREET","","RALEIGH","NC","United States","27601","Y",243,"Y","Y","N","N","Yes"
1986651,"COHEN & COMPANY, LTD.","1350 EUCLID AVENUE","SUITE 800","CLEVELAND","OH","United States","44115","Y",925,"Y","N","Y","N",""
1986721,"BONADIO & CO., LLP","100 CORPORATE PARKWAY","SUITE 200","AMHERST","NY","United States","14226","Y",1884,"Y","N","N","Y","Yes"
1986721,"PRICEWATERHOUSECOOPERS, LLP","300 MADISON AVENUE","","NEW YORK","NY","United States","10017","Y",238,"Y","Y","N","N","Yes"
1986721,"BONADIO & CO., LLP","100 CORPORATE PARKWAY","SUITE 200","AMHERST","NY","United States","14226","Y",1884,"Y","N","Y","N",""
1986737,"CITRIN COOPERMAN","529 FIFTH AVENUE","","NEW YORK","NY","United States","10017","Y",2468,"Y","Y","Y","N","Yes"
1986762,"WSRP, LLC","155 NORTH 400 WEST","SUITE 400","SALT LAKE CITY","UT","United States","84103","Y",374,"Y","N","Y","N",""
1986770,"PKF O'CONNOR DAVIES, LLP","665 FIFTH AVENUE","","NEW YORK","NY","United States","10022","Y",127,"Y","N","Y","N",""
1985154,"PRICEWATERHOUSECOOPERS, LLP","6 CARDINAL WAY","SUITE 1100","ST. LOUIS","MO","United States","63102","Y",238,"Y","N","Y","Y","Yes"
1981283,"DELOITTE & TOUCHE LLP","200 BERKELEY STREET","","BOSTON","MA","United States","02116","Y",34,"Y","Y","N","N","Yes"
1990417,"BAKER NEWMAN & NOYES, LLC","280 FORE STREET","","PORTLAND","ME","United States","04101","Y",231,"Y","N","Y","N",""
1990417,"EISNERAMPER LLC","733 THIRD AVENUE","","NEW YORK","NY","United States","10017","Y",274,"Y","Y","N","N","Yes"
1977642,"KPMG LLP","51 JFK PARKWAY","","SHORT HILLS","NJ","United States","07078","Y",185,"Y","Y","N","N","Yes"
1977642,"ERNST & YOUNG LLP","5 TIMES SQUARE","","NEW YORK","NY","United States","10036","Y",42,"Y","Y","N","N","Yes"
1977642,"BAKER TILLY CHINA CERTIFIED PUBLIC ACCOUNTANTS","21/F HARBOUR BUILDING","1 FENGHE ROAD","PUDONG SHANGHAI","","China","200120","Y",3064,"Y","Y","N","N","Yes"
1986982,"CITRIN COOPERMAN & COMPANY, LLP","30 BRAINTREE HILL OFFICE PARK, SUITE 300","","BRAINTREE","MA","United States","02184","Y",2468,"Y","Y","Y","N","Not Yet Received"
1992746,"DELOITTE & TOUCHE LLP","30 ROCKEFELLER PLAZA","","NEW YORK","NY","United States","10112","Y",34,"Y","Y","Y","N","Yes"
1986808,"LBMC","201 FRANKLIN ROAD","","BRENTWOOD","TN","United States","37027","Y",450,"Y","Y","N","N","Yes"
1986824,"KPMG","303 PEACHTREE STREET","SUITE 2000","ATLANTA","GA","United States","30308","Y",185,"Y","Y","N","N","Yes"
1986852,"DELOITTE & TOUCHE LLP","30 ROCKEFELLER PLAZA","","NEW YORK","NY","United States","10281-1414","Y",34,"Y","Y","Y","N","Not Yet Received"
1986731,"BDO CAYMAN LTD.","GOVERNORS SQUARE, 23 LIME TREE BAY AVENUE","2ND FLOOR, BUILDING 3","GEORGE TOWN","","Cayman Islands","KY1-1205","Y",2162,"Y","Y","Y","N","Yes"
1986906,"BDO USA, P.C.","ONE BUSH STREET","","SAN FRANCISCO","CA","United States","94104","Y",243,"Y","Y","N","Y","Not Yet Received"
1976148,"HILL, BARTH & KING LLC","6603 SUMMIT DR.","","CANFIELD","OH","United States","44406","Y",2206,"Y","N","Y","N",""
1990506,"DELOITTE & TOUCHE, LLP","111 SOUTH WACKER DRIVE","","CHICAGO","IL","United States","60606","Y",34,"Y","Y","N","N","Yes"
1990506,"KPMG LLP","AON CENTER","200 E. RANDOLPH STREET, SUITE 5500","CHICAGO","IL","United States","60601","Y",185,"Y","Y","N","N","Not Yet Received"
1990506,"FORVIS MAZARS, LLP","135 W 50TH STREET","","NEW YORK","NY","United States","10020","Y",686,"Y","Y","N","N","Not Yet Received"
1990506,"COHEN & COMPANY","1350 EUCLID AVE","SUITE 800","CLEVELAND","OH","United States","44115","Y",925,"Y","Y","N","Y","Yes"
1990506,"ERNST & YOUNG","5 TIMES SQUARE","","NEW YORK","NY","United States","10036","Y",42,"Y","Y","N","N","Yes"
1990506,"KPMG","345 PARK AVENUE","","NEW YORK","NY","United States","10154","Y",185,"Y","Y","N","N","Yes"
1990506,"FORVIS MAZARS, LLP","135 W 50TH STREET","","NEW YORK","NY","United States","10020","Y",686,"Y","N","Y","N",""
1990506,"SCHNEIDER DOWNS & CO., INC.","ONE PPG PLACE, SUITE 1700","","PITTSBURGH","PA","United States","15222","Y",358,"Y","Y","N","N","Not Yet Received"
1990506,"ERNST & YOUNG LLP","200 CLARENDON ST","","BOSTON","MA","United States","02116","Y",42,"Y","Y","N","N","Yes"
1992769,"GRANT THORNTON LLP","33 CALLE BOLIVIA SUITE 400","","SAN JUAN","PR","United States","00918","Y",838,"Y","Y","N","N","Yes"
1992193,"ASHLAND PARTNERS & COMPANY LLP","3512 EXCEL DRIVE","SUITE 103","MEDFORD","OR","United States","97504","Y",3783,"Y","N","Y","N",""
1992695,"DELOITTE & TOUCHE LLP","CORNER HOUSE 20 PARLIAMENT STREET","","HAMILTON","","Bermuda","HM 12","Y",5230,"Y","Y","N","N","Yes"
1992713,"BONADIO & CO., LLP","171 SULLY'S TRAIL","SUITE 201","PITTSFORD","NY","United States","14534","Y",1884,"Y","N","Y","N",""
1992813,"HILL, BARTH & KING LLC","100 PINEWOOD LANE","SUITE 201","WARRENDALE","PA","United States","15086","Y",2206,"Y","N","Y","N",""
1989430,"GRANT THORNTON (SOC 1)","75 STATE ST., 13TH FLOOR","","BOSTON","MA","United States","02109","Y",248,"Y","N","N","Y","Yes"
1989430,"RSM US, LLP (CUSTODY AUDIT)","80 CITY SQUARE","","BOSTON","MA","United States","02129","Y",49,"Y","N","Y","N",""
1987303,"BONADIO & CO., LLP","100 CORPORATE PARKWAY","SUITE 200","AMHERST","NY","United States","14226","Y",1884,"Y","N","N","Y","Yes"
1987303,"PRICEWATERHOUSECOOPERS, LLP","300 MADISON AVENUE","","NEW YORK","NY","United States","10017","Y",238,"Y","Y","N","N","Yes"
1987303,"BONADIO & CO., LLP","100 CORPORATE PARKWAY","SUITE 200","AMHERST","NY","United States","14226","Y",1884,"Y","N","Y","N",""
1987350,"GRANT THORNTON LLP","757 THIRD AVENUE","9TH FLOOR","NEW YORK","NY","United States","10017","Y",248,"Y","Y","N","N","Yes"
1987388,"PLANTE MORAN","1445 MARKET STREET","SUITE 300","DENVER","CO","United States","80202","Y",166,"Y","Y","N","N","Yes"
1987393,"KPMG LLP","ONE FINANCIAL PLAZA","755 MAIN STREET","HARTFORD","CT","United States","06103","Y",185,"Y","N","Y","N",""
1987411,"BAKER TILLY US, LLP","50 FREMONT STREET","SUITE 4000","SAN FRANCISCO","CA","United States","94105","Y",402,"Y","N","Y","N",""
1987425,"EISNERAMPER LLP","733 THIRD AVENUE","","NEW YORK","NY","United States","10017","Y",274,"Y","Y","N","N","Not Yet Received"
1953785,"KPMG SARL","39 AV. JOHN F. KENNEDY, 1855 KIRCHBERG LUXEMBOURG","","LUXEMBOURG","","Luxembourg","","N",,"","Y","N","N","Yes"
1928460,"PWC REVISEURS D'ENTREPRISES","CULLIGANLAAN","5","DIEGEM","","Belgium","1831","N",,"","Y","N","Y","Yes"
1986583,"KPMG LLP","345 PARK AVENUE","","NEW YORK","NY","United States","10154","Y",185,"Y","N","Y","N",""
1987913,"CITRIN COOPERMAN & COMPANY LLP","50 ROCKEFELLER PLAZA","","NEW YORK","NY","United States","10020","Y",2468,"Y","N","Y","N",""
1988106,"PRICEWATERHOUSECOOPERS LLP","300 MADISON AVENUE","","NEW YORK","NY","United States","10017","Y",238,"Y","N","Y","Y","Yes"
1992547,"PRICEWATERHOUSECOOPERS LLP","101 SEAPORT BOULEVARD","SUITE 500","BOSTON","MA","United States","02110","Y",238,"Y","Y","N","N","Yes"
1992547,"KESSELMAN AND KESSELMAN, A MEMBER FIRM OF PRICEWATERHOUSECOOPERS INTERNATIONAL LIMITED","TRADE TOWER","25 HAMERED STREET","TEL AVIV","","Israel","6812508","Y",1309,"Y","Y","N","N","Yes"
1992321,"ERNST & YOUNG LLP","5 TIMES SQUARE","","NEW YORK","NY","United States","10036","Y",42,"Y","Y","N","N","Yes"
1993092,"ERNST & YOUNG S.A.","35E AVENUE JOHN F. KENNEDY","","LUXEMBOURG","","Luxembourg","L-1855","Y",1367,"Y","Y","N","Y","Yes"
1993092,"GRANT THORNTON","757 THIRD AVENUE","","NEW YORK","NY","United States","10017","Y",248,"Y","Y","Y","N","Yes"
1993092,"PRICEWATERHOUSE COOPERS","300 MADISON AVENUE","","NEW YORK","NY","United States","10017","Y",238,"Y","Y","N","N","Yes"
1993092,"ERNST & YOUNG LLP","ONE MANHATTAN WEST","","NEW YORK","NY","United States","10001","Y",42,"Y","Y","N","N","Yes"
1993092,"ERNST & YOUNG LIMITED","62 FORUM LANE","","CAMANA BAY","","Cayman Islands","","Y",1655,"Y","Y","N","N","Yes"
1973512,"PRICEWATERHOUSE COOPERS","225 SOUTH SIXTH STREET","SUITE 1400","MINNEAPOLIS","MN","United States","55402","Y",238,"Y","Y","Y","Y","Yes"
1992357,"CROWE LLP","330 EAST JEFFERSON BLVD","","SOUTH BEND","IN","United States","46624","Y",173,"Y","Y","N","N","Yes"
1992357,"COHNREZNICK LLP","1301 AVENUE OF THE AMERICAS","","NEW YORK","NY","United States","10019","Y",596,"Y","Y","N","N","Yes"
1992643,"PRICEWATERHOUSECOOPERS LLP","ONE NORTH WACKER","","CHICAGO","IL","United States","60606","Y",238,"Y","Y","Y","N","Yes"
1993847,"EISNERAMPER LLP","ONE CALIFORNIA STREET","SUITE 1700","SAN FRANCISCO","CA","United States","94111","Y",274,"Y","Y","N","N","Yes"
1993865,"EISNERAMPER LLP","ONE CALIFORNIA STREET","SUITE 1700","SAN FRANCISCO","CA","United States","94111","Y",274,"Y","Y","N","N","Yes"
1989694,"PRICEWATERHOUSECOOPERS LLP","101 SEAPORT BOULEVARD","SUITE 500","BOSTON","MA","United States","02210","Y",238,"Y","Y","Y","Y","Yes"
1993878,"FORVIS, LLP","500 RIDGEFIELD COURT","","ASHEVILLE","NC","United States","28806","Y",686,"Y","Y","N","N","Yes"
1993976,"BAKER TILLY, VIRCHOW KRAUSE, LLP","205 MICHIGAN AVE","","CHICAGO","IL","United States","60601","Y",23,"Y","N","Y","N",""
1989542,"WALTER SHUFFAIN","ONE INTERNATIONAL PLACE","SUITE 1010","BOSTON","MA","United States","02110","Y",5439,"Y","N","Y","N",""
1989751,"WEAVER AND TIDWELL, L.L.P.","2821 W 7TH ST","STE 700","FORT WORTH","TX","United States","76107","Y",410,"Y","Y","Y","N","Not Yet Received"
1989951,"RSM US LLP","ONE SOUTH WACKER DRIVE","SUITE 800","CHICAGO","IL","United States","60606","Y",49,"Y","Y","N","N","Not Yet Received"
1979188,"ELLIOTT DAVIS, LLC","555 WALNUT STREET","SUITE 300","CHATTANOOGA","TN","United States","37402","Y",149,"Y","N","Y","N",""
1990004,"WEAVER AND TIDWELL, LLP","1230 ROSECRANS AVE SUITE 510","","MANHATTAN BEACH","CA","United States","90266","Y",410,"Y","Y","Y","N","Yes"
1990003,"BAKER TILLY","205 N MICHIGAN AVE","28TH FLOOR","CHICAGO","IL","United States","60601","Y",23,"Y","Y","N","N","Yes"
1990003,"ARMANINO LLP","12657 ALCOSTA BLVD.","SUITE 500","SAN RAMON","CA","United States","94583","Y",32,"Y","N","Y","N",""
1990035,"ERNST & YOUNG","1700 ONE WILLIAMS CENTER","","TULSA","OK","United States","74172-0172","Y",42,"Y","N","Y","Y","Yes"
1989535,"KPMG LLP","ONE FINANCIAL PLAZA","","HARTFORD","CT","United States","06103","Y",185,"Y","Y","N","N","Not Yet Received"
1990108,"PRICEWATERHOUSECOOPERS","ONE INTERNATIONAL TOWERS SYDNEY","WATERMANS QUAY, BARANGAROO","SYDNEY","","Australia","2001","N",,"","Y","N","N","Yes"
1990034,"CITRIN COOPERMAN & COMPANY, LLP","50 ROCKEFELLER PLAZA","","NEW YORK","NY","United States","10020","Y",2468,"Y","N","Y","N",""
1993150,"CITRIN COOPERMAN & COMPANY, LLP","50 ROCKEFELLER PLAZA","","NEW YORK","NY","United States","10020","Y",2468,"Y","N","Y","N",""
1992852,"ASHLAND PARTNERS & COMPANY LLP","3512 EXCEL DRIVE, SUITE 103","","MEDFORD","OR","United States","97504","Y",3783,"Y","N","Y","N",""
1992825,"ERNST & YOUNG LLP","ONE MANHATTAN WEST","","NEW YORK","NY","United States","10001","Y",42,"Y","Y","N","N","Yes"
1992676,"BERKOW, SCHECHTER & COMPANY LLP","350 BEDFORD STREET","","STAMFORD","CT","United States","06901","Y",4040,"Y","N","Y","N",""
1993412,"DEMETRIUS BERKOWER LLC","155 WAYNE US RTE 46","","WAYNE","NJ","United States","07470","Y",5961,"Y","Y","N","Y","No"
1993358,"PRICEWATERHOUSECOOPERS LLP","300 MADISON AVENUE","","NEW YORK","NY","United States","10017","Y",238,"Y","Y","Y","Y","Yes"
1990026,"RSM US LLP","30 SOUTH WACKER DRIVE","SUITE 3300","CHICAGO","IL","United States","60606","Y",49,"Y","N","Y","N",""
1989907,"MAYER HOFFMAN MCCANN P.C.","2255 GLADES RD, STE 321A","","BOCA RATON","FL","United States","33431","Y",199,"Y","N","Y","N",""
1990109,"PRICEWATERHOUSECOOPERS (AUSTRALIA)","ONE INTERNATIONAL TOWERS","WATERMANS QUAY","BARANGAROO","","Australia","2000","N",,"","Y","N","N","Yes"
1990151,"PRICEWATERHOUSECOOPERS LLP","300 MADISON AVENUE","","NEW YORK","NY","United States","10017","Y",238,"Y","Y","N","N","Not Yet Received"
1989831,"KMPG LLP","550 SOUTH HOPE STREET","SUITE 1500","LOS ANGELES","CA","United States","90071","Y",185,"Y","Y","N","N","Yes"
1990193,"KAUFMAN ROSSIN","3310 MARY STREET","SUITE 501","MIAMI","FL","United States","33131","Y",137,"Y","N","Y","N",""
1990222,"CBIZ CPA'S P.C.","777 S. FIGUEROA STREET","SUITE 2900","LOS ANGELES","CA","United States","90017","Y",199,"Y","Y","N","N","Yes"
1990248,"WITHUMSMITH+BROWN, PC","506 CARNEGIE CENTER, SUITE 400","","PRINCETON","NJ","United States","08540","Y",100,"Y","Y","Y","N","Yes"
1993453,"PRICEWATERHOUSECOOPERS LLP","101 SEAPORT BOULEVARD","","BOSTON","MA","United States","02210","Y",238,"Y","Y","Y","N","Yes"
1988374,"PRICEWATERHOUSECOOPERS LLP","1100 WALNUT STREET","SUITE 1300","KANSAS CITY","MO","United States","64106","Y",238,"Y","Y","N","N","Yes"
1988374,"PRICEWATERHOUSECOOPERS LLP","TWO COMMERCE SQUARE, 2001 MARKET STREET","SUITE 1800","PHILADELPHIA","PA","United States","19103","Y",238,"Y","Y","N","N","Yes"
1988374,"PRICEWATERHOUSECOOPERS, SOCIÉTÉ COOPERATIVE","2, RUE GERHARD MERCATOR","","LUXEMBOURG","","Luxembourg","L-1014","Y",1328,"Y","Y","N","N","Yes"
1988374,"PRICEWATERHOUSECOOPERS","PWC TOWER, 18 YORK STREET","SUITE 2500","TORONTO","","Canada","M5J 0B2","Y",271,"Y","Y","N","N","Yes"
1988374,"PRICEWATERHOUSECOOPERS","18 FORUM LANE","P.O.BOX 258","CAMANA BAY, GRAND CAYMAN","","Cayman Islands","KY1-1104","Y",1266,"Y","Y","N","N","Yes"
1988374,"PRICEWATERHOUSECOOPERS LLP","101 SEAPORT BOULEVARD","SUITE 500","BOSTON","MA","United States","02210","Y",238,"Y","Y","N","N","Yes"
1993634,"SPICER JEFFRIES LLP","4601 DTC BLVD.","SUITE 700","DENVER","CO","United States","80237","Y",349,"Y","Y","N","N","Not Yet Received"
1993764,"KPMG LLP","PO BOX 493","","345 PARK AVENUE","NY","United States","10154","Y",185,"Y","Y","N","N","Yes"
1989643,"KPMG","55 SECOND ST","","SAN FRANCISCO","CA","United States","94105","Y",185,"Y","Y","N","N","Yes"
1990255,"KPMG LLP","345 PARK AVENUE","","NEW YORK","NY","United States","10154","Y",185,"Y","Y","N","N","Not Yet Received"
1990255,"PRICEWATERHOUSECOOPERS LLP","1 EMBANKMENT PLACE","","LONDON","","United Kingdom","WC2N 6RH","Y",876,"Y","Y","N","N","Not Yet Received"
1990255,"FORVIS MAZARS, LLP","135 W 50TH STREET","","NEW YORK","NY","United States","10020","Y",686,"Y","Y","N","N","Not Yet Received"
1990255,"PRICEWATERHOUSECOOPERS, SOCIETE COOPERATIVE","2 RUE GERHARD","B.P.1443","MERCATOR","","Luxembourg","L-1014","Y",1328,"Y","Y","N","N","Yes"
1993870,"FORVIS MAZARS, LLP","135 WEST 50TH STREET","","NEW YORK","NY","United States","10020","Y",339,"Y","N","Y","N",""
1993870,"FORVIS MAZARS, LLP","500 RIDGEFIELD COURT","","ASHEVILLE","NC","United States","28806","Y",339,"Y","Y","N","N","Yes"
1993475,"PRICEWATERHOUSECOOPERS JAPAN LLC","1-1-1","OTEMACHI, CHIYODA-KU","TOKYO","","Japan","100-0004","Y",2743,"Y","Y","N","N","No"
1993475,"ERNST & YOUNG SHINNIHON LLC","1-1-2","YURAKU-CHO, CHIYODA-KU","TOKYO","","Japan","100-0006","Y",789,"Y","N","N","Y","No"
1994446,"KREISCHER MILLER","100 WITMER ROAD","SUITE 350","HORSHAM","PA","United States","19044","Y",6151,"Y","Y","Y","N","Yes"
1994515,"BERKOW, SCHECHTER & COMPANY LLP","350 BEDFORD STREET","","STAMFORD","CT","United States","06901","Y",4040,"Y","N","Y","N",""
1994552,"KPMG LLP","345 PARK AVENUE","","NEW YORK","NY","United States","10154-0102","Y",185,"Y","Y","N","Y","Yes"
1994552,"KPMG LLP","BNY MELLON CENTER","SUITE 3400, 500 GRANT STREET","PITTSBURGH","PA","United States","15219-2598","Y",185,"Y","N","N","Y","Yes"
1992418,"KPMG","1 STOKES PLACE","ST STEPHEN'S GREEN","DUBLIN 2","","Ireland","DO2 DE03","Y",1116,"Y","Y","N","N","Yes"
1994609,"KPMG LLP","345 PARK AVENUE","","NEW YORK","NY","United States","10154-0102","Y",185,"Y","Y","N","Y","Yes"
1994609,"KPMG LLP","BNY MELLON CENTER","SUITE 3400, 500 GRANT STREET","PITTSBURGH","PA","United States","15219-2598","Y",185,"Y","N","N","Y","Yes"
1994463,"KPMG LLP","STAMFORD SQUARE","3001 SUMMER STREET","STAMFORD","CT","United States","06905-4317","Y",185,"Y","Y","N","N","Not Yet Received"
1992948,"DELOITTE & TOUCHE LLP","30 ROCKEFELLER PLAZA","","NEW YORK","NY","United States","10112","Y",34,"Y","Y","N","N","Yes"
1989652,"EISNERAMPER LLP","ONE CALIFORNIA","SUITE 1700","SAN FRANCISCO","CA","United States","94111","Y",274,"Y","Y","N","N","Yes"
1989652,"DELOITTE & TOUCHE LLP","555 MISSION STREET","","SAN FRANCISCO","CA","United States","94105-0920","Y",34,"Y","Y","N","N","Yes"
1994815,"PRICEWATERHOUSE COOPERS LLP","300 MADISON AVENUE","","NEW YORK","NY","United States","10017-6204","Y",238,"Y","N","Y","Y","Yes"
1992557,"WITHUM","506 CARNEGIE CENTER","#400","PRINCETON","NJ","United States","08540","Y",100,"Y","N","Y","N",""
1986531,"LILLING & CO.","TWO SEAVIEW BLVD","","PORT WASHINGTON","NY","United States","11050","Y",3480,"Y","Y","N","N","No"
1987933,"PRICEWATERHOUSECOOPERS","21/F, EDINBURGH TOWER, THE LANDMARK","15 QUEEN'S ROAD CENTRAL","HONG KONG","","Hong Kong","","Y",1389,"Y","Y","N","N","Yes"
1987252,"ERNST & YOUNG LLP","1401 MCKINNEY STREET","SUITE 1400","HOUSTON","TX","United States","77010-4034","Y",42,"Y","Y","N","N","Yes"
1987103,"KPMG LLP","620 S TRYON ST","SUITE 1000","CHARLOTTE","NC","United States","28202","Y",185,"Y","Y","N","N","Yes"
1986605,"DELOITTE & TOUCHE LLP","695 TOWN CENTER DRIVE","SUITE 1000","COSTA MESA","CA","United States","92626","Y",34,"Y","Y","Y","N","Yes"
1986630,"DELOITTE & TOUCHE LLP","695 TOWN CENTER DRIVE","SUITE 1000","COSTA MESA","CA","United States","92626","Y",34,"Y","Y","Y","N","Yes"
1986622,"ELLIOTT DAVIS, LLC","629 MARKET STREET, SUITE 100","","CHATTANOOGA","TN","United States","37402","Y",149,"Y","N","Y","N",""
1986622,"MARGOLIN, WINER & EVENS LLP","ONE PENN PLAZA","SUITE 3000","NEW YORK","NY","United States","10119","Y",332,"Y","Y","N","N","Yes"
1986671,"COHEN & CO LTD","1350 EUCLID AVENUE","SUITE 800","CLEVELAND","OH","United States","44115","Y",925,"Y","Y","N","N","Yes"
1986679,"PRICEWATERHOUSE COOPERS LLP","300 MADISON AVENUE","","NEW YORK","NY","United States","10017-6204","Y",238,"Y","N","Y","Y","Yes"
1986730,"SPICER JEFFRIES LLP","5251 S QUEBEC STREET, SUITE 200","","GREENWOOD VILLAGE","CO","United States","80111","Y",349,"Y","Y","N","N","Yes"
1986782,"KPMG LLP","1601 MARKET STREET","","PHILADELPHIA","PA","United States","19103-7240","Y",185,"Y","Y","N","N","Yes"
1986782,"KPMG LLP","SIX CRICKET SQUARE","","GRAND CAYMAN","","Cayman Islands","KY1-1106","Y",1323,"Y","Y","N","N","Yes"
1986782,"KPMG LLP","345 PARK AVENUE","","NEW YORK","NY","United States","10154","Y",1323,"Y","Y","N","N","Yes"
1986837,"MOSS ADAMS LLP","14555 DALLAS PARKWAY","","DALLAS","TX","United States","75254","Y",659,"Y","Y","Y","N","Yes"
1987248,"FORTNER, BAYENS, LEVKULICH & GARRISON, P.C.","1580 LINCOLN STREET","SUITE 700","DENVER","CO","United States","80203","Y",3771,"Y","N","Y","Y","Yes"
1987108,"KPMG LLP","620 S TRYON ST","SUITE 1000","CHARLOTTE","NC","United States","28202","Y",185,"Y","Y","N","N","Yes"
1987942,"PRICEWATERHOUSECOOPERS LLP","300 MADISON AVENUE","","NEW YORK","NY","United States","10017","Y",238,"Y","Y","N","N","Yes"
1988008,"CITRIN COOPERMAN & COMPANY LLP","50 ROCKEFELLER PLAZA","","NEW YORK","NY","United States","10020","Y",2468,"Y","N","Y","N",""
1975857,"KPMG","CENTURY YARD","CRICKET SQUARE","GEORGE TOWN","","Cayman Islands","","Y",1323,"Y","Y","N","N","Yes"
1988071,"EIDE BAILLY LLP","5 TRIAD CENTER, SUITE 750","","SALT LAKE CITY","UT","United States","84180-1128","Y",286,"Y","N","Y","Y","Yes"
1988043,"FORVIS MAZARS, LLP","14241 DALLAS PKWY","#1100","DALLAS","TX","United States","75254","Y",686,"Y","Y","N","N","Not Yet Received"
1982456,"PRICEWATERHOUSECOOPERS LLP","THREE EMBARCADERO CENTER,","","SAN FRANCISCO","CA","United States","94111","Y",238,"Y","Y","N","N","Yes"
1988119,"CITRIN COOPERMAN & COMPANY LLP","50 ROCKEFELLER PLAZA","","NEW YORK","NY","United States","10020","Y",2468,"Y","N","Y","N",""
1986008,"WITHUMSMITH+BROWN","5 VAUGHN DRIVE","","PRINCETON","NJ","United States","08540","Y",100,"Y","N","Y","Y","Yes"
1986612,"BAUER & COMPANY","P.O. BOX 27887","","AUSTIN","TX","United States","78755","Y",6072,"Y","Y","N","N","Yes"
1986647,"KREISCHER MILLER","100 WITMER ROAD","SUITE 350","HORSHAM","PA","United States","19044","Y",6151,"Y","Y","Y","N","Yes"
1985326,"COHEN & CO.","1350 EUCLID AVE.","SUITE 800","CLEVELAND","OH","United States","44115","Y",925,"Y","N","Y","N",""
1986666,"ASHLAND PARTNERS & COMPANY, LLP","3512 EXCEL DR","STE 103","MEDFORD","OR","United States","97504","Y",3783,"Y","N","Y","N",""
1986680,"GOLD GOCIAL GROUP LLC","STAFFORDSHIRE PROFESSIONAL CENTER BUILDING D","1307 WHITE HORSE ROAD","VOORHEES","NJ","United States","08043-2176","N",,"N","N","Y","N",""
1986685,"KPMG LLP","345 PARK AVENUE","","NEW YORK","NY","United States","10154","Y",185,"Y","Y","N","N","Not Yet Received"
1981249,"EISNERAMPER, LLP","ONE LOGAN SQUARE 130 N 18TH ST","STE 3000","PHILADELPHIA","PA","United States","19103","Y",274,"Y","N","Y","N",""
1986563,"RSM US LLP","555 17TH STREET","UNIT 1200","DENVER","CO","United States","80202","Y",49,"Y","Y","N","N","Yes"
1986602,"KPMG LLP","550 SOUTH HOPE STREET","SUITE 1500","LOS ANGELES","CA","United States","90071","Y",185,"Y","N","Y","N",""
1986890,"ASHLAND PARTNERS & COMPANY LLP","3512 EXCEL DRIVE","SUITE 103","MEDFORD","OR","United States","97504","Y",3783,"Y","N","Y","N",""
1986890,"KPMG","345 PARK AVENUE","","NEW YORK","NY","United States","10154","Y",185,"Y","N","N","Y","Yes"
1987009,"KEITER","4401 DOMINION BLOULEVARD","","GLEN ALLEN","VA","United States","23060","Y",101,"Y","N","Y","N",""
1983021,"DELOITTE & TOUCHE LLP","1111 BAGBY STREET","4500","HOUSTON","TX","United States","77002","Y",34,"Y","Y","N","N","Yes"
1987107,"COHNREZNICK","4 BECKER FARM ROAD","P.O. BOX 954","ROSELAND","NJ","United States","07068-0954","Y",596,"Y","N","Y","N",""
1987107,"KPMG LLP","774 MAIN STREET","","MONCTON NB","","Canada","E1C 8N6","Y",85,"Y","Y","N","N","Yes"
1987107,"DELOITTE IRELAND LLP","DELOITTE & TOUCHE HOUSE","EARLSFORT TERRACE","DUBLIN 2","","Ireland","","Y",1193,"Y","Y","N","N","Yes"
1987107,"DELOITTE & TOUCHE LLP","ONE CAPITAL PLACE","P.O. BOX 1787","GRAND CAYMAN","","Cayman Islands","KY1-1109","Y",1096,"Y","Y","N","N","Yes"
1987107,"KPMG LLP","SIX CRICKET SQUARE","GEORGE TOWN","GRAND CAYMAN","","Cayman Islands","KY1-1106","Y",1323,"Y","Y","N","N","Not Yet Received"
1988153,"O'CONNOR DAVIES","665 FIFTH AVENUE","","NEW YORK","NY","United States","10022","Y",127,"Y","N","Y","N",""
1988153,"COHNREZNICK LLP","1212 AVENUE OF THE AMERICAS","","NEW YORK","NY","United States","10036","Y",596,"Y","Y","N","N","Not Yet Received"
1988197,"GRASSI & CO., CPAS, P.C.","750 3RD AVE.","28TH FLOOR","NEW YORK","NY","United States","10017","Y",606,"Y","Y","N","N","Not Yet Received"
1980796,"KPMG LLP","345 PARK AVE","","NEW YORK","NY","United States","10154","Y",185,"Y","Y","N","N","Yes"
1986615,"FGMK, LLC","2801 LAKESIDE DRIVE","3RD FLOOR","BANNOCKBURN","IL","United States","60015","Y",3968,"Y","N","Y","N",""
1986831,"PKF","2020 CAMINO DEL RIO NORTH","SUITE 500","SAN DIEGO","CA","United States","92108","Y",27,"Y","N","Y","N",""
1986865,"PRICEWATERHOUSECOOPERS LLP","601 S FIGUEROA ST","","LOS ANGELES","CA","United States","90017","Y",34,"Y","Y","N","N","Yes"
1986409,"KPMG LLP","55 SECOND STREET","SUITE 1400","SAN FRANCISCO","CA","United States","94105","Y",185,"Y","Y","Y","N","Yes"
1981244,"WALTER & SHUFFAIN, P.C.","ONE INTERNATIONAL PLACE,","SUITE 1010","BOSTON","MA","United States","02110","Y",5439,"N","N","Y","N",""
1986885,"BDO USA, P.C.","ONE BUSH STREET","","SAN FRANCISCO","CA","United States","94104","Y",243,"Y","Y","N","Y","Not Yet Received"
1986889,"BDO USA, P.C.","ONE BUSH STREET","","SAN FRANCISCO","CA","United States","94104","Y",243,"Y","Y","N","Y","Not Yet Received"
1986894,"BDO USA, P.C.","ONE BUSH STREET","","SAN FRANCISCO","CA","United States","94104","Y",243,"Y","Y","N","Y","Not Yet Received"
1986900,"BDO USA, P.C.","ONE BUSH STREET","","SAN FRANCISCO","CA","United States","94104","Y",243,"Y","Y","N","Y","Not Yet Received"
1986908,"BDO USA, P.C.","ONE BUSH STREET","","SAN FRANCISCO","CA","United States","94104","Y",243,"Y","Y","N","Y","Not Yet Received"
1988799,"KPMG","P.O. BOX 493 CENTURY YARD BUILDING","2ND FLOOR","GEORGE TOWN","","Cayman Islands","KY1-1106","Y",1323,"Y","Y","N","N","Yes"
1988799,"KPMG LLP","15 CANADA SQUARE","","LONDON","","United Kingdom","E14 5GL","Y",1118,"Y","Y","N","N","Yes"
1994041,"GRASSI & COMPANY, CPAS PC","750 3RD AVENUE","28TH FLOOR","NEW YORK","NY","United States","10017","Y",606,"Y","N","Y","N",""
1976078,"PRICEWATERHOUSECOOPERS","101 SEAPORT BOULEVARD","","BOSTON","MA","United States","02110","Y",238,"Y","Y","N","N","Yes"
1994665,"PLANTE MORAN","10 SOUTH RIVERSIDE PLAZA 9TH FLOOR","","CHICAGO","IL","United States","60606-3770","Y",166,"Y","N","Y","N",""
1994665,"EISNERAMPER","100 N. 18TH ST","","PHILADELPHIA","PA","United States","19103","Y",274,"Y","Y","N","N","Yes"
1994665,"DELOITTE & TOUCHE LLP","1700 MARKET STREET","","PHILADELPHIA","PA","United States","19103-3984","Y",34,"Y","Y","N","N","Yes"
1994665,"ERNST & YOUNG LLP","ONE MANHATTAN WEST","395 - 9TH AVENUE","NEW YORK","NY","United States","10001","Y",42,"Y","Y","N","N","Yes"
1982132,"KPMG LLP","BNY MELLON CENTER SUITE 3400","500 GRANT STREET","PITTSBURGH","PA","United States","15219-2598","Y",185,"Y","N","N","Y","Yes"
1985024,"KPMG LLP","1601 MARKET STREET","","PHILADELPHIA","PA","United States","19103","Y",185,"Y","N","N","Y","Yes"
1985024,"PRICEWATERHOUSECOOPERS, LLP","100 EAST PRATT STREET, SUITE 2600","","BALTIMORE","MD","United States","21202","Y",238,"Y","N","Y","N",""
1986916,"BDO USA, P.C.","ONE BUSH STREET","","SAN FRANCISCO","CA","United States","94104","Y",243,"Y","Y","N","Y","Not Yet Received"
1987244,"DELOITTE & TOUCHE LLP","555 MISSION STREET, SUITE 1400","","SAN FRANCISCO","CA","United States","94105","Y",34,"Y","Y","N","N","Yes"
1989536,"ERNST & YOUNG LLP","5 TIMES SQUARE","","NEW YORK","NY","United States","10036","Y",42,"Y","Y","N","N","Yes"
1989536,"WITHUMSMITH+ BROWN PC","1411 BROADWAY","9TH FLOOR","NEW YORK","NY","United States","10018-3496","Y",100,"Y","Y","N","N","Yes"
1989322,"ERNST & YOUNG LTD.","62 FORUM LANE","P.O. BOX 510","CAMANA BAY","","Cayman Islands","","Y",1655,"Y","Y","N","N","Yes"
1989400,"DELOITTE & TOUCHE LLP","555 SEVENTEENTH STREET","","DENVER","CO","United States","80202-3942","Y",34,"Y","N","Y","Y","Yes"
1989633,"PRICEWATERHOUSECOOPERS","300 MADISON AVENUE","","NEW YORK","NY","United States","10017","Y",238,"Y","N","Y","Y","No"
1989392,"RSM LLP","1185 AVENUE OF THE AMERICAS","","NEW YORK","NY","United States","10036","Y",49,"Y","Y","N","N","Yes"
1989994,"KPMG LLP","ONE FINANCIAL PLAZA","755 MAIN STREET","HARTFORD","CT","United States","06103","Y",185,"Y","N","Y","N",""
1988831,"KPMG LLP","333 BAY STREET","SUITE 4600","TORONTO, ONTARIO","","Canada","M5H 2S5","Y",185,"Y","Y","N","Y","Yes"
1988752,"ASHLAND PARTNERS & COMPANY, LLP","3512 EXCEL DRIVE","SUITE 103","MEDFORD","OR","United States","97504","Y",3783,"Y","N","Y","N",""
1988810,"BDO USA, P.C.","330 N WABASH AVENUE","SUITE3200","CHICAGO","IL","United States","60611","Y",243,"Y","N","Y","N",""
1984388,"GRANT THORNTON LLP","757 THIRD AVENUE","#9","NEW YORK","NY","United States","10017","Y",248,"Y","Y","N","N","Yes"
1984388,"RSM US LLP","151 WEST 42ND STREET","19TH FLOOR","NEW YORK","NY","United States","10036","Y",49,"Y","Y","N","Y","Yes"
1988660,"ASHLAND PARTNERS & COMPANY LLP","3512 EXCEL DRIVE","SUITE 103","MEDFORD","OR","United States","97504","Y",3783,"Y","N","Y","N",""
1994836,"EISNERAMPER LLP","733 THIRD AVENUE","","NEW YORK","NY","United States","10017","Y",274,"Y","Y","N","N","Yes"
1990325,"PRICEWATERHOUSECOOPERS LLP","1100 WALNUT STREET, STE. 1300","","KANSAS CITY","MO","United States","64106","Y",238,"Y","Y","N","N","Yes"
1990325,"PRICEWATERHOUSECOOPERS","18 FORUM LANE, CAMANA BAY","P.O. BOX 258","GRAND CAYMAN","","Cayman Islands","KY1-1104","Y",1266,"Y","Y","N","N","Yes"
1988792,"GRANT THORNTON LLP","171 N. CLARK STREET","SUITE 200","CHICAGO","IL","United States","60601","Y",248,"Y","N","N","Y","Yes"
1988798,"ASHLAND PARTNERS & COMPANY LLP","3512 EXCEL DR.","SUITE 103","MEDFORD","OR","United States","97504","Y",3783,"Y","N","Y","N",""
1988582,"DELOITTE & TOUCHE LLP","ONE CAPITAL PLACE","136 SHEDDEN ROAD, P.O. BOX 1787","GEORGE TOWN","","Cayman Islands","KY1-1109","Y",34,"Y","Y","N","N","Not Yet Received"
1988582,"GRANT THORNTON LLP","13-18 CITY QUAY","","DUBLIN 2","","Ireland","D02 ED70","Y",1402,"Y","Y","N","N","Not Yet Received"
1988844,"ASHLAND PARTNERS & COMPANY LLP","3512 EXCEL DR","SUITE 103","MEDFORD","OR","United States","97504","Y",3783,"Y","N","Y","N",""
1988746,"FARKOUH FURMAN & FACCIO CPAS","460 PARK AVENUE","","NEW YORK","NY","United States","10022","Y",3630,"Y","Y","N","N","Yes"
1984721,"ERNST & YOUNG CHARTERED ACCOUNTANTS","HARCOURT CENTRE","HARCOURT STREET","DUBLIN","","Ireland","","Y",1411,"Y","Y","N","N","Yes"
1984721,"ERNST & YOUNG LTD","62 FORUM LANE","P.O. BOX 510","CAMANA BAY","","Cayman Islands","KY11106","Y",1655,"Y","Y","N","N","Yes"
1988862,"PRICEWATERHOUSECOOPERS LLP","909 POYDRAS STREET","SUITE 3100","NEW ORLEANS","LA","United States","70112","Y",238,"Y","N","Y","Y","Yes"
1988540,"SPICER JEFFRIES LLP","4601 DTC BOULEVARD, SUITE 700","","DENVER","CO","United States","80237","Y",349,"Y","Y","Y","Y","Not Yet Received"
1989089,"ERNST & YOUNG LLP","5 TIMES SQUARE","","NEW YORK","NY","United States","10036","Y",42,"Y","Y","N","N","Yes"
1989089,"WITHUMSMITH+ BROWN PC","1411 BROADWAY","9TH FLOOR","NEW YORK","NY","United States","10018-3496","Y",100,"Y","Y","N","N","Yes"
1990284,"DELOITTE & TOUCHE LLP","20 BOULEVARD DE KOCKELSCHEUER","","LUXEMBOURG CITY","","Luxembourg","L-1821","Y",34,"Y","Y","N","N","Yes"
1990284,"DELOITTE & TOUCHE LLP","191 PEACHTREE STREET NE","SUITE 2000","ATLANTA","GA","United States","30303-1943","Y",34,"Y","Y","N","N","Yes"
1990284,"DELOITTE & TOUCHE LLP","TOUR MAJUNGA, 6 PLACE DE LA PYRAMIDE","PARIS-LA-DÉFENSE CEDEX","PUTEAUX","","France","92908","Y",34,"Y","Y","N","N","Yes"
1991900,"PRICEWATERHOUSECOOPERS LLP","726 EXCHANGE ST","SUITE 100","BUFFALO","NY","United States","14210","Y",238,"Y","N","Y","Y","Yes"
1991903,"PRICEWATERHOUSECOOPERS LLP","2001 MARKET STREET","SUITE 1800","PHILADELPHIA","PA","United States","19103-7042","Y",238,"Y","N","Y","Y","Yes"
1987124,"PRICEWATERHOUSECOOPERS LLP","300 MADISON AVENUE","","NEW YORK","NY","United States","10017","Y",238,"Y","Y","Y","N","Yes"
1987124,"PRICEWATERHOUSECOOPERS","18 FORUM LANE","CAMANA BAY, P.O. BOX 258","GRAND CAYMAN","","Cayman Islands","","Y",1266,"Y","Y","N","N","Yes"
1987124,"BAKER TILLY TFW LLP","600 NORTH BRIDGE ROAD","#05-01 PARKVIEW SQUARE","SINGAPORE","","Singapore","188778","Y",2435,"Y","Y","N","N","Yes"
1987124,"PRICEWATERHOUSECOOPERS CI LLP","ROYAL BANK PLACE","1 GLATEGNY ESPLANADE","ST. PETER PORT","","Guernsey","GY1 4ND","Y",1412,"Y","Y","N","N","Yes"
1987124,"PRICEWATERHOUSECOOPERS LLP","7 MORE LONDON RIVERSIDE","","LONDON","","United Kingdom","SE1 2RT","Y",876,"Y","Y","N","N","Yes"
1988854,"DELOITTE & TOUCHE LLP","30 ROCKEFELLER PLAZA","","NEW YORK","NY","United States","10112-0015","Y",34,"Y","Y","N","N","Yes"
1983820,"COHEN & CO.","1350 EUCLID AVENUE","SUITE 800","CLEVELAND","OH","United States","44115","Y",925,"Y","Y","Y","N","Yes"
1989067,"ERNST & YOUNG LLP","5 TIMES SQUARE","","NEW YORK","NY","United States","10036","Y",42,"Y","Y","N","N","Yes"
1989059,"ERNST & YOUNG LTD","CAMANA BAY","PO BOX 510","GRAND CAYMAN","","Cayman Islands","KY1-1106","Y",1655,"Y","Y","N","N","Yes"
1989059,"ERNST & YOUNG LLP","5 TIMES SQUARE","","NEW YORK","NY","United States","10036","Y",42,"Y","Y","N","N","Yes"
1979517,"KPMG, LLP","345 PARK AVENUE","","NEW YORK","NY","United States","10154","Y",185,"Y","Y","N","N","Yes"
1979517,"COHN REZNICK LLC","350 CHURCH STREET","12TH FLOOR","HARTFORD","CT","United States","06103","Y",596,"Y","Y","N","N","Yes"
1993517,"ERNST & YOUNG","1700 ONE WILLIAMS CTR","","TULSA","OK","United States","74172-0172","Y",42,"Y","N","Y","Y","Yes"
1993517,"KPMG LLP","TWO NATIONWIDE PLAZA","","COLUMBUS","OH","United States","43215","Y",42,"Y","Y","N","N","Yes"
1992752,"DELOITTE AND TOUCHE LLP","655 WEST BROADWAY, SUITE 700","","SAN DIEGO","CA","United States","92101","Y",34,"Y","N","Y","Y","Yes"
1989828,"ERNST & YOUNG LLP","5 TIMES SQUARE","","NEW YORK","NY","United States","10036","Y",42,"Y","Y","N","N","Yes"
1989828,"WITHUMSMITH+ BROWN PC","1411 BROADWAY","9TH FLOOR","NEW YORK","NY","United States","10018-3496","Y",100,"Y","Y","N","N","Yes"
1990172,"ASSURANCE DIMENSIONS CPA & ASSOCIATES","2000 BANKS ROAD","SUITE 218","TAMPA","FL","United States","33607","Y",5036,"Y","N","Y","N",""
1992234,"PRICEWATERHOUSECOOPERS LLP","101 SEAPORT BOULEVARD","","BOSTON","MA","United States","02210","Y",238,"Y","Y","Y","Y","Yes"
1981067,"ERNST & YOUNG LLP","200 CLARENDON STREET","","BOSTON","MA","United States","02116","Y",42,"Y","Y","N","N","Yes"
1992269,"PRICEWATERHOUSECOOPERS LLP","101 SEAPORT BOULEVARD","","BOSTON","MA","United States","02210","Y",238,"Y","Y","N","Y","Yes"
1992269,"BELFINT LYONS & SHUMAN","1011 CENTRE ROAD","SUITE 310","WILMINGTON","DE","United States","19805","N",,"","Y","N","Y","Yes"
1992255,"DELOITTE & TOUCHE LLP","1700 MARKET STREET","","PHILADELPHIA","PA","United States","19103","Y",34,"Y","Y","Y","N","Yes"
1992255,"PRICEWATERHOUSECOOPERS AG","BIRCHSTRASSE 160","","ZURICH","","Switzerland","8050","Y",1358,"Y","Y","N","N","Yes"
1992255,"DELOITTE & TOUCHE LLP","60 NEXUS WAY, 8TH FLOOR","CAMANA BAY, PO BOX 1787","GRAND CAYMAN","","Cayman Islands","KY1-1109","Y",1096,"Y","Y","N","N","Yes"
1992255,"DELOITTE IRELAND","EARLSFORT TERRACE","","DUBLIN","","Ireland","2","Y",1193,"Y","Y","N","N","Yes"
1992255,"PRICEWATERHOUSECOOPERS, SOCIÉTÉ COOPÉRATIVE","2, RUE GERHARD MERCATOR","B.P. 1443","LUXEMBOURG","","Luxembourg","L-1014","Y",1328,"Y","Y","N","N","Yes"
1992255,"DELOITTE AUDIT SARL","20, BOULEVARD DE KOCKELSCHEUER","","LUXEMBOURG","","Luxembourg","L-1821","Y",1287,"Y","Y","N","N","Yes"
1992255,"PRICEWATERHOUSECOOPERS LTD.","P.O. BOX HM 1171","","HAMILTON","","Bermuda","HM EX","Y",1403,"Y","Y","N","N","Yes"
1992255,"PRICEWATERHOUSECOOPERS","18 FORUM LANE, CAMANA BAY","P.O. BOX 258","GRAND CAYMAN","","Cayman Islands","KY1-1104","Y",1266,"Y","Y","N","N","Yes"
1988131,"ARMANINO LLP","6 CITY PLACE","SUITE 900","ST. LOUIS","MO","United States","63141","Y",32,"Y","N","Y","N",""
1992316,"PRICEWATERHOUSECOOPERS LLP","101 SEAPORT BLVD","SUITE 500","BOSTON","MA","United States","02110","Y",238,"Y","N","Y","Y","Yes"
1992332,"PRICEWATERHOUSECOOPERS LLP","601 S. FIGUEROA ST.","SUITE 900","LOS ANGELES","CA","United States","90017","Y",238,"Y","Y","N","N","Yes"
1987646,"MICHAEL COGLIANESE CPA, P.C.","300 N. STATE ST.","SUITE 5720","CHICAGO","IL","United States","60654","Y",3874,"Y","N","Y","N",""
1961780,"DEMARCO SCIACCOTTA WILKENS & DUNLEAVY, LLP","20646 ABBEY WOODS COURT N","SUITE 201","FRANKFORT","IL","United States","60423","Y",5376,"N","N","Y","N",""
1987470,"RW GROUP, LLC","400 OLD FORGE LANE","SUITE 401","KENNETT SQUARE","PA","United States","19348","Y",5020,"Y","N","Y","N",""
1987333,"ERNST & YOUNG LLP","5 TIMES SQUARE","","NEW YORK","NY","United States","10036","Y",42,"Y","Y","N","N","Yes"
1987333,"ERNST & YOUNG LTD.","62 FORUM LANE","CAMANA BAY, P.O. BOX 510","GRAND CAYMAN","","Cayman Islands","KY1-1106","Y",42,"Y","Y","N","N","Yes"
1987815,"SPICER JEFFRIES LLP","4601 DTC BOULEVARD, SUITE 700","","DENVER","CO","United States","80237","Y",349,"Y","Y","Y","Y","Not Yet Received"
1987866,"MCM CPAS & ADVISORS","2600 MEIDINGER TOWER","462 S 4TH STREET","LOUISVILLE","KY","United States","40202","Y",2276,"Y","N","Y","N",""
1987273,"PLANTE MORAN","8181 EAST TUFTS AVENUE SUITE 600","","DENVER","CO","United States","80237","Y",166,"Y","N","Y","N",""
1987581,"FGMK, LLC","2801 LAKESIDE DRIVE","3RD FLOOR","BANNOCKBURN","IL","United States","60015","Y",3968,"Y","N","Y","N",""
1987395,"PRICEWATERHOUSECOOPERS LLP","41 SOUTH HIGH STREET","25TH FLOOR","COLUMBUS","OH","United States","43215-3400","Y",238,"Y","Y","N","N","Not Yet Received"
1987395,"BAKER TILLY US LLP","175 SOUTH THIRD STREET","","COLUMBUS","OH","United States","43215","Y",23,"Y","Y","N","N","Not Yet Received"
1988652,"MOSS ADAMS","500 DALLAS ST.","SUITE 2500","HOUSTON","TX","United States","77002","Y",659,"Y","Y","Y","N","Yes"
1988578,"BAKER NEWMAN NOYES","650 ELM STREET","SUITE 302","MANCHESTER","NH","United States","03101","Y",231,"Y","Y","N","N","Yes"
1988873,"ASHLAND PARTNERS & COMPANY LLP","3512 EXCEL DRIVE","SUITE 103","MEDFORD","OR","United States","97504","Y",3783,"Y","N","Y","Y","Yes"
1988900,"RSM US LLP","30 S. WACKER DRIVE","SUITE 3300","CHICAGO","IL","United States","60606","Y",49,"Y","Y","N","N","Yes"
1988900,"PLANTE & MORAN, PLLC","10 S. RIVERSIDE PLAZA","9TH FLOOR","CHICAGO","IL","United States","60606","Y",166,"Y","Y","N","N","Yes"
1988501,"KATZ SAPPER & MILLER","800 EAST 96TH STREET","SUITE 500","INDIANAPOLIS","IN","United States","46240","Y",2804,"Y","Y","Y","N","Yes"
1989013,"D. BROOKS AND ASSOCIATES CPA'S, P.A.","4440 PGA BLVD, SUITE 104","","PALM BEACH GARDENS","FL","United States","33410","Y",4048,"Y","N","Y","N",""
1989043,"RSM US, LLP","4 TIMES SQUARE","19TH FLOOR","NEW YORK","NY","United States","10036","Y",49,"Y","Y","N","N","Yes"
1987729,"GRANT THORNTON LLP","757 THIRD AVENUE","9TH FLOOR","NEW YORK","NY","United States","10017","Y",248,"Y","Y","Y","N","Yes"
1989113,"DELOITTE & TOUCHE LLP","100 SOUTH MILL AVENUE","SUITE 1800","TEMPE","AZ","United States","85281","Y",34,"Y","N","Y","N",""
1989073,"ASHLAND PARTNERS & COMPANY LLP","3512 EXCEL DRIVE","SUITE 103","MEDFORD","OR","United States","97504","Y",3783,"Y","N","Y","N",""
1989015,"RSM US LLP","30 S. WACKER DR.","SUITE 3300","CHICAGO","IL","United States","60606","Y",49,"Y","Y","N","N","Yes"
1989015,"PLANTE & MORAN, PLLC","10 SOUTH RIVERSIDE PLAZA","9TH FLOOR","CHICAGO","IL","United States","60606","Y",166,"Y","Y","Y","N","Yes"
1988887,"KPMG LLP","2323 ROSS AVENUE","SUITE 1400","DALLAS","TX","United States","75201","Y",185,"Y","Y","N","N","Yes"
1988887,"ERNST & YOUNG LLP","2323 VICTORY AVE #2000","","DALLAS","TX","United States","75219","Y",42,"Y","Y","N","N","Yes"
1988887,"CARR, RIGGS & INGRAM LLC","901 BOLL WEEVIL CIRCLE","SUITE 200","ENTERPRISE","AL","United States","36330","Y",213,"Y","Y","N","N","Yes"
1987849,"WEAVER & TIDWELL, L.L.P.","1230 ROSECRANS AVE","","MANHATTAN BEACH","CA","United States","90071","Y",410,"Y","Y","Y","N","Not Yet Received"
1989245,"COHEN & COMPANY LTD","1350 EUCLID AVE","STE 800","CLEVELAND","OH","United States","44115","Y",925,"Y","Y","N","N","Yes"
1987682,"PRICEWATERHOUSECOOPERS LLP","300 MADISON AVE","","NEW YORK","NY","United States","10017","Y",238,"Y","Y","Y","N","Yes"
1988464,"PLANTE & MORAN, PLLC","10 SOUTH RIVERSIDE PLAZA","9TH FLOOR","CHICAGO","IL","United States","60606","Y",166,"Y","N","Y","N",""
1989895,"DELOITTE & TOUCHE, LLP","2200 ROSS AVENUE","#1600","DALLAS","TX","United States","75201","Y",34,"Y","Y","N","N","Yes"
1984179,"EISNERAMPER LLP","ONE CALIFORNIA SUITE 1700","","SAN FRANCISCO","CA","United States","94111","Y",274,"Y","Y","N","Y","Yes"
1989980,"PRAGER METIS CPAS, LLC","14 PENN PLAZA","18TH FLOOR","NEW YORK","NY","United States","10122","Y",273,"Y","Y","N","N","Yes"
1987968,"SYMPHONA LLP","1050 CROWN POINT PKWY","SUITE 810","ATLANTA","GA","United States","30338","Y",5829,"Y","N","Y","N",""
1987920,"BDO LLP","55 BAKER STREET","","LONDON","","United Kingdom","W1U 7EU","Y",1295,"Y","Y","N","N","Yes"
1987920,"DELOITTE & TOUCHE LLP","111 S. WACKER DR.","SUITE 2100","CHICAGO","IL","United States","60606","Y",34,"Y","Y","N","N","Yes"
1987666,"ERNST & YOUNG LLP","200 CLARENDON STREET","","BOSTON","MA","United States","02116-5072","Y",42,"Y","Y","N","N","Yes"
1987877,"DELOITTE & TOUCHE LLP","695 TOWN CENTER DRIVE, SUITE 1200","","COSTA MESA","CA","United States","92626","Y",34,"Y","Y","N","N","Yes"
1978525,"COHNREZNICK LLP","707 WILSHIRE BLVD","SUITE 4950","LOS ANGELES","CA","United States","90017","Y",596,"Y","N","Y","N",""
1978525,"KPMG LLP","20 PACIFICA","SUITE 700","IRVINE","CA","United States","92618","Y",185,"Y","Y","N","N","Yes"
1975599,"PRICEWATERHOUSECOOPERS","21/F, EDINBURGH TOWER, THE LANDMARK","15 QUEEN'S ROAD CENTRAL","HONG KONG","","Hong Kong","","Y",1389,"Y","Y","N","N","Yes"
1988479,"DELOITTE IRELAND LLP","DELOITTE & TOUCHE HOUSE","29 EARLSFORT TERRACE","DUBLIN","","Ireland","D02 AY28","Y",1193,"Y","Y","N","N","Yes"
1987100,"EISNER AMPER","733 THIRD AVENUE","","NEW YORK","NY","United States","10017","Y",274,"Y","N","Y","N",""
1990137,"DELOITTE & TOUCHE LLP","1111 BAGBY ST.","SUITE 4500","HOUSTON","TX","United States","77002","Y",34,"Y","Y","N","N","Yes"
1990101,"ASHLAND PARTNERS & COMPANY, LLC","3512 EXCEL DRIVE","SUITE 103","MEDFORD","OR","United States","97504","Y",3783,"N","N","Y","N",""
1990025,"PRICEWATERHOUSECOOPERS LLP","400 BELLEMEADE ST","SUITE 402","GREENSBORO","NC","United States","27401","Y",238,"Y","Y","N","N","Yes"
1989602,"PRICEWATERHOUSECOOPERS","P.O BOX 258","STRATHVALE HOUSE, NORTH CHURCH STREET","GEORGETOWN","","Cayman Islands","KY1-1104","Y",1266,"Y","Y","N","N","Yes"
1990176,"PRICEWATERHOUSECOOPERS LLP","7 MORE LONDON RIVERSIDE","","LONDON","","United Kingdom","","Y",876,"Y","Y","N","N","Yes"
1990176,"PRICEWATERHOUSECOOPERS, SOCIÉTÉ COOPÉRATIVE","2, RUE GERHARD MERCATOR B.P. 1443","","L-1014 LUXEMBOURG","","Luxembourg","","Y",1328,"Y","Y","N","N","Yes"
1992073,"FORVIS","2700 POST OAK BLVD","SUITE 1500","HOUSTON","TX","United States","77056","Y",686,"Y","N","Y","Y","Yes"
1986536,"PRICEWATERHOUSECOOPERS LLP","100 EAST PRATT STREET, SUITE 2600","","BALTIMORE","MD","United States","21202","Y",238,"Y","N","Y","N",""
1988642,"ASHLAND PARTNERS & COMPANY, LLP","3512 EXCEL DR.","SUITE 103","MEDFORD","OR","United States","97504","Y",3783,"Y","N","Y","N",""
1988642,"KEITER, STEPHENS, HURST, GARY & SHREAVES, P.C.","4401 DOMINION BOULEVARD","","GLEN ALLEN","VA","United States","23060","Y",80,"Y","Y","N","N","Not Yet Received"
1988696,"KNIGHT, ROLLERI, SHEPPARD, CPAS LLP","1499 POST ROAD","","FAIRFIELD","CT","United States","06824","Y",3437,"Y","N","Y","N",""
1988736,"KPMG, LLC","350 N 5TH STREET","","MINNEAPOLIS","MN","United States","55401","Y",185,"Y","Y","N","N","Not Yet Received"
1987081,"CITRIN COOPERMAN & COMPANY LLP","50 ROCKEFELLER PLAZA","","NEW YORK","NY","United States","10020","Y",2468,"Y","N","Y","N",""
1989934,"CHERRY BAEKERT","3800 GLENWOOD AVENUE","SUITE 200","RALEIGH","NC","United States","27612","Y",677,"Y","N","Y","Y","Yes"
1985390,"ERNST & YOUNG LLP","5 TIMES SQUARE","","NEW YORK","NY","United States","10036","Y",42,"Y","Y","N","N","Yes"
1987072,"CITRIN COOPERMAN & COMPANY, LLP","50 ROCKEFELLER PLAZA","","NEW YORK","NY","United States","10020","Y",2468,"Y","N","Y","N",""
1969792,"PRICEWATERHOUSECOOPERS LLP","300 MADISON AVENUE","24TH FLOOR","NEW YORK","NY","United States","10017","Y",238,"Y","Y","N","N","Yes"
1969792,"EISNERAMPER LLP","733 THIRD AVENUE","","NEW YORK","NY","United States","10017","Y",274,"Y","Y","N","N","Yes"
1969463,"ERNST & YOUNG","ONE MANHATTAN WEST","401 9TH  AVENUE","NEW YORK","NY","United States","10001","Y",42,"Y","Y","N","N","Not Yet Received"
1971232,"PRICEWATERHOUSECOOPERS SA","AVENUE GIUSEPPE MOTTA 50","CASE POSTALE","GENEVA 2","","Switzerland","1211","Y",1358,"Y","N","Y","Y","Yes"
1971232,"COHEN & COMPANY, LTD.","201 INTERNATIONAL CIRCLE","SUITE 400","HUNT VALLEY","MD","United States","21030","Y",925,"Y","Y","N","N","Yes"
1986690,"EISNERAMPER LLP","733 THIRD AVENUE","","NEW YORK","NY","United States","10017","Y",274,"Y","N","Y","N",""
1987089,"KPMG LLP","550 SOUTH HOPE STREET","SUITE 1500","LOS ANGELES","CA","United States","90071","Y",185,"Y","N","Y","N",""
1987133,"PRICEWATERHOUSECOOPERS LLP","101 SEAPORT BLVD","","BOSTON","MA","United States","02210","Y",238,"Y","N","Y","Y","Not Yet Received"
1986741,"PRICEWATERHOUSECOOPERS","300 MADISON AVE","7 CHURCH STREET","NEW YORK","NY","United States","10017","Y",1403,"Y","Y","Y","N","Yes"
1986741,"KPMG","LODHA EXCELUS, APOLLO MILLS COMPOUND","","MUMBAI","","India","400011","Y",2115,"Y","N","N","Y","Yes"
1986741,"DELOITTE & TOUCHE","EARSFORT TERRACE","","DUBLIN","","Ireland","2","Y",1193,"Y","Y","Y","N","Yes"
1989978,"COHNREZNICK","1301 AVENUE OF THE AMERICAS","","NEW YORK","NY","United States","10019","Y",596,"Y","Y","N","N","Yes"
1992601,"ERNST & YOUNG, L.L.P.","701 POYDRAS STREET","SUITE 3900","NEW ORLEANS","LA","United States","70139","Y",42,"Y","Y","N","N","Yes"
1992601,"NOVOGRADAC & COMPANY, LLP","505 N. 7TH STREET","SUITE 1960","ST. LOUIS","MO","United States","63101","Y",474,"Y","Y","N","N","Yes"
1992686,"MOSS ADAMS LLP","14555 DALLAS PKWY #300","","DALLAS","TX","United States","75254","Y",659,"Y","Y","N","N","Yes"
1994439,"EISNERAMPER","160 FEDERAL STREET, 9TH FLOOR","","BOSTON","MA","United States","02110","Y",3376,"Y","N","Y","N",""
1994453,"PANNELL KERR FOSTER OF TEXAS, PC","5847 SAN FELIPE STREET, SUITE 2600","","HOUSTON","TX","United States","77057","Y",342,"Y","N","Y","N",""
1973432,"PRICEWATERHOUSECOOPERS LLP","655 NEW YORK AVE NW","","WASHINGTON","DC","United States","20001","Y",238,"Y","Y","Y","N","Yes"
1994101,"DELOITTE & TOUCHE LLP","30 ROCKEFELLER PLAZA","","NEW YORK","NY","United States","10112","Y",34,"Y","Y","Y","N","Not Yet Received"
1994101,"DELOITTE & TOUCHE","ONE CAPITAL PLACE","P.O. BOX 1787","GRAND CAYMAN","","Cayman Islands","KY11109","Y",1096,"Y","Y","N","N","Not Yet Received"
1993800,"LARRY D. LIBERFARB, P.C., CERTIFIED PUBLIC ACCOUNTANTS","11 VANDERBILT AVENUE","SUITE 220","NORWOOD","MA","United States","02062","Y",2560,"Y","N","Y","N",""
1994259,"BDO USA, P.C.","ONE BUSH PLAZA, BUSH STREET","","SAN FRANCISCO","CA","United States","94104","Y",243,"Y","Y","N","N","Yes"
1994259,"SENSIBA LLP","5960 INGLEWOOD DR.","","PLEASANTON","CA","United States","94588","Y",854,"Y","Y","N","N","Yes"
1993883,"FORVIS MAZARS, LLP","135 WEST 50TH STREET","","NEW YORK","NY","United States","10020","Y",339,"Y","N","Y","N",""
1993883,"FORVIS MAZARS, LLP","500 RIDGEFIELD COURT","","ASHEVILLE","NC","United States","28806","Y",339,"Y","Y","N","N","Yes"
1994287,"FORVIS, LLP","500 RIDGEFIELD COURT","","ASHEVILLE","NC","United States","28806","Y",686,"Y","Y","N","N","Yes"
1991625,"ERNST & YOUNG LLP","200 CLARENDON STREET","","BOSTON","MA","United States","02116","Y",42,"Y","Y","N","N","Not Yet Received"
1991625,"GRASSI & CO.","488 MADISON AVENUE","21ST FLOOR","NEW YORK","NY","United States","10022","Y",606,"Y","N","Y","N",""
1989947,"MAGGART CPAS & ADVISORS","1201 DEMONBREUN STREET","SUITE 1220","NASHVILLE","TN","United States","37203","Y",763,"Y","N","Y","N",""
1994679,"PLANTE & MORAN, PLLC","10 SOUTH RIVERSIDE PLAZA","9TH FLOOR","CHICAGO","IL","United States","60606","Y",166,"Y","N","Y","Y","No"
1993437,"PRICEWATERHOUSECOOPERS","300 MADISON AVENUE","","NEW YORK","NY","United States","10017","Y",238,"Y","Y","N","N","Yes"
1994659,"DELOITTE & TOUCHE LLP","555 SEVENTEENTH ST.","SUITE 3600","DENVER","CO","United States","80202-3942","Y",34,"Y","Y","Y","Y","Yes"
1992812,"HILL, BARTH & KING LLC","100 PINEWOOD LANE","SUITE 201","WARRENDALE","PA","United States","15086","Y",2206,"Y","N","Y","N",""
1991859,"RICHIE MAY & CO.","9780 S MERIDIAN BLVD","SUITE 500","ENGLEWOOD","CO","United States","80112","Y",673,"Y","Y","Y","N","Yes"
1992133,"FRANK, RIMERMAN + CO. LLP","ONE EMBARCADERO","SUITE 2410","SAN FRANCISCO","CA","United States","94111","Y",1596,"Y","N","Y","N",""
1990386,"ASSURANCE DIMENSIONS LLC","3111 N. UNIVERSITY DRIVE","SUITE 621","CORAL SPRINGS","FL","United States","33065","Y",5036,"Y","N","Y","N",""
1983130,"COHEN AND COMPANY CPA","1350 EUCLID AVE","STE 800","CLEVELAND","OH","United States","44115-1877","Y",925,"Y","N","Y","N",""
1987389,"PLANTE MORAN","1445 MARKET STREET","SUITE 300","DENVER","CO","United States","80202","Y",166,"Y","Y","N","N","Yes"
1984110,"DELOITTE LLP","2 NEW STREET SQUARE","","LONDON","","United Kingdom","EC4A 3BZ","Y",1147,"Y","Y","N","N","Yes"
1988499,"WITHUMSMITH & BROWN, PC","505 CARNEGIE CENTER, SUITE 400","","PRINCETON","NJ","United States","08540","Y",100,"Y","N","Y","N",""
1987301,"ERNST & YOUNG LLP","725 SOUTH FIGUEROA STREET","","LOS ANGELES","CA","United States","90017","Y",42,"Y","Y","N","N","Yes"
1988263,"R&A CPA'S","4542 E. CAMP LOWELL DR.  STE 100","","TUCSON","AZ","United States","85712","Y",3707,"Y","N","Y","N",""
1986864,"BERKOWER LLC","517 ROUTE ONE, SUITE 4103","","ISELIN","NJ","United States","08830","Y",217,"Y","Y","Y","N","Yes"
1988429,"DELOITTE & TOUCHE LLP","30 ROCKEFELLER PLAZA","","NEW YORK","NY","United States","10112-0015","Y",1046,"Y","N","Y","Y","Yes"
1981485,"ASSURANCE DIMENSIONS","4920 W CYPRESS ST #102","","TAMPA","FL","United States","33607","N",,"","N","Y","N",""
1988710,"WALTER & SHUFFAIN, P.C.","ONE INTERNATIONAL PLACE","SUITE 1010","BOSTON","MA","United States","02110","Y",5439,"Y","N","Y","N",""
1988662,"GRANT THORNTON LLP","171 N. CLARK STREET","SUITE 200","CHICAGO","IL","United States","60601-3370","Y",248,"Y","N","N","Y","Yes"
1988662,"BPM LLP","ONE CALIFORNIA STREET","SUITE 2500","SAN FRANCISCO","CA","United States","94111","Y",207,"Y","N","Y","N",""
1988662,"PRICEWATERHOUSECOOPERS","18 FORUM LANE, CAMANA BAY","","GRAND CAYMAN, BWI","","Cayman Islands","","Y",1266,"Y","Y","N","N","Not Yet Received"
1988662,"PRICEWATERHOUSECOOPERS LLP","101 SEAPORT BOULEVARD","","BOSTON","MA","United States","02210","Y",238,"Y","Y","N","N","Not Yet Received"
1978253,"MYRON YANG CPA & ASSOCIATES, PLLC","38-08 UNION ST., #2A","","FLUSHING","NY","United States","11354","Y",6893,"Y","Y","N","N","Yes"
1987657,"ASHLAND PARTNERS & COMPANY LLP","3512 EXCEL DR","SUITE 103","MEDFORD","OR","United States","97504","Y",3783,"Y","N","Y","N",""
1987696,"BAKER TILLY US, LLP","225 S. SIXTH ST.","STE 2300","MINNEAPOLIS","MN","United States","55402-4661","Y",23,"Y","N","Y","N",""
1993602,"CITRIN COOPERMAN","180 PARK AVENUE","SUITE 200","FLORHAM PARK","NJ","United States","07932","Y",2468,"Y","N","Y","N",""
1981742,"COHNREZNICK LLP","1301 AVENUE OF THE AMERICAS","","NEW YORK","NY","United States","10019","Y",596,"Y","N","Y","N",""
1993663,"COHEN & COMPANY, LTD.","201 INTERNATIONAL CIRCLE","","HUNT VALLEY","MD","United States","21030","Y",925,"Y","Y","N","N","Yes"
1993384,"KPMG LLP","201 MAIN STREET","SUITE 2200","FORT WORTH","TX","United States","76102-4125","Y",185,"Y","Y","N","N","Yes"
1993384,"KPMG","SIX CRICKET SQUARE","","GEORGE TOWN","","Cayman Islands","KY1-1106","Y",1323,"Y","Y","N","N","Yes"
1993384,"KPMG CHARTERED ACCOUNTANTS","1 HARBOURMASTER PLACE","IFSC","DUBLIN","","Ireland","","Y",1116,"Y","Y","N","N","Yes"
1993384,"BDO USA, P.C.","301 COMMERCE STREET","SUITE 2000","FORT WORTH","TX","United States","76102","Y",243,"Y","Y","N","N","Yes"
1994540,"KPMG LLP","BNY MELLON CENTER","SUITE 3400, 500 GRANT STREET","PITTSBURGH","PA","United States","15219-2598","Y",185,"Y","N","N","Y","Yes"
1994400,"KREISCHER MILLER","100 WITMER ROAD","SUITE 350","HORSHAM","PA","United States","19044","Y",6151,"Y","Y","Y","N","Yes"
1994364,"KPMG LLP","200 E RANDOLPH ST","#5500","CHICAGO","IL","United States","60601","Y",185,"Y","Y","Y","N","Yes"
1994540,"KPMG LLP","345 PARK AVENUE","","NEW YORK","NY","United States","10154-0102","Y",185,"Y","Y","N","Y","Yes"
1994774,"THE BONADIO GROUP","100 CORPORATE PKWY","SUITE 200","AMHERST","NY","United States","14226","Y",1884,"Y","N","Y","N",""
1989514,"ADKF, PC","8610 N. NEW BRAUNFELS AVE, #101","","SAN ANTONIO","TX","United States","78217","Y",297,"Y","N","Y","N",""
1994828,"COHEN & COMPANY","1350 EUCLID AVE","#800","CLEVELAND","OH","United States","44115","Y",925,"Y","Y","N","N","Yes"
1994828,"DELOITTE & TOUCHE","DELOITTE & TOUCHE HOUSE","EARLSFORT TERRACE","DUBLIN","","Ireland","","Y",1193,"Y","Y","N","N","Yes"
1987457,"ERNST & YOUNG LLP","560 MISSION STREET","SUITE 1600","SAN FRANCISCO","CA","United States","94105","Y",42,"Y","Y","Y","N","Yes"
1987457,"ERNST & YOUNG LTD.","62 FORUM LANE","","CAMANA BAY, GRAND CAYMAN","","Cayman Islands","KY1-1106","Y",1655,"Y","Y","N","N","Yes"
1953897,"MICHAEL COGLIANESE CPA, P.C.","300 N. STATE ST.","SUITE 5720","CHICAGO","IL","United States","60654","Y",3874,"Y","N","Y","N",""
1987075,"DELOITTE & TOUCHE LLP","30 ROCKEFELLER PLAZA","","NEW YORK","NY","United States","10112","Y",34,"Y","N","Y","N",""
1987075,"DELOITTE & TOUCHE LLP","110 MORRIS STREET","","MORRISTOWN","NJ","United States","07960","Y",34,"Y","Y","N","N","Yes"
1987075,"GRANT THORNTON LLP","1201 WALNUT ST","SUITE 2200","KANSAS CITY","MO","United States","64106","Y",248,"Y","N","N","Y","Yes"
1987075,"RSM US LLP","30 S WACKER DR","SUITE 3300","CHICAGO","IL","United States","60606","Y",49,"Y","Y","N","N","Yes"
1987675,"ERNST & YOUNG","5 TIMES SQUARE","","NEW YORK","NY","United States","10036","Y",42,"Y","Y","N","N","Yes"
1987015,"PRICEWATERHOUSECOOPERS","300 MADISON AVENUE","","NEW YORK","NY","United States","10017","Y",238,"Y","Y","Y","N","Yes"
1993378,"ERNST & YOUNG","725 SOUTH FIGUEROA STREET","","LOS ANGELES","CA","United States","90017","Y",42,"Y","N","Y","Y","Yes"
1993916,"ERNST & YOUNG LLP","801 GRAND AVENUE","SUITE 3100","DES MOINES","IA","United States","50309","Y",42,"Y","N","Y","N",""
1988889,"FORVIS MAZARS, LLP","135 WEST 50TH STREET","","NEW YORK","NY","United States","10020","Y",686,"Y","Y","Y","N","Not Yet Received"
1989474,"ACCELL CPA & ASSOCIATES, P.A.","8270 WOODLAND CENTER BLVD.","SUITE 3425","TAMPA","FL","United States","33614","Y",7204,"Y","N","Y","Y","Yes"
1991839,"ERNST & YOUNG LLP","801 GRAND AVE, SUITE 3000","","DES MOINES","IA","United States","50309","Y",42,"Y","Y","Y","Y","Yes"
1988392,"KEITER CPA","4401 DOMINION BOULEVARD","","GLENN ALLEN","VA","United States","23060","Y",80,"Y","N","Y","Y","Yes"
1987931,"PRICEWATERHOUSECOOPERS","21/F, EDINBURGH TOWER, THE LANDMARK","15 QUEEN'S ROAD CENTRAL","HONG KONG","","Hong Kong","","Y",1389,"Y","Y","N","N","Yes"
1990455,"KEITER, CPA","4401 DOMINION BLVD","","GLEN ALLEN","VA","United States","23060","Y",1111,"Y","N","Y","N",""
1976871,"CITRIN COOPERMAN & COMPANY, LLP","325 COLUMBIA TURNPIKE","SUITE 202","FLORHAM PARK","NJ","United States","07932","Y",2468,"Y","N","Y","N",""
1990473,"BPM, LLP","ONE CALIFORNIA STREET","SUITE 2500","SAN FRANCISCO","CA","United States","94111","Y",207,"Y","N","Y","N",""
1991787,"KPMG LLP","345 PARK AVENUE","","NEW YORK","NY","United States","10154","Y",185,"Y","Y","N","N","Yes"
1992459,"PRICEWATERHOUSECOOPERS LLP","214 N. TRYON STREET","SUITE 4200","CHARLOTTE","NC","United States","28202","Y",239,"Y","Y","Y","Y","Yes"
1992479,"KPMG LLP","550 SOUTH TRYON ST.","DUKE ENERGY CENTER, SUITE 3200","CHARLOTTE","NC","United States","28202","Y",185,"Y","Y","Y","N","Yes"
1992514,"MORRIS & MORRIS PC CPA","32 KEARNEY ROAD","","NEEDHAM HEIGHTS","MA","United States","02494-2504","Y",4066,"N","N","Y","N",""
1992514,"CLIFTON LARSON ALLEN, LLP","TWO INTERNATIONAL PLACE","22BD FLOOR","BOSTON","MA","United States","02110","Y",655,"Y","N","N","N",""
1992230,"DEMARCO SCIACCOTTA WILKENS & DUNLEAVY, LLP","9501 W. 171ST STREET, H-103","","TINLEY PARK","IL","United States","60487","Y",5376,"Y","N","Y","N",""
1992253,"FORVIS","2700 POST OAK BLVD","SUITE 1500","HOUSTON","TX","United States","77056","Y",686,"Y","N","Y","Y","Yes"
1989415,"SPICER JEFFRIES","4601 DTC BLVD STE 700","","DENVER","CO","United States","80237","Y",349,"Y","Y","N","N","Yes"
1988836,"WALTER & SHUFFAIN, P.C.","ONE INTERNATIONAL PLACE","SUITE 1010","BOSTON","MA","United States","02110","Y",5439,"Y","N","Y","N",""
1986847,"BAKER TILLY US, LLP","225 S SIXTH STREET","SUITE 2300","MINNEAPOLIS","MN","United States","55402","Y",23,"Y","N","Y","N",""
1989740,"PRAGER METIS CPAS, LLC","222 MOUNT AIRY ROAD","SUITE 100","BASKING RIDGE","NJ","United States","07920","Y",273,"Y","Y","N","N","Not Yet Received"
1992346,"FORVIS","2700 POST OAK BLVD","SUITE 1500","HOUSTON","TX","United States","77056","Y",686,"Y","N","Y","Y","Yes"
1990389,"PLANTE & MORAN, PLLC","10 SOUTH RIVERSIDE PLAZA","9TH FLOOR","CHICAGO","IL","United States","60606","Y",166,"Y","N","N","N",""
1992396,"PKF O' CONNOR DAVIES","665 FIFTH AVENUE","","NEW YORK","NY","United States","10022","Y",127,"Y","Y","N","N","Yes"
1988609,"WALTER & SHUFFAIN PC","ONE INTERNATIONAL PLACE","SUITE 1010","BOSTON","MA","United States","02110","Y",5439,"Y","N","Y","N",""
1977640,"ERNST & YOUNG LLP","725 SOUTH FIGUEROA ST.","#200","LOS ANGELES","CA","United States","90017","Y",42,"Y","Y","N","N","Yes"
1990006,"KNIGHT, ROLLERI, SHEPPARD, CPAS LLP","1499 POST ROAD","","FAIRFIELD","CT","United States","06824","Y",3437,"Y","N","Y","N",""
1988975,"BDO USA, LLP","ONE INTERNATIONAL PLACE","","BOSTON","MA","United States","02110","Y",243,"Y","Y","N","N","Yes"
1989659,"MORIS & MORIS, P.C.","2 KEARNEY ROAD","","NEED HAM HEIGHTS","MA","United States","02494","Y",4066,"Y","Y","N","N","Yes"
1989007,"MALONEY + NOVOTNY LLC","1111 SUPERIOR AVENUE","SUITE 700","CLEVELAND","OH","United States","44114","Y",320,"Y","N","Y","N",""
1985510,"PRICEWATERHOUSECOOPERS LLP","300 MADISON AVENUE","","NEW YORK","NY","United States","10017","Y",238,"Y","Y","Y","N","Yes"
1991749,"PIPARA & CO LLP","#13, 13TH FLOOR, TRADELINK, A BLOCK, KAMLA MILLS","SENAPATI BAPAT MARG, LOWER PAREL,","MUMBAI, MAHARASHTRA","","India","400013","Y",6841,"Y","N","Y","N",""
1992405,"DELOITTE TOUCHE TOHMATSU","35/F, ONE PACIFIC PLACE","88 QUEENSWAY","HONG KONG","","China","","Y",1104,"Y","Y","N","N","Yes"
1992828,"BAKER NEWMAN NOYES","280 FORE STREET","","PORTLAND","ME","United States","04101-4177","Y",231,"Y","N","Y","N",""
1987520,"ERNST & YOUNG","ONE MANHATTAN WEST","","NEW YORK","NY","United States","10001","Y",42,"Y","Y","N","N","Not Yet Received"
1990510,"ASHLAND PARTNERS","3152 EXCEL DRIVE","STE 103","MEDFORD","OR","United States","97504","Y",3783,"N","N","Y","N",""
1981902,"KPMG LLP","345 PARK AVE","","NEW YORK","NY","United States","10154","Y",185,"Y","Y","N","N","Yes"
1986811,"PLANTE & MORAN PLLC","27400 NORTHWESTERN HWY","","SOUTHFIELD","MI","United States","48034","Y",166,"Y","N","Y","N",""
1987534,"EISNERAMPER LLP","733 3RD AVENUE","","NEW YORK","NY","United States","10017","Y",274,"Y","Y","N","N","Not Yet Received"
1988073,"EIDE BAILLY LLP","5 TRIAD CENTER, SUITE 750","","SALT LAKE CITY","UT","United States","84180-1128","Y",286,"Y","N","Y","Y","Yes"
1994026,"BERKOW, SCHECHTER & COMPANY LLP","350 BEDFORD STREET","","STAMFORD","CT","United States","06901","Y",4040,"Y","N","Y","N",""
1993456,"GRANT THORNTON LLP","2001 MARKET STREET","SUITE 700","PHIADELPHIA","PA","United States","19103","Y",248,"Y","N","Y","N",""
1989711,"ERNST & YOUNG LLP","200 CLARENDON ST.","","BOSTON","MA","United States","02116","Y",42,"Y","Y","N","N","No"
1993910,"DELOITTE & TOUCHE LLP","555 W. 5TH STREET # 2700","","LOS ANGELES","CA","United States","90013","Y",34,"Y","N","Y","Y","Yes"
1993477,"FLYNN & COMPANY CPAS","7800 E. KEMPER RD","SUITE 150","CINCINNATI","OH","United States","45249","Y",3876,"Y","N","Y","N",""
1988052,"DELOITTE & TOUCHE LLP","925 FOURTH AVENUE, SUITE 3300","","SEATTLE","WA","United States","98104","Y",34,"Y","Y","N","N","Yes"
1978597,"MARCUM LLP","730 THIRD AVE","730","NEW YORK","NY","United States","10017","Y",688,"Y","N","Y","N",""
1978597,"ASHLAND PARTNERS & COMPANY, LLP","3512 EXCEL DRIVE","SUITE 103","MEDFORD","OR","United States","97504","Y",3783,"Y","N","Y","N",""
1988282,"KPMG LLP","100 NORTH TAMPA STREET","SUITE 1700","TAMPA","FL","United States","33602-5145","Y",185,"Y","N","Y","Y","Yes"
1988087,"TONELLI, SHEEDY & CO, LLC","11 UNION PLACE","SUITE 1A","SUMMIT","NJ","United States","07901","N",,"","N","Y","N",""
1988418,"KEITER, STEPHENS, HURST, GARY & SHREAVES, P.C.","4401 DOMINION BOULEVARD","","GLEN ALLEN","VA","United States","23060","Y",80,"Y","N","Y","N",""
1994273,"PANNELL KERR FOSTER OF TEXAS, PC","5847 SAN FELIPE STREET, SUITE 2600","","HOUSTON","TX","United States","77057","Y",342,"Y","N","Y","N",""
