"FilingID","Accountant Name","Street 1","Street 2","City","State","Country","Postal Code","Registered PCAOB","PCAOB Number","PCAOB Inspection","Audit","Examination","Report","Unqualified Opinion"
2002609,"KPMG","200 E. RANDOLPH","SUITE 5500","CHICAGO","IL","United States","60601","Y",185,"Y","Y","Y","N","Yes"
2004780,"SCHNEIDER DOWNS & CO., INC","65 E. STATE STREET","SUITE 2000","COLUMBUS","OH","United States","43215","Y",358,"Y","N","Y","N",""
1988204,"KPMG LLP","1601 MARKET STREET","","PHILADELPHIA","PA","United States","19103-7240","Y",185,"Y","Y","N","N","Yes"
1988204,"KPMG LLP","SIX CRICKET SQUARE","","GRAND CAYMAN","","Cayman Islands","KY1-1106","Y",1323,"Y","Y","N","N","Yes"
1988204,"KPMG LLP","345 PARK AVENUE","","NEW YORK","NY","United States","10154","Y",1323,"Y","Y","N","N","Yes"
2003213,"BONADIO & CO LLP","100 CORPORATE PARKWAY","SUITE 200","AMHERST","NY","United States","14226-1200","Y",1884,"Y","N","Y","N",""
2004899,"DELOITTE & TOUCHE LLP","30 ROCKEFELLER CENTER","","NEW YORK","NY","United States","10112","Y",34,"Y","N","Y","Y","Yes"
2004955,"BONADIO & CO LLP","100 CORPORATE PARKWAY","SUITE 200","AMHERST","NY","United States","14226-1200","Y",1884,"Y","N","Y","N",""
1989196,"BROWN EDWARDS","3906 ELECTRIC RD","","ROANOKE","VA","United States","24018","N",,"","N","Y","N",""
2004365,"GALAXY ACCOUNTING SERVICES, INC","15260 VENTURA BLVD.","SUITE 1200","SHERMAN OAKS","CA","United States","91403","Y",7198,"Y","N","Y","N",""
2005599,"COHNREZNICK LLP","1 S. WACKER DRIVE","SUITE 3500","CHICAGO","IL","United States","60606","Y",596,"Y","Y","N","N","Yes"
2001599,"ASSURANCE DIMENSIONS","4920 W CYPRESS STREET","SUITE 102","TAMPA","FL","United States","33607","Y",5036,"Y","Y","Y","Y","Not Yet Received"
2001313,"ARMANINO, LLP","6 CITY PLACE DRIVE","SUITE 900","ST. LOUIS","MO","United States","63141","Y",643,"Y","N","Y","N",""
2001244,"EISNERAMPER","ONE LOGAN SQUARE","","PHILADELPHIA","PA","United States","19103","Y",274,"Y","N","Y","N",""
2001122,"KPMG LLP","1601 MARKET STREET","","PHILADELPHIA","PA","United States","19103","Y",185,"Y","Y","N","N","Yes"
2000522,"COHEN & CO.","1350 EUCLID AVENUE","SUITE 800","CLEVELAND","OH","United States","44115","Y",925,"Y","Y","Y","N","Yes"
2001533,"WSRP, LLC","155 NORTH 400 WEST","STE 400","SALT LAKE CITY","UT","United States","84103","Y",374,"Y","N","Y","N",""
2001604,"EISNERAMPER, LLP","ONE LOGAN SQUARE","","PHILADELPHIA","PA","United States","19103","Y",274,"Y","Y","N","Y","Yes"
2001253,"ADEPTUS","733 STATE RTE 35 N","","OCEAN","NJ","United States","07712","Y",3686,"Y","N","Y","N",""
2001644,"KPMG LLP","1601 MARKET STREET","","PHILADELPHIA","PA","United States","19103","Y",185,"Y","Y","N","N","Yes"
2001221,"PRICEWATERHOUSECOOPERS, LLP","6 CARDINAL WAY","SUITE 1100","ST. LOUIS","MO","United States","63102","Y",238,"Y","N","Y","Y","Yes"
1996540,"SIMMONS GAINSFORD LLP","14TH FLOOR","33 CAVENDISH SQUARE","LONDON","","United Kingdom","W1G 0PW","N",,"Y","Y","N","N","No"
2003483,"FRAZIER & DEETER","1230 PEACHTREE STREET","SUITE 1500","ATLANTA","GA","United States","30309","Y",215,"Y","N","Y","N",""
2004060,"ERNST & YOUNG","1901 SIXTH AVENUE NORTH","SUITE 1200","BIRMINGHAM","AL","United States","35203-2618","Y",42,"Y","N","Y","Y","Yes"
2003578,"HLB GRAVIER, LLP","4000 PONCE DE LEON BLVD.","SUITE 610","CORAL GABLES","FL","United States","33146","Y",3676,"Y","Y","N","N","Yes"
2003746,"CITRIN COOPERMAN","180 PARK AVENUE","SUITE 200","FLORHAM PARK","NJ","United States","07932","Y",2468,"Y","N","Y","N",""
2003373,"ERNST & YOUNG LLP","155 N WACKER DR","","CHICAGO","IL","United States","60606","Y",42,"Y","Y","N","N","Yes"
1996540,"BUZZACOTT LLP","130 WOOD STREET","","LONDON","","United Kingdom","EC2V 6DL","Y",1581,"Y","Y","Y","Y","Not Yet Received"
1999418,"KPMG LLP","345 PARK AVENUE","","NEW YORK","NY","United States","10154","Y",185,"Y","N","Y","Y","Yes"
2003526,"BMP LLP","2001 NORTH MAIN STREET","SUITE 360","WALNUT CREEK","CA","United States","94596","Y",207,"Y","N","Y","N",""
2003460,"ERNST & YOUNG","220 SOUTH SIXTH STREET","","MINNEAPOLIS","MN","United States","55402","Y",42,"Y","Y","N","Y","Yes"
2003464,"PRICEWATERHOUSECOOPERS LLP","ONE NORTH WACKER","","CHICAGO","IL","United States","60606","Y",238,"Y","Y","N","N","Yes"
2003474,"ERNST & YOUNG","700 NICOLLET MALL","SUITE 500","MINNEAPOLIS","MN","United States","55402","Y",42,"Y","Y","Y","Y","Yes"
2003479,"COHEN & COMPANY, LTD","1350 EUCLID AVENUE","SUITE 800","CLEVELAND","OH","United States","44115","Y",925,"Y","Y","N","N","Yes"
2003479,"FORVIS, LLP","201 N ILLINOIS STREET","SUITE 700","INDIANAPOLIS","IN","United States","46204","Y",686,"Y","Y","N","N","Yes"
2003479,"CHERRY BEKAERT LLP","200 SOUTH 10TH STREET","SUITE 900","RICHMOND","VA","United States","23219","Y",677,"Y","Y","N","N","Yes"
2003491,"GRANT THORNTON","18400 VON KARMAN AVE","#900","IRVINE","CA","United States","92612","Y",248,"Y","Y","N","N","Yes"
2004794,"KEITER, STEPHENS, HURST, GARY & SHREAVES, P.C.","4401 DOMINION BOULEVARD","","GLEN ALLEN","VA","United States","23060","Y",80,"Y","Y","N","N","Not Yet Received"
2003491,"PRICEWATERHOUSECOOPERS LLP","PRICEWATERHOUSECOOPERS CENTER","300 MADISON AVENUE","NEW YORK","NY","United States","10017-6204","Y",238,"Y","Y","N","N","Yes"
2003491,"ERNST & YOUNG LLP","5 TIMES SQUARE","","NEW YORK","NY","United States","10036-6530","Y",42,"Y","Y","N","N","Yes"
2003350,"COHEN & COMPANY, LTD.","1350 EUCLID AVENUE","SUITE 800","CLEVELAND","OH","United States","44115","Y",925,"Y","N","Y","N",""
2003635,"SPICER JEFFRIES LLP","4601 DTC BOULEVARD","SUITE 700","DENVER","CO","United States","80237","Y",349,"Y","N","Y","N",""
2003636,"ERNST & YOUNG LTD","CAMANA BAY","PO BOX 510","GRAND CAYMAN","","Cayman Islands","KY1-1106","Y",1655,"Y","Y","N","N","Yes"
2003636,"ERNST & YOUNG LLP","5 TIMES SQUARE","","NEW YORK","NY","United States","10036","Y",42,"Y","Y","N","N","Yes"
2003697,"BVWD","8117 PRESTON ROAD","SUITE 460","DALLAS","TX","United States","75225","N",,"Y","N","Y","N",""
2002601,"ASHLAND PARTNERS & COMPANY LLP","3512 EXCEL DRIVE","SUITE 103","MEDFORD","OR","United States","97504","Y",3783,"Y","N","Y","N",""
2004054,"WALTER SHUFFAIN","1 INTERNATIONAL PLACE","","BOSTON","MA","United States","02110","Y",5439,"Y","N","Y","N",""
2006217,"COHEN AND COMPANY CPA","1350 EUCLID AVE","STE 800","CLEVELAND","OH","United States","44115-1877","Y",925,"Y","N","Y","N",""
2006175,"CBIZ, INC","730 THIRD AVENUE","","NEW YORK","NY","United States","10017","Y",199,"Y","Y","Y","N","Not Yet Received"
2006234,"RICHEY, MAY & CO., LLP","9605 S KINGSTON CT","NO. 200","ENGLEWOOD","CO","United States","80112","Y",673,"Y","Y","N","N","Yes"
2006234,"HAYNIE & COMPANY","1785 W. 2330TH S.","","WEST VALLEY CITY","UT","United States","84119","Y",457,"Y","Y","N","N","Yes"
2003422,"COHEN & COMPANY, LTD.","201 INTERNATIONAL CIRCLE","SUITE 400","HUNT VALLEY","MD","United States","21030","Y",925,"Y","Y","N","N","Yes"
2006557,"KPMG LLP","10 SOUTH BROADWAY","SUITE 900","SAINT LOUIS","MO","United States","63102-1736","Y",185,"Y","N","Y","Y","Yes"
2006654,"FORVIS","200 EAST MAIN STREET, SUITE 700","","FORT WAYNE","IN","United States","46802-1900","Y",686,"Y","N","Y","N",""
2003421,"DELOITTE & TOUCHE LLP","250 EAST 5TH STREET","SUITE 1900","CINCINNATI","OH","United States","45202","Y",34,"Y","N","Y","N",""
2002712,"COHNREZNICK LLP","1301 AVENUE OF THE AMERICAS","10TH FLOOR","NEW YORK","NY","United States","10019","Y",596,"Y","Y","N","N","Yes"
2003422,"PRICEWATERHOUSECOOPERS SA","AVENUE GIUSEPPE MOTTA 50","CASE POSTALE","GENEVA 2","","Switzerland","1211","Y",1358,"Y","N","Y","Y","Yes"
2003461,"CLIFTONLARSONALLEN LLP","220 SOUTH SIXTH STREET","SUITE 300","MINNEAPOLIS","MN","United States","55402","Y",655,"Y","Y","N","N","Yes"
2003461,"EIDE BAILLY LLP","24 2ND AVE SW","","ARBERDEEN","SD","United States","57401","Y",286,"Y","Y","N","N","Yes"
2003461,"PRICEWATERHOUSECOOPERS LLP","ONE NORTH WACKER DRIVE","","CHICAGO","IL","United States","60606","Y",238,"Y","Y","N","N","Yes"
2003465,"PRICE WATERHOUSE COOPERS LLP","601 S. FIGUEROA ST","","LOS ANGELES","CA","United States","90017","Y",238,"Y","Y","N","N","Yes"
2003465,"ASHLAND PARTNERS  & COMPANY","3512 EXCEL DRIVE, SUITE103","","MEDFORD","OR","United States","97504","Y",3783,"Y","N","Y","N",""
2003610,"ELLIOTT DAVIS, LLC","629 MARKET STREET","SUITE 100","CHATTANOOGA","TN","United States","37402","Y",149,"Y","Y","Y","N","Yes"
1998700,"WEAVER AND TIDWELL, L.L.P.","1230 ROSECRANS","SUITE 510","MANHATTAN BEACH","CA","United States","90266","Y",410,"Y","Y","N","N","Yes"
2002218,"ERNST & YOUNG LLP","312 WALNUT ST","SUITE 1900","CINCINNATI","OH","United States","45202","Y",42,"Y","Y","Y","N","Yes"
2003678,"WEAVER AND TIDWELL, L.L.P.","1230 ROSECRANS","SUITE 510","MANHATTAN BEACH","CA","United States","90266","Y",410,"Y","Y","N","N","Yes"
2005140,"ASSURANCE DIMENSIONS","2000 BANKS ROAD","#218","MARGATE","FL","United States","33063","Y",5036,"Y","N","Y","Y","Yes"
2003573,"PRICEWATERHOUSE COOPERS","101 SEAPORT BOULEVARD","","BOSTON","MA","United States","02210","Y",238,"Y","Y","N","N","Yes"
2000749,"PRICEWATERHOUSECOOPERS LLP","1075 PEACHTREE STREET NE","SUTE 2600","ATLANTA","GA","United States","30309","Y",238,"Y","N","Y","Y","Yes"
2004876,"MARTIN DOLAN & HOLTON","4435 WATERFRONT DRIVE, SUITE 200","","GLEN ALLEN","VA","United States","23060","N",,"","N","Y","N",""
2005093,"ASHLAND PARTNERS & COMPANY LLP","3512 EXCEL DRIVE","SUITE 103","MEDFORD","OR","United States","97504","Y",3783,"Y","N","Y","N",""
2005433,"RSM US LLP","420 20TH STREET N","SUITE 2600","BIRMINGHAM","AL","United States","35203","Y",49,"Y","N","Y","N",""
2005433,"DELOITTE & TOUCHE LLP","6075 POPLAR AVENUE","SUITE 350","MEMPHIS","TN","United States","38119","Y",42,"Y","N","Y","N",""
2005433,"FRAZIER & DEETER, LLC","1230 PEACHTREE STREET NE","SUITE 1500","ATLANTA","GA","United States","30309","Y",215,"Y","N","Y","N",""
2006865,"WEAVER AND TIDWELL, LLP","2821 WEST 7TH STREET","SUITE 700","FORT WORTH","TX","United States","76107","N",,"","N","Y","N",""
2006497,"BDO USA, P.C.","200 PARK AVENUE","","NEW YORK","NY","United States","10166","Y",243,"Y","Y","N","N","Yes"
2005222,"PRICEWATERHOUSECOOPERS","300 MADISON AVENUE","","NEW YORK","NY","United States","10017","Y",238,"Y","Y","N","N","Yes"
2005167,"ASHLAND PARTNERS & COMPANY LLP","3512 EXCEL DR.","SUITE 103","MEDFORD","OR","United States","97504","Y",3783,"Y","N","Y","N",""
2003933,"BAUER & COMPANY, LLC","5000 PLAZA ON THE LAKE","SUITE 130","AUSTIN","TX","United States","78746","Y",6072,"Y","Y","N","N","Yes"
2003933,"WEAVER AND TIDWELL L.L.P.","2821 WEST SEVENTH STREET","SUITE 700","FT. WORTH","TX","United States","76107","Y",410,"Y","Y","Y","N","Yes"
2004194,"PRICEWATERHOUSECOOPERS","300 MADISON AVENUE","SUITE 24","NEW YORK","NY","United States","10017","Y",238,"Y","Y","N","Y","Not Yet Received"
2005271,"WEAVER AND TIDWELL, L.L.P.","1230 ROSECRANS AVE","SUITE 510","MANHATTAN BEACH","CA","United States","90266","Y",410,"Y","Y","N","N","Not Yet Received"
2006412,"ERNST & YOUNG LTD.","62 FORUM LANE","P.O. BOX 510","CAMAN BAY","","Cayman Islands","KY1-1106","Y",42,"Y","Y","N","N","Yes"
2003797,"SNYDER COHN, PC","11200 ROCKVILLE PIKE","SUITE 415","NORTH BETHESDA","MD","United States","20852","Y",5134,"N","N","Y","N",""
2004140,"YOUNT, HYDE & BARBOUR P.C.","9954 MAYLAND DRIVE","SUITE 2300","RICHMOND","VA","United States","23233-1469","Y",613,"Y","N","Y","N",""
2004174,"EISNERAMPER","750 THIRD AVENUE","","NEW YORK","NY","United States","10017","Y",274,"Y","Y","N","N","Yes"
2006354,"PRICEWATERHOUSECOOPERS LLP","1 EMBANKMENT PLACE","","LONDON","","United Kingdom","WC2N 6R","Y",876,"Y","Y","N","Y","Yes"
2006362,"MP P.C.","ONE MONARCH PLACE, SUITE 900","","SPRINGFIELD","MA","United States","01144","N",,"Y","N","Y","N",""
2006403,"WARREN AVERETT","2500 ACTON ROAD","","BIRMINGHAM","AL","United States","35243","Y",2226,"Y","N","Y","Y","Yes"
2006412,"ERNST & YOUNG LLP","300 FIRST STAMFORD PLACE","","STAMFORD","CT","United States","06902","Y",42,"Y","Y","N","N","Yes"
1992632,"ASHLAND PARTNERS & COMPANY LP","2512 EXCEL DRIVE","SUITE 103","MEDFORD","OR","United States","97504","Y",3783,"Y","N","Y","N",""
2004148,"GRAY, GRAY & GRAY, LLP","34 SOUTHWEST PARK","","CANTON","MA","United States","02090","Y",889,"Y","Y","N","N","Yes"
2004148,"FIONDELLA, MILONE & LASARACINA, LLP","300 WINDING BROOK DRIVE","","GLASTONBURY","CT","United States","06033","Y",2230,"Y","N","Y","N",""
2004184,"KPMG LLP","100 NORTH TAMPA STREET","SUITE 1700","TAMPA","FL","United States","33602-5145","Y",185,"Y","N","Y","Y","Yes"
2004136,"MENGEL METZGER BARR & CO. LLP","100 CHESTNUT ST.","SUITE 1200","ROCHESTER","NY","United States","14604","Y",557,"Y","Y","Y","N","Yes"
2004136,"FORVIS MAZARS, LLP","910 E. ST. LOUIS STREET","SUITE 400","SPRINGFIELD","MO","United States","65806","Y",686,"Y","N","N","N",""
2004202,"PRICE WATERHOUSE COOPERS LLP","TWO COMMERCE SQUARE SUITE 1700","2001 MARKET STREET","PHILADELPHIA","PA","United States","19103","Y",238,"Y","N","Y","Y","Yes"
2004243,"PRICEWATERHOUSECOOPERS LLP","214 N TRYON STREET","#4200","CHARLOTTE","NC","United States","28202","Y",238,"Y","N","Y","N",""
2004281,"ASSURANCE DIMENSIONS","4920 WEST CYPRESS STREET","SUITE 102","TAMPA","FL","United States","33607","Y",5036,"Y","N","Y","N",""
2004031,"KPMG","55 2ND STREET","SUITE 1800","SAN FRANCISCO","CA","United States","94105","Y",395,"Y","Y","N","N","Yes"
2004567,"RSM US LLP","30 SOUTH WACKER DRIVE","SUITE 3300","CHICAGO","IL","United States","60606","Y",49,"Y","Y","N","N","Yes"
2004567,"KPMG","GRAND CAYMAN","","GRAND CAYMAN","","Cayman Islands","","Y",185,"Y","Y","N","N","Yes"
2005588,"FORVIS","2700 POST OAK BLVD","SUITE 1500","HOUSTON","TX","United States","77056","Y",686,"Y","N","Y","Y","Yes"
2006484,"PRICEWATERHOUSECOOPERS LLP","2001 MARKET STREET","SUITE 1800","PHILADELPHIA","PA","United States","19103-7042","Y",238,"Y","N","Y","Y","Yes"
2006563,"PRICEWATERHOUSECOOPERS LLP","4100 CORPORATE CENTER DRIVE","SUITE 400","SPRINGDALE","AR","United States","72762","Y",238,"Y","N","Y","N",""
2006569,"ASHLAND PARTNERS & COMPANY LLP","3512 EXCEL DRIVE","SUITE 103","MEDFORD","OR","United States","97504","Y",3783,"Y","N","Y","N",""
2001855,"BDO PARIS","43-47 AVENUE DE LA GRANDE ARMEE","","PARIS","","France","75116","Y",3340,"Y","N","N","Y","Yes"
1998520,"BREARD AND ASSOCIATES INC.","9221 CORBIN AVENUE","SUITE 170","NORTHRIDGE","CA","United States","97324","Y",760,"Y","N","Y","N",""
2004726,"EIDE BAILLY LLP","300 N. LAKE AVE., SUITE 930","","PASADENA","CA","United States","91101-4100","N",,"","N","Y","N",""
2001558,"BDO PARIS","43-47 AVENUE DE LA GRANDE ARMEE","","PARIS","","France","75116","Y",3340,"Y","N","N","Y","Yes"
2001957,"KPMG LLP","1601 MARKET STREET","","PHILADELPHIA","PA","United States","19103","Y",185,"Y","Y","N","N","Yes"
2001537,"KPMG LLP","BNY MELLON CENTER, SUITE 3400","500 GRANT STREET","PITTSBURGH","PA","United States","15219-2598","Y",185,"Y","N","N","Y","Yes"
2001558,"MAZARS USA LLP","135 WEST 50TH STREET","","NEW YORK","NY","United States","10020","Y",339,"Y","Y","Y","N","Yes"
2001558,"BDO CAYMAN","23 LIME TREE BAY AVENUE","2ND FLOOR- BUILDING 3","GRAND CAYMAN","","Cayman Islands","KY1-1205","Y",2162,"Y","Y","N","N","Yes"
2001558,"PRICEWATERHOUSECOOPERS","2 RUE GERHARD MERCATOR","2182 GASPERICH","LUXEMBURG CITY","","Luxembourg","","Y",1328,"Y","Y","N","N","Yes"
2006434,"RICHEY MAY","9780 S MERIDIAN BLVD","SUITE 500","ENGELWOOD","CO","United States","80112","N",,"","N","Y","N",""
2005494,"PRICEWATERHOUSECOOPERS LLP","300 MADISON AVENUE","","NEW YORK","NY","United States","10017","Y",238,"Y","Y","N","N","Not Yet Received"
2006463,"PRICEWATERHOUSECOOPERS LLP","PRICEWATERHOUSECOOPERS CENTER","300 MADISON AVENUE","NEW YORK","NY","United States","10017","Y",238,"Y","N","Y","Y","No"
2006431,"DELOITTE & TOUCHE LLP","ONE CAPITAL PLACE","136 SHEDDEN ROAD, P.O. BOX 1787","GEORGE TOWN","","Cayman Islands","KY1-1109","Y",34,"Y","Y","N","N","Yes"
2006431,"GRANT THORNTON LLP","13-18 CITY QUAY","","DUBLIN 2","","Ireland","D02 ED70","Y",1402,"Y","Y","N","N","Yes"
1999140,"ASSURANCE DIMENSIONS","4920 W CYPRESS STREET","SUIRE 102","TAMPA","FL","United States","33604","Y",5036,"Y","N","Y","N",""
2006716,"MOSS ADAMS LLP","601 W. RIVERSIDE AVE., STE. 1800","","SPOKANE","WA","United States","99201","Y",659,"Y","N","Y","N",""
2006509,"KOST FORER GABBAY & KASIERER","144 MENACHEM BEGIN ROAD","BUILDING A","TEL-AVIV","","Israel","6492102","Y",1281,"Y","Y","N","N","Yes"
2006765,"DELOITTE & TOUCHE LLP","1700 MARKET STREET","","PHILADELPHIA","PA","United States","19103","Y",34,"Y","Y","N","N","Yes"
2006771,"DELOITTE & TOUCHE LLP","1700 MARKET STREET","","PHILADELPHIA","PA","United States","19103","Y",34,"Y","Y","Y","N","Yes"
2006771,"DELOITTE & TOUCHE LLP","60 NEXUS WAY, 8TH FLOOR","CAMANA BAY, PO BOX 1787","GRAND CAYMAN","","Cayman Islands","KY1-1109","Y",1096,"Y","Y","N","N","Yes"
2006771,"DELOITTE AUDIT SARL","20, BOULEVARD DE KOCKELSCHEUER","","LUXEMBOURG","","Luxembourg","L-1821","Y",1287,"Y","Y","N","N","Yes"
2006668,"PRICEWATERHOUSECOOPERS","300 MADISON AVENUE","","NEW YORK","NY","United States","10017","Y",238,"Y","Y","N","N","Yes"
2006819,"UHY LLC","4200 UNIVERSITY AVENUE","SUITE 410","WEST DES MOINES","IA","United States","50266","Y",1195,"Y","N","Y","N",""
2002328,"RSM USA LLP (F/K/A MCGLADREY & PULLEN LLP)","ONE GALLERIA TOWER","13355 NOEL ROAD, 8TH FLOOR","DALLAS","TX","United States","75240-6602","Y",49,"Y","Y","N","N","Yes"
2001835,"RSM US LLP","30 S. WACKER DRIVE","SUITE 3300","CHICAGO","IL","United States","60606","Y",49,"Y","Y","N","N","Yes"
2002398,"KPMG","SIX CRICKET SQUARE","PO BOX 493","GRAND CAYMAN","","Cayman Islands","KY1-1106","Y",1323,"Y","Y","N","N","Yes"
2002415,"WIPFLI LLP","125 SOUTH WACKER DRIVE","SUITE 1500","CHICAGO","IL","United States","60606","Y",344,"Y","N","Y","N",""
2002137,"BAUER & COMPANY, LLC","5000 PLAZA ON THE LAKE #130","","AUSTIN","TX","United States","78746","Y",6072,"Y","N","Y","N",""
2002487,"ARTHUR DEDOMINICIS, CPA","1100 ROUTE 9","","FISHKILL","NY","United States","12524","N",,"","N","Y","N",""
1999485,"KPMG LLP","191 WEST NATIONWIDE BOULEVARD","SUITE 500","COLUMBUS","OH","United States","43215","Y",185,"Y","N","Y","Y","Yes"
2003009,"FULVIO & ASSOCIATES, LLP","WEST 37 STREET 4 FLOOR","","NEW YORK","NY","United States","10018","Y",6529,"Y","Y","N","N","Yes"
2000816,"DANNIBLE & MCKEE, LLP","FINANCIAL PLAZA","221 S. WARREN STREET","SYRACUSE","NY","United States","13202-2687","Y",528,"Y","N","Y","Y","Yes"
2001123,"KPMG LLP","10 SOUTH BROADWAY","SUITE 900","ST. LOUIS","MO","United States","63102","Y",185,"Y","N","Y","Y","Yes"
2000534,"EISNERAMPER LLP","733 THIRD AVENUE","","NEW YORK","NY","United States","10017","Y",274,"Y","Y","Y","N","Yes"
2001163,"GRASSI & COMPANY, CPAS PC","750 3RD AVENUE","28TH FLOOR","NEW YORK","NY","United States","10017","Y",606,"Y","N","Y","N",""
2002900,"KPMG SARL","39 AV. JOHN F. KENNEDY, 1855 KIRCHBERG LUXEMBOURG","","LUXEMBOURG","","Luxembourg","","N",,"","Y","N","N","Yes"
2002820,"DELOITTE & TOUCHE LLP","30 ROCKEFELLER PLAZA","","NEW YORK","NY","United States","10112","Y",1046,"Y","N","Y","Y","Yes"
2003012,"GRANT THORNTON LLP","1100 PEACHTREE ST. NE","SUITE 1200","ATLANTA","GA","United States","30309","Y",248,"Y","N","Y","N",""
2001169,"GRASSI & COMPANY, CPAS PC","750 3RD AVENUE","28TH FLOOR","NEW YORK","NY","United States","10017","Y",606,"Y","N","Y","N",""
2001209,"PRICEWATERHOUSECOOPERS LLP","101 SEAPORT BOULEVARD","","BOSTON","MA","United States","02210","Y",238,"Y","N","Y","Y","Yes"
2001249,"EMERICK & COMPANY, P.C.","4520 MADISON AVE","SUITE G","KANSAS CITY","MO","United States","64111","Y",5152,"Y","N","Y","N",""
2001271,"EISNER AMPER","ONE MARKET, LANDMARK, SUITE 620","","SAN FRANCISCO","CA","United States","94105","Y",274,"Y","Y","N","N","Yes"
2001291,"WIPFLI LLP","150 S 5TH ST","UNIT 2000","MINNEAPOLIS","MN","United States","55402","Y",344,"Y","N","Y","N",""
2001308,"WIPFLI LLP","150 S 5TH ST","UNIT 2000","MINNEAPOLIS","MN","United States","55402","Y",344,"Y","N","Y","N",""
2001345,"CROWE LLP","485 LEXINGTON AVE","FLOOR 11","NEW YORK","NY","United States","10017","Y",173,"Y","N","Y","Y","Yes"
2000899,"EISNERAMPER LLP","ONE CALIFORNIA","SUITE 1700","SAN FRANCISCO","CA","United States","94111","Y",274,"Y","Y","N","N","Yes"
2000899,"DELOITTE & TOUCHE LLP","555 MISSION STREET","","SAN FRANCISCO","CA","United States","94105-0920","Y",34,"Y","Y","N","N","Yes"
1995535,"ELLIOTT DAVIS, LLC","629 MARKET STREET, SUITE 100","","CHATTANOOGA","TN","United States","37402","Y",149,"Y","N","Y","N",""
1995535,"MARGOLIN, WINER & EVENS LLP","ONE PENN PLAZA","SUITE 3000","NEW YORK","NY","United States","10119","Y",332,"Y","Y","N","N","Yes"
2001387,"MAYER HOFFMAN MCCANN P.C.","1000 CAMPBELL MITHEN TOWER","222 SOUTH NINTH STREET","MINNEAPOLIS","MN","United States","55402","Y",199,"Y","N","Y","N",""
2001402,"UHY LLC","4200 UNIVERSITY AVENUE","SUITE 410","WEST DES MOINES","IA","United States","50266","Y",1195,"Y","N","Y","N",""
2001885,"ASHLAND PARTNERS & CO LLP","525 BIGHAM KNOLL, SUITE 200","","JACKSONVILLE","OR","United States","97530","Y",3783,"Y","N","Y","N",""
2001812,"ERNST & YOUNG LLP","801 GRAND AVE, SUITE 3000","","DES MOINES","IA","United States","50309","Y",42,"Y","Y","Y","N","Yes"
2001812,"DELOITTE & TOUCHE LLP","400 LOCUST STREET, SUITE 740","","DES MOINES","IA","United States","50309","Y",34,"Y","Y","N","N","Yes"
2001843,"ASSURANCE DIMENSIONS, INC.","4920 W. CYPRESS STREET","SUITE 102","TAMPA","FL","United States","33607","Y",50363,"Y","N","Y","N",""
2001824,"BDO USA, P.C.","MIAMI TOWER, 100 SE 2ND ST","17TH FLOOR","MIAMI","FL","United States","33131","Y",243,"Y","Y","N","N","Not Yet Received"
1999222,"MAGGART CPAS & ADVISORS","1201 DEMONBREUN STREET","SUITE 1220","NASHVILLE","TN","United States","37203","Y",763,"Y","N","Y","N",""
2001885,"KREISCHER MILLER","100 WITMER ROAD, SUITE 350","","HORSHAM","PA","United States","19044-2369","Y",1110,"Y","Y","N","N","Yes"
2001887,"EISNERAMPER LLP","733 THIRD AVENUE","","NEW YORK","NY","United States","10017","Y",274,"Y","N","Y","N",""
2001894,"COHEN & CO.","1350 EUCLID AVENUE","SUITE 800","CLEVELAND","OH","United States","44115","Y",925,"Y","Y","N","N","Yes"
2001914,"COHNREZNICK LLP","21600 OXNARD ST.","STE. 700","WOODLAND HILLS","CA","United States","91367","Y",596,"Y","Y","N","N","Yes"
2001285,"DELOITTE & TOUCHE LLP","CORNER HOUSE 20 PARLIAMENT STREET","","HAMILTON","","Bermuda","HM 12","Y",5230,"Y","Y","N","N","Yes"
2001430,"KPMG LLP","ONE FINANCIAL PLAZA","755 MAIN STREET","HARTFORD","CT","United States","06103","Y",185,"Y","N","Y","N",""
2001433,"DELOITTE & TOUCHE LLP","695 TOWN CENTER DRIVE","SUITE 1200","COSTA MESA","CA","United States","92626","Y",34,"Y","N","Y","N",""
2001433,"PRICEWATERHOUSECOOPERS LLP","601 SOUTH FIGUEROA STREET","","LOS ANGELES","CA","United States","90017","Y",238,"Y","Y","N","N","Yes"
2001431,"BPM","ONE CALIFORNIA STREET","SUITE 2500","SAN FRANCISCO","CA","United States","94111","Y",207,"Y","N","Y","N",""
2001463,"DELOITTE & TOUCHE LLP","695 TOWN CENTER DRIVE","SUITE 1200","COSTA MESA","CA","United States","92626","Y",34,"Y","N","Y","N",""
2001463,"PRICEWATERHOUSECOOPERS LLP","601 SOUTH FIGUEROA STREET","","LOS ANGELES","CA","United States","90017","Y",238,"Y","Y","N","N","Yes"
2001839,"BAKER NEWMAN & NOYES","280 FORE STREET","","PORTLAND","ME","United States","04101","Y",231,"Y","Y","Y","N","Not Yet Received"
2002457,"DELOITTE & TOUCHE LLP","30 ROCKEFELLER PLAZA","","NEW YORK","NY","United States","10112","Y",34,"Y","Y","N","N","Yes"
2002353,"ASHLAND PARTNERS & COMPANY, LLP","3512 EXCEL DRIVE","SUITE 103","MEDFORD","OR","United States","97504","Y",3783,"Y","N","Y","N",""
2002245,"PRAGER METIS CPAS, LLC","222 MOUNT AIRY ROAD","SUITE 100","BASKING RIDGE","NJ","United States","07920","Y",273,"Y","Y","N","N","Not Yet Received"
2002457,"KPMG LLP","550 SOUTH HOPE STREET","SUITE 1500","LOS ANGELES","CA","United States","90071","Y",185,"Y","Y","Y","N","Yes"
2002586,"GBQ PARTNERS LLC","230 WEST STREET, SUITE 700","","COLUMBUS","OH","United States","43215","Y",1808,"Y","N","Y","N",""
2003064,"PLANTE & MORAN, PLLC","10 SOUTH RIVERSIDE PLAZA","9TH FLOOR","CHICAGO","IL","United States","60606","Y",166,"Y","N","Y","N",""
2003101,"PRICEWATERHOUSECOOPERS LLP","2001 MARKET STREET","SUITE 1800","PHILADELPHIA","PA","United States","19103-7042","Y",238,"Y","N","Y","Y","Yes"
2002926,"MCCARTHY ROSE & MILLS LLP","3001 DALLAS PKWY STE 750","","FRISCO","TX","United States","75034","N",,"","N","Y","N",""
2003195,"BPM","ONE CALIFORNIA ST., SUITE 2500","","SAN FRANCISCO","CA","United States","94111","Y",207,"Y","N","Y","N",""
2001282,"ASSURANCE DIMENSIONS","4920 W CYPRESS STREET, SUITE 102","","TAMPA","FL","United States","33607","Y",5036,"Y","N","Y","N",""
2003333,"BERKOWER LLC","517 ROUTE 1","SUITE 4103","ISELIN","NJ","United States","08830","Y",217,"Y","Y","Y","N","Yes"
2003111,"ASHLAND PARTNERS & COMPANY, LLP","3512 EXCEL DRIVE","SUITE 103","MEDFORD","OR","United States","97504","Y",3783,"N","N","Y","N",""
2003136,"COHNREZNICK LLP","1900 AVENUE OF THE STARS, 28TH FLOOR","","LOS ANGELES","CA","United States","90067","Y",596,"Y","Y","Y","N","Yes"
2003749,"PRICEWATERHOUSECOOPERS LLP","PRICEWATERHOUSECOOPERS CENTER","300 MADISON AVENUE","NEW YORK","NY","United States","10017","Y",238,"Y","Y","Y","Y","Yes"
2003284,"DELOITTE AND TOUCHE LLP","655 WEST BROADWAY, SUITE 700","","SAN DIEGO","CA","United States","92101","Y",34,"Y","N","Y","Y","Yes"
2003425,"PLANTE MORAN","10 S. RIVERSIDE PLAZA, 9TH FLOOR","","CHICAGO","IL","United States","60606","Y",166,"Y","N","Y","N",""
2003743,"ASSURANCE DIMENSIONS","2000 BANKS RD.","SUITE 218","MARGATE","FL","United States","33063","Y",5036,"Y","N","Y","N",""
2003803,"ELLIOTT DAVIS, LLC","629 MARKET STREET","SUITE 100","CHATTANOOGA","TN","United States","37402","Y",149,"Y","Y","Y","N","Yes"
2003846,"CITRIN COOPERMAN & COMPANY LLP","50 ROCKEFELLER PLAZA","","NEW YORK","NY","United States","10020","Y",2468,"Y","N","Y","N",""
1992606,"ASHLAND PARTNERS & COMPANY LLP","3512 EXCEL DRIVE, SUITE 103","","MEDFORD","OR","United States","97504","Y",3783,"Y","N","Y","N",""
2001075,"FRANK RIMERMAN & CO. LLP","1801 PAGE MILL ROAD, SUITE 100","","PALO ALTO","CA","United States","93404","Y",1596,"Y","Y","Y","N","Yes"
2004112,"BAKERTILLY","66 HUDSON BLVD E.","SUITE 2200","NEW YORK","NY","United States","10001","Y",23,"N","N","Y","N",""
2003897,"GRANT THORNTON LLP","171 N. CLARK STREET","SUITE 200","CHICAGO","IL","United States","60601-3370","Y",248,"Y","N","N","Y","Yes"
2003172,"GRANT THORNTON LLP","171 N CLARK ST","SUITE 200","CHICAGO","IL","United States","60601","Y",248,"Y","Y","N","N","Yes"
2000554,"ASHLAND PARTNERS & COMPANY LLP","3512 EXCEL DRIVE","SUITE 103","MEDFORD","OR","United States","97504","Y",3783,"N","N","Y","N",""
2003232,"LAVINE, LOFGREN, MORRIS & ENGELBERG, LLP","4180 LAJOLLA VILLAGE DR., UNIT 300","","LAJOLLA","CA","United States","92037","Y",3496,"Y","N","Y","N",""
2003897,"BPM LLP","ONE CALIFORNIA STREET","SUITE 2500","SAN FRANCISCO","CA","United States","94111","Y",207,"Y","N","Y","N",""
2004115,"WIPFLI LLP","150 S 5TH ST","UNIT 2000","MINNEAPOLIS","MN","United States","55402","Y",344,"Y","N","Y","N",""
2001884,"KPMG LLP","2323 ROSS AVENUE #1400","","DALLAS","TX","United States","75201","Y",185,"Y","Y","N","N","Yes"
2004225,"KPMG LLP","345 PARK AVE","","NEW YORK","NY","United States","10154-0102","Y",85,"Y","Y","Y","N","Yes"
2002686,"ARMANINO LLP","6 CITY PLACE","SUITE 900","ST. LOUIS","MO","United States","63141","Y",32,"Y","N","Y","N",""
2004246,"WEAVER & TIDWELL, L.L.P.","1230 ROSECRANS AVE","","MANHATTAN BEACH","CA","United States","90071","Y",410,"Y","Y","Y","N","Not Yet Received"
2004303,"PRICEWATERHOUSECOOPERS AG","BIRCHSTRASSE 160","","ZURICH","","Switzerland","8050","Y",1358,"Y","N","N","Y","No"
2004146,"ASHLAND PARTNERS & COMPANY, LLP","3512 EXCEL DR","SUITE 103","MEDFORD","OR","United States","97504","Y",97504,"Y","N","Y","N",""
2002439,"PLANTE & MORAN, PLLC","10 S. RIVERSIDE PLAZA","9TH FLOOR","CHICAGO","IL","United States","60606","Y",166,"Y","N","Y","N",""
2002439,"RAINES & FISCHER, LLP","555 5TH AVE.","RM. 901","NEW YORK","NY","United States","10017","Y",3760,"Y","Y","N","N","Yes"
2004390,"GRAY, GRAY & GRAY, LLP","34 SOUTHWEST PARK","","CANTON","MA","United States","02090","Y",889,"Y","Y","N","N","Yes"
2004390,"FIONDELLA, MILONE & LASARACINA, LLP","300 WINDING BROOK DRIVE","","GLASTONBURY","CT","United States","06033","Y",2230,"Y","N","Y","N",""
2004519,"GBQ PARTNERS LLC","230 WEST STREET, SUITE 700","","COLUMBUS","OH","United States","43215","Y",1808,"Y","N","Y","N",""
2005089,"PLANTE & MORAN, PLLC","634 FRONT AVENUE","SUITE 400","GRAND RAPIDS","MI","United States","49504","Y",166,"Y","Y","Y","N","Yes"
2005055,"GRANT THORNTON LLP","171 NORTH CLARK STREET","SUITE 200","CHICAGO","IL","United States","60601","Y",248,"Y","Y","N","N","Yes"
2005379,"APRIO LLB","2002 SUMMIT BOULEVARD","SUIT 120","ATLANTA","GA","United States","30319","N",,"","N","Y","N",""
2005412,"MRM CPAS & ADVISORS","3001 DALLAS PARKWAY","#750","FRISCO","TX","United States","75034","N",,"","N","Y","N",""
2005372,"BRIGHTMAN ALMAGOR ZOHAR & CO.","1 AZRIELI CENTER, TEL AVIV 67021","","TEL AVIV","","Israel","","Y",1197,"Y","Y","N","N","Yes"
2005372,"KPMG LLP","345 PARK AVENUE","","NEW YORK","NY","United States","10154","Y",185,"Y","Y","N","N","Yes"
2005372,"KPMG (CAYMAN ISLANDS)","2ND FLOOR CENTURY YARD","ELGIN AVENUE","GEORGE TOWN, GRAND CAYMAN","","Cayman Islands","KY1-1106","Y",1323,"Y","Y","N","N","Yes"
2003430,"CBIZ CPAS, LLC","4600 S ULSTER STREET","SUITE 900","DENVER","CO","United States","80237","Y",199,"Y","N","Y","N",""
2003993,"RSM US, LLP","ONE SOUTH WACKER DRIVE","SUITE 800","CHICAGO","IL","United States","60606","Y",49,"Y","Y","N","N","Not Yet Received"
2003977,"WHITHUMSMITH + BROWN, PC","ONE TOWER CENTER BOULEVARD","14TH FLOOR","EAST BRUNSWICK","NJ","United States","08816","Y",100,"Y","Y","N","N","Yes"
2002762,"KPMG LLP","345  PARK AVENUE","","NEW YORK","NY","United States","10154","Y",185,"Y","N","Y","Y","Yes"
2004401,"PRICEWATERHOUSECOOPERS LLP","PRICEWATERHOUSECOOPERS CENTER","300 MADISON AVENUE","NEW YORK","NY","United States","10017","Y",238,"Y","Y","Y","Y","Yes"
2004401,"PRICEWATERHOUSECOOPERS LLP","THREE EMBARCADERO CENTER","","SAN FRANCISCO","CA","United States","94111-4004","Y",238,"Y","N","Y","N",""
2003496,"PRICEWATERHOUSECOOPERS LLP","101 SEAPORT BOULEVARD","","BOSTON","MA","United States","02210","Y",238,"Y","N","Y","Y","Yes"
2004569,"ERNST & YOUNG LLP","312 WALNUT ST","SUITE 1900","CINCINNATI","OH","United States","45202","Y",42,"Y","Y","Y","N","Yes"
1997504,"GRANT THORNTON LLP","757 3RD AVENUE","9TH FLOOR","NEW YORK","NY","United States","10017","Y",248,"Y","N","Y","N",""
2004817,"SPICER JEFFRIES, LLP","5251 S. QUEBEC ST.","STE 200","GREENWOOD VILLAGE","CO","United States","80111","Y",349,"Y","Y","Y","N","Yes"
2004817,"BAUER & COMPANY, LLC","PO BOX 27887","","AUSTIN","TX","United States","78755","Y",6072,"Y","N","Y","N",""
2003757,"PRICEWATERHOUSECOOPERS LLP","300 MADISON AVENUE","","NEW YORK","NY","United States","10017","Y",238,"Y","N","N","Y","Yes"
1997001,"PRICEWATERHOUSECOOPERS LLP","300 MADISON AVE.","","NEW YORK","NY","United States","10017","Y",238,"Y","Y","N","N","Not Yet Received"
2003812,"PRICEWATERHOUSECOOPERS LLP","1420 5TH AVENUE","SUITE 2800","SEATTLE","WA","United States","98101","Y",238,"Y","Y","N","N","Yes"
2003812,"PRICEWATERHOUSECOOPERS, LLP","18 FORUM LANE","CAMANA BAY","GEORGE TOWN","","Cayman Islands","KY1-1104","Y",1266,"Y","Y","N","N","Yes"
2003480,"ERNST & YOUNG LLP","FIVE TIMES SQUARE","","NEW YORK","NY","United States","10036","Y",42,"Y","Y","N","N","Yes"
2003480,"BDO USA, LLP","421 FAYETTEVILLE ST.","SUITE 300","RALEIGH","NC","United States","27601","Y",243,"Y","Y","N","N","Yes"
2004139,"FORVIS","2700 POST OAK BLVD","SUITE 1500","HOUSTON","TX","United States","77056","Y",686,"Y","N","Y","Y","Yes"
2004027,"ERNST & YOUNG, LLP","200 CLARENDON STREET","","BOSTON","MA","United States","02116","Y",42,"Y","Y","N","N","Yes"
2004938,"KPMG","1601 MARKET STREET","","PHILADELPHIA","PA","United States","19103","Y",185,"Y","Y","Y","Y","Yes"
2004938,"DELOITTE & TOUCHE, LLP","1700 MARKET STREET","","PHILADELPHIA","PA","United States","19103","Y",34,"Y","Y","N","N","Not Yet Received"
2004832,"DELOITTE & TOUCHE LLP","30 ROCKEFELLER PLAZA","","NEW YORK","NY","United States","10112-0015","Y",34,"Y","N","Y","Y","Yes"
2000895,"ERNST & YOUNG LTD","3 BERMUDIANA ROAD","","HAMILTON","","Bermuda","HM11","Y",1277,"Y","Y","N","N","Yes"
2002938,"KPMG LLP","345 PARK AVE","","NEW YORK","NY","United States","10154","Y",185,"Y","Y","N","N","Yes"
2004584,"RICHEY MAY & CO","9605 S KINGSTON CT., SUITE 200","","ENGLEWOOD","CO","United States","80112","Y",673,"Y","Y","Y","N","Not Yet Received"
1999896,"ASSURANCE DIMENSIONS LLC","3111 N. UNIVERSITY DRIVE","SUITE 621","CORAL SPRINGS","FL","United States","33065","Y",5036,"Y","N","Y","N",""
2003456,"ERNST & YOUNG LLP","5 TIMES SQUARE","","NEW YORK","NY","United States","10036-6530","Y",42,"Y","Y","N","N","No"
2003456,"GRANT THORNTON","4695 MACARTHUR COURT SUITE 1600","","NEWPORT BEACH","CA","United States","92660","Y",248,"Y","Y","N","N","No"
2004593,"ASHLAND PARTNERS & COMPANY LLP","3512 EXCEL DR. SUITE 103","","MEDFORD","OR","United States","97504","Y",3783,"N","N","Y","N",""
2004889,"MAGGART CPAS & ADVISORS","1201 DEMONBREUN STREET","SUITE 1220","NASHVILLE","TN","United States","37203","Y",763,"Y","N","Y","N",""
2004983,"HILL, BARTH & KING, LLC","100 PINEWOOD LANE","SUITE 201","WARRENDALE","PA","United States","15086","Y",2206,"Y","N","Y","N",""
2004978,"SPICER JEFFRIES LLP","4601 DTC BOULEVARD, SUITE 700","","DENVER","CO","United States","80237","Y",349,"Y","Y","Y","N","Not Yet Received"
2006278,"MEADOWS URQUHART ACREE & COOK LLP","1802 BAYBERRY COURT","SUITE 102","RICHMOND","VA","United States","23226","Y",3688,"Y","Y","N","N","Not Yet Received"
2006088,"LUMSDEN & MCCORMICK","369 FRANKLIN STREET","","BUFFALO","NY","United States","14202","Y",130,"Y","N","Y","N",""
2005326,"BONADIO & CO., LLP","171 SULLY'S TRAIL","SUITE 201","PITTSFORD","NY","United States","14534","Y",1884,"Y","N","Y","N",""
2004328,"LUTZ & COMPANY, PC","13616 CALIFORNIA ST.","SUITE 300","OMAHA","NE","United States","68154","Y",6473,"Y","N","Y","N",""
2006278,"CROWE LP","488 MADISON AVE., SUITE 1200","","NEW YORK","NY","United States","10022","Y",173,"Y","N","Y","N",""
2006327,"KPMG LLP","200 E RANDOLPH ST","#5500","CHICAGO","IL","United States","60601","Y",185,"Y","Y","Y","N","Yes"
2007086,"WALTER SHUFFAIN","ONE INTERNATIONAL PLACE","SUITE 1010","BOSTON","MA","United States","02110","Y",5439,"Y","N","Y","N",""
2005855,"ASHLAND PARTNERS & COMPANY, LLP","3512 EXCEL DRIVE","SUITE 103","MEDFORD","OR","United States","97504","Y",3783,"Y","N","Y","N",""
2007021,"MICHAEL COGLIANESE CPA, P.C.","300 N. STATE ST.","SUITE 5720","CHICAGO","IL","United States","60654","Y",3874,"Y","N","Y","N",""
2007035,"KPMG LLP","550 SOUTH HOPE STREET","SUITE 1500","LOS ANGELES","CA","United States","90071","Y",185,"Y","N","Y","N",""
2001529,"FORVIS MAZARS, LLP","1003 RED BANKS ROAD","","GREENVILLE","NC","United States","27858","Y",686,"Y","Y","N","N","Yes"
2001529,"RSM LLP","ONE SOUTH WACKER DRIVE STE. 800","","CHICAGO","IL","United States","60606","Y",49,"Y","N","Y","N",""
2001529,"DELOITTE & TOUCHE","111 S. WACKER DRIVE","","CHICAGO","IL","United States","60606","Y",34,"Y","Y","N","N","Yes"
2001529,"BDO USA, LLP","330 N WABASH AVENUE","","CHICAGO","IL","United States","60611","Y",243,"Y","Y","N","N","Yes"
2001529,"ASHLAND PARTNERS & COMPANY LLP","3512 EXCEL DRIVE","SUITE 103","MEDFORD","OR","United States","97504","Y",3783,"Y","N","Y","N",""
2001545,"RSM US LLP","30 S. WACKER DRIVE","SUITE 3300","CHICAGO","IL","United States","60606","Y",49,"Y","Y","N","N","Yes"
2001545,"PLANTE & MORAN, PLLC","10 S. RIVERSIDE PLAZA","9TH FLOOR","CHICAGO","IL","United States","60606","Y",166,"Y","Y","N","N","Yes"
2001610,"KNIGHT, ROLLERI, SHEPPARD CPAS LLP","1499 POST ROAD","SUITE 1040","FAIRFIELD","CT","United States","06824","Y",3437,"Y","N","Y","N",""
2004437,"YOUNT, HYDE & BARBOUR, PC","4419 PHEASANT RIDGE ROAD","SUITE 302","ROANOKE","VA","United States","24014","Y",613,"Y","N","Y","N",""
2005015,"DEMARCO SCIACCOTTA WILKENS & DUNLEAVY, LLP","20646 ABBEY WOODS CT N","SUITE 201","FRANKFORT","IL","United States","60423","Y",5376,"Y","N","Y","N",""
2005058,"TAMA BUDAJ RAAB CPA","32783 MIDDLEBELT ROAD","","FARMINGTON HILLS","MI","United States","48334-1726","Y",6168,"Y","N","Y","N",""
2005077,"ASHLAND PARTNERS & COMPANY, LLP","3512 EXCEL DRIVE","","MEDFORD","OR","United States","97504","Y",3783,"N","Y","Y","N","Yes"
2005392,"KAUFMAN ROSSIN & CO.","3310 MARY STREET","","MIAMI","FL","United States","33133","Y",137,"Y","Y","N","N","Yes"
2005349,"COHNREZNICK LLP","7501 AVE","SUITE 400E","BETHESDA","MD","United States","20814","Y",596,"Y","Y","N","N","Yes"
2005349,"WEAVER","2821 WEST 7TH STREET","SUITE 700","FORT WORTH","TX","United States","76107","Y",410,"Y","Y","Y","N","Not Yet Received"
2005380,"PRICEWATERHOUSECOOPERS LLP","300 MADISON AVENUE","","NEW YORK","NY","United States","10017","Y",238,"Y","Y","Y","Y","Yes"
2001635,"YOUNT, HYDE & BARBOUR, P.C.","4419 PHEASANT RIDGE ROAD","SUITE 302","ROANOKE","VA","United States","24014","Y",613,"Y","N","Y","N",""
2004921,"FREEDMAN & GOLDBERG CPA'S","2444 E. HILL RD.","","GRAND BLANC","MI","United States","48439","Y",381,"Y","N","Y","N",""
2004933,"FORVIS","2700 POST OAK BLVD","SUITE 1500","HOUSTON","TX","United States","77056","Y",686,"Y","N","Y","Y","Yes"
2004263,"MEADEN & MOORE","1375 E. 9TH STREET","SUITE 1800","CLEVELAND","OH","United States","44114","Y",314,"Y","N","Y","N",""
2007136,"KPMG LLP","200 E. RANDOLPH","SUITE 5500","CHICAGO","IL","United States","60601","Y",185,"Y","Y","N","N","Not Yet Received"
2007136,"KPMG AUDIT S.A.R.L.","39, AVENUE JOHN. F. KENNEDY","","N/A","","Luxembourg","L-1855","Y",2831,"Y","Y","N","N","Not Yet Received"
2007158,"WARREN AVERETT","2500 ACTON ROAD","","BIRMINGHAM","AL","United States","35243","Y",2226,"Y","N","Y","Y","Yes"
2006834,"ERNST & YOUNG, LLP","1001 LAKESIDE AVE","SUITE 1800","CLEVELAND","OH","United States","44114","Y",42,"Y","Y","N","N","Yes"
2002154,"TRACHTENBERG & PAUKER, LLP","100 CROSSWAYS PARK WEST","","WOODBURY","NY","United States","11797","Y",5507,"Y","N","Y","N",""
1984206,"PRICEWATERHOUSECOOPERS LLP","300 MADISON AVENUE","","NEW YORK","NY","United States","10017","Y",238,"Y","Y","Y","N","Yes"
2001684,"BAKER TILLY US, LLP","205 N MICHIGAN AVENUE","28TH FLOOR","CHICAGO","IL","United States","60601-5927","Y",23,"Y","N","Y","N",""
1992943,"MAZARS USA LLP","135 WEST 50TH ST","","NEW YORK","NY","United States","10020","Y",339,"Y","N","Y","N",""
2005000,"KPMG LLP","ONE FINANCIAL PLAZA","755 MAIN STREET","HARTFORD","CT","United States","06103","Y",185,"Y","N","Y","N",""
2004950,"ASSURANCE DIMENSIONS","2000 BANKS ROAD, SUITE 218","","MARGATE","FL","United States","33063","Y",5036,"Y","N","Y","N",""
2002713,"ASHLAND PARTNERS","3152 EXCEL DRIVE","STE 103","MEDFORD","OR","United States","97504","Y",3783,"N","N","Y","N",""
2005282,"ASHLAND PARTNERS & COMPANY, LLP","3512 EXCEL DRIVE","SUITE 103","MEDFORD","OR","United States","97504","Y",3783,"Y","N","Y","N",""
2004577,"KPMG","CENTURY YARD","CRICKET SQUARE","GEORGE TOWN","","Cayman Islands","","Y",1323,"Y","Y","N","N","Yes"
2004577,"KPMG ASSURANCE SERVICES","RUA DO PASSEIO, 38 - SETOR 2 - 17º ANDAR","ED. PASSEIO CORPORATE","RIO DE JANEIRO","","Brazil","","N",,"","Y","N","N","Yes"
2004577,"KPMG LLP","345 PARK AVENUE","","NEW YORK","NY","United States","10154-0102","Y",185,"Y","Y","N","N","Yes"
2001251,"ASHLAND PARTNERS & COMPANY, LLP","3512 EXCEL DRIVE","SUITE 103","MEDFORD","OR","United States","97504","Y",3783,"Y","N","Y","N",""
2001551,"ASSURANCE DIMENSIONS, INC.","4920 WEST CYPRESS STREET","SUITE 102","TAMPA","FL","United States","33607","Y",5036,"Y","N","Y","N",""
2003990,"D. BROOKS AND ASSOCIATES CPA'S, P.A.","4440 PGA BLVD, SUITE 104","","PALM BEACH GARDENS","FL","United States","33410","Y",4048,"Y","N","Y","N",""
2003774,"DELOITTE & TOUCHE LLP","30 ROCKEFELLER CENTER","","NEW YORK","NY","United States","10112","Y",34,"Y","N","Y","Y","Yes"
2003924,"CITRIN COOPERMAN & COMPANY LLP","50 ROCKEFELLER PLAZA","","NEW YORK","NY","United States","10020","Y",2468,"Y","N","Y","N",""
2003872,"FORVIS","2700 POST OAK BLVD","SUITE 1500","HOUSTON","TX","United States","77056","Y",686,"Y","N","Y","Y","Yes"
2003932,"PRICEWATERHOUSECOOPERS, LLP","6 CARDINAL WAY","SUITE 1100","ST. LOUIS","MO","United States","63102","Y",238,"Y","N","Y","Y","Yes"
2003707,"EISNERAMPER LLP","733 THIRD AVENUE","","NEW YORK","NY","United States","10017","Y",274,"Y","N","Y","N",""
2005533,"DELOITTE & TOUCHE","ONE CAPITAL PLACE","SHEDDEN ROAD","GEORGE TOWN","","Cayman Islands","","Y",1096,"Y","Y","N","N","Yes"
2004891,"ERNST & YOUNG LTD.","62 FORUM LANE","","CAMANA BAY GRAND CAYMAN","","Cayman Islands","KY1-9006","Y",1655,"Y","Y","N","N","Yes"
2005598,"KPMG LLP","345 PARK AVENUE","","NEW YORK","NY","United States","10154","Y",185,"Y","Y","Y","Y","Not Yet Received"
2005598,"PRICEWATERHOUSECOOPERS LLP","ONE SPENCER DOCK","NORTH WALL QUAY","DUBLIN","","Ireland","","Y",1366,"Y","Y","N","N","Not Yet Received"
2005598,"KPMG LLP","SIX CRICKET SQUARE","","GEORGE TOWN","","Cayman Islands","KY1-1106","Y",1323,"Y","Y","N","N","Not Yet Received"
2005598,"PRICEWATERHOUSECOOPERS LLP","18 FORUM LANE","CAMANA BAY","GEORGE TOWN","","Cayman Islands","KY1-1104","Y",1266,"Y","Y","N","N","Not Yet Received"
2005598,"PRICEWATERHOUSECOOPERS, SOCIETE COOPERATIVE","2 RUE GERHARD MERCATOR","","LUXEMBOURG L-1014","","Luxembourg","","Y",1328,"Y","Y","N","N","Not Yet Received"
2002477,"SANVILLE & COMPANY LLC","2617 HUNTINGDON PIKE","","HUNTINGDON VALLEY","PA","United States","19006","Y",169,"Y","N","Y","N",""
2005679,"MOSS ADAMS LLP","999 3RD AVENUE #2800","","SEATTLE","WA","United States","98104","Y",659,"Y","N","Y","N",""
2005679,"REKDAL HOPKINS HOWARD, PS","2275 116TH AVE NE","STE 100","BELLEVUE","WA","United States","98004","Y",5996,"Y","Y","N","N","Not Yet Received"
2000850,"HILL, BARTH & KING LLC","2564 BRUNSWICK PIKE","","LAWRENCEVILLE","NJ","United States","08648","Y",2206,"N","N","Y","N",""
2005694,"WARREN AVERETT","6 CONCOURSE PARKWAY","SUITE 600","ATLANTA","GA","United States","30328","Y",2226,"Y","Y","N","N","Not Yet Received"
1997873,"BAKER TILLY US, LLP","601 W RIVERSIDE AVE","SUITE 1800","SPOKANE","WA","United States","99201","Y",23,"Y","N","Y","N",""
2001601,"KNIGHT, ROLLERI, SHEPPARD CPAS LLP","1499 POST ROAD","SUITE 1040","FAIRFIELD","CT","United States","06824","Y",3437,"Y","N","Y","N",""
2001603,"WIPFLI LLP","150 S 5HT ST","UNIT 2000","MINNEAPOLIS","MN","United States","55402","Y",344,"Y","N","Y","N",""
2001629,"ERNST & YOUNG LLP","18101 VON KARMAN AVE","SUITE 1700","IRVINE","CA","United States","92612","Y",42,"Y","Y","N","N","Yes"
2001629,"ERNST & YOUNG LLP","ONE RAFFLES QUAY","NORTH TOWER, LEVEL 18","SINGAPORE","","Singapore","048583","Y",1247,"Y","Y","N","N","Yes"
2001666,"MOSS ADAMS LLP","999 3RD AVENUE #2800","","SEATTLE","WA","United States","98104","Y",659,"Y","N","Y","N",""
2001666,"REKDAL HOPKINS HOWARD, PS","2275 116TH AVE NE","STE 100","BELLEVUE","WA","United States","98004","Y",5996,"Y","Y","N","N","Not Yet Received"
2001460,"ASHLAND PARTNERS & COMPANY LLC","3512 EXCEL DRIVE","SUITE 103","MEDFORD","OR","United States","97504","Y",3783,"Y","N","Y","N",""
2001307,"LILLING & COMPANY LLP","TWO SEABIRD BLVD","","PORT WASHINGTON","NY","United States","11050","Y",3480,"Y","N","Y","N",""
2005672,"ASHLAND PARTNERS","3512 EXCEL DRIVE, SUITE 103","","MEDFORD","OR","United States","97504","Y",3783,"Y","N","Y","N",""
2005709,"ASSURANCE DIMENSIONS","4920 W CYPRESS STREET","SUITE 102","TAMPA","FL","United States","33607","Y",5036,"Y","N","Y","N",""
2005708,"RICHEY MAY & CO.","9780 S MERIDIAN BLVD SUITE 500","","ENGLEWOOD","CO","United States","80112","Y",673,"Y","Y","N","Y","Yes"
2005655,"ERNST & YOUNG ACCOUNTANTS LLP","CROSS TOWERS","ANTONIO VIVALDISTRAAT 150","AMSTERDAM","","Netherlands","1083","Y",1396,"Y","Y","N","N","Yes"
2005655,"ERNST & YOUNG LLP","ONE MANHATTAN WEST","395 9TH AVENUE","NEW YORK","NY","United States","10001","Y",42,"Y","Y","N","N","Yes"
2001791,"ASHLAND PARTNERS & COMPANY LLP","3512 EXCEL DRIVE","SUITE 103","MEDFORD","OR","United States","97504","Y",3783,"N","N","Y","N",""
2001883,"MICHAEL COGLIANESE CPA, P.C.","300 N. STATE ST.","SUITE 5720","CHICAGO","IL","United States","60654","Y",3874,"Y","N","Y","N",""
2001904,"COHNREZNICK","4 BECKER FARM ROAD","P.O. BOX 954","ROSELAND","NJ","United States","07068-0954","Y",596,"Y","N","Y","N",""
2001904,"KPMG LLP","774 MAIN STREET","","MONCTON NB","","Canada","E1C 8N6","Y",85,"Y","Y","N","N","Yes"
2001904,"DELOITTE IRELAND LLP","DELOITTE & TOUCHE HOUSE","EARLSFORT TERRACE","DUBLIN 2","","Ireland","","Y",1193,"Y","Y","N","N","Yes"
2001904,"DELOITTE & TOUCHE LLP","ONE CAPITAL PLACE","P.O. BOX 1787","GRAND CAYMAN","","Cayman Islands","KY1-1109","Y",1096,"Y","Y","N","N","Yes"
2001904,"KPMG LLP","SIX CRICKET SQUARE","GEORGE TOWN","GRAND CAYMAN","","Cayman Islands","KY1-1106","Y",1323,"Y","Y","N","N","Yes"
2001177,"CAVANAUGH NELSON PLC","999 WATERSIDE DRIVE","SUITE 2250","NORFOLK","VA","United States","23510","N",,"","N","Y","N",""
2001949,"EISNER AMPER","ONE MARKET, LANDMARK, SUITE 620","","SAN FRANCISCO","CA","United States","94105","Y",274,"Y","Y","N","N","Yes"
2005048,"ADEPTUS","733 STATE RTE 35 N","","OCEAN","NJ","United States","07712","Y",3686,"Y","N","Y","N",""
2005064,"BONADIO & CO LLP","100 CORPORATE PARKWAY","SUITE 200","AMHERST","NY","United States","14226-1200","Y",1884,"Y","N","Y","N",""
2005067,"FORVIS LLP","2700 POST OAK BOULEVARD","SUITE 1500","HOUSTON","TX","United States","77056","Y",686,"Y","N","Y","N",""
2003700,"ASHLAND PARTNERS & COMPANY LLP","3512 EXCEL DRIVE, SUITE 103","","MEDFORD","OR","United States","97504","Y",3783,"Y","N","Y","N",""
1986919,"DELOITTE & TOUCHE LLP","695 TOWN CENTER DR.","SUITE 1000","COSTA MESA","CA","United States","92626","Y",34,"Y","Y","Y","N","Yes"
2000865,"KPMG LLP","200 EAST RANDOLPH DRIVE","","CHICAGO","IL","United States","60601-5212","Y",185,"Y","Y","N","N","Not Yet Received"
2000865,"PLANTE MORAN, PLLC","10 S. RIVERSIDE PLAZA","9TH FLOOR","CHICAGO","IL","United States","60606","Y",166,"Y","N","Y","N",""
2002386,"ASHLAND PARTNERS & COMPANY LLP","3512 EXCEL DR.","STE. 103","MEDFORD","OR","United States","97504","Y",3783,"Y","Y","Y","N","Yes"
2005410,"COHEN & COMPANY","1350 EUCLID AVE","SUITE 800","CLEVELAND","OH","United States","44115","Y",925,"Y","Y","Y","N","Yes"
2000785,"GRANT THORNTON LLP","700 MILAM ST.","SUITE 300","HOUSTON","TX","United States","77002","Y",248,"Y","Y","N","N","Yes"
2005444,"ASHLAND PARTNERS & COMPANY LLP","3512 EXCEL DR. SUITE 103","","MEDFORD","OR","United States","97504","Y",3783,"N","N","Y","N",""
2005465,"MAYER HOFFMAN MCCANN P.C.","1000 CAMPBELL MITHEN TOWER","222 SOUTH NINTH STREET","MINNEAPOLIS","MN","United States","55402","Y",199,"Y","N","Y","N",""
1990457,"BDO USA, PC","8401 GREENSBORO DRIVE","","MCLEAN","VA","United States","22102","Y",243,"Y","Y","N","N","Yes"
1999874,"PRICEWATERHOUSECOOPERS LLP","111 HIGH STREET","","BOSTON","MA","United States","02110","Y",238,"Y","Y","N","N","Yes"
1999874,"EDELSTEIN & COMPANY","160 FEDERAL STREET","9TH FLOOR","BOSTON","MA","United States","02110","Y",3376,"Y","N","Y","N",""
1999874,"PRICEWATERHOUSECOOPERS","ONE SPENCER DOCK","NORTH WALL QUAY","DUBLIN","","Ireland","","Y",1366,"Y","Y","N","N","Yes"
1999874,"PRICEWATERHOUSECOOPERS, SOCIÉTÉ COOPÉRATIVE","2 RUE GERHARD MERCATOR","","LUXEMBOURG","","Luxembourg","L-2182","Y",1328,"Y","Y","N","N","Yes"
1999874,"PRICEWATERHOUSECOOPERS","ONE INTERNATIONAL TOWERS SYDNEY","WATERMANS QUAY","SYDNEY","","Australia","","Y",1379,"Y","Y","N","N","Yes"
1999874,"PRICEWATERHOUSECOOPERS CI LLP","37 ESPLANADE","","ST HELIER","","Jersey","","Y",1412,"Y","Y","N","N","Yes"
2005653,"DELOITTE & TOUCHE LLP","555 W. 5TH STREET # 2700","","LOS ANGELES","CA","United States","90013","Y",34,"Y","N","Y","Y","Yes"
2005666,"PRICEWATERHOUSECOOPERS","18 FORUM LANE","CAMANA BAY","GEORGE TOWN","","Cayman Islands","KY1-1104","Y",1266,"Y","Y","N","N","Yes"
2005666,"PRICEWATERHOUSECOOPERS LLP","330 MADISON AVE","","NEW YORK","NY","United States","10017","Y",238,"Y","Y","N","N","Yes"
2004919,"BAKER TILLY US, LLP","66 HUDSON BLVD E","SUITE 2200","NEW YORK","NY","United States","10001","Y",23,"Y","N","Y","N",""
2005681,"BAKER TILLY VIRCHOW KRAUSE, LLP","115 S. 84TH STREET","SUITE 400","MILWAUKEE","WI","United States","53214-1475","Y",23,"Y","N","Y","Y","Yes"
2005880,"ASSURANCE DIMENSIONS","4920 W CYPRESS STREET","SUITE 102","TAMPA","FL","United States","33607","Y",5036,"Y","N","Y","N",""
2005888,"ASSURANCE DIMENSIONS","4920 W CYPRESS STREET","SUITE 102","TAMPA","FL","United States","33607","Y",5036,"Y","N","Y","N",""
2005894,"PRICEWATERHOUSECOOPERS LLP","125 HIGH STREET","","BOSTON","MA","United States","02110","Y",238,"Y","Y","Y","N","Yes"
2005755,"WEAVER AND TIDWELL, L.L.P.","4400 POST OAK PARKWAY","SUITE 1100","HOUSTON","TX","United States","77027","Y",410,"Y","Y","N","N","Yes"
2005487,"PRICEWATERHOUSECOOPERS LLP","300 MADISON AVE","","NEW YORK","NY","United States","10017","Y",238,"Y","Y","N","N","Yes"
2004010,"JULIAN SARDINAS","3111 N. UNIVERSITY DRIVE, SUITE 621","","CORAL SPRINGS","FL","United States","33065","Y",5036,"Y","N","Y","Y","Not Yet Received"
2005078,"PRICEWATERHOUSECOOPERS LLP","45 S. 7TH STREET","SUITE 3400","MINNEAPOLIS","MN","United States","55402","Y",238,"Y","N","Y","Y","Yes"
2004218,"ERNST & YOUNG LLP","560 MISSION STREET","SUITE 1600","SAN FRANCISCO","CA","United States","94105","Y",42,"Y","Y","N","N","Yes"
2004218,"BURR PILGER MAYER, INC.","P.O. BOX 1748","","GEORGE TOWN, GRAND CAYMAN","","Cayman Islands","KY1-1109","Y",207,"Y","Y","N","N","Yes"
2004937,"COHEN & CO LTD","1350 EUCLID AVENUE","SUITE 800","CLEVELAND","OH","United States","44115","Y",925,"Y","Y","N","N","Yes"
2006147,"PRICEWATERHOUSE COOPERS LLP","300 MADISON AVENUE","","NEW YORK","NY","United States","10017-6204","Y",238,"Y","N","Y","Y","Yes"
2005325,"FREED MAXICK CPAS, P.C.","424 MAIN STREET","SUITE 800","BUFFALO","NY","United States","14202","Y",317,"Y","N","Y","N",""
1997519,"PRICEWATERHOUSECOOPERS LLP","655 NEW YORK AVENUE NW","","WASHINGTON","DC","United States","20001","Y",1266,"Y","Y","N","N","Not Yet Received"
2006224,"PWC","125 HIGH STREET","","BOSTON","MA","United States","02110","Y",238,"Y","N","N","Y","Yes"
2002141,"ERNST & YOUNG LLP","ONE RAFFLES QUAY","NORTH TOWER, LEVEL 18","SINGAPORE","","Singapore","048583","Y",1247,"Y","Y","N","N","Yes"
2001966,"MATT STILLE, CPA OF COHNREZNICK LLP","816 CONGRESS AVENUE","SUITE 200","AUSTIN","TX","United States","78701","Y",596,"Y","Y","N","N","Not Yet Received"
2000214,"DELOITTE & TOUCHE LLP","299 SOUTH MAIN ST.","SUITE 1900","SALT LAKE CITY","UT","United States","94596-3764","Y",34,"Y","Y","N","N","Yes"
2000214,"ERNST & YOUNG","15 W SOUTH TEMPLE","#1800","SALT LAKE CITY","UT","United States","84101","Y",42,"Y","Y","N","N","Yes"
2000214,"RSM US LLP","555 17TH ST","UNIT 1200","DENVER","CO","United States","80202","Y",49,"Y","Y","N","N","Yes"
2002141,"ERNST & YOUNG LLP","18101 VON KARMAN AVE","SUITE 1700","IRVINE","CA","United States","92612","Y",42,"Y","Y","N","N","Yes"
2002229,"BKD LLP","2700 POST OAK BLVD #1500","","HOUSTON","TX","United States","77056","Y",686,"Y","Y","N","N","Yes"
2002307,"PRICEWATERHOUSECOOPERS","ONE INTERNATIONAL TOWERS SYDNEY","WATERMANS QUAY, BARANGAROO","SYDNEY","","Australia","2001","N",,"","Y","N","N","Yes"
2004324,"KAUFMAN, ROSSIN & CO., P.A.","3310 MARY STREET","SUITE 501","MIAMI","FL","United States","33133","Y",137,"Y","N","Y","N",""
2004428,"BERRY DUNN","51 SAWYER ROAD","SUITE 610","WALTHAM","MA","United States","02452","Y",136,"Y","N","Y","N",""
1982779,"ASHLAND PARTNERS & COMPANY LLP","3512 EXCEL DRIVE","SUITE 103","MEDFORD","OR","United States","97504","Y",3783,"Y","N","Y","N",""
2004153,"KPMG, LLP","350 N 5TH STREET","SUITE 500","MINNEAPOLIS","MN","United States","55401","Y",185,"Y","Y","N","N","Yes"
2004476,"LUMSDEN & MCCORMICK","369 FRANKLIN STREET","","BUFFALO","NY","United States","14202","Y",130,"Y","N","Y","N",""
2004482,"KEITER, STEPHENS, HURST, GARY & SHREAVES, P.C.","4401 DOMINION BOULEVARD","","GLEN ALLEN","VA","United States","23060","Y",80,"Y","N","Y","N",""
2002621,"PRICEWATERHOUSECOOPERS LLP","2001 MARKET STREET","SUITE 1800","PHILADELPHIA","PA","United States","19103-7042","Y",238,"Y","N","Y","Y","Yes"
2002086,"ASHLAND PARTNERS & COMPANY, LLP","3512 EXCEL DR","SUITE 103","MEDFORD","OR","United States","97504","Y",3783,"N","N","Y","N",""
2002764,"KPMG LLP","10 SOUTH BROADWAY","SUITE 900","SAINT LOUIS","MO","United States","63102-1736","Y",185,"Y","N","Y","Y","Yes"
1999513,"THE COLEMAN COMPANY, PLLC","8 EAST HURON STREET","#2201","CHICAGO","IL","United States","60611","Y",5153,"Y","N","Y","N",""
2003275,"COHEN & COMPANY","1350 EUCLID AVENUE","SUITE 800","CLEVELAND","OH","United States","44115","Y",925,"Y","N","Y","N",""
2003972,"RICHEY MAY","9780 S MERIDIAN BLVD","SUITE 500","ENGELWOOD","CO","United States","80112","N",,"","N","Y","N",""
2000763,"FORVIS","1801 CALIFORNIA STREET","SUITE 2900","DENVER","CO","United States","80202","Y",686,"Y","N","Y","N",""
2002546,"KPMG LLP","02 GODREJ BUSINESS DISTRICT, FIRST FLOOR BLOCK A","PIROJSHANAGAR, VIKHROLI - WEST","MUMBAI","","India","400 079","Y",185,"Y","N","N","Y","Not Yet Received"
2002848,"ASHLAND PARTNERS & COMPANY LLP","3512 EXCEL DRIVE","SUITE 103","MEDFORD","OR","United States","97504","Y",3783,"N","N","Y","N",""
2003198,"COHEN AND CO","1350 EUCLID AVE","SUITE 800","CLEVELAND","OH","United States","44115","Y",925,"Y","N","Y","N",""
2001773,"WALTER & SHUFFAIN, P.C.","ONE INTERNATIONAL PLACE","SUITE 1010","BOSTON","MA","United States","02110","Y",5439,"Y","N","Y","N",""
2000238,"BDO USA, P.C.","200 PARK AVENUE","38TH FLOOR","NEW YORK","NY","United States","10166-0005","Y",243,"Y","Y","N","N","Yes"
2000238,"CITRIN COOPERMAN & COMPANY, LLP","30 BRAINTREE HILL OFFICE PARK","SUITE 300","BRAINTREE","MA","United States","02184-8751","Y",2468,"Y","Y","N","N","Yes"
1983975,"GRAY, GRAY & GRAY CPAS","150 ROYALL STREET","SUITE 102","CANTON","MA","United States","02021","Y",889,"Y","Y","Y","N","Yes"
2004172,"ERNST & YOUNG LTD","BADENERSTRASSE 47,","","ZUERICH","","Switzerland","8022","Y",1406,"Y","N","Y","Y","Yes"
2006568,"FREED MAXICK CPAS, P.C.","424 MAIN STREET","SUITE 800","BUFFALO","NY","United States","14202","Y",317,"Y","N","Y","N",""
2005526,"PRICEWATERHOUSE COOPERS LLP","PRICEWATERHOUSECOOPER CENTER","300 MADISON AVENUE","NEW YORK","NY","United States","10017","Y",238,"Y","Y","Y","Y","Yes"
2006553,"DELOITTE & TOUCHE, LLP","111 SOUTH WACKER DRIVE","","CHICAGO","IL","United States","60606","Y",34,"Y","Y","N","N","Yes"
2006553,"KPMG LLP","AON CENTER","200 E. RANDOLPH STREET, SUITE 5500","CHICAGO","IL","United States","60601","Y",185,"Y","Y","N","N","Yes"
2006553,"FORVIS MAZARS, LLP","135 W 50TH STREET","","NEW YORK","NY","United States","10020","Y",686,"Y","Y","N","N","Yes"
2006553,"COHEN & COMPANY","1350 EUCLID AVE","SUITE 800","CLEVELAND","OH","United States","44115","Y",925,"Y","Y","N","Y","Yes"
2006553,"ERNST & YOUNG","5 TIMES SQUARE","","NEW YORK","NY","United States","10036","Y",42,"Y","Y","N","N","Yes"
2006553,"KPMG","345 PARK AVENUE","","NEW YORK","NY","United States","10154","Y",185,"Y","Y","N","N","Yes"
2006553,"FORVIS MAZARS, LLP","135 W 50TH STREET","","NEW YORK","NY","United States","10020","Y",686,"Y","N","Y","N",""
2006553,"SCHNEIDER DOWNS & CO., INC.","ONE PPG PLACE, SUITE 1700","","PITTSBURGH","PA","United States","15222","Y",358,"Y","Y","N","N","Yes"
2006553,"ERNST & YOUNG LLP","200 CLARENDON ST","","BOSTON","MA","United States","02116","Y",42,"Y","Y","N","N","Yes"
2006769,"DELOITTE & TOUCHE LLP","1700 MARKET STREET","","PHILADELPHIA","PA","United States","19103","Y",34,"Y","Y","Y","N","Yes"
2006769,"PRICEWATERHOUSECOOPERS AG","BIRCHSTRASSE 160","","ZURICH","","Switzerland","8050","Y",1358,"Y","Y","N","N","Yes"
2006769,"DELOITTE & TOUCHE LLP","60 NEXUS WAY, 8TH FLOOR","CAMANA BAY, PO BOX 1787","GRAND CAYMAN","","Cayman Islands","KY1-1109","Y",1096,"Y","Y","N","N","Yes"
2006769,"DELOITTE IRELAND","EARLSFORT TERRACE","","DUBLIN","","Ireland","2","Y",1193,"Y","Y","N","N","Yes"
2006769,"PRICEWATERHOUSECOOPERS, SOCIÉTÉ COOPÉRATIVE","2, RUE GERHARD MERCATOR","B.P. 1443","LUXEMBOURG","","Luxembourg","L-1014","Y",1328,"Y","Y","N","N","Yes"
2006769,"DELOITTE AUDIT SARL","20, BOULEVARD DE KOCKELSCHEUER","","LUXEMBOURG","","Luxembourg","L-1821","Y",1287,"Y","Y","N","N","Yes"
2006769,"PRICEWATERHOUSECOOPERS LTD.","P.O. BOX HM 1171","","HAMILTON","","Bermuda","HM EX","Y",1403,"Y","Y","N","N","Yes"
2006769,"PRICEWATERHOUSECOOPERS","18 FORUM LANE, CAMANA BAY","P.O. BOX 258","GRAND CAYMAN","","Cayman Islands","KY1-1104","Y",1266,"Y","Y","N","N","Yes"
1996232,"GROSSBERG COMPANY LLP","6500 ROCK SPRING DRIVE","SUITE 200","BETHESDA","MD","United States","20817","Y",5186,"Y","N","Y","N",""
2006804,"ROSENBERG RICH BAKER BERMAN & COMPANY","265 DAVIDSON AVENUE","SUITE 210","SOMERSET","NJ","United States","08873-4120","Y",89,"Y","N","Y","N",""
2002110,"GRANT THORNTON (CAYMAN) LLP","2ND FLOOR, CENTURY YARD","CRICKET SQUARE, 171 ELGIN AVENUE","GEORGE TOWN","","Cayman Islands","KY1-1102","Y",4346,"Y","Y","N","N","Not Yet Received"
1998176,"MICHAEL COGLIANESE CPA, P.C.","300 N. STATE ST., STE. 5720","","CHICAGO","IL","United States","60654","Y",3874,"Y","N","Y","N",""
2002808,"DELOITTE & TOUCHE, LLP","111 SOUTH WACKER DRIVE","","CHICAGO","IL","United States","60606","Y",34,"Y","Y","N","N","Yes"
2002808,"KPMG LLP","AON CENTER","200 E. RANDOLPH STREET, SUITE 5500","CHICAGO","IL","United States","60601","Y",185,"Y","Y","N","N","Yes"
2002808,"FORVIS MAZARS, LLP","135 W 50TH STREET","","NEW YORK","NY","United States","10020","Y",686,"Y","Y","N","N","Yes"
2002808,"COHEN & COMPANY","1350 EUCLID AVE","SUITE 800","CLEVELAND","OH","United States","44115","Y",925,"Y","Y","N","Y","Yes"
2002808,"ERNST & YOUNG","5 TIMES SQUARE","","NEW YORK","NY","United States","10036","Y",42,"Y","Y","N","N","Yes"
2002808,"KPMG","345 PARK AVENUE","","NEW YORK","NY","United States","10154","Y",185,"Y","Y","N","N","Yes"
2002808,"FORVIS MAZARS, LLP","135 W 50TH STREET","","NEW YORK","NY","United States","10020","Y",686,"Y","N","Y","N",""
2002808,"SCHNEIDER DOWNS & CO., INC.","ONE PPG PLACE, SUITE 1700","","PITTSBURGH","PA","United States","15222","Y",358,"Y","Y","N","N","Yes"
2002808,"ERNST & YOUNG LLP","200 CLARENDON ST","","BOSTON","MA","United States","02116","Y",42,"Y","Y","N","N","Yes"
2003370,"NICHOLS, CAULEY, & ASSOCIATES, LLC","3550 ENGINEERING DRIVE","SUITE 250","PEACHTREE CORNERS","GA","United States","30092","Y",281,"Y","N","Y","N",""
2003384,"ASHLAND PARTNERS & COMPANY LLP","3512 EXCEL DRIVE SUITE 103","","MEDFORD","OR","United States","97504","Y",3783,"Y","N","Y","N",""
2000806,"ERNST & YOUNG LLP","560 MISSION STREET","SUITE 1600","SAN FRANCISCO","CA","United States","94105","Y",42,"Y","Y","Y","N","Yes"
2000806,"ERNST & YOUNG LTD.","62 FORUM LANE","","CAMANA BAY, GRAND CAYMAN","","Cayman Islands","KY1-1106","Y",1655,"Y","Y","N","N","Yes"
2001893,"COHEN & CO.","1350 EUCLID AVENUE","SUITE 800","CLEVELAND","OH","United States","44115","Y",925,"Y","Y","N","N","Yes"
2000664,"PRICEWATERHOUSECOOPERS","300 MADISON AVENUE","","NEW YORK","NY","United States","10017","Y",238,"Y","Y","Y","N","Yes"
1974409,"EISNER AMPER","733 THIRD AVENUE","","NEW YORK","NY","United States","10017","Y",274,"Y","N","Y","N",""
1998803,"ERNST & YOUNG, LLP","200 CLARENDON STREET","","BOSTON","MA","United States","02116","Y",42,"Y","Y","N","N","Yes"
1998803,"ERNST & YOUNG LTD","62 FORUM LANE CAMANA BAY","P.O. BOX 510","GRAND CAYMAN","","Cayman Islands","KY11106","Y",1655,"Y","Y","N","N","Yes"
2001954,"PRICEWATERHOUSECOOPERS","ONE INTERNATIONAL TOWERS SYDNEY","WATERMANS QUAY, BARANGAROO","SYDNEY","","Australia","2001","N",,"","Y","N","N","Yes"
2001693,"COHEN & COMPANY, LTD.","201 INTERNATIONAL CIRCLE","","HUNT VALLEY","MD","United States","21030","Y",925,"Y","Y","N","N","Yes"
2006833,"DELOITTE & TOUCHE LLP","1700 MARKET STREET","","PHILADELPHIA","PA","United States","19103","Y",34,"Y","Y","Y","N","Yes"
2006833,"DELOITTE IRELAND LLP","DELOITTE & TOUCHE HOUSE, EARLSFORT TERRACE","","DUBLIN","","Ireland","2","Y",1193,"Y","Y","N","N","Yes"
2006833,"PRICEWATERHOUSECOOPERS LLP","TWO COMMERCE SQUARE","2001 MARKET STREET #1800","PHILADELPHIA","PA","United States","19103","Y",238,"Y","Y","N","N","Yes"
2006833,"PRICEWATERHOUSECOOPERS AG","BIRCHSTRASSE 160","","ZURICH","","Switzerland","8050","Y",1358,"Y","Y","N","N","Yes"
2006833,"PRICEWATERHOUSECOOPERS, SOCIÉTÉ COOPÉRATIVE","2, RUE GERHARD MERCATOR","B.P. 1443","LUXEMBOURG","","Luxembourg","L-1014","Y",1328,"Y","Y","N","N","Yes"
2006833,"DELOITTE & TOUCHE LLP","60 NEXUS WAY, 8TH FLOOR","CAMANA BAY, PO BOX 1787","GRAND CAYMAN","","Cayman Islands","KY1-1109","Y",1096,"Y","Y","N","N","Yes"
2006833,"DELOITTE AUDIT S.A.R.L","20, BOULEVARD DE KOCKELSCHEUER","","LUXEMBOURG","","Luxembourg","L-1821","Y",1287,"Y","Y","N","N","Yes"
2006854,"DELOITTE AUDIT S.A.R.L","20, BOULEVARD DE KOCKELSCHEUER","","LUXEMBOURG","","Luxembourg","L-1821","Y",1287,"Y","Y","N","N","Yes"
2006458,"ERNST & YOUNG S.A.","35E AVENUE","JOHN F. KENNEDY AVENUE","LUXEMBOURG","","Luxembourg","L-1855","Y",1367,"Y","Y","N","N","Yes"
2006458,"PRICEWATERHOUSECOOPERS LLP","1 EMBANKMENT PLACE","","LONDON","","United Kingdom","WC2N 6RH","Y",876,"Y","Y","N","N","No"
2006946,"RSM US LLP","420 20TH STREET N","SUITE 2600","BIRMINGHAM","AL","United States","35203","Y",49,"Y","N","Y","N",""
2006946,"DELOITTE & TOUCHE LLP","6075 POPLAR AVENUE","SUITE 350","MEMPHIS","TN","United States","38119","Y",42,"Y","N","Y","N",""
2006946,"FRAZIER & DEETER, LLC","1230 PEACHTREE STREET NE","SUITE 1500","ATLANTA","GA","United States","30309","Y",215,"Y","N","Y","N",""
2004768,"COHEN & COMPANY","1350 EUCLID AVE.","SUITE 800","CLEVELAND","OH","United States","44115","Y",925,"Y","Y","N","N","Yes"
2002128,"GRANT THORNTON LLP","757 3RD AVE","9TH FLOOR","NEW YORK","NY","United States","10017","Y",248,"Y","Y","N","N","Not Yet Received"
2003078,"SC&H GROUP INC.","910 RIDGEBROOK ROAD","","SPARKS","MD","United States","21152","Y",2297,"Y","Y","Y","N","Yes"
1997252,"BAKER NEWMAN AND NOYES","280 FORE ST.","","PORTLAND","ME","United States","04101","Y",231,"Y","N","Y","N",""
1997252,"ASHLAND PARTNERS & COMPANY, LLP","3512 EXCEL DRIVE","SUITE 103","MEDFORD","OR","United States","97504","Y",3783,"Y","N","N","Y","Not Yet Received"
2003546,"DELOITTE IRELAND LLP","DELOITTE & TOUCHE HOUSE","29 EARLSFORT TERRACE","DUBLIN","","Ireland","D02 AY28","Y",1193,"Y","Y","N","N","Yes"
2000591,"PKF O'CONNOR DAVIES, LLP","245 PARK AVENUE","12TH FLOOR","NEW YORK","NY","United States","10167","Y",127,"Y","N","Y","N",""
2000591,"RSM US LLP","200 ELM STREET","","STAMFORD","CT","United States","06902","Y",49,"Y","Y","N","N","Yes"
2003005,"EISNERAMPER","ONE CALIFORNIA","SUITE 1700","SAN FRANCISCO","CA","United States","94111","Y",274,"Y","Y","Y","N","Not Yet Received"
2002254,"BERKOW, SCHECHTER & COMPANY LLP","350 BEDFORD STREET","","STAMFORD","CT","United States","06901","Y",4040,"Y","N","Y","N",""
2003582,"SANVILLE & COMPANY","2617 HUNTINGDON PIKE","","HUNTINGDON VALLEY","PA","United States","19006","Y",169,"Y","N","Y","Y","Yes"
2003613,"EISNERAMPER LLP","733 THIRD AVENUE","","NEW YORK","NY","United States","10017","Y",274,"Y","N","Y","N",""
2002542,"GRANT THORNTON","1717 MAIN STREET","SUITE 1800","DALLAS","TX","United States","75201","Y",248,"Y","N","N","Y","Yes"
2002542,"ERNST & YOUNG LLP","2323 VICTORY AVENUE","SUITE 2000","DALLAS","TX","United States","75219","Y",42,"Y","Y","N","N","Yes"
2002542,"ASHLAND PARTNERS & COMPANY LLP","3512 EXCEL DRIVE","SUITE 103","MEDFORD","OR","United States","97504","Y",3783,"Y","N","Y","N",""
2002066,"KPMG LLP","10 SOUTH BROADWAY","SUITE 900","SAINT LOUIS","MO","United States","63102-1736","Y",185,"Y","N","Y","Y","Yes"
2001420,"LANE GORMAN TRUBITT LLC","2626 HOWELL STREET","SUITE 700","DALLAS","TX","United States","75204","Y",508,"Y","Y","N","N","Yes"
2001042,"ASHLAND PARTNERS & COMPANY LLP","3512 EXCEL DRIVE","SUITE 103","MEDFORD","OR","United States","97504","Y",3783,"Y","N","Y","N",""
2000567,"FISCHER CUNNANE & ASSOCIATES LTD.","11 TURNER LN","","WEST CHESTER","PA","United States","19380-4805","Y",1940,"Y","N","Y","N",""
2007055,"PRICEWATERHOUSECOOPERS LLP","2001 MARKET STREET","SUITE 1800","PHILADELPHIA","PA","United States","19103-7042","Y",238,"Y","N","Y","Y","Yes"
2003647,"ERNST & YOUNG LLP","200 CLARENDON STREET","","BOSTON","MA","United States","02116","Y",42,"Y","Y","Y","N","Yes"
1989353,"ASHLAND PARTNERS & COMPANY LLP","3512 EXCEL DRIVE, SUITE 103","","MEDFORD","OR","United States","97504","Y",3783,"Y","N","Y","N",""
2003667,"SPICER JEFFRIES","4601 DTC BLVD STE 700","","DENVER","CO","United States","80237","Y",349,"Y","Y","Y","N","Not Yet Received"
2003665,"BAUER & COMPANY","P.O. BOX 27887","","AUSTIN","TX","United States","78755","Y",6072,"Y","Y","N","N","Yes"
2004770,"KPMG LLP","345  PARK AVENUE","","NEW YORK","NY","United States","10154","Y",185,"Y","N","Y","Y","Yes"
2005550,"PRICEWATERCOOPERS LLC","300 MADISON AVENUE","","NEW YORK","NY","United States","10017","Y",238,"Y","Y","Y","Y","Yes"
2002313,"PRICEWATERHOUSECOOPERS (AUSTRALIA)","ONE INTERNATIONAL TOWERS","WATERMANS QUAY","BARANGAROO","","Australia","2000","N",,"","Y","N","N","Yes"
2002366,"YOUNT, HYDE & BARBOUR, P.C.","4419 PHEASANT RIDGE ROAD","SUITE 302","ROANOKE","VA","United States","24014","Y",613,"Y","N","Y","N",""
2002440,"KPMG","200 E. RANDOLPH","SUITE 5500","CHICAGO","IL","United States","60601","Y",185,"Y","N","Y","Y","Yes"
2002456,"WARREN AVERETT, LLC","2500 ACTON ROAD","#200","BIRMINGHAM","AL","United States","35243","Y",2226,"Y","Y","N","N","Yes"
2002472,"PRICE WATERHOUSE COOPER LLP","254 MUNOZ RIVERA AVENUE","ORIENTAL CENTER SUITE 900","SAN JUAN","PR","United States","00918","Y",238,"Y","N","N","Y","Yes"
2002375,"KPMG LLP","345  PARK AVENUE","","NEW YORK","NY","United States","10154","Y",185,"Y","N","Y","Y","Yes"
2000714,"KPMG SARL","39 AV. JOHN F. KENNEDY, 1855 KIRCHBERG LUXEMBOURG","","LUXEMBOURG","","Luxembourg","","N",,"","Y","N","N","Yes"
2005549,"THOMASGAITENS PC","ONE GATEWAY CENTER, SUITE 2025","420 FORT DUQUESNE BLVD","PITTSBURGH","PA","United States","15222","Y",5073,"Y","N","Y","N",""
2005574,"FORVIS","2700 POST OAK BLVD","SUITE 1500","HOUSTON","TX","United States","77056","Y",686,"Y","N","Y","Y","Yes"
2005576,"PRICEWATERHOUSECOOPERS","18 FORUM LANE","CAMANA BAY","GEORGE TOWN","","Cayman Islands","KY1-1104","Y",1266,"Y","Y","N","N","Yes"
2005576,"PRICEWATERHOUSECOOPERS LLP","330 MADISON AVE","","NEW YORK","NY","United States","10017","Y",238,"Y","Y","N","N","Yes"
2005634,"HBK CPAS AND CONSULTANTS","100 PINEWOOD LANE","SUITE 201","WARRENDALE","PA","United States","15086","Y",2206,"Y","N","Y","N",""
2005647,"DANNIBLE & MCKEE, LLP","FINANCIAL PLAZA, 221 S. WARREN ST.","","SYRACUSE","NY","United States","13202-2687","Y",528,"Y","N","Y","N",""
2005257,"EIDE BAILLY LLP","999 W. RIVERSIDE AVENUE","SUITE 101","SPOKANE","WA","United States","99201-1005","Y",286,"Y","N","Y","N",""
2001983,"KREISCHER MILLER","100 WITMER ROAD","SUITE 350","HORSHAM","PA","United States","19044","Y",1110,"Y","N","Y","N",""
2001983,"COHEN & COMPANY, LTD.","1350 EUCLID AVE.","SUITE 800","CLEVELAND","OH","United States","44115","Y",925,"Y","Y","N","N","Yes"
2002551,"FORVIS, LLP","191 PEACHTREE STREET, NE","SUITE 2700","ATLANTA","GA","United States","30303","Y",686,"Y","Y","Y","N","Yes"
2002897,"COHEN & COMPANY LTD","1350 EUCLID AVE","#800","CLEVELAND","OH","United States","44115","Y",925,"Y","Y","N","N","Yes"
1996875,"R&A CPA'S","4542 E. CAMP LOWELL DR.  STE 100","","TUCSON","AZ","United States","85712","Y",3707,"Y","N","Y","N",""
2001270,"EMERICK & COMPANY, P.C.","4520 MADISON AVE","SUITE G","KANSAS CITY","MO","United States","64111","Y",5152,"Y","N","Y","N",""
2000484,"COHNREZNICK LLP","21600 OXNARD ST.","STE. 700","WOODLAND HILLS","CA","United States","91367","Y",596,"Y","Y","N","N","Yes"
1998446,"RSM, LLP","151 W. 42ND","19TH FLOOR","NEW YORK","NY","United States","10036","Y",49,"Y","Y","N","N","Not Yet Received"
1998547,"RSM LLP","ONE SOUTH WACKER DRIVE STE. 800","","CHICAGO","IL","United States","60606","Y",49,"Y","N","Y","N",""
1998547,"DELOITTE & TOUCHE","111 S. WACKER DRIVE","","CHICAGO","IL","United States","60606","Y",34,"Y","Y","N","N","Yes"
1998547,"BDO USA, LLP","330 N WABASH AVENUE","","CHICAGO","IL","United States","60611","Y",243,"Y","Y","N","N","Yes"
1998547,"FORVIS MAZARS, LLP","1003 RED BANKS ROAD","","GREENVILLE","NC","United States","27858","Y",686,"Y","Y","N","N","Yes"
1998547,"ASHLAND PARTNERS & COMPANY LLP","3512 EXCEL DRIVE","SUITE 103","MEDFORD","OR","United States","97504","Y",3783,"Y","N","Y","N",""
2004443,"SOMERSET CPAS AND ADVISORS","3925 RIVER CROSSING PARKWAY","SUITE 100","INDIANAPOLIS","IN","United States","46240","Y",752,"Y","N","Y","N",""
2004443,"MICHAEL COGLIANESE, CPA PC","125 E LAKE STREET, STE 303","","BLOOMINGTON","IL","United States","60108","Y",3874,"Y","Y","N","N","Yes"
2005572,"DELOITTE & TOUCHE LLP","ONE CAPITAL PLACE","136 SHEDDEN ROAD, P.O. BOX 1787","GEORGE TOWN","","Cayman Islands","KY1-1109","Y",34,"Y","Y","N","N","Yes"
2005572,"GRANT THORNTON LLP","13-18 CITY QUAY","","DUBLIN 2","","Ireland","D02 ED70","Y",1402,"Y","Y","N","N","Yes"
2005327,"ANCHIN, BLOCK & ANCHIN LLP","3 TIMES SQUARE","24TH FLOOR","NEW YORK","NY","United States","10036","Y",168,"Y","Y","Y","N","Yes"
2005239,"FORVIS, LLP","191 PEACHTREE STREET, NE","SUITE 2700","ATLANTA","GA","United States","30303","Y",686,"Y","Y","Y","N","Yes"
2002995,"ERNST & YOUNG LLP","5 TIMES SQUARE","","NEW YORK","NY","United States","10036","Y",42,"Y","Y","N","N","Yes"
1999303,"DEMARCO SCIACCOTTA WILKENS & DUNLEAVY","9645 W LINCOLNWAY LANE","SUITE 214A","FRANKFORT","IL","United States","60423","Y",5376,"Y","N","Y","N",""
2002998,"ASHLAND PARTNERS & COMPANY, LLP","3512 EXCEL DRIVE","SUITE 103","MEDFORD","OR","United States","97504","Y",3783,"Y","N","Y","N",""
2002831,"DELOITTE & TOUCHE LLP","30 ROCKEFELLER PLAZA","","NEW YORK","NY","United States","10112-0015","Y",1046,"Y","N","Y","Y","Yes"
2000921,"BAKER TILLY VIRCHOW KRAUSE, LLP","205 N. MICHIGAN AVE","","CHICAGO","IL","United States","60601","Y",23,"Y","Y","N","N","Yes"
2001459,"DELOITTE & TOUCHE LLP","695 TOWN CENTER DRIVE, SUITE 1200","","COSTA MESA","CA","United States","92626","Y",34,"Y","Y","N","N","Yes"
2001465,"DELOITTE & TOUCHE LLP","695 TOWN CENTER DRIVE","SUITE 1200","COSTA MESA","CA","United States","92626-7188","Y",34,"Y","Y","Y","N","Yes"
2002841,"ERNST & YOUNG","ONE MANHATTEN WEST","395 9TH AVE","NEW YORK","NY","United States","10001","Y",1396,"Y","Y","N","N","Not Yet Received"
2002581,"KPMG LLP","345 PARK AVE","","NEW YORK","NY","United States","10154-0102","Y",85,"Y","Y","Y","N","Yes"
2002724,"ERNST & YOUNG LLP","HARCOURT STREET","","DUBLIN 2","","Ireland","","Y",42,"Y","Y","N","N","Yes"
2002724,"KPMG CHANNEL ISLANDS LIMITED","GLATEGNY COURT","GLATENGNY ESPLANADE","ST. PETER PORT","","Guernsey","GY1 1WR","N",,"","Y","N","N","Yes"
2002724,"KPMG LLP","345 PARK AVENUE","","NEW YORK","NY","United States","10154","Y",185,"Y","Y","N","N","Yes"
2002723,"BDO CAYMAN LTD.","GOVERNORS SQUARE, 23 LIME TREE BAY AVENUE","2ND FLOOR, BUILDING 3","GEORGE TOWN","","Cayman Islands","KY1-1205","Y",2162,"Y","Y","Y","N","Yes"
1995488,"ERNST & YOUNG LLP","200 CLARENDON STREET","","BOSTON","MA","United States","02116","Y",42,"Y","Y","Y","N","Yes"
1973467,"ERNST & YOUNG LTD.","1 MAAGPLATZ","","ZURICH","","Switzerland","8010","Y",1460,"Y","N","Y","Y","Yes"
2005999,"ASHLAND PARTNERS & COMPANY LLP","3512 EXCEL DRIVE","SUITE 103","MEDFORD","OR","United States","97504","Y",3783,"N","N","Y","N",""
2006006,"ROTHSTEIN AND COMPANY, LLC","80 W AVON ROAD","","AVON","CT","United States","06001","Y",5351,"Y","N","Y","N",""
2005915,"DELOITTE & TOUCHE, LLP","111 SOUTH WACKER DRIVE","","CHICAGO","IL","United States","60606","Y",34,"Y","Y","N","N","Yes"
2005386,"DELOITTE & TOUCHE LLP","30 ROCKEFELLER PLAZA","","NEW YORK","NY","United States","10112-0015","Y",34,"Y","Y","N","N","Yes"
2005952,"ASHLAND PARTNERS & COMPANY LLP","3512 EXCEL DRIVE","SUITE 103","MEDFORD","OR","United States","97504","Y",3783,"Y","N","Y","N",""
2006373,"ASHLAND PARTNERS & COMPANY LLP","3512 EXCEL DRIVE","SUITE 103","MEDFORD","OR","United States","97504","Y",3783,"Y","N","Y","N",""
2005915,"KPMG LLP","AON CENTER","200 E. RANDOLPH STREET, SUITE 5500","CHICAGO","IL","United States","60601","Y",185,"Y","Y","N","N","Yes"
2005915,"FORVIS MAZARS, LLP","135 W 50TH STREET","","NEW YORK","NY","United States","10020","Y",686,"Y","Y","N","N","Yes"
2005915,"COHEN & COMPANY","1350 EUCLID AVE","SUITE 800","CLEVELAND","OH","United States","44115","Y",925,"Y","Y","N","Y","Yes"
2005915,"ERNST & YOUNG","5 TIMES SQUARE","","NEW YORK","NY","United States","10036","Y",42,"Y","Y","N","N","Yes"
2005915,"KPMG","345 PARK AVENUE","","NEW YORK","NY","United States","10154","Y",185,"Y","Y","N","N","Yes"
2005915,"FORVIS MAZARS, LLP","135 W 50TH STREET","","NEW YORK","NY","United States","10020","Y",686,"Y","N","Y","N",""
2005915,"SCHNEIDER DOWNS & CO., INC.","ONE PPG PLACE, SUITE 1700","","PITTSBURGH","PA","United States","15222","Y",358,"Y","Y","N","N","Yes"
2005915,"ERNST & YOUNG LLP","200 CLARENDON ST","","BOSTON","MA","United States","02116","Y",42,"Y","Y","N","N","Yes"
2002533,"RSM US LLP","80 CITY SQUARE","","BOSTON","MA","United States","02129","Y",49,"Y","Y","Y","N","Not Yet Received"
2000984,"FORVIS","2700 POST OAK BLVD","SUITE 1500","HOUSTON","TX","United States","77056","Y",686,"Y","N","Y","Y","Yes"
2002318,"COHEN & COMPANY","1350 EUCLID AVENUE","SUITE 800","CLEVELAND","OH","United States","44115","Y",925,"Y","N","Y","N",""
2002219,"PRICEWATERHOUSECOOPERS LLP","300 MADISON AVENUE","","NEW YORK","NY","United States","10017-6204","Y",238,"Y","Y","N","N","Yes"
2004014,"GBQ PARTNERS LLC","230 WEST STREET, SUITE 700","","COLUMBUS","OH","United States","43215","Y",1808,"Y","N","Y","N",""
2002879,"DELOITTE & TOUCHE LLP","1750 TYSONS BOULEVARD","","MCLEAN","VA","United States","22102","Y",14,"Y","Y","N","N","Yes"
2002890,"ASHLAND PARTNERS & COMPANY LLP","3512 EXCEL DR, SUITE 103","","MEDFORD","OR","United States","97504","Y",3783,"Y","N","Y","N",""
2003159,"KAUFMAN ROSSIN","3310 MARY STREET","SUITE 501","MIAMI","FL","United States","33131","Y",137,"Y","N","Y","N",""
1998571,"KPMG LLP","345 PARK AVENUE","","NEW YORK","NY","United States","10154","Y",185,"Y","Y","N","N","Yes"
2003106,"KPMG LLP","1601 MARKET STREET","","PHILADELPHIA","PA","United States","19103","Y",185,"Y","N","N","Y","Yes"
2003106,"PRICEWATERHOUSECOOPERS, LLP","100 EAST PRATT STREET, SUITE 2600","","BALTIMORE","MD","United States","21202","Y",238,"Y","N","Y","N",""
2002044,"ROLLERI & SHEPPARD CPAS, LLP","2150 POST ROAD","5TH FLOOR","FAIRFIELD","CT","United States","06824","Y",3437,"Y","N","Y","N",""
2001718,"GRANT THORTON LLP","201 S COLLEGE ST STE 2500","","CHARLOTTE","NC","United States","28244","Y",248,"Y","Y","Y","N","Yes"
2006276,"UHY LLP","4 TOWER PLACE, EXECUTIVE PARK","7TH FLOOR","ALBANY","NY","United States","12203","Y",1195,"Y","Y","Y","N","Yes"
2006276,"COHNREZNICK LLP","7501 WISCONSIN AVENUE SUITE 400E","","BETHESDA","MD","United States","20814","Y",596,"Y","Y","N","N","Not Yet Received"
2002298,"WEAVER AND TIDWELL LLLP","2300 NORTH FIELD STREET","SUITE 1000","DALLAS","TX","United States","75201","Y",410,"Y","Y","N","N","Not Yet Received"
2006502,"GBQ PARTNERS","230 WEST STREET","SUITE 700","COLUMBUS","OH","United States","43215","Y",1808,"Y","N","Y","N",""
2006542,"GALAXY ACCOUNTING SERVICES","15260 VENTURA BOULEVARD SUITE 1200","SUITE 165","SHERMAN OAKS","CA","United States","91403","N",,"","N","Y","N",""
2006542,"MOSS ADAMS","101 SECOND STREET SUITE 900","","SAN FRANCISCO","CA","United States","94105","Y",659,"Y","Y","N","Y","Yes"
2006570,"BONADIO & CO., LLP","171 SULLY'S TRAIL","SUITE 201","PITTSFORD","NY","United States","14534","Y",1884,"Y","N","Y","N",""
2006630,"FARKOUH, FURMAN & FACCIO, LLP","460 PARK AVE","#1200","NEW YORK","NY","United States","10022","Y",3630,"Y","N","Y","N",""
2002683,"COHEN AND COMPANY","1350 EUCLID AVE.","SUITE 800","CLEVELAND","OH","United States","44115","Y",925,"Y","Y","N","N","Yes"
2006698,"PRICEWATERHOUSECOOPERS LLP","909 POYDRAS STREET","SUITE 3100","NEW ORLEANS","LA","United States","70112","Y",238,"Y","N","Y","Y","Yes"
2006691,"BENNETT THRASHER LLP","3300 RIVERWOOD PARKWAY","SUITE 700","ATLANTA","GA","United States","30339","Y",4051,"Y","N","Y","N",""
2006753,"DELOITTE & TOUCHE LLP","1700 MARKET STREET","","PHILADELPHIA","PA","United States","19103","Y",34,"Y","N","Y","Y","Yes"
2002624,"STOWE & DEGON","95A TURNPIKE ROAD","","WESTBOROUGH","MA","United States","01581","Y",577,"Y","N","Y","N",""
2004665,"MEADEN & MOORE, LTD.","1375 EAST NINTH STREET, SUITE 1800","","CLEVLAND","OH","United States","44114-1790","Y",314,"Y","N","Y","N",""
2004473,"SPICER JEFFRIES, LLP","5251 S. QUEBEC ST.","STE 200","GREENWOOD VILLAGE","CO","United States","80111","Y",349,"Y","Y","Y","N","Yes"
2004473,"BAUER & COMPANY, LLC","PO BOX 27887","","AUSTIN","TX","United States","78755","Y",6072,"Y","N","Y","N",""
2001010,"EISNERAMPER LLP","ONE CALIFORNIA STREET","SUITE 1700","SAN FRANCISCO","CA","United States","94111","Y",274,"Y","N","Y","N",""
2006779,"PRICEWATERHOUSECOOPERS LLP","125 HIGH STREET","","BOSTON","MA","United States","02110-1707","Y",238,"Y","Y","N","N","Yes"
2006776,"DELOITTE & TOUCHE LLP","1700 MARKET STREET","","PHILADELPHIA","PA","United States","19103","Y",34,"Y","Y","Y","N","Yes"
2006790,"ASSURANCE DIMENSIONS","4920 W CYPRESS ST SUITE 102","","TAMPA","FL","United States","33607","Y",5036,"Y","N","Y","N",""
2006800,"MAYER HOFFMAN MCCANN P.C.","1000 CAMPBELL MITHUN TOWER","222 S NINTH ST","MINNEAPOLIS","MN","United States","55402","Y",199,"Y","N","Y","N",""
2006894,"DELOITTE & TOUCHE LLP","30 ROCKEFELLER PLAZA","","NEW YORK","NY","United States","10112","Y",34,"Y","N","Y","N",""
2005105,"RICHEY MAY & CO.","9605 S KINGSTON CT","SUITE 200","ENGLEWOOD","CO","United States","80112","Y",673,"Y","N","Y","N",""
2004885,"WATKINS UIBERALL PLLC","1661 AARON BRENNER DR","","MEMPHIS","TN","United States","38120","Y",1738,"Y","Y","N","N","Yes"
2004885,"PLANTE MORAN","634 FRONT AVENUE","","GRAND RAPIDS","MI","United States","49504","Y",166,"Y","N","Y","N",""
2005086,"SPICER JEFFRIES","4601 DTC BLVD STE 700","","DENVER","CO","United States","80237","Y",349,"Y","Y","Y","N","Not Yet Received"
2005082,"KPMG","620 S. TRYON STREET","SUITE 1000","CHARLOTTE","NC","United States","28202","Y",185,"Y","Y","N","N","Not Yet Received"
2005115,"ASHLAND PARTNERS & COMPANY LLP","3512 EXCEL DR.","SUITE 103","MEDFORD","OR","United States","97504","Y",3783,"Y","N","Y","N",""
2005139,"FORVIS LLP","2700 POST OAK BOULEVARD","SUITE 1500","HOUSTON","TX","United States","77056","Y",686,"Y","N","Y","N",""
2003892,"ERNST & YOUNG","200 CLARENDON ST","","BOSTON","MA","United States","02116","Y",42,"Y","Y","N","N","Yes"
2005224,"ASHLAND PARTNERS & COMPANY LLP","3512 EXCEL DRIVE","SUITE 103","MEDFORD","OR","United States","97504","Y",3783,"N","N","Y","N",""
2005182,"COHEN & CO., LTD.","1350 EUCLID AVE.,","SUITE 800","CLEVELAND","OH","United States","44115-1877","Y",925,"Y","N","Y","Y","Yes"
2006642,"ASHLAND PARTNERS & COMPANY LLP","3512 EXCEL DRIVE","SUITE 103","MEDFORD","OR","United States","97504","Y",3783,"Y","N","Y","N",""
2006970,"ASHLAND PARTNERS & COMPANY","3512 EXCEL DRIVE","SUITE 103","MEDFORD","OR","United States","97504","Y",3783,"Y","N","Y","N",""
2006971,"COHEN & COMPANY","1350 EUCLID AVE.","SUITE 800","CLEVELAND","OH","United States","44115","Y",925,"Y","Y","N","N","Yes"
2006895,"PRICEWATERHOUSECOOPERS","300 MADISON AVENUE","","NEW YORK","NY","United States","10017","Y",238,"Y","Y","Y","N","Yes"
2005118,"KPMG LLP","345 PARK AVENUE","","NEW YORK","NY","United States","10154-0102","Y",185,"Y","Y","N","Y","Yes"
2005118,"KPMG LLP","BNY MELLON CENTER","SUITE 3400, 500 GRANT STREET","PITTSBURGH","PA","United States","15219-2598","Y",185,"Y","N","N","Y","Yes"
2007010,"GRANT THORNTON LLP","1301 INTERNATIONAL PKWY","SUITE 200","FORT LAUDERDALE","FL","United States","33323","Y",248,"Y","Y","N","N","Not Yet Received"
2007010,"WITHUMSMITH+BROWN, PC","506 CARNEGIE CENTER","SUITE 400","PRINCETON","NJ","United States","08540","Y",100,"Y","Y","N","N","Not Yet Received"
1976475,"KPMG LLP","200 E. RANDOLPH","SUITE 5500","CHICAGO","IL","United States","60601","Y",185,"Y","Y","N","N","Not Yet Received"
1976475,"KPMG AUDIT S.A.R.L.","39, AVENUE JOHN. F. KENNEDY","","N/A","","Luxembourg","L-1855","Y",2831,"Y","Y","N","N","Not Yet Received"
2004892,"KPMG LLP","BNY MELLON CENTER SUITE 3400","500 GRANT STREET","PITTSBURGH","PA","United States","15219-2598","Y",185,"Y","N","N","Y","Yes"
2007140,"ASHLAND PARTNERS & COMPANY LLP","3512 EXCEL DRIVE","SUITE 103","MEDFORD","OR","United States","97504","Y",3783,"Y","N","Y","N",""
2000616,"PRAGER METIS CPAS PLLC","10815 SIKES PLACE SUITE 100","","CHARLOTTE","NC","United States","28277","N",,"","N","Y","N",""
2000616,"BBD, LLP","1835 MARKET STREET","3RD FLOOR","PHILADELPHIA","PA","United States","19103","Y",552,"Y","Y","N","N","Yes"
2007183,"PRICEWATERHOUSECOOPERS LLP","THREE EMBARCADERO CENTER","","SAN FRANCISCO","CA","United States","94111","Y",238,"Y","Y","N","N","Yes"
2002536,"ASHLAND PARTNERS & COMPANY LLP","3512 EXCEL DR, SUITE 103","","MEDFORD","OR","United States","97504","Y",3783,"Y","N","Y","N",""
2002385,"KATZ SAPPER & MILLER","800 E. 96TH STREET","SUITE 500","INDIANAPOLIS","IN","United States","46240","Y",2804,"Y","Y","N","N","Yes"
2002495,"ARTHUR DEDOMINICIS, CPA","1100 ROUTE 9","","FISHKILL","NY","United States","12524","N",,"","N","Y","N",""
2002450,"KPMG LLP","550 SOUTH HOPE STREET","SUITE 1500","LOS ANGELES","CA","United States","90071","Y",185,"Y","Y","Y","N","Yes"
2002170,"BERRY DUNN","51 SAWYER ROAD","SUITE 610","WALTHAM","MA","United States","02452","Y",136,"Y","N","Y","N",""
2002632,"FORVIS, LLP","191 PEACHTREE STREET, NE","SUITE 2700","ATLANTA","GA","United States","30303","Y",686,"Y","Y","Y","N","Yes"
2002684,"WIPFLI LLP","150 S 5HT ST","UNIT 2000","MINNEAPOLIS","MN","United States","55402","Y",344,"Y","N","Y","N",""
2004392,"WITHUM SMITH+BROWN PC","1411 BROADWAY","9TH STREET","NEW YORK","NY","United States","10018","Y",100,"Y","Y","N","N","Yes"
2004395,"GROSSBERG COMPANY LLP","6500 ROCK SPRING DRIVE, SUITE 200","","BETHESDA","MD","United States","20817","Y",5186,"N","N","Y","N",""
1999838,"WOLF & COMPANY, P.C.","255 STATE STREET","","BOSTON","MA","United States","02109","Y",392,"Y","N","Y","N",""
2002217,"GRANT THORNTON LLP","171 N. CLARK STREET","SUITE 200","CHICAGO","IL","United States","60601","Y",248,"Y","N","Y","Y","Yes"
2004444,"GBQ PARTNERS LLC","230 WEST STREET, SUITE 700","","COLUMBUS","OH","United States","43215","Y",1808,"Y","N","Y","N",""
2002631,"PRICEWATERHOUSECOOPERS LLP","100 EAST PRATT STREET, SUITE 2600","","BALTIMORE","MD","United States","21202","Y",238,"Y","Y","Y","N","Yes"
2002822,"ARMANINO LLP","6 CITY PLACE DRIVE","SUITE 900","ST. LOUIS","MO","United States","63141","Y",32,"Y","N","Y","N",""
2002258,"DELOITTE & TOUCHE LLP","1750 TYSONS BOULEVARD","","MCLEAN","VA","United States","22102","Y",14,"Y","Y","N","N","Yes"
2004495,"ERNST & YOUNG","1901 SIXTH AVENUE NORTH","SUITE 1200","BIRMINGHAM","AL","United States","35203","Y",42,"Y","N","Y","Y","Yes"
2001587,"FARMER, FUQUA AND HUFF","2435 N. CENTRAL EXPRESSWAY SUITE 700","","RICHARDSON","TX","United States","75080","N",,"Y","N","Y","N",""
2002895,"COHEN & COMPANY LTD","1350 EUCLID AVE","#800","CLEVELAND","OH","United States","44115","Y",925,"Y","Y","N","N","Yes"
2000790,"ADEPTUS PARTNERS, LLC","244 WEST 54TH STREET","9TH FLOOR","NEW YORK","NY","United States","10019","Y",3686,"N","N","Y","N",""
2002719,"EISNERAMPER LLP","733 THIRD AVENUE","","NEW YORK","NY","United States","10017","Y",274,"Y","Y","N","N","Yes"
1996335,"FORVIS","1801 CALIFORNIA ST.","","DENVER","CO","United States","80202","Y",686,"Y","Y","Y","N","Yes"
2003113,"HELLAM, VARON & CO. INC. P.S.","1750 112TH AVENUE NE SUITE E200","","BELLEVUE","WA","United States","98004","N",,"","N","Y","N",""
2001579,"WITHUMSMITH + BROWN, PC","506 CARNEGIE CENTER","SUITE 400","PRINCETON","NJ","United States","08540","Y",100,"Y","N","Y","N",""
2003054,"ERNST & YOUNG","ONE MANHATTAN WEST","","NEW YORK","NY","United States","10001","Y",42,"Y","Y","N","N","Yes"
2005338,"COHEN & COMPANY, LTD.","1 WEST PENNSYLVANIA AVE, SUITE 1000","","TOWSON","MD","United States","21204","Y",925,"Y","Y","N","N","Yes"
2004642,"ARMANINO","12667 ALCOSTA BLVD. SUITE 500","","SAN RAMON","CA","United States","94583","Y",32,"Y","N","Y","N",""
2004642,"TANNER LLC","36 SOUTH STATE STREET","SUITE 600","SALT LAKE CITY","UT","United States","84111","Y",270,"Y","Y","N","N","Yes"
2004657,"TONELLI, SHEEDY & CO, LLC","11 UNION PLACE","SUITE 1A","SUMMIT","NJ","United States","07901","N",,"","N","Y","N",""
2005063,"KPMG LLP","200 E RANDOLPH ST","SUITE 5500","CHICAGO","IL","United States","60601","Y",185,"Y","Y","N","N","Yes"
1978779,"FGMK","333 W. WACKER DRIVE","6TH FLOOR","CHICAGO","IL","United States","60606","Y",3968,"Y","Y","Y","N","Yes"
2005233,"WEAVER AND TIDWELL, L.L.P.","2821 W 7TH ST","STE 700","FORT WORTH","TX","United States","76107","Y",410,"Y","Y","Y","N","Not Yet Received"
1995378,"WEAVER AND TIDWELL, L.L.P.","2821 W. SEVENTH STREET","SUITE 700","FORTH WORTH","TX","United States","76107","Y",410,"Y","N","Y","N",""
1999970,"DELOITTE AND TOUCHE LLP","655 WEST BROADWAY, SUITE 700","","SAN DIEGO","CA","United States","92101","Y",34,"Y","N","Y","Y","Yes"
2001112,"WITHUM","506 CARNEGIE CENTER","#400","PRINCETON","NJ","United States","08540","Y",100,"Y","N","Y","N",""
2002133,"KPMG LLP","777 DUNSMUIR STREET","","VANCOUVER","","Canada","V7Y 1K3","Y",85,"Y","Y","N","N","Yes"
2003585,"ERNST & YOUNG LLP","5 TIMES SQUARE","","NEW YORK","NY","United States","10036","Y",42,"Y","Y","N","N","Yes"
2003585,"WITHUMSMITH+ BROWN PC","1411 BROADWAY","9TH FLOOR","NEW YORK","NY","United States","10018-3496","Y",100,"Y","Y","N","N","Yes"
2005862,"BAKER TILLY US, LLP","66 HUDSON BLVD E","SUITE 2200","NEW YORK","NY","United States","10001","Y",23,"Y","N","Y","N",""
2002825,"WEAVER AND TIDWELL, L.L.P.","ONE EMBARCADERO CENTER, SUITE 2410","","HOUSTON","TX","United States","94111","Y",410,"Y","Y","N","N","Not Yet Received"
2000529,"DELOITTE & TOUCHE","695 TOWN CENTER DRIVE","","COSTA MESA","CA","United States","92626-7188","Y",34,"Y","Y","N","N","Yes"
2000793,"ERNST & YOUNG, LLP","2323 VICTORY AVENUE","SUITE 2000","DALLAS","TX","United States","75219","Y",42,"Y","Y","N","N","Yes"
2001130,"HILL,BARTH & KING LLC","6603 SUMMIT DRIVE","","CANFIELD","OH","United States","44406","Y",2206,"N","N","Y","N",""
2001130,"WIPFLI LLC","100 TRI-STATE INTERNATIONAL","SUITE 300","LINCOLNSHIRE","IL","United States","60069","Y",344,"Y","Y","N","N","Yes"
2001130,"WOLF & COMPANY, P.C","255 STATE STREET","","BOSTON","MA","United States","02109","Y",392,"Y","Y","N","N","Yes"
1995415,"ERNST & YOUNG LLP","220 SOUTH SIXTH STREET","SUITE 1400","MINNEAPOLIS","MN","United States","55402","Y",42,"Y","N","Y","N",""
2001147,"ERNST & YOUNG S.A.","35E AVENUE JOHN F. KENNEDY","","LUXEMBOURG","","Luxembourg","L-1855","Y",1367,"Y","Y","N","Y","Yes"
2001147,"GRANT THORNTON","757 THIRD AVENUE","","NEW YORK","NY","United States","10017","Y",248,"Y","Y","Y","N","Yes"
2001147,"PRICEWATERHOUSE COOPERS","300 MADISON AVENUE","","NEW YORK","NY","United States","10017","Y",238,"Y","Y","N","N","Yes"
2001147,"ERNST & YOUNG LLP","ONE MANHATTAN WEST","","NEW YORK","NY","United States","10001","Y",42,"Y","Y","N","N","Yes"
2001147,"ERNST & YOUNG LIMITED","62 FORUM LANE","","CAMANA BAY","","Cayman Islands","","Y",1655,"Y","Y","N","N","Yes"
2001152,"PRICEWATERHOUSE COOPERS LLP","300 MADISON AVE","","NEW YORK","NY","United States","10017","Y",238,"Y","N","Y","Y","Not Yet Received"
2001158,"PRICEWATERHOUSECOOPERS LLP","101 SEAPORT BOULEVARD","","BOSTON","MA","United States","02110","Y",238,"Y","Y","Y","Y","Yes"
1998266,"CITRIN COOPERMAN & COMPANY LLP","50 ROCKEFELLER PLAZA","","NEW YORK","NY","United States","10020","Y",2468,"Y","N","Y","N",""
2000635,"COHEN & COMPANY","1350 EUCLID AVENUE","SUITE 800","CLEVELAND","OH","United States","44115","Y",925,"Y","N","Y","N",""
2001125,"CITRIN COOPERMAN & COMPANY LLP","50 ROCKEFELLER PLAZA","","NEW YORK","NY","United States","10020","Y",2468,"Y","N","Y","N",""
2001207,"CITRIN COOPERMAN & COMPANY LLP","50 ROCKEFELLER PLAZA","","NEW YORK","NY","United States","10020","Y",2468,"Y","N","Y","N",""
2001222,"KPMG LLP","550 SOUTH HOPE STREET","SUITE 1500","LOS ANGELES","CA","United States","90071","Y",185,"Y","N","Y","N",""
2001268,"EMERICK & COMPANY, P.C.","4520 MADISON AVE","SUITE G","KANSAS CITY","MO","United States","64111","Y",5152,"Y","N","Y","N",""
2001257,"ERNST & YOUNG","725 S. FIGUEROA STREET","","LOS ANGELES","CA","United States","90017","Y",42,"Y","N","Y","Y","Not Yet Received"
2000764,"KATZ ABOSH","9690 DEERECO ROAD","SUITE 500","TIMONIUM","MD","United States","21093","N",,"","N","Y","N",""
2003727,"RICHEY MAY & CO.","9605 S KINGSTON CT","SUITE 200","ENGLEWOOD","CO","United States","80112","Y",673,"Y","N","Y","N",""
2003769,"EISNERAMPER LLP","733 THIRD AVENUE","","NEW YORK","NY","United States","10017","Y",274,"Y","Y","N","N","Yes"
2003769,"RSM US LLP","200 ELM STREET","SUITE 200","STAMFORD","CT","United States","06902","Y",49,"Y","Y","N","N","Yes"
2003776,"EISNERAMPER LLP","733 THIRD AVENUE","","NEW YORK","NY","United States","10017","Y",274,"Y","Y","N","N","Yes"
2003776,"RSM US LLP","200 ELM STREET","SUITE 200","STAMFORD","CT","United States","06902","Y",49,"Y","Y","N","N","Yes"
2001170,"CITRIN COOPERMAN & COMPANY LLP","50 ROCKEFELLER PLAZA","","NEW YORK","NY","United States","10020","Y",2468,"Y","N","Y","N",""
2003594,"FISCHER CUNNANE & ASSOCIATES LTD","11 TURNER LANE","","WEST CHESTER","PA","United States","19380","Y",1940,"Y","N","N","N",""
1994997,"ADKF, PC","8610 N. NEW BRAUNFELS AVE, #101","","SAN ANTONIO","TX","United States","78217","Y",297,"Y","N","Y","N",""
2001724,"ANDERS MINKLER HUBER & HELM LLP","800 MARKET STREET","SUITE 500 I","ST. LOUIS","MO","United States","63101","Y",2100,"Y","N","Y","N",""
2005913,"MOSS ADAMS LLP","999 THIRD AVENUE","SUITE 2800","SEATTLE","WA","United States","98104-4019","Y",659,"Y","Y","N","N","Yes"
2005913,"DELOITTE & TOUCHE LLP","925 FOURTH AVENUE","STE 3300","SEATTLE","WA","United States","98104-1126","Y",34,"Y","Y","N","N","Yes"
2006161,"ASHLAND PARTNERS & COMPANY, LLP","3512 EXCEL DR","STE 103","MEDFORD","OR","United States","97504","Y",3783,"Y","N","Y","N",""
2001202,"DELOITTE & TOUCHE LLP","695 TOWN CENTER DRIVE, SUITE 1200","","COSTA MESA","CA","United States","92626","Y",34,"Y","Y","N","N","Yes"
2001464,"DELOITTE & TOUCHE LLP","695 TOWN CENTER DRIVE, SUITE 1200","","COSTA MESA","CA","United States","92626","Y",34,"Y","Y","N","N","Yes"
1997657,"LBMC","201 FRANKLIN ROAD","","BRENTWOOD","TN","United States","37027","Y",450,"Y","Y","N","N","Yes"
2001199,"D. BROOKS AND ASSOCIATES CPA'S, P.A.","4440 PGA BLVD, SUITE 104","","PALM BEACH GARDENS","FL","United States","33410","Y",4048,"Y","N","Y","N",""
2006069,"HARPER & PEARSON COMPANY, P.C.","ONE RIVERWAY DRIVE","SUITE 1900","HOUSTON","TX","United States","77056","Y",431,"Y","Y","N","N","Yes"
2001511,"BAKER TILLY US, LLP","2500 DALLAS PARKWAY","SUITE 300","PLANO","TX","United States","75093","Y",23,"Y","N","Y","N",""
2000352,"BDO USA LLP","200 PARK AVENUE","","NEW YORK","NY","United States","10017","Y",243,"Y","Y","N","N","Yes"
2003844,"MOSS ADAMS","10960 WILSHIRE BLVD","SUITE 1100","LOS ANGELES","CA","United States","90024","Y",659,"Y","N","Y","N",""
2000970,"WALTER & SHUFFAIN, P.C.","ONE INTERNATIONAL PLACE","SUITE 1010","BOSTON","MA","United States","02110","Y",5439,"Y","N","Y","N",""
2003742,"PRICEWATERHOUSECOOPERS","300 MADISON AVENUE","","NEW YORK","NY","United States","10017","Y",238,"Y","Y","N","N","Yes"
2003890,"CBIZ CPAS, LLC","4600 S ULSTER STREET","SUITE 900","DENVER","CO","United States","80237","Y",199,"Y","N","Y","N",""
2001179,"CITRIN COOPERMAN & COMPANY LLP","50 ROCKEFELLER PLAZA","","NEW YORK","NY","United States","10020","Y",2468,"Y","N","Y","N",""
2002073,"PLANTE & MORAN, PLLC","10 SOUTH RIVERSIDE PLAZA","9TH FLOOR","CHICAGO","IL","United States","60606","Y",166,"Y","N","Y","N",""
2002532,"KPMG LLP","345 PARK AVENUE","","NEW YORK","NY","United States","10154","Y",185,"Y","Y","N","N","Yes"
2002532,"PRICEWATERHOUSECOOPERS LLP","1 EMBANKMENT PLACE","","LONDON","","United Kingdom","WC2N 6RH","Y",876,"Y","Y","N","N","Yes"
2002532,"FORVIS MAZARS, LLP","135 W 50TH STREET","","NEW YORK","NY","United States","10020","Y",686,"Y","Y","N","N","Yes"
2002532,"PRICEWATERHOUSECOOPERS, SOCIETE COOPERATIVE","2 RUE GERHARD","B.P.1443","MERCATOR","","Luxembourg","L-1014","Y",1328,"Y","Y","N","N","Yes"
2006271,"BONADIO & CO LLP","100 CORPORATE PARKWAY","SUITE 200","AMHERST","NY","United States","14226-1200","Y",1884,"Y","N","Y","N",""
2006101,"DELOITTE & TOUCHE LLP","555 W. 5TH STREET # 2700","","LOS ANGELES","CA","United States","90013","Y",34,"Y","N","Y","N",""
2006350,"ASHLAND PARTNERS & COMPANY LLP","3512 EXCEL DRIVE","SUITE 103","MEDFORD","OR","United States","97504","Y",3783,"N","N","Y","N",""
2001607,"PRICEWATERHOUSECOOPERS LLP","1100 WALNUT STREET","SUITE 1300","KANSAS CITY","MO","United States","64106","Y",238,"Y","Y","N","N","Yes"
2001641,"THE MP GROUP (FORMERLY MORIARTY & PRIMACK, P.C.)","1 MONARCH PL","STE 900","SPRINGFIELD","MA","United States","01144","N",,"","N","Y","N",""
2001641,"SANDLER & COMPANY, P.C.","50 CABOT ST","STE 204","NEEDHAM","MA","United States","02494","Y",3709,"Y","Y","N","N","Yes"
2001664,"PRICEWATERHOUSECOOPERS LLP","101 SEAPORT BOULEVARD","","BOSTON","MA","United States","02210","Y",238,"Y","Y","Y","Y","Yes"
2000658,"ASSURANCE DIMENSIONS","2000 BANKS ROAD","SUITE 218","MARGATE","FL","United States","33063","Y",5036,"Y","N","Y","N",""
2001426,"DELOITTE & TOUCHE LLC","695 TOWN CENTER DR","SUITE 1000","COSTA MESA","CA","United States","92626","Y",34,"Y","Y","N","N","Yes"
1985253,"FRANK RIMERMAN + CO. L.L.P","ONE EMBARCADERO CENTER","SUITE 2410","SAN FRANCISCO","CA","United States","94111","Y",1596,"Y","Y","N","N","Yes"
2001752,"KPMG LLP","21700 OXNARD STREET","SUITE 1200","WOODLAND HILLS","CA","United States","91367","Y",185,"Y","Y","N","N","Yes"
2003614,"RSM US, LLP","ONE SOUTH WACKER DRIVE","SUITE 800","CHICAGO","IL","United States","60606","Y",49,"Y","Y","N","N","Not Yet Received"
2003814,"EDELSTEIN & COMPANY, LLP","160 FEDERAL STREET","9TH FLOOR","BOSTON","MA","United States","02110","Y",3376,"Y","N","Y","N",""
2002145,"ASSURANCE DIMENSIONS","4920 W CYPRESS STREET","SUITE 102","TAMPA","FL","United States","33607","Y",5036,"Y","N","Y","N",""
2000579,"GRANT THORNTON","1201 WALNUT STREET","SUITE 2200","KANSAS CITY","MO","United States","64106","Y",248,"Y","Y","N","N","Yes"
2004005,"HILL, BARTH & KING, LLC","100 PINEWOOD LANE","SUITE 201","WARRENDALE","PA","United States","15086","Y",2206,"Y","N","Y","N",""
2003904,"ASHLAND PARTNERS & COMPANY LLP","3512 EXCEL DRIVE","SUITE 103","MEDFORD","OR","United States","97504","Y",3783,"Y","N","Y","N",""
2002271,"DELOITTE TOUCHE LLP","30 ROCKEFELLER PLAZA","","NEW YORK","NY","United States","10112-0015","Y",34,"Y","Y","N","N","Not Yet Received"
2006757,"WITHUMSMITH+BROWN","5 VAUGHN DRIVE","","PRINCETON","NJ","United States","08540","Y",100,"Y","N","Y","Y","Yes"
2006943,"ASA & ASSOCIATES LLP","AUROBINDO TOWER, 81/1","THIRD FLOOR,  ADCHINI, AUROBINDO MARG","NEW DELHI","","India","110017","Y",3083,"Y","N","Y","N",""
2005242,"ERNST & YOUNG LTD","SUITE 6401, P.O. BOX 510","62 FORUM LANE","GRAND CAYMAN","","Cayman Islands","KY1-1106","Y",1655,"Y","Y","N","N","Yes"
2006974,"PRICEWATERHOUSECOOPERS LLP","300 MADISON AVENUE","","NEW YORK","NY","United States","10017","Y",238,"Y","N","Y","Y","Yes"
2006212,"DELOITTE & TOUCHE LLP","20 BOULEVARD DE KOCKELSCHEUER","","LUXEMBOURG CITY","","Luxembourg","L-1821","Y",34,"Y","Y","N","N","Yes"
2006212,"DELOITTE & TOUCHE LLP","191 PEACHTREE STREET NE","SUITE 2000","ATLANTA","GA","United States","30303-1943","Y",34,"Y","Y","N","N","Yes"
2006212,"DELOITTE & TOUCHE LLP","TOUR MAJUNGA, 6 PLACE DE LA PYRAMIDE","PARIS-LA-DÉFENSE CEDEX","PUTEAUX","","France","92908","Y",34,"Y","Y","N","N","Yes"
2004697,"PLANTE & MORAN, PLLC","10 S. RIVERSIDE PLAZA","9TH FLOOR","CHICAGO","IL","United States","60606","Y",166,"Y","N","Y","N",""
2007025,"KPMG LLP","401 COMMERCE STREET","SUITE 100","NASHVILLE","TN","United States","37219","Y",185,"Y","N","Y","Y","Yes"
2001704,"RSM LLP","ONE SOUTH WACKER DRIVE STE. 800","","CHICAGO","IL","United States","60606","Y",49,"Y","N","Y","N",""
2001704,"DELOITTE & TOUCHE","111 S. WACKER DRIVE","","CHICAGO","IL","United States","60606","Y",34,"Y","Y","N","N","Yes"
2001704,"BDO USA, LLP","330 N WABASH AVENUE","","CHICAGO","IL","United States","60611","Y",243,"Y","Y","N","N","Yes"
2001704,"FORVIS MAZARS, LLP","1003 RED BANKS ROAD","","GREENVILLE","NC","United States","27858","Y",686,"Y","Y","N","N","Yes"
2001704,"ASHLAND PARTNERS & COMPANY LLP","3512 EXCEL DRIVE","SUITE 103","MEDFORD","OR","United States","97504","Y",3783,"Y","N","Y","N",""
1987360,"DELOITTE & TOUCHE LLP","1700 MARKET STREET","","PHILADELPHIA","PA","United States","19103-3984","Y",34,"Y","Y","N","N","Yes"
1987360,"DELOITTE & TOUCHE LLP","TWO WORLD FINANICAL CENTER","","NEW YORK","NY","United States","10281","Y",34,"Y","N","N","Y","Yes"
1987360,"ERNST & YOUNG LLP","BUILDING HARCOURT CENTER","","DUBLIN","","Ireland","","Y",1655,"Y","Y","N","N","Yes"
1987360,"ERNST & YOUNG LTD.","62 FORUM LANE","CAYMAN BAY PO BOX 510","GRAND CAYMAN","","Cayman Islands","","Y",1655,"Y","Y","N","N","Yes"
1987360,"ERNST & YOUNG LLP","ONE COMMERCDE SQUARE","2005 MARKET STREET","PHILADELPHIA","PA","United States","19103-7096","Y",42,"Y","Y","N","N","Yes"
1996816,"DELOITTE & TOUCHE LLP","555 MISSION STREET","","SAN FRANCISCO","CA","United States","94105","Y",34,"Y","Y","N","N","Yes"
1996816,"ERNST & YOUNG LLP","560 MISSION ST., 16TH FLOOR","","SAN FRANCISCO","CA","United States","94105","Y",42,"Y","Y","N","N","Yes"
2001141,"DELOITTE & TOUCHE LLP","30 ROCKEFELLER PLAZA","","NEW YORK","NY","United States","10112-0115","Y",34,"Y","Y","Y","N","Yes"
2001822,"WSRP, LLC","155 NORTH 400 WEST","STE 400","SALT LAKE CITY","UT","United States","84103","Y",374,"Y","N","Y","N",""
2001287,"GRANT THORNTON LLP","171 N. CLARK STREET","SUITE 200","CHICAGO","IL","United States","60601-3370","Y",248,"Y","N","N","Y","Yes"
2001287,"BPM LLP","ONE CALIFORNIA STREET","SUITE 2500","SAN FRANCISCO","CA","United States","94111","Y",207,"Y","N","Y","N",""
2001287,"PRICEWATERHOUSECOOPERS","18 FORUM LANE, CAMANA BAY","","GRAND CAYMAN, BWI","","Cayman Islands","","Y",1266,"Y","Y","N","N","Not Yet Received"
2001287,"PRICEWATERHOUSECOOPERS LLP","101 SEAPORT BOULEVARD","","BOSTON","MA","United States","02210","Y",238,"Y","Y","N","N","Not Yet Received"
1999265,"DELOITTE LLP","2 NEW STREET  SQUARE","","LONDON","","United Kingdom","EC4A 3BZ","Y",1147,"Y","N","Y","Y","Yes"
2007172,"SPICER JEFFRIES, LLP","5251 S. QUEBEC ST.","STE 200","GREENWOOD VILLAGE","CO","United States","80111","Y",349,"Y","Y","Y","N","Yes"
2007172,"BAUER & COMPANY, LLC","PO BOX 27887","","AUSTIN","TX","United States","78755","Y",6072,"Y","N","Y","N",""
2007191,"COHN REZNICK LLP","1301 AVENUE OF THE AMERICAS","","NEW YORK","NY","United States","10019","Y",596,"Y","Y","N","N","Yes"
2007191,"PKF O'CONNOR DAVIES, LLP","29 BROADWAY","","NEW YORK","NY","United States","10006","Y",127,"Y","Y","Y","N","Not Yet Received"
2001111,"DELOITTE & TOUCHE LLP","30 ROCKEFELLER PLAZA","","NEW YORK","NY","United States","10112","Y",1046,"Y","N","Y","Y","Yes"
1996088,"AKIN, DOHERTY, KLEIN & FEUGE, P.C.","8610  N NEW BRAUNFELS RD, STE 101","","SAN ANTONIO","TX","United States","78217","Y",297,"Y","N","Y","N",""
1998264,"CITRIN COOPERMAN & COMPANY LLP","50 ROCKEFELLER PLAZA","","NEW YORK","NY","United States","10020","Y",2468,"Y","N","Y","N",""
2001154,"PRICEWATERHOUSE COOPERS LLP","300 MADISON AVE","","NEW YORK","NY","United States","10017","Y",238,"Y","N","Y","Y","Not Yet Received"
2001176,"WIPFLI","100 TRI-STATE INTERNATIONAL","SUITE 300","LINCOLNSHIRE","IL","United States","60069","Y",2799,"Y","N","Y","N",""
1985038,"FISCHER CUNNANE & ASSOCIATES","11 TURNER LANE","","WEST CHESTER","PA","United States","19380","Y",1940,"Y","N","Y","N",""
2001256,"WIPFLI LLP","150 S 5HT ST","UNIT 2000","MINNEAPOLIS","MN","United States","55402","Y",344,"Y","N","Y","N",""
2001279,"WIPFLI LLP","150 S 5TH ST","UNIT 2000","MINNEAPOLIS","MN","United States","55402","Y",344,"Y","N","Y","N",""
2001295,"WIPFLI LLP","150 S 5TH ST","UNIT 2000","MINNEAPOLIS","MN","United States","55402","Y",344,"Y","N","Y","N",""
1982181,"EISNERAMPER LLP","733 THIRD AVENUE","","NEW YORK","NY","United States","10017","Y",274,"Y","Y","Y","N","Yes"
1999900,"KPMG LLP","345 PARK AVE","","NEW YORK","NY","United States","10154","Y",185,"Y","Y","Y","N","Yes"
2000416,"DELOITTE & TOUCHE LLP","695 TOWN CENTER DRIVE","SUITE 1200","COSTA MESA","CA","United States","92626-7188","Y",34,"Y","Y","Y","N","Yes"
1995655,"KPMG","P.O. BOX 493 CENTURY YARD BUILDING","2ND FLOOR","GEORGE TOWN","","Cayman Islands","KY1-1106","Y",1323,"Y","Y","N","N","Yes"
1995655,"KPMG LLP","15 CANADA SQUARE","","LONDON","","United Kingdom","E14 5GL","Y",1118,"Y","Y","N","N","Yes"
1994136,"MARCUM LLP","730 THIRD AVE","730","NEW YORK","NY","United States","10017","Y",688,"Y","N","Y","N",""
1994136,"ASHLAND PARTNERS & COMPANY, LLP","3512 EXCEL DRIVE","SUITE 103","MEDFORD","OR","United States","97504","Y",3783,"Y","N","Y","N",""
2000055,"DELOITTE ACCOUNTANTS B.V.","ORTELIUSLAAN 982, 3528 BD","","UTRECHT","","Netherlands","3180","Y",1243,"Y","Y","N","N","Yes"
2000055,"PRICEWATERHOUSECOOPERS LLP","PWC TOWER, 18 YORK STREET, SUITE 2500","","TORONTO","","Canada","M5J 0B2","Y",271,"Y","Y","N","N","Yes"
2002065,"DELOITTE ACCOUNTANTS B.V.","ORTELIUSLAAN 982, 3528 BD","","UTRECHT","","Netherlands","3180","Y",1243,"Y","Y","N","N","Yes"
2002065,"PRICEWATERHOUSECOOPERS LLP","PWC TOWER, 18 YORK STREET, SUITE 2500","","TORONTO","","Canada","M5J 0B2","Y",271,"Y","Y","N","N","Yes"
2002075,"ASHLAND PARTNERS & COMPANY LLP","3512 EXCEL DRIVE, SUITE 103","","MEDFORD","OR","United States","97504","Y",3783,"Y","N","Y","N",""
1987181,"PRAGER METIS CPAS LLC","14 PENN PLAZA","SUITE 1800","NEW YORK","NY","United States","10122","Y",4054,"Y","Y","Y","Y","Yes"
2002104,"HACKER, JOHNSON & SMITH, P.A.","500 N. WESTSHORE BLVD.","","TAMPA","FL","United States","33609","Y",400,"Y","N","Y","N",""
2001531,"PLANTE & MORAN PLLC","27400 NORTHWESTERN HWY","","SOUTHFIELD","MI","United States","48034","Y",166,"Y","N","Y","N",""
2001001,"WEAVER AND TIDWELL, L.L.P.","1230 ROSECRANS AVENUE","SUITE 510","MANHATTAN BEACH","CA","United States","90266","Y",410,"Y","Y","N","N","Yes"
2001001,"ASSURANCE DIMENSIONS","3111 N UNIVERSITY DR","SUITE 621","CORAL SPRINGS","FL","United States","33065","Y",5036,"Y","N","Y","N",""
2001329,"HARPER & PEARSON COMPANY","ONE RIVERWAY DRIVE","SUITE1900","HOUSTON","TX","United States","77056","Y",431,"Y","N","Y","N",""
2002208,"LMHS, P.C.","80 WASHINGTON STREET, BUILDING S","","NORWELL","MA","United States","02061","Y",3373,"Y","Y","N","N","Yes"
2002259,"GBQ PARTNERS, LLC","230 WEST STREET, SUITE 700","","COLUMBUS","OH","United States","43215","Y",1808,"Y","N","Y","N",""
2002259,"TANNER, LLC","36 S. STATE ST.","SUITE 600","SALT LAKE CITY","UT","United States","84111","Y",270,"Y","Y","N","N","Not Yet Received"
2002252,"PRICEWATERHOUSECOOPERS LLP","2001 MARKET STREET","SUITE 1800","PHILADELPHIA","PA","United States","19103-7042","Y",238,"Y","N","Y","Y","Yes"
1974001,"PRICEWATERHOUSECOOPERS LLP","1900 16TH STREET","","DENVER","CO","United States","80202","Y",238,"Y","N","Y","Y","Yes"
2001754,"ASHLAND PARTNERS & COMPANY, LLP","3512 EXCEL DR","SUITE 103","MEDFORD","OR","United States","97504","Y",97504,"Y","N","Y","N",""
2002327,"PRICEWATERHOUSECOOPERS","21/F, EDINBURGH TOWER, THE LANDMARK","15 QUEEN'S ROAD CENTRAL","HONG KONG","","Hong Kong","","Y",1389,"Y","Y","N","N","Yes"
2002359,"RSM USA LLP (F/K/A MCGLADREY & PULLEN LLP)","ONE GALLERIA TOWER","13355 NOEL ROAD, 8TH FLOOR","DALLAS","TX","United States","75240-6602","Y",49,"Y","Y","N","N","Yes"
2002370,"WARREN AVERETT, LLC","2500 ACTON ROAD","#200","BIRMINGHAM","AL","United States","35243","Y",2226,"Y","Y","N","N","Yes"
2002382,"YOUNT, HYDE & BARBOUR, P.C.","4419 PHEASANT RIDGE ROAD","SUITE 302","ROANOKE","VA","United States","24014","Y",613,"Y","N","Y","N",""
2001237,"MENGEL, METZGER, BARR & CO. LLP","100 CHESTNUT STREET","SUITE 1200","ROCHESTER","NY","United States","14604","Y",557,"Y","N","Y","N",""
2002423,"DELOITTE & TOUCHE LP","695 TOWN CENTER DRIVE, SUITE 1000","","COSTA MESA","CA","United States","92626","Y",34,"Y","Y","N","N","Not Yet Received"
2001575,"BAKER TILLY US, LLP","790 N. WATER STREET","SUITE 2000","MILWAUKEE","WI","United States","53202","Y",23,"Y","N","Y","N",""
2002447,"PRICEWATERHOUSECOOPERS LLP","300 MADISON AVENUE","24TH FLOOR","NEW YORK","NY","United States","10017","Y",238,"Y","Y","N","N","Yes"
2002447,"EISNERAMPER LLP","733 THIRD AVENUE","","NEW YORK","NY","United States","10017","Y",274,"Y","Y","N","N","Yes"
2002453,"ASHLAND PARTNERS & COMPANY, LLP","3512 EXCEL DRIVE","SUITE 103","MEDFORD","OR","United States","97504","Y",3783,"Y","N","Y","N",""
