"FilingID","Accountant Name","Street 1","Street 2","City","State","Country","Postal Code","Registered PCAOB","PCAOB Number","PCAOB Inspection","Audit","Examination","Report","Unqualified Opinion"
2008141,"ASHLAND PARTNERS & COMPANY LLP","3512 EXCEL DRIVE, SUITE 103","","MEDFORD","OR","United States","97504","Y",3783,"Y","N","Y","N",""
2008153,"KPMG","60 SOUTH STREET","TWO FINANCIAL CENTER","BOSTON","MA","United States","02111","Y",185,"Y","Y","N","N","Yes"
2008206,"YOUNT, HYDE & BARBOUR P.C.","9954 MAYLAND DRIVE","SUITE 2300","RICHMOND","VA","United States","23233-1469","Y",613,"Y","N","Y","N",""
2008212,"ASHLAND PARTNERS & COMPANY LLP","3512 EXCEL DRIVE","SUITE 103","MEDFORD","OR","United States","97504","Y",3783,"Y","N","Y","N",""
2007814,"FRANK, RIMERMAN & CO. LLP","ONE EMBARCADERO CENTER","SUITE 2410","SAN FRANCISCO","CA","United States","94111","Y",1596,"Y","Y","N","N","Not Yet Received"
2012968,"COHEN FUND AUDIT SERVICES","1350 EUCLID AVENUE","SUITE 800","CLEVELAND","OH","United States","44115","Y",925,"Y","N","Y","N",""
2013264,"ASHLAND PARTNERS & COMPANY LLP","3512 EXCEL DR.","SUITE 103","MEDFORD","OR","United States","97504","Y",3783,"Y","N","Y","N",""
2010356,"DELOITTE & TOUCHE LLP","100 SOUTH MILL AVENUE","SUITE 1800","TEMPE","AZ","United States","85281","Y",34,"Y","N","Y","N",""
2010413,"DELOITTE & TOUCHE LLP","100 SOUTH MILL AVENUE","SUITE 1800","TEMPE","AZ","United States","85281","Y",34,"Y","N","Y","N",""
2010359,"BPM LLP","2001 NORTH MAIN STREET","SUITE 360","WALNUT CREEK","CA","United States","94596","Y",207,"Y","N","Y","N",""
2011406,"COHEN & COMPANY","201 INTERNATIONAL CIRCLE","SUITE 400","HUNT VALLEY","MD","United States","21030","Y",925,"Y","N","Y","N",""
2011267,"ASHLAND PARTNERS","3152 EXCEL DRIVE","STE 103","MEDFORD","OR","United States","97504","Y",3783,"N","N","Y","N",""
2008971,"GBQ PARTNERS LLC","230 WEST STREET, SUITE 700","","COLUMBUS","OH","United States","43215","Y",1808,"Y","N","Y","N",""
2011366,"ASHLAND PARTNERS & COMPANY LLP","3512 EXCEL DRIVE","SUITE 103","MEDFORD","OR","United States","97504","Y",3783,"Y","N","Y","N",""
2010674,"ASHLAND PARTNERS & COMPANY LLP","3512 EXCEL DRIVE","SUITE 103","MEDFORD","OR","United States","97504","Y",3783,"Y","N","Y","N",""
2008551,"WEAVER AND TIDWELL, LLP","24 GREENWAY PLAZA","SUITE 1800","HOUSTON","TX","United States","77046","Y",410,"Y","N","Y","N",""
2009035,"PRICEWATERHOUSECOOPERS LLP","101 SEAPORT BOULEVARD","","BOSTON","MA","United States","02210","Y",238,"Y","Y","Y","N","Yes"
2008786,"RODEFER MOSS & CO, PLLC","608 MABRY HOOD RD","","KNOXVILLE","TN","United States","37932","Y",910,"Y","N","Y","N",""
2009099,"DELOITTE & TOUCHE LLP","30 ROCKEFELLER PLAZA","","NEW YORK","NY","United States","10112","Y",34,"Y","Y","Y","N","Yes"
2009081,"KPMG LLP","10 SOUTH BROADWAY","SUITE 900","SAINT LOUIS","MO","United States","63102-1736","Y",185,"Y","N","Y","Y","Yes"
2008902,"DELOITTE & TOUCHE, LLP","111 SOUTH WACKER","","CHICAGO","IL","United States","60606","Y",34,"Y","Y","Y","N","Yes"
2012704,"KPMG LLP","02 GODREJ BUSINESS DISTRICT, FIRST FLOOR BLOCK A","PIROJSHANAGAR, VIKHROLI - WEST","MUMBAI","","India","400 079","Y",185,"Y","N","N","Y","Not Yet Received"
2009820,"FORVIS","2700 POST OAK BLVD","SUITE 1500","HOUSTON","TX","United States","77056","Y",686,"Y","N","Y","Y","Yes"
2008255,"ASHLAND PARTNERS & COMPANY LLP","3512 EXCEL DRIVE","SUITE 103","MEDFORD","OR","United States","97504","Y",3783,"N","N","Y","N",""
2011412,"COHEN & COMPANY, LTD.","1350 EUCLID AVENUE","SUITE 800","CLEVELAND","OH","United States","44115","Y",925,"Y","N","Y","N",""
2013336,"KLR (KAHN, LITWIN, RENZA & CO., LTD)","800 SOUTH STREET","SUITE 300","WALTHAM","MA","United States","02453","Y",2882,"N","Y","N","Y","Yes"
2013336,"ANDERS MINKLER HUBER & HELM LLP","800 MARKET","SUITE 500","ST. LOUIS","MO","United States","63101","Y",2100,"Y","N","Y","N",""
2013383,"DELOITTE & TOUCHE LLP","695 TOWN CENTER DRIVE","SUITE 1000","COSTA MESA","CA","United States","92626","Y",34,"Y","Y","Y","N","Yes"
2013403,"PRICEWATERHOUSECOOPERS LLP","2001 ROSS AVE SUITE 1800","","DALLAS","TX","United States","75201","Y",238,"Y","N","Y","Y","Yes"
2006758,"KPMG LLP","345 PARK AVENUE","","NEW YORK","NY","United States","10154-0102","Y",185,"Y","Y","N","N","Yes"
2006758,"EISNERAMPER LLP","750 THIRD AVENUE","","NEW YORK","NY","United States","10017","Y",274,"Y","Y","N","N","Yes"
2013431,"PRICEWATERHOUSECOOPERS LLP","2001 ROSS AVE","SUITE 1800","DALLAS","TX","United States","75201","Y",238,"Y","N","Y","Y","Yes"
2013439,"BENNETT THRASHER LLP","3300 RIVERWOOD PARKWAY","SUITE 700","ATLANTA","GA","United States","30339","Y",4051,"Y","N","Y","N",""
2009840,"PRAGER METIS","32 ORANGE STREET","","ASHEVILLE","NC","United States","28801","N",,"","N","Y","N",""
2009551,"MAYER HOFFMAN MCCANN, P.C.","222 S. 9TH STREET","SUITE 1000","MINNEAPOLIS","MN","United States","55402","Y",199,"Y","N","Y","N",""
1982098,"PRICEWATERHOUSECOOPERS LLP","125 HIGH STREET","","BOSTON","MA","United States","02110","Y",238,"Y","Y","Y","Y","Yes"
1994944,"DELOITTE & TOUCHE LLP","30 ROCKEFELLER PLAZA","","NEW YORK","NY","United States","10112","Y",34,"Y","Y","Y","N","Yes"
2010007,"EISNERAMPER, LLP","ONE CALIFORNIA","SUITE 1700","SAN FRANCISCO","CA","United States","94111","Y",274,"Y","N","Y","N",""
2010007,"WEAVER AND TIDWELL, LLP","1230 ROSECRANS AVENUE","SUITE 510","MANHATTAN BEACH","CA","United States","90266","Y",410,"Y","Y","N","N","Yes"
2010007,"MARCUM LLP","777 S FIGUEROA ST","29TH FLOOR","LOS ANGELES","CA","United States","90017","Y",688,"Y","Y","N","N","Yes"
2012229,"ERNST & YOUNG LLP","300 FIRST STAMFORD PLACE","","STAMFORD","CT","United States","06902","Y",42,"Y","Y","N","N","Yes"
2012229,"ERNST & YOUNG LTD.","62 FORUM LANE","P.O. BOX 510","CAMAN BAY","","Cayman Islands","KY1-1106","Y",42,"Y","Y","N","N","Yes"
2013391,"RICHEY MAY","9780 S MERIDAN BLVD","","ENGLEWOOD","CO","United States","90112","Y",673,"Y","Y","N","N","Not Yet Received"
2013364,"FRANK RIMMERMAN + CO, LLP","60 SOUTH MARKET ST. STE 500","","SAN JOSE","CA","United States","95113","Y",1596,"Y","N","Y","N",""
2007715,"BDO LLP","55 BAKER STREET","","LONDON","","United Kingdom","W1U 7EU","Y",1295,"Y","Y","N","N","Yes"
2007715,"DELOITTE & TOUCHE LLP","111 S. WACKER DR.","SUITE 2100","CHICAGO","IL","United States","60606","Y",34,"Y","Y","N","N","Yes"
2004020,"SPICER JEFFRIES LLP","4601 DTC BOULEVARD, SUITE 700","","DENVER","CO","United States","80237","Y",349,"Y","Y","Y","Y","Not Yet Received"
2007382,"BDO USA, P.C.","200 PARK AVENUE","38TH FLOOR","NEW YORK","NY","United States","10166","Y",243,"Y","Y","N","N","Yes"
2006836,"ERNST & YOUNG LTD.","SUITE 6401","62 FORUM LANE, CAMANA BAY","PO BOX 510","","Cayman Islands","KY1-1106","Y",1655,"Y","Y","N","N","Yes"
2006836,"ERNST & YOUNG LLP","55 IVAN ALLEN JR. BLVD","SUITE 1000","ATLANTA","GA","United States","30308","Y",42,"Y","Y","N","N","Yes"
2006836,"PRICE WATERHOUSE COOPERS","18 FORUM LANE","CAMANA BAY, P.O. BOX 258","GRAND CAYMAN","","Cayman Islands","KY1-1104","Y",1266,"Y","Y","N","N","Yes"
2006836,"PRICE WATERHOUSE COOPERS","ONE SPENCER DOCK","NORTH WALL QUAY","DUBLIN 1","","Ireland","","Y",1366,"Y","Y","N","N","Yes"
2006836,"ERNST & YOUNG AUDITORES INDEPENDENTES S/S LTDA","PRAIA DE BOTAFOGO, 370","","RIO DE JANEIRO","","Brazil","","Y",1448,"Y","N","N","Y","Yes"
2006836,"WITHUMSMITH+BROWN, PC","200 JEFFERSON PARK","SUITE 400","WHIPPANY","NJ","United States","07981","Y",100,"Y","Y","N","N","Yes"
2008214,"FORVIS MAZARS","ONE METROPOLITAN SQUARE 211 N. BROADWAY","SUITE 600","ST. LOUIS","MO","United States","63102","Y",686,"Y","Y","N","N","Not Yet Received"
2008440,"MARCUM LLP","730 THIRD AVE","730","NEW YORK","NY","United States","10017","Y",688,"Y","N","Y","N",""
2008440,"ASHLAND PARTNERS & COMPANY, LLP","3512 EXCEL DRIVE","SUITE 103","MEDFORD","OR","United States","97504","Y",3783,"Y","N","Y","N",""
2010921,"ERNST & YOUNG LLP","5 TIMES SQUARE","","NEW YORK","NY","United States","10036","Y",42,"Y","Y","Y","N","Yes"
2010921,"PRICEWATERHOUSECOOPERS","ONE SPENCER DOCK, NORTH WALL QUAY","","DUBLIN","","Ireland","","Y",1366,"Y","Y","N","N","Yes"
2010924,"RSM US LLP","1 S WACKE DRIVE","SUITE 800","CHICAGO","IL","United States","60606","Y",104,"Y","N","Y","N",""
2005906,"PRICEWATERHOUSECOOPERS","2121 N. PEARL STREET","STE 2000","DALLAS","TX","United States","75201","Y",238,"Y","Y","N","N","Yes"
2010801,"PRICEWATERHOUSE COOPERS LLP","300 MADISON AVE","","NEW YORK","NY","United States","10017","Y",238,"Y","Y","N","N","Yes"
2010801,"KPMG LLP","345 PARK AVENUE","","NEW YORK","NY","United States","10154","Y",185,"Y","Y","N","N","Yes"
2010801,"ERNST & YOUNG LLP","ONE MANHATTAN WEST, 395 9TH AVE","","NEW YORK","NY","United States","10001","Y",42,"Y","Y","N","N","Yes"
2010504,"KEITER, STEPHENS, HURST, GARY & SHREAVES, P.C.","4401 DOMINION BOULEVARD","","GLEN ALLEN","VA","United States","23060","Y",80,"Y","N","Y","N",""
2011005,"BDO LLP","55 BAKER STREET","","LONDON","","United Kingdom","W1U 7EU","Y",1295,"Y","Y","N","N","Yes"
2011005,"DELOITTE & TOUCHE LLP","111 S. WACKER DR.","SUITE 2100","CHICAGO","IL","United States","60606","Y",34,"Y","Y","N","N","Yes"
2011104,"COHEN AND COMPANY, LTD.","1350 EUCLID AVE.","SUITE 800","CLEVELAND","OH","United States","44115","Y",925,"Y","Y","Y","N","Yes"
2003593,"ASHLAND PARTNERS & COMPANY LLP","3512 EXCEL DRIVE","SUITE 103","MEDFORD","OR","United States","97504","Y",3783,"Y","N","Y","N",""
2004052,"PRICEWATERHOUSECOOPERS LLP","300 MADISON AVENUE","24TH FLOOR","NEW YORK","NY","United States","10017","Y",238,"Y","Y","N","N","Yes"
2004052,"ERNST & YOUNG","5 TIMES SQUARE","","NEW YORK","NY","United States","10036","Y",42,"Y","Y","N","N","Yes"
2007309,"FUTURES ACCOUNTING AND COMPLIANCE","2182 GLADSTONE CT","UNIT D","GLENDALE HEIGHTS","IL","United States","60139","N",,"","Y","N","N","No"
2007311,"ERNST & YOUNG LLP","5 TIMES SQUARE","","NEW YORK","NY","United States","10036","Y",42,"Y","Y","N","N","Yes"
2007352,"RSM US LLP","555 17TH STREET","SUITE 1200","DENVER","CO","United States","80202","Y",49,"Y","Y","Y","N","Yes"
2007352,"KPMG","1225 17TH STREET","SUITE 800","DENVER","CO","United States","80202-5598","Y",185,"Y","Y","N","N","Yes"
2006511,"BAKER NEWMAN & NOYES","280 FORE STREET","","PORTLAND","ME","United States","04101","Y",231,"Y","Y","Y","N","Not Yet Received"
2007102,"BDO LLP","55 BAKER STREET","","LONDON","","United Kingdom","W1U 7EU","Y",1295,"Y","Y","N","N","Yes"
2007102,"DELOITTE & TOUCHE LLP","111 S. WACKER DR.","SUITE 2100","CHICAGO","IL","United States","60606","Y",34,"Y","Y","N","N","Yes"
2005964,"ERNST & YOUNG LLP","725 SOUTH FIGUEROA","SUITE 200","LOS ANGELES","CA","United States","90017","Y",42,"Y","Y","N","N","Yes"
2004645,"ERNST & YOUNG LLP","560 MISSION ST. #1500","","SAN FRANCISCO","CA","United States","94105","Y",42,"Y","N","Y","Y","Yes"
1992775,"PRICEWATERHOUSECOOPERS LLP","300 MADISON AVENUE","","NEW YORK","NY","United States","10017","Y",238,"Y","Y","N","N","Yes"
2007426,"WOLF & COMPANY, P.C.","255 STATE STREET","","BOSTON","MA","United States","02109","Y",392,"Y","N","N","Y","Yes"
2009663,"ASHLAND PARTNERS & COMPANY LLP","3512 EXCEL DR","SUITE 103","MEDFORD","OR","United States","97504","Y",3783,"N","N","Y","N",""
2009006,"DELOITTE TOUCHE TOHMATSU","35/F, ONE PACIFIC PLACE","88 QUEENSWAY","HONG KONG","","China","","Y",1104,"Y","Y","N","N","Yes"
2009740,"ERNST & YOUNG LLP","111 W. HOUSTON STREET","SUITE 1901","SAN ANTONIO","TX","United States","78205","Y",42,"Y","N","Y","N",""
2012206,"ERNST & YOUNG LLP","55 IVAN ALLEN JR BLVD","SUITE 1000","ALTANTA","GA","United States","30308","Y",42,"Y","N","N","Y","Yes"
2012211,"DELOITTE AG","38 GENERAL-GUISAN-QUAI","","ZURICH","","Switzerland","8022","Y",500420,"Y","N","Y","Y","Yes"
2012283,"ASHLAND PARTNERS & COMPANY LLP","3512 EXCEL DRIVE","SUITE 103","MEDFORD","OR","United States","97504","Y",3783,"Y","N","Y","N",""
2012345,"GRAY GRAY & GRAY","150 ROYALL STREET","SUITE 102","CANTON","MA","United States","02021-1054","Y",899,"Y","Y","Y","Y","Not Yet Received"
2012438,"RSM US LLP","1 S WACKE DRIVE","SUITE 800","CHICAGO","IL","United States","60606","Y",104,"Y","N","Y","N",""
2010566,"WALTER & SHUFFAIN, P.C.","ONE INTERNATIONAL PLACE","SUITE 1010","BOSTON","MA","United States","02110","Y",5439,"N","N","Y","N",""
1992775,"PRICEWATERHOUSECOOPERS","P.O. BOX 258","STRATHVALE HOUSE","GEORGE TOWN","","Cayman Islands","KY1-1104","Y",1266,"Y","Y","N","N","Yes"
1987293,"PRICEWATERHOUSECOOPERS","300 MADISON AVE","7 CHURCH STREET","NEW YORK","NY","United States","10017","Y",1403,"Y","Y","Y","N","Yes"
1987293,"KPMG","LODHA EXCELUS, APOLLO MILLS COMPOUND","","MUMBAI","","India","400011","Y",2115,"Y","N","N","Y","Yes"
1987293,"DELOITTE & TOUCHE","EARSFORT TERRACE","","DUBLIN","","Ireland","2","Y",1193,"Y","Y","Y","N","Yes"
2007342,"PRICEWATERHOUSECOOPERS LLP","101 SEAPORT BLVD","","BOSTON","MA","United States","02210","Y",238,"Y","N","Y","Y","Not Yet Received"
2005829,"RSM","4 TIMES SQUARE","151 WEST 42ND STREET, 19TH FLOOR","NEW YORK","NY","United States","10036","Y",49,"Y","Y","N","N","Yes"
2005117,"CLARK SCHAEFER HACKETT CPAS","ONE EAST FOURTH ST. SUITE 1200","","CINCINNATI","OH","United States","45202","Y",539,"Y","Y","Y","N","Yes"
2012602,"PRICEWATERHOUSECOOPERS, LLP","300 MADISON AVE","","NEW YORK","NY","United States","10017-6204","Y",238,"Y","Y","N","N","Yes"
2012545,"BERKOW, SCHECHTER & COMPANY LLP","350 BEDFORD STREET","","STAMFORD","CT","United States","06901","Y",4040,"Y","N","Y","N",""
2012562,"MOSS ADAMS LLP","14555 DALLAS PARKWAY","SUITE 300","DALLAS","TX","United States","75254","Y",659,"Y","N","Y","N",""
2012602,"GRANT THORNTON LLP","757 THIRD AVENUE","9TH FLOOR","NEW YORK","NY","United States","10017","Y",248,"Y","Y","N","N","Yes"
2012749,"EISNERAMPER LLP","750 THIRD AVENUE","","NEW YORK","NY","United States","10017-2703","Y",274,"Y","Y","N","N","Yes"
2012749,"EISNERAMPER (CAYMAN) LTD.","CENTURY YARD, CRICKET SQUARE","171 ELGIN AVENUE, PO BOX 1782","GEORGE TOWN, GRAND CAYMAN","","Cayman Islands","KY1-1109","Y",274,"Y","Y","N","N","Yes"
2012749,"ERNST & YOUNG","300 FIRST STAMFORD PL","","STAMFORD","CT","United States","06902","Y",42,"Y","Y","N","N","Yes"
2012727,"KPMG","CENTURY YARD","CRICKET SQUARE","GEORGE TOWN","","Cayman Islands","","Y",1323,"Y","Y","N","N","Yes"
2012727,"KPMG ASSURANCE SERVICES","RUA DO PASSEIO, 38 - SETOR 2 - 17? ANDAR","ED. PASSEIO CORPORATE","RIO DE JANEIRO","","Brazil","","N",,"","Y","N","N","Yes"
2012727,"KPMG LLP","345 PARK AVENUE","","NEW YORK","NY","United States","10154-0102","Y",185,"Y","Y","N","N","Yes"
2009541,"PRICEWATERHOUSECOOPERS LLP","300 MADISON AVENUE","","NEW YORK","NY","United States","10017","Y",238,"Y","N","N","Y","Yes"
2011589,"3783ASHLAND PARTNERS & COMPANY LLP","3512 EXCEL DRIVE","STE. 103","MEDFORD","OR","United States","97504","Y",3783,"Y","N","Y","N",""
2011599,"DAVID LUNDGREN & CO.","505 N. MUR-LEN ROAD","","OLATHE","KS","United States","66062","Y",6075,"Y","N","Y","N",""
2011607,"PRICE WATERHOUSE COOPERS LLP","TWO COMMERCE SQUARE SUITE 1700","2001 MARKET STREET","PHILADELPHIA","PA","United States","19103","Y",238,"Y","N","Y","Y","Yes"
2011395,"RICHEY MAY","9780 S MERIDAN BLVD","","ENGLEWOOD","CO","United States","90112","Y",673,"Y","Y","N","N","Not Yet Received"
2011752,"BAKER TILLY US, LLP","50 FREMONT STREET","SUITE 4000","SAN FRANCISCO","CA","United States","94105","Y",402,"Y","N","Y","N",""
2011774,"ARMANINO LLP","44 MONTGOMERY ST.","SUITE 900","SAN FRANCISCO","CA","United States","94104","Y",32,"Y","N","Y","N",""
2005567,"ASA & ASSOCIATES LLP","AUROBINDO TOWER, 81/1","THIRD FLOOR,  ADCHINI, AUROBINDO MARG","NEW DELHI","","India","110017","Y",3083,"Y","N","Y","N",""
2009183,"ELLIOTT DAVIS","629 MARKET STREET","SUITE 100","CHATTANOOGA","TN","United States","37402","Y",149,"Y","N","Y","N",""
2009773,"PRICEWATERHOUSECOOPERS LLP","1 EMBANKMENT PLACE","","LONDON","","United Kingdom","WC2N 6RH","Y",876,"Y","Y","N","N","Yes"
2008565,"ARMANINO LLP","6 CITYPLACE DRIVE","SUITE 900","ST. LOUIS","MO","United States","63141","Y",32,"Y","N","Y","N",""
2010957,"KPMG LLP","15 CANADA SQUARE","","LONDON","","United Kingdom","E14 5GL","Y",1118,"Y","Y","N","N","Not Yet Received"
2010957,"RSM US LLP","151 W 42ND STREET","19TH FLOOR","NEW YORK","NY","United States","10036","Y",49,"Y","Y","N","N","Yes"
2007255,"ERNST & YOUNG","725 S. FIGUEROA STREET","SUITE 200","LOS ANGELES","CA","United States","90017","Y",42,"Y","Y","N","N","Yes"
2009773,"KPMG LLP","345 PARK AVENUE","","NEW YORK","NY","United States","10154","Y",185,"Y","Y","N","N","Yes"
2009773,"FORVIS MAZARS, LLP","135 W 50TH STREET","","NEW YORK","NY","United States","10020","Y",686,"Y","Y","N","N","Yes"
2009773,"PRICEWATERHOUSECOOPERS, SOCIETE COOPERATIVE","2 RUE GERHARD","B.P.1443","MERCATOR","","Luxembourg","L-1014","Y",1328,"Y","Y","N","N","Yes"
2011023,"COHNREZNICK LLP","14 SYLVAN WAY","3RD FLOOR","PARSIPPANY","NJ","United States","07054","Y",596,"Y","Y","N","N","Yes"
2010840,"PRAGER METIS CPAS, LLC","222 MOUNT AIRY ROAD","SUITE 100","BASKING RIDGE","NJ","United States","07920","Y",273,"Y","Y","N","N","Not Yet Received"
2012364,"PRICEWATERHOUSECOOPERS LLC","300 MADISON AVENUE","","NEW YORK","NY","United States","10017-6204","Y",238,"Y","Y","Y","Y","Yes"
2012465,"RSM US LLP","30 S. WACKER DRIVE","SUITE 330","CHICAGO","IL","United States","60006","Y",104,"Y","Y","N","N","Yes"
2010014,"ASHLAND PARTNERS","3512 EXCEL DR, SUITE 103","","MEDFORD","OR","United States","97504","Y",3783,"Y","N","Y","N",""
2009897,"COHNREZNICK LLP","1301 AVENUE OF THE AMERICAS","","NEW YORK","NY","United States","10019","Y",596,"Y","Y","N","N","Yes"
2013080,"KPMG LLP","200 E. RANDOLPH ST.","SUITE 5500","CHICAGO","IL","United States","60601-6436","Y",185,"Y","N","Y","N",""
2013169,"GRANT THORNTON","13-18 CITY QUAY","","DUBLIN","","Ireland","","Y",1402,"Y","Y","N","N","Not Yet Received"
2007213,"LUMSDEN & MCCORMICK","369 FRANKLIN STREET","","BUFFALO","NY","United States","14202","Y",130,"Y","N","Y","N",""
2007217,"ERNST & YOUNG LTD","BADENERSTRASSE 47,","","ZUERICH","","Switzerland","8022","Y",1406,"Y","N","Y","Y","Yes"
2007227,"PLANTE & MORAN PLLC","27400 NORTHWESTERN HWY","","SOUTHFIELD","MI","United States","48034","Y",166,"Y","N","Y","N",""
2002035,"BAKER TILLY US, LLP","50 FREMONT STREET","SUITE 4000","SAN FRANCISCO","CA","United States","94105","Y",402,"Y","N","Y","N",""
2007237,"EISNERAMPER","750 3RD AVE","","NEW YORK","NY","United States","10017","Y",274,"Y","Y","N","N","Not Yet Received"
2007237,"COHNREZNIK","1301 AVENUE OF THE AMERICAS","","NEW YORK","NY","United States","10019","Y",596,"Y","Y","N","N","Not Yet Received"
2006689,"WITHUM SMITH+BROWN, PC","ONE LIBERTY SQUARE","","BOSTON","MA","United States","02109","Y",100,"Y","Y","N","N","Not Yet Received"
2007307,"RICHIE MAY & CO.","9780 S MERIDIAN BLVD","SUITE 500","ENGLEWOOD","CO","United States","80112","Y",673,"Y","N","Y","N",""
2007307,"DELOITTE & TOUCHE LLP","695 TOWN CENTER DR. SUITE 1000","92626","COSTA MESA","CA","United States","92626","Y",34,"Y","Y","N","N","Not Yet Received"
2009640,"DEMARCO SCIACCOTTA WILKENS & DUNLEAVY, LLP","20646 ABBEY WOODS CT N","SUITE 201","FRANKFORT","IL","United States","60423","Y",5376,"Y","N","Y","N",""
2009040,"RSM US LLP","30 S. WACKER DRIVE","UNIT 330","CHICAGO","IL","United States","60606","Y",104,"Y","Y","N","N","Not Yet Received"
2003191,"RODEFER MOSS & CO, PLLC","608 MABRY HOOD ROAD","","KNOXVILLE","TN","United States","37932","Y",910,"Y","N","Y","N",""
2009218,"CHERRY BAKAERT","101 S. FIFTH STREET","SUITE 2100","LOUISVILLE","KY","United States","40202","Y",677,"Y","N","Y","N",""
2010090,"ERNST & YOUNG, LLP","1001 LAKESIDE AVE","SUITE 1800","CLEVELAND","OH","United States","44114","Y",42,"Y","Y","N","N","Yes"
2010197,"EISNERAMPER LLP","733 THIRD AVENUE","","NEW YORK","NY","United States","10017","Y",274,"Y","N","Y","N",""
2009770,"KPMG LLP","02 GODREJ BUSINESS DISTRICT, FIRST FLOOR BLOCK A","PIROJSHANAGAR, VIKHROLI - WEST","MUMBAI","","India","400 079","Y",185,"Y","N","N","Y","Not Yet Received"
2010971,"BAKER NEWMAN & NOYES, LLC","280 FORE STREET","","PORTLAND","ME","United States","04101","Y",231,"Y","N","Y","N",""
2010971,"EISNERAMPER LLC","733 THIRD AVENUE","","NEW YORK","NY","United States","10017","Y",274,"Y","Y","N","N","Yes"
2009995,"ASHLAND PARTNERS & COMPANY LLP","3512 EXCEL DRIVE","SUITE 103","MEDFORD","OR","United States","97504","Y",3783,"Y","N","Y","N",""
2011165,"WITHUM SMITH + BROWN, PC","1411 BROADWAY","23RD FLOOR","NEW YORK","NY","United States","10018","Y",100,"Y","Y","N","N","Yes"
2011587,"CROWE LLP","485 LEXINGTON AVE","FLOOR 11","NEW YORK","NY","United States","10017","Y",173,"Y","N","Y","Y","Yes"
2013433,"PRICEWATERHOUSECOOPERS LLP","2001 ROSS AVE SUITE 1800","","DALLAS","TX","United States","75201","Y",238,"Y","N","Y","Y","Yes"
2013307,"SPICER JEFFRIES LLP","4601 DTC BLVD","SUITE 700","DENVER","CO","United States","80237","Y",349,"Y","Y","N","N","Yes"
2013438,"BENNETT THRASHER LLP","3300 RIVERWOOD PARKWAY","SUITE 700","ATLANTA","GA","United States","30339","Y",4051,"Y","N","Y","N",""
2010396,"ERNST & YOUNG LLP","5 TIMES SQUARE","","NEW YORK","NY","United States","10036-6530","Y",42,"Y","Y","N","N","Yes"
2010396,"ERNST & YOUNG LTD","62 FORUM LANE CAMANA BAY","","GRAND CAYMAN","","Cayman Islands","KY1-1106","Y",1655,"Y","Y","N","N","Yes"
2007286,"WIPFLI LLP","2460 EXECUTIVE DRIVE","","ST. CHARLES","MO","United States","63303","Y",344,"Y","N","Y","N",""
2007395,"BRAD A. KINDER, CPA","815 PARKER SQUARE","","FLOWER MOUND","TX","United States","75028","Y",641,"Y","N","Y","N",""
2007403,"FGMK, LLC","2801 LAKESIDE DRIVE","3RD FLOOR","BANNOCKBURN","IL","United States","60015","Y",3968,"Y","N","Y","N",""
2012340,"KLR (KAHN, LITWIN, RENZA & CO., LTD)","800 SOUTH STREET","SUITE 300","WALTHAM","MA","United States","02453","Y",2882,"N","Y","N","Y","Yes"
2012340,"ANDERS MINKLER HUBER & HELM LLP","800 MARKET","SUITE 500","ST. LOUIS","MO","United States","63101","Y",2100,"Y","N","Y","N",""
2012432,"KNIGHT, ROLLERI, SHEPPARD, CPAS LLP","1499 POST ROAD","","FAIRFIELD","CT","United States","06824","Y",3437,"Y","N","Y","N",""
2013399,"PRICEWATERHOUSECOOPERS LLP","2001 ROSS AVE","SUITE 1800","DALLAS","TX","United States","75201","Y",238,"Y","N","Y","Y","Yes"
2012457,"ASHLAND PARTNERS, LLP","3512 EXCEL DR","SUITE 103","MEDFORD","OR","United States","97504","Y",3783,"N","N","Y","N",""
2011155,"DELOITTE & TOUCHE, LLP","100 SOUTH 4TH STREET","SUITE 300","ST LOUIS","MO","United States","63102-1821","Y",34,"Y","N","Y","Y","Yes"
2011166,"RODEFER MOSS & CO. PLLC","608 MABRY HOOD ROAD","","KNOXVILLE","TN","United States","37932","Y",910,"Y","N","Y","Y","Yes"
2010026,"DELOITTE LLP","2 NEW STREET  SQUARE","","LONDON","","United Kingdom","EC4A 3BZ","Y",1147,"Y","N","Y","Y","Yes"
2012463,"PRICEWATERHOUSECOOPERS LLP","101 SEAPORT BOULEVARD","","BOSTON","MA","United States","02110","Y",238,"Y","Y","Y","Y","Yes"
2012605,"PRICEWATERHOUSECOOPERS LLP","PWC TOWER, 18 YORK STREET, SUITE 2500","","TORONTO","","Canada","M5J0B2","Y",271,"Y","Y","N","N","Yes"
2012605,"PRICEWATERHOUSECOOPERS LLP","100 EAST PRATT STREET, SUITE 2600","","BALTIMORE","MD","United States","21202","Y",238,"Y","N","Y","N",""
2012653,"COHEN & CO.","1350 EUCLID AVE.","SUITE 800","CLEVELAND","OH","United States","44115","Y",925,"Y","N","Y","N",""
2005385,"APRIO LLB","2002 SUMMIT BOULEVARD","SUIT 120","ATLANTA","GA","United States","30319","N",,"","N","Y","N",""
2009536,"ASSURANCE DIMENSIONS","2000 BANKS RD.","SUITE 218","MARGATE","FL","United States","33063","Y",5036,"Y","N","Y","N",""
2010372,"PLANTE MORAN","10 SOUTH RIVERSIDE PLAZA 9TH FLOOR","","CHICAGO","IL","United States","60606-3770","Y",166,"Y","N","Y","N",""
2010372,"EISNERAMPER","100 N. 18TH ST","","PHILADELPHIA","PA","United States","19103","Y",274,"Y","Y","N","N","Yes"
2010372,"DELOITTE & TOUCHE LLP","1700 MARKET STREET","","PHILADELPHIA","PA","United States","19103-3984","Y",34,"Y","Y","N","N","Yes"
2010372,"ERNST & YOUNG LLP","ONE MANHATTAN WEST","395 - 9TH AVENUE","NEW YORK","NY","United States","10001","Y",42,"Y","Y","N","N","Yes"
2010426,"PRICEWATERHOUSECOOPERS LLP","300 MADISON AVENUE","","NEW YORK","NY","United States","10017","Y",238,"Y","N","Y","Y","Yes"
2010596,"LILLING & COMPANY LLP","TWO SEAVIEW BOULEVARD","","PORT WASHINGTON","NY","United States","11050","Y",3480,"Y","N","Y","N",""
2008086,"KEITER CPA","4401 DOMINION BOULEVARD","","GLEN ALLEN","VA","United States","23060","Y",80,"Y","N","Y","N",""
2001981,"ASHLAND PARTNERS & COMPANY LLP","3512 EXCEL DRIVE, SUITE 103","","MEDFORD","OR","United States","97504","Y",3783,"Y","N","Y","N",""
2008100,"ASHLAND PARTNERS & COMPANY LLP","3512 EXCEL DRIVE, SUITE 103","","MEDFORD","OR","United States","97504","Y",3783,"Y","N","Y","N",""
2008104,"DELOITTE & TOUCHE LLP","1700 MARKET STREET","","PHILADELPHIA","PA","United States","19103","Y",34,"Y","Y","Y","N","Yes"
2008104,"PRICEWATERHOUSECOOPERS AG","BIRCHSTRASSE 160","","ZURICH","","Switzerland","8050","Y",1358,"Y","Y","N","N","Yes"
2008104,"DELOITTE & TOUCHE LLP","60 NEXUS WAY, 8TH FLOOR","CAMANA BAY, PO BOX 1787","GRAND CAYMAN","","Cayman Islands","KY1-1109","Y",1096,"Y","Y","N","N","Yes"
2008104,"DELOITTE IRELAND","EARLSFORT TERRACE","","DUBLIN","","Ireland","2","Y",1193,"Y","Y","N","N","Yes"
2008104,"PRICEWATERHOUSECOOPERS, SOCIETE COOPERATIVE","2, RUE GERHARD MERCATOR","B.P. 1443","LUXEMBOURG","","Luxembourg","L-1014","Y",1328,"Y","Y","N","N","Yes"
2008104,"DELOITTE AUDIT SARL","20, BOULEVARD DE KOCKELSCHEUER","","LUXEMBOURG","","Luxembourg","L-1821","Y",1287,"Y","Y","N","N","Yes"
2008104,"PRICEWATERHOUSECOOPERS LTD.","P.O. BOX HM 1171","","HAMILTON","","Bermuda","HM EX","Y",1403,"Y","Y","N","N","Yes"
2008104,"PRICEWATERHOUSECOOPERS","18 FORUM LANE, CAMANA BAY","P.O. BOX 258","GRAND CAYMAN","","Cayman Islands","KY1-1104","Y",1266,"Y","Y","N","N","Yes"
2008106,"DELOITTE & TOUCHE LLP","1700 MARKET STREET","","PHILADELPHIA","PA","United States","19103","Y",34,"Y","Y","Y","N","Yes"
2008106,"DELOITTE & TOUCHE LLP","60 NEXUS WAY, 8TH FLOOR","CAMANA BAY, PO BOX 1787","GRAND CAYMAN","","Cayman Islands","KY1-1109","Y",1096,"Y","Y","N","N","Yes"
2008106,"DELOITTE AUDIT SARL","20, BOULEVARD DE KOCKELSCHEUER","","LUXEMBOURG","","Luxembourg","L-1821","Y",1287,"Y","Y","N","N","Yes"
2008111,"FORVIS","2700 POST OAK BLVD","SUITE 1500","HOUSTON","TX","United States","77056","Y",686,"Y","N","Y","Y","Yes"
1999859,"MOSS ADAMS LLP","999 THIRD AVENUE","SUITE 2800","SEATTLE","WA","United States","98104","Y",659,"Y","Y","N","N","Yes"
1999859,"DELOITTE & TOUCHE LLP","925 4TH AVENUE","SUITE 3300","SEATTLE","WA","United States","98104","Y",34,"Y","Y","N","Y","Yes"
1999859,"ASHLAND PARTNERS & COMPANY LLP","3512 EXCEL DRIVE","SUITE 103","MEDFORD","OR","United States","97504","Y",3783,"Y","N","Y","N",""
2008118,"ERNST & YOUNG","200 CLARENDON ST","","BOSTON","MA","United States","02116","Y",42,"Y","Y","N","N","Yes"
2008999,"SPICER JEFFERIES LLP","4601 DTC BLVD STE 700,","","DENVER","CO","United States","80237","Y",349,"Y","N","Y","N",""
2009279,"ASHLAND PARTNERS & COMPANY, LLP","3512 EXCEL DRIVE","SUITE 103","MEDFORD","OR","United States","97504","Y",3783,"N","N","Y","N",""
2013033,"ERNST & YOUNG, LLP","20O CLARENDON STREET","","BOSTON","MA","United States","02116","Y",42,"Y","Y","N","N","Not Yet Received"
2009431,"TAIT & WELLER & BAKER LLP","1818 MARKET STREET","SUITE 2400","PHILADELPHIA","PA","United States","19103","Y",445,"Y","Y","Y","N","Yes"
2009431,"ERNST & YOUNG LTD","62 FORUM LANE","CAMANA BAY","GRAND CAYMAN","","Cayman Islands","KY1-1106","Y",1655,"Y","Y","N","Y","Yes"
2010308,"LUTZ & COMPANY, P.C.","13616 CALIFORNIA STREET","SUITE #300","OMAHA","NE","United States","68154-5336","Y",3624,"Y","N","Y","N",""
2009322,"BROWN EDWARDS","3906 ELECTRIC RD","","ROANOKE","VA","United States","24018","N",,"","N","Y","N",""
2012813,"KPMG LLP","10 SOUTH BROADWAY","SUITE 900","SAINT LOUIS","MO","United States","63102-1736","Y",185,"Y","N","Y","Y","Yes"
2011252,"TANNER LLC","3300 N. TRIUMPH BLVD","SUITE 410","LEHI","UT","United States","84043","Y",270,"Y","Y","N","N","No"
2007944,"ERNST & YOUNG LTD.","62 FORUM LANE, CAYMAN BAY","P.O. BOX 510","GRAND CAYMAN","","Cayman Islands","","Y",1655,"Y","Y","N","N","Yes"
2011287,"CAVANAUGH NELSON PLC","999 WATERSIDE DRIVE","SUITE 2250","NORFOLK","VA","United States","23510","N",,"","N","Y","N",""
2012885,"PLANTE & MORAN, PLLC","10 S. RIVERSIDE PLAZA","9TH FLOOR","CHICAGO","IL","United States","60606-3770","Y",166,"Y","Y","N","N","Yes"
1997532,"ERNST & YOUNG LTD","62 FORUM LANE CAMANA BAY P.O. BOX 510","","GEORGE TOWN","","Cayman Islands","KY11106","Y",1655,"Y","Y","N","N","Yes"
2012422,"PRICEWATERHOUSE COOPERS LLP","300 MADISON AVENUE","","NEW YORK","NY","United States","10017-6204","Y",238,"Y","N","Y","Y","Yes"
2010100,"PRICEWATERHOUSECOOPERS LLP","101 SEAPORT BOULEVARD","SUITE 500","BOSTON","MA","United States","02210","Y",238,"Y","Y","Y","Y","Yes"
2008496,"CITRIN COOPERMAN & COMPANY, LLP","50 ROCKEFELLER PLAZA","","NEW YORK","NY","United States","10020","Y",2468,"Y","N","Y","N",""
2008533,"PRICEWATERHOUSECOOPERS LLP","909 POYDRAS STREET","SUITE 3100","NEW ORLEANS","LA","United States","70112","Y",238,"Y","N","Y","Y","Yes"
2007944,"ERNST & YOUNG LLP","200 CLARENDON","","BOSTON","MA","United States","02116","Y",42,"Y","Y","N","N","Yes"
2008688,"ASHLAND PARTNERS & COMPANY LLP","3512 EXCEL DRIVE","SUITE 103","MEDFORD","OR","United States","97504","Y",3783,"Y","N","Y","N",""
2008600,"DELOITTE & TOUCHE LLP","30 ROCKEFELLER PLAZA","","NEW YORK","NY","United States","10112","Y",34,"Y","Y","Y","N","Yes"
2009576,"ERNST & YOUNG LLP","ONE MANHATTAN WEST","395 - 9TH AVENUE","NEW YORK","NY","United States","10001","Y",42,"Y","Y","N","N","Yes"
2009576,"PLANTE MORAN","10 SOUTH RIVERSIDE PLAZA 9TH FLOOR","","CHICAGO","IL","United States","60606-3770","Y",166,"Y","N","Y","N",""
2009576,"EISNERAMPER","100 N. 18TH ST","","PHILADELPHIA","PA","United States","19103","Y",274,"Y","Y","N","N","Yes"
2009576,"DELOITTE & TOUCHE LLP","1700 MARKET STREET","","PHILADELPHIA","PA","United States","19103-3984","Y",34,"Y","Y","N","N","Yes"
2009695,"DELOITTE & TOUCHE LLP","30 ROCKEFELLER PLAZA","","NEW YORK","NY","United States","10112","Y",34,"Y","N","Y","N",""
2010004,"DELOITTE & TOUCHE LLP","111 S. WACKER DRIVE","","CHICAGO","IL","United States","60606-4301","Y",34,"Y","Y","N","N","Yes"
2012755,"WOLF & COMPANY, P.C.","99 HIGH STREET","","BOSTON","MA","United States","02110","Y",392,"Y","N","Y","N",""
2007469,"FGMK, LLC","2801 LAKESIDE DRIVE","3RD FLOOR","BANNOCKBURN","IL","United States","60015","Y",3968,"Y","N","Y","N",""
2007501,"FORVIS","200 EAST MAIN STREET, SUITE 700","","FORT WAYNE","IN","United States","46802-1900","Y",686,"Y","N","Y","N",""
2012709,"WITHUMSMITH+BROWN, PC","1411 BROADWAY","23RD FLOOR","NEW YORK","NY","United States","10018","Y",100,"Y","Y","N","N","Yes"
2012314,"KPMG LLP","200 EAST RANDOLPH DRIVE","","CHICAGO","IL","United States","60601-5212","Y",185,"Y","Y","N","N","Not Yet Received"
2012314,"PLANTE MORAN, PLLC","10 S. RIVERSIDE PLAZA","9TH FLOOR","CHICAGO","IL","United States","60606","Y",166,"Y","N","Y","N",""
2012755,"EAGLESTONE TAX AND ACCOUNTING SERVICES, LLC","1101 WOOTON PARKWAY","","ROCKVILLE","MD","United States","20852","N",,"N","N","N","N",""
2012860,"LARRY LIBERFARB, P.C.","11 VANDERBILT AVE.","SUITE 220","NORWOOD","MA","United States","02062","N",,"N","N","Y","N",""
2012819,"PRICEWATERHOUSECOOPERS, LLP","6 CARDINAL WAY","SUITE 1100","ST. LOUIS","MO","United States","63102","Y",238,"Y","N","Y","Y","Yes"
2012543,"PRICEWATERHOUSECOOPERS","300 MADISON AVENUE","","NEW YORK","NY","United States","10017","Y",238,"Y","Y","N","N","Yes"
2012249,"GRANT THORNTON LLP","700 MILAM ST.","SUITE 300","HOUSTON","TX","United States","77002","Y",248,"Y","Y","N","N","Yes"
2012373,"PRICEWATERHOUSECOOPERS LLP","18 YORK STREET","SUITE 2500","TORONTO","","Canada","M5J0B2","Y",238,"Y","Y","Y","N","Not Yet Received"
2007565,"PKF O'CONNOR DAVIES, LLP","665 FIFTH AVENUE","","NEW YORK","NY","United States","10022","Y",127,"Y","Y","N","N","Not Yet Received"
2006235,"DELOITTE & TOUCHE LLP","1601 WEWATTA ST","SUITE 400","DENVER","CO","United States","80202-6479","Y",34,"Y","N","Y","Y","Yes"
2007583,"KPMG LLP","10 SOUTH BROADWAY","SUITE 900","SAINT LOUIS","MO","United States","63102-1736","Y",185,"Y","N","Y","Y","Yes"
2007438,"KEITER, STEPHENS, HURST, GARY & SHREAVES, P.C.","4401 DOMINION BOULEVARD","","GLEN ALLEN","VA","United States","23060","Y",80,"Y","N","Y","N",""
2007682,"FORVIS","2700 POST OAK BLVD","SUITE 1500","HOUSTON","TX","United States","77056","Y",686,"Y","N","Y","Y","Yes"
2007691,"EIDE BAILLY LLP","200 E. 10TH ST.","STE. 500","SIOUX FALLS","SD","United States","57117-5125","Y",286,"Y","N","N","Y","Yes"
2003833,"DELOITTE & TOUCHE LP","30 ROCKEFELLER PLAZA","","NEW YORK","NY","United States","10112","Y",34,"Y","Y","N","N","Yes"
2009571,"ASHLAND PARTNERS & CO LLP","3512 EXCEL DRIVE","SUITE 103","MEDFORD","OR","United States","97504","Y",3783,"Y","N","Y","Y","Yes"
2009437,"PLANTE & MORAN, PLLC","3000 TOWN CENTER","SUITE 100","SOUTHFIELD","MI","United States","48075","Y",166,"Y","N","Y","N",""
2009607,"COHEN AND COMPANY CPA","1350 EUCLID AVE","STE 800","CLEVELAND","OH","United States","44115-1877","Y",925,"Y","N","Y","N",""
2009641,"PLANTE & MORAN, PLLC","3000 TOWN CENTER","SUITE 100","SOUTHFIELD","MI","United States","48075","Y",166,"Y","N","Y","N",""
2000153,"DELOITTE & TOUCHE LLP","30 ROCKEFELLER PLAZA","","NEW YORK","NY","United States","10112-4399","Y",34,"Y","N","Y","N",""
2008741,"ERNST & YOUNG","HARCOURT CENTRE","HARCOURT STREET","DUBLIN","","Ireland","","Y",1411,"Y","Y","N","N","Not Yet Received"
1996100,"BDO USA, P.C.","421 FAYETTEVILLE STREET","","RALEIGH","NC","United States","27601","Y",243,"Y","Y","N","N","Yes"
1996100,"COHEN & COMPANY, LTD.","1350 EUCLID AVENUE","SUITE 800","CLEVELAND","OH","United States","44115","Y",925,"Y","N","Y","N",""
2007267,"PRICEWATERHOUSECOOPERS LLP","300 MADISON AVENUE","24TH FLOOR","NEW YORK","NY","United States","10017","Y",238,"Y","Y","N","N","Yes"
2007267,"ERNST & YOUNG","5 TIMES SQUARE","","NEW YORK","NY","United States","10036","Y",42,"Y","Y","N","N","Yes"
2005842,"ADKF","9601 MCALLISTER FWY","SUITE 800","SAN ANTONIO","TX","United States","78216","Y",297,"Y","N","Y","N",""
2005842,"HBK CPAS AND CONSULTANTS (HBK)","100 PINEWOOD LANE","SUITE 201","WARRENDALE","PA","United States","15086","Y",2206,"Y","N","Y","N",""
2007272,"PRICEWATERHOUSECOOPERS, LLP","405 HOWARD ST","SUITE 600","SAN FRANCISCO","CA","United States","94105","Y",238,"Y","Y","N","N","Yes"
2008863,"ARMANINO LLP","6 CITYPLACE DRIVE","SUITE 900","ST. LOUIS","MO","United States","63141","Y",32,"Y","N","Y","N",""
2008735,"PLANTE & MORAN, PLLC","10 SOUTH RIVERSIDE PLAZA","9TH FLOOR","CHICAGO","IL","United States","60606","Y",166,"Y","N","Y","Y","Yes"
2008754,"ERNST & YOUNG CHARTERED ACCOUNTANTS","EY BUILDING, HARCOURT CENTRE HARCOURT ST","DUBLIN 2","DUBLIN","","Ireland","21044","Y",1411,"Y","Y","N","N","Yes"
2008754,"ERNST & YOUNG LTD","62 FORUM LN, CAMANA BAY, PO BOX 510","","GRAND CAYMAN","","Cayman Islands","","Y",1655,"Y","Y","N","N","Yes"
2010513,"HOLLAND, BROMLEY, BARNHILL & BRETT LLP","530 STEPHENSON AVENUE","#200","SAVANNAH","GA","United States","31405","N",,"","N","Y","N",""
2006382,"KPMG LLP","345 PARK AVENUE","","NEW YORK","NY","United States","10154","Y",185,"Y","N","N","Y","Yes"
2006382,"KPMG LLP","BNY MELLON CENTER","500 GRANT STREET","PITTSBURGH","PA","United States","15219","Y",185,"Y","N","N","Y","Yes"
2005909,"LALLY & CO., LLC","5700 CORPORATE DRIVE, SUITE 800","","PITTSBURGH","PA","United States","15237-5851","Y",3578,"Y","Y","N","N","Yes"
2005909,"SR SNODGRASS","2100 CORPORATE DRIVE SUITE 400","","WEXFORD","PA","United States","15090","Y",74,"Y","N","Y","N",""
2009675,"COHEN & COMPANY, LTD.","1350 EUCLID AVENUE","SUITE 800","CLEVELAND","OH","United States","44115","Y",925,"Y","N","Y","N",""
2010864,"ELLIOTT DAVIS, LLC","629 MARKET STREET, SUITE 100","","CHATTANOOGA","TN","United States","37402","Y",149,"Y","N","Y","N",""
2010864,"MARGOLIN, WINER & EVENS LLP","ONE PENN PLAZA","SUITE 3000","NEW YORK","NY","United States","10119","Y",332,"Y","Y","N","N","Yes"
2010593,"PRICEWATERHOUSECOOPERS","300 MADISON AVENUE","","NEW YORK","NY","United States","10017","Y",238,"Y","Y","Y","N","Yes"
2008545,"HBK","100 PINEWOOD LN, SUITE 201","","WARRENDALE","PA","United States","15086","Y",2206,"Y","N","Y","N",""
2010931,"AGL CPA GROUP","1870 BUFORD HIGHWAY","SUITE 100","ATLANTA","GA","United States","30097","Y",3488,"Y","Y","N","N","Yes"
2010946,"ASHLAND PARTNERS & COMPANY, LLP","3512 EXCEL DR.","SUITE 103","MEDFORD","OR","United States","97504","Y",3783,"Y","N","Y","N",""
2010946,"KEITER, STEPHENS, HURST, GARY & SHREAVES, P.C.","4401 DOMINION BOULEVARD","","GLEN ALLEN","VA","United States","23060","Y",80,"Y","Y","N","N","Not Yet Received"
2008915,"ASHLAND PARTNERS & COMPANY LLP","3512 EXCEL DR., SUITE 103","","MEDFORD","OR","United States","97504","Y",3783,"Y","N","Y","N",""
2008995,"PRICEWATERHOUSECOOPERS LLP","1100 WALNUT STREET","SUITE 1300","KANSAS CITY","MO","United States","64106","Y",238,"Y","Y","N","N","Yes"
2008995,"PRICEWATERHOUSECOOPERS LLP","TWO COMMERCE SQUARE, 2001 MARKET STREET","SUITE 1800","PHILADELPHIA","PA","United States","19103","Y",238,"Y","Y","N","N","Yes"
2008995,"PRICEWATERHOUSECOOPERS, SOCIETE COOPERATIVE","2, RUE GERHARD MERCATOR","","LUXEMBOURG","","Luxembourg","L-1014","Y",1328,"Y","Y","N","N","Yes"
2008995,"PRICEWATERHOUSECOOPERS","PWC TOWER, 18 YORK STREET","SUITE 2500","TORONTO","","Canada","M5J 0B2","Y",271,"Y","Y","N","N","Yes"
2008995,"PRICEWATERHOUSECOOPERS","18 FORUM LANE","P.O.BOX 258","CAMANA BAY, GRAND CAYMAN","","Cayman Islands","KY1-1104","Y",1266,"Y","Y","N","N","Yes"
2008995,"PRICEWATERHOUSECOOPERS LLP","101 SEAPORT BOULEVARD","SUITE 500","BOSTON","MA","United States","02210","Y",238,"Y","Y","N","N","Yes"
2009672,"ERNST & YOUNG LLP","5 TIMES SQUARE","","NEW YORK","NY","United States","10036","Y",42,"Y","Y","N","N","Yes"
2009709,"ASHLAND PARTNERS & COMPANY LLP","3512 EXCEL DRIVE","SUITE 103","MEDFORD","OR","United States","97504","Y",3783,"Y","N","Y","N",""
2009101,"ADEPTUS PARTNERS LLC","244 W 54TH STREET","9TH FLOOR","NEW YORK","NY","United States","10019","Y",3686,"Y","N","Y","N",""
2006621,"AGL CPA GROUP, LLC","1870 BUFORD HIGHWAY","SUITE 100","DULUTH","GA","United States","30097","Y",3488,"Y","N","Y","N",""
2009786,"WEAVER AND TIDWELL, L.L.P.","ONE EMBARCADERO CENTER, SUITE 2410","","HOUSTON","TX","United States","94111","Y",410,"Y","Y","N","N","Not Yet Received"
2005717,"ASHLAND PARTNERS & COMPANY LLP","3515 EXCEL DRIVE","SUITE 103","MEDFORD","OR","United States","97504","Y",3783,"N","N","Y","N",""
2010903,"DEMARCO, SCIACCOTTA, WILKENS, & DUNLEAVY","20646 ABBEY WOODS CT N","SUITE 201","FRANKFORT","IL","United States","60423","Y",5376,"Y","N","Y","N",""
2007493,"KPMG LLP","1601 MARKET STREET","","PHILADELPHIA","PA","United States","19103-7240","Y",185,"Y","Y","N","N","Yes"
2008594,"ERNST & YOUNG LLP","560 MISSION STREET","SUITE 1600","SAN FRANCICSO","CA","United States","94105","Y",42,"Y","Y","N","N","Yes"
2008594,"FRANK, RIMERMAN & CO. LLP","1801 PAGE MILL RD","#100","PALO ALTO","CA","United States","94304","Y",1596,"Y","Y","N","N","Yes"
2009243,"ERNST WINTTER & ASSOCIATES LLP","675 YGNACIO VALLEY ROAD","SUITE A200","WALNUT CREEK","CA","United States","94596","Y",3438,"Y","N","Y","N",""
2010131,"HILL, BARTH & KING, LLC","4099 TAMIAMI TRAIL N","SUITE 200","NAPLES","FL","United States","34103","Y",2206,"N","N","Y","N",""
2009425,"3783ASHLAND PARTNERS & COMPANY LLP","3512 EXCEL DRIVE","STE. 103","MEDFORD","OR","United States","97504","Y",3783,"Y","N","Y","N",""
2010124,"DANNIBLE & MCKEE, LLP","FINANCIAL PLAZA","221 S. WARREN ST.","SYRACUSE","NY","United States","13202-2687","Y",528,"Y","N","Y","N",""
2010124,"MEISEL TUTEUR & LEWIS","101 EISENHOWER PKWY","","ROSELAND","NJ","United States","07068","Y",3861,"Y","Y","N","N","Yes"
2010163,"THE BONADIO GROUP","100 CORPORATE PKWY","SUITE 200","AMHERST","NY","United States","14226","Y",1884,"Y","N","Y","N",""
2009974,"DELOITTE & TOUCHE, LLP","100 SOUTH 4TH STREET","SUITE 300","ST. LOUIS","MO","United States","63102","Y",34,"Y","N","Y","Y","Yes"
2010101,"ERNST & YOUNG LLP","560 MISSION STREET","SUITE 1600","SAN FRANCISCO","CA","United States","94105","Y",42,"Y","Y","N","N","Yes"
2010240,"CITRIN COOPERMAN","30 BRAINTREE HILL OFFICE","PARK SUITE 300","BRAINTREE","MA","United States","02184","Y",2468,"Y","N","Y","N",""
2010247,"ERNST & YOUNG LLP","14O1 MCKINNEY ST.","SUITE 2400","HOUSTON","TX","United States","77010","Y",1000,"Y","N","Y","N",""
2009409,"ASHLAND PARTNERS & COMPANY LLP","3512 EXCEL DRIVE","SUITE 103","MEDFORD","OR","United States","97504","Y",3783,"Y","N","Y","N",""
2009417,"ASHLAND PARTNERS & CO LLP","3512 EXCEL DRIVE","SUITE 103","MEDFORD","OR","United States","97504","Y",3783,"Y","N","Y","Y","Yes"
2009036,"CLARK SCHAEFER HACKETT & CO","4449 EASTON WAY","#400","COLUMBUS","OH","United States","43219","Y",539,"N","N","Y","N",""
2009036,"ARY ROEPCKE MULCHAEY, P.C.","TWO MIRANOVA PLACE","SUITE 600","COLUMBUS","OH","United States","43215","Y",160,"Y","N","Y","N",""
2009440,"COHEN & COMPANY, LTD.","1835 MARKET STREET","3RD FLOOR","PHILADELPHIA","PA","United States","10112","Y",925,"Y","Y","N","N","Yes"
2009441,"WIPFLI LLP","150 S 5HT ST","UNIT 2000","MINNEAPOLIS","MN","United States","55402","Y",344,"Y","N","Y","N",""
2008220,"FORVIS","1801 CALIFORNIA ST.","","DENVER","CO","United States","80202","Y",686,"Y","Y","Y","N","Yes"
2010370,"KEITER, STEPHENS, HURST, GARY & SHREAVES, P.C.","4401 DOMINION BOULEVARD","","GLEN ALLEN","VA","United States","23060","Y",80,"Y","Y","N","N","Yes"
2010320,"MICHAEL COGLIANESE CPA, P.C.","300 N. STATE ST.","SUITE 5720","CHICAGO","IL","United States","60654","Y",3874,"Y","N","Y","N",""
2008952,"FRANK, RIMERMAN + CO. LLP","1801 PAGE MILL ROAD","","PALO ALTO","CA","United States","94304","Y",1596,"Y","Y","N","N","Yes"
2010454,"GEFFEN MESHER & COMPANY, P.C.","888 SW 5TH AVENUE, SUITE 800","","PORTLAND","OR","United States","97204","Y",3912,"Y","Y","N","N","Not Yet Received"
2010472,"ASHLAND PARTNERS & COMPANY LLP","3512 EXCEL DR.","STE 103","MEDFORD","OR","United States","97504","Y",3783,"Y","N","Y","N",""
2010418,"PRICEWATERHOUSECOOPERS LLP","1100 WALNUT STREET, STE. 1300","","KANSAS CITY","MO","United States","64106","Y",238,"Y","Y","N","N","Yes"
2010418,"PRICEWATERHOUSECOOPERS","18 FORUM LANE, CAMANA BAY","P.O. BOX 258","GRAND CAYMAN","","Cayman Islands","KY1-1104","Y",1266,"Y","Y","N","N","Yes"
2010567,"SIANA CARR O'CONNOR & LYNAM, LLP","1500 E. LANCASTER AVE","SUITE 202","PAOLI","PA","United States","19301","Y",3705,"Y","N","Y","N",""
2010480,"PLANTE & MORAN, PLLC","10 SOUTH RIVERSIDE PLAZA","9TH FLOOR","CHICAGO","IL","United States","60606","Y",166,"Y","N","Y","N",""
2007663,"KAUFMAN, ROSSIN & CO., A PROFESSIONAL ASSOCIATION","3310 MARY STREET","SUITE 501","MIAMI","FL","United States","33133","Y",137,"Y","Y","N","N","Yes"
2010548,"ASHLAND PARTNERS & COMPANY, LLP","3512 EXCEL DRIVE","SUITE 103","MEDFORD","OR","United States","97504","Y",3783,"N","N","Y","N",""
2010575,"ANDERS MINKLER HUBER & HELM LLP","800 MARKET STREET","SUITE 500 I","ST. LOUIS","MO","United States","63101","Y",2100,"Y","N","Y","N",""
2010365,"BAKER TILLY, VIRCHOW KRAUSE, LLP","205 MICHIGAN AVE","","CHICAGO","IL","United States","60601","Y",23,"Y","N","Y","N",""
2010582,"FORVIS","1801 CALIFORNIA STREET","SUITE 2900","DENVER","CO","United States","80202","Y",686,"Y","N","Y","N",""
2011800,"PRICEWATERHOUSECOOPERS LLP","101 SEAPORT BOULEVARD","","BOSTON","MA","United States","02210","Y",238,"Y","N","Y","Y","Yes"
2011801,"ERNST & YOUNG","HARCOURT CENTRE","HARCOURT STREET","DUBLIN","","Ireland","","Y",1411,"Y","Y","N","N","Not Yet Received"
2009810,"ADEPTUS PARTNERS, LLC","733 ROUTE 35 N","SUITE A","OCEAN","NJ","United States","07712","Y",3686,"Y","N","Y","N",""
2011867,"GRANT THORNTON","757 THIRD AVE","","NEW YORK","NY","United States","10017","Y",248,"Y","Y","N","N","Yes"
2011867,"KPMG","1 HARBOURMASTER PLACE","ISFSC","DUBLIN 1","","Ireland","","Y",1116,"Y","Y","N","N","Yes"
2011265,"CITRIN COOPERMAN","30 BRAINTREE HILL OFFICE","PARK SUITE 300","BRAINTREE","MA","United States","02184","Y",2468,"Y","N","Y","N",""
2011521,"DELOITTE IRELAND","EARLSFORT TERRACE","","DUBLIN","","Ireland","2","Y",1193,"Y","Y","N","N","Yes"
2011521,"DELOITTE & TOUCHE LLP","1700 MARKET STREET","","PHILADELPHIA","PA","United States","19103","Y",34,"Y","Y","Y","N","Yes"
2011521,"PRICEWATERHOUSECOOPERS AG","BIRCHSTRASSE 160","","ZURICH","","Switzerland","8050","Y",1358,"Y","Y","N","N","Yes"
2011521,"DELOITTE & TOUCHE LLP","60 NEXUS WAY, 8TH FLOOR","CAMANA BAY, PO BOX 1787","GRAND CAYMAN","","Cayman Islands","KY1-1109","Y",1096,"Y","Y","N","N","Yes"
2011521,"PRICEWATERHOUSECOOPERS, SOCIETE COOPERATIVE","2, RUE GERHARD MERCATOR","B.P. 1443","LUXEMBOURG","","Luxembourg","L-1014","Y",1328,"Y","Y","N","N","Yes"
2011521,"DELOITTE AUDIT SARL","20, BOULEVARD DE KOCKELSCHEUER","","LUXEMBOURG","","Luxembourg","L-1821","Y",1287,"Y","Y","N","N","Yes"
2011521,"PRICEWATERHOUSECOOPERS LTD.","P.O. BOX HM 1171","","HAMILTON","","Bermuda","HM EX","Y",1403,"Y","Y","N","N","Yes"
2011521,"PRICEWATERHOUSECOOPERS","18 FORUM LANE, CAMANA BAY","P.O. BOX 258","GRAND CAYMAN","","Cayman Islands","KY1-1104","Y",1266,"Y","Y","N","N","Yes"
2011604,"RSM US LLP","30 SOUTH WACKER DRIVE, SUITE 3300","","CHICAGO","IL","United States","60606","Y",49,"Y","N","Y","Y","Yes"
2011733,"ARMANINO LLP","44 MONTGOMERY ST.","SUITE 900","SAN FRANCISCO","CA","United States","94104","Y",32,"Y","N","Y","N",""
2010928,"CROWE HORWATH LLP","ONE MID AMERICA PLAZA","","OAK BROOK TERRACE","IL","United States","60181-4450","Y",173,"Y","N","Y","N",""
2011486,"MP P.C.","ONE MONARCH PLACE, SUITE 900","","SPRINGFIELD","MA","United States","01144","N",,"Y","N","Y","N",""
2009955,"HAYNIE & COMPANY","1221 WEST MINERAL AVENUE","SUITE 202","LITTLETON","CO","United States","80120","Y",457,"Y","N","Y","N",""
2010731,"BAKER TILLY US, LLP","66 HUDSON BOULEVARD E","SUITE 2200","NEW YORK","NY","United States","10001","Y",23,"Y","Y","Y","N","Not Yet Received"
2011999,"PRICEWATERHOUSECOOPERS LLP","300 MADISON AVENUE","","NEW YORK","NY","United States","10017","Y",238,"Y","Y","N","N","Yes"
2010521,"KPMG","SIX CRICKET SQUARE","","GRAND CAYMAN","","Cayman Islands","","Y",1323,"Y","Y","N","N","Yes"
2012092,"KPMG","SIX CRICKET SQUARE","","GRAND CAYMAN","","Cayman Islands","","Y",1323,"Y","Y","N","N","Yes"
2012051,"COHEN & CO LTD","1350 EUCLID AVE","SUITE 800","CLEVELAND","OH","United States","44115","Y",925,"Y","Y","N","N","Not Yet Received"
2013047,"DEMARCO SCIACCOTTA WILKENS & DUNLEAVY, LLP","20646 ABBEY WOODS CT. N.","SUITE 201","FRANKFORT","IL","United States","60423","Y",5376,"Y","N","Y","N",""
2013056,"PLANTE & MORAN, PLLC","2601 CAMBRIDGE CT.","SUITE 300","AUBURN HILLS","MI","United States","48326","Y",166,"Y","N","Y","Y","Yes"
2013178,"GRANT THORNTON","13-18 CITY QUAY","","DUBLIN","","Ireland","","Y",1402,"Y","Y","N","N","Not Yet Received"
2012964,"FORVIS","1801 CALIFORNIA STREET","SUITE 2900","DENVER","CO","United States","80202","Y",686,"Y","N","Y","N",""
2013235,"LAVINE, LOFGREN, MORRIS & ENGLEBERG LLP","4180 LA JOLLA VILLAGE DR.  SUITE 300","","LA JOLLA","CA","United States","92037","Y",3496,"Y","N","Y","N",""
2013260,"DELOITTE & TOUCHE LLP","1001 WOODWARD AVENUE","SUITE 700","DETROIT","MI","United States","48226","Y",34,"Y","N","Y","N",""
2007905,"CROWE LLP","485 LEXINGTON AVE","FLOOR 11","NEW YORK","NY","United States","10017","Y",173,"Y","N","Y","Y","Yes"
2013285,"ACCELL CPA & ASSOCIATES, PA","8270 WOODLAND CENTER BOULEVARD","# 3425","TAMPA","FL","United States","33614","Y",7204,"Y","N","Y","N",""
2013326,"PRICEWATERHOUSECOOPERS LLP","300 MADISON AVENUE","","NEW YORK","NY","United States","10017","Y",238,"Y","N","Y","Y","Yes"
2012520,"KPMG LLP","AON CENTER","SUITE 5500, 200 E. RANDOLPH STREET","CHICAGO","IL","United States","60601","Y",185,"Y","Y","N","N","Yes"
2012520,"ERNST & YOUNG CHARTERED ACCOUNTANTS","HARCOURT CENTRE","HARCOURT STREET","DUBLIN","","Ireland","DUBLIN D2","Y",1411,"Y","Y","N","N","Yes"
2012520,"ERNST & YOUNG LLP","ONE MANHATTAN WEST","","NEW YORK","NY","United States","10001","Y",42,"Y","Y","N","N","Yes"
2012779,"DELOITTE & TOUCHE, LLP","111 SOUTH WACKER DRIVE","","CHICAGO","IL","United States","60606","Y",34,"Y","Y","N","N","Yes"
2012779,"KPMG LLP","AON CENTER","200 E. RANDOLPH STREET, SUITE 5500","CHICAGO","IL","United States","60601","Y",185,"Y","Y","N","N","Yes"
2012779,"FORVIS MAZARS, LLP","135 W 50TH STREET","","NEW YORK","NY","United States","10020","Y",686,"Y","Y","N","N","Yes"
2012779,"COHEN & COMPANY","1350 EUCLID AVE","SUITE 800","CLEVELAND","OH","United States","44115","Y",925,"Y","Y","N","Y","Yes"
2012779,"ERNST & YOUNG","5 TIMES SQUARE","","NEW YORK","NY","United States","10036","Y",42,"Y","Y","N","N","Yes"
2012779,"KPMG","345 PARK AVENUE","","NEW YORK","NY","United States","10154","Y",185,"Y","Y","N","N","Yes"
2012779,"FORVIS MAZARS, LLP","135 W 50TH STREET","","NEW YORK","NY","United States","10020","Y",686,"Y","N","Y","N",""
2012779,"SCHNEIDER DOWNS & CO., INC.","ONE PPG PLACE, SUITE 1700","","PITTSBURGH","PA","United States","15222","Y",358,"Y","Y","N","N","Yes"
2012779,"ERNST & YOUNG LLP","200 CLARENDON ST","","BOSTON","MA","United States","02116","Y",42,"Y","Y","N","N","Yes"
2013166,"KPMG LLP","201 MAIN STREET","SUITE 2200","FORT WORTH","TX","United States","76102-4125","Y",185,"Y","Y","N","N","Yes"
2013166,"KPMG","SIX CRICKET SQUARE","","GEORGE TOWN","","Cayman Islands","KY1-1106","Y",1323,"Y","Y","N","N","Yes"
2013166,"KPMG CHARTERED ACCOUNTANTS","1 HARBOURMASTER PLACE","IFSC","DUBLIN","","Ireland","","Y",1116,"Y","Y","N","N","Yes"
2013166,"BDO USA, P.C.","301 COMMERCE STREET","SUITE 2000","FORT WORTH","TX","United States","76102","Y",243,"Y","Y","N","N","Yes"
2003819,"FREED MAXICK CPA'S, PC","100 MERIDIAN CENTRE","SUITE 310","ROCHESTER","NY","United States","14618","Y",317,"Y","N","N","Y","Yes"
2011956,"EISNERAMPER LLP","733 THIRD AVENUE","","NEW YORK","NY","United States","10017","Y",274,"Y","N","N","N",""
2010646,"KPMG","SIX CRICKET SQUARE","PO BOX 493","GRAND CAYMAN","","Cayman Islands","KY1-1106","Y",1323,"Y","Y","N","N","Yes"
2012383,"BLUE & CO., LLC","12800 N. MERIDIAN STREET","SUITE 400","CARMEL","IN","United States","46032","Y",1117,"Y","Y","N","N","Yes"
2012383,"COHEN & COMPANY, LTD.","1350 EUCLID AVE","SUITE 800","CLEVELAND","OH","United States","44115","Y",925,"Y","Y","N","N","Yes"
2012383,"PLANTE & MORAN, PLLC","10 SOUTH RIVERSIDE PLAZA","9TH FLOOR","CHICAGO","IL","United States","60606","Y",166,"Y","N","Y","N",""
2012383,"BAKER TILLY US, LLP","205 N MICHIGAN AVE","STE 2800","CHICAGO","IL","United States","60601","Y",23,"Y","Y","N","N","Yes"
2009538,"KPMG LUXEMBOURG, SOCIETE COOPERATIVE","39 AVENUE JOHN F. KENNEDY","","LUXEMBOURG","","Luxembourg","1855","Y",2831,"Y","Y","N","N","Yes"
2013474,"M GROUP, L.L.P.","515 W SOUTHLAKE BLVD","","SOUTHLAKE","TX","United States","76092","N",,"","Y","N","N","Yes"
2009538,"DELOITTE AUDIT S.A R.L.","LUXEMBOURG","","LUXEMBOURG","","Luxembourg","2220","Y",1287,"Y","Y","N","N","Yes"
2009538,"KPMG IRELAND","1 STOKES PLACE, ST.STEPHENS GREEN","","DUBLIN","","Ireland","","Y",1116,"Y","Y","N","N","Yes"
2009538,"PRICEWATERHOUSECOOPERS, SOCIETE COOPERATIVE","2 RUE GERHARD MERCATOR","","LUXEMBOURG","","Luxembourg","2182","Y",1328,"Y","Y","N","N","Yes"
2013419,"MAYER HOFFMAN MCCANN P.C.","1000 CAMPBELL MITHUN TOWER","222 S NINTH ST","MINNEAPOLIS","MN","United States","55402","Y",199,"Y","N","Y","N",""
2013441,"GRANT THORNTON LLP","1100 PEACHTREE ST. NE","SUITE 1200","ATLANTA","GA","United States","30309","Y",248,"Y","N","Y","N",""
2013457,"THE COLEMAN COMPANY, PLLC","8 EAST HURON STREET","#2201","CHICAGO","IL","United States","60611","Y",5153,"Y","N","Y","N",""
2000090,"EDELSTEIN & COMPANY LLP","160 FEDERAL STREET","9TH FLOOR","BOSTON","MA","United States","02110","Y",3376,"Y","N","Y","N",""
2008265,"ARMANINO LLP","6 CITY PLACE","SUITE 900","ST. LOUIS","MO","United States","63141","Y",32,"Y","N","Y","N",""
2011816,"ERNST & YOUNG LLP","725 S FIGUEROA 500","","LOS ANGELES","CA","United States","90017-5945","Y",42,"Y","Y","N","N","Yes"
2012712,"FISCHER CUNNANE & ASSOCIATES LTD","11 TURNER LANE","","WEST CHESTER","PA","United States","19380","Y",1940,"Y","N","Y","N",""
2012759,"ERNST & YOUNG LLP","HARCOURT STREET","","DUBLIN 2","","Ireland","","Y",42,"Y","Y","N","N","Yes"
2012759,"KPMG CHANNEL ISLANDS LIMITED","GLATEGNY COURT","GLATENGNY ESPLANADE","ST. PETER PORT","","Guernsey","GY1 1WR","N",,"","Y","N","N","Yes"
2012759,"KPMG LLP","345 PARK AVENUE","","NEW YORK","NY","United States","10154","Y",185,"Y","Y","N","N","Yes"
1993297,"EISNERAMPER LLP","733 THIRD AVENUE","","NEW YORK","NY","United States","10017","Y",274,"Y","Y","N","N","Yes"
2011478,"MAYER HOFFMAN MCCANN P.C.","11440 TOMAHAWK CREEK PARKWAY","","LEAWOOD","KS","United States","66211","Y",199,"Y","N","Y","N",""
2006827,"KPMG AUDITORES INDEPENDENTES LTDA","RUA VERBO DIVINO 1400","8 ANDAR","SAO PAULO","","Brazil","04719911","Y",1124,"Y","Y","N","N","Yes"
2006827,"PRICEWATERHOUSECOOPERS LLP","21 PLATFORM WAY SOUTH","SUITE 1900","NASHVILLE","TN","United States","37203","Y",238,"Y","N","N","Y","Not Yet Received"
2011568,"GRANT THORNTON","757 THIRD AVE","","NEW YORK","NY","United States","10017","Y",248,"Y","Y","N","N","Yes"
2011568,"KPMG","1 HARBOURMASTER PLACE","ISFSC","DUBLIN 1","","Ireland","","Y",1116,"Y","Y","N","N","Yes"
2011611,"CLARK SCHAEFER HACKETT & CO","ONE EAST FOURTH ST, SUITE 1200","","CINCINNATI","OH","United States","45202","Y",539,"Y","N","Y","N",""
2007468,"BAKER TILLY US, LLP","2500 DALLAS PARKWAY, SUITE 300","","PLANO","TX","United States","75093","Y",23,"Y","N","Y","N",""
2007468,"SPICER JEFFRIES LLP","5251 S. QUEBEC ST., SUITE 200","","GREENWOOD VILLAGE","CO","United States","80111","Y",349,"Y","Y","N","N","Yes"
2007468,"FRANK, RIMERMAN + CO, LLP","60 SOUTH MARKET STREET","SUITE 500","SAN JOSE","CA","United States","95113","Y",1596,"Y","Y","N","N","Yes"
2011673,"ERNST & YOUNG, LLP","55 IVAN ALLEN JR BLVD NW","#1000","ATLANTA","GA","United States","30308","Y",42,"Y","Y","N","N","Yes"
2011673,"FRAZIER DEETER","1230 PEACHTREE STREET","SUITE 1500","ATLANTA","GA","United States","30039","Y",215,"Y","Y","N","N","Yes"
2011673,"WIPFLI CPA & CONSULTANTS","235 PEACHTREE ST. NE","SUITE 1800","ATLANTA","GA","United States","30303","Y",344,"Y","N","Y","Y","Yes"
2011673,"DELOITTE & TOUCHE, LLP","30 ROCKEFELLER PLAZA","","NEW YORK","NY","United States","10112","Y",34,"Y","Y","N","N","Yes"
2011673,"RSM US LLP","216 SUMMIT BLVD","#300","BIRMINGHAM","AL","United States","35243","Y",49,"Y","Y","N","N","Yes"
2011304,"ERNST & YOUNG, L.L.P.","701 POYDRAS STREET","SUITE 3900","NEW ORLEANS","LA","United States","70139","Y",42,"Y","Y","N","N","Yes"
2011304,"NOVOGRADAC & COMPANY, LLP","505 N. 7TH STREET","SUITE 1960","ST. LOUIS","MO","United States","63101","Y",474,"Y","Y","N","N","Yes"
2010450,"KPMG LLP","201 MAIN STREET","900","FT WORTH","TX","United States","76102","Y",185,"Y","Y","Y","N","Yes"
2012058,"PRICEWATERHOUSECOOPERS LLP","2001 MARKET STREET","SUITE 1800","PHILADELPHIA","PA","United States","19103-7042","Y",238,"Y","N","Y","Y","Yes"
2011833,"RSM US LLP","151 WEST 42ND STREET, FLOORS 18-20","","NEW YORK","NY","United States","10036","Y",49,"Y","Y","N","N","Yes"
2002350,"ASHLAND PARTNERS & COMPANY, LLP","3512 EXCEL DR","SUITE 103","MEDFORD","OR","United States","97504","Y",3783,"Y","N","Y","N",""
2002350,"EISNERAMPER LLC","ONE LOGAN SQUARE","130 NORTH 18TH STREET, SUITE 3000","PHILADELPHIA","PA","United States","19103","Y",274,"Y","Y","N","N","Yes"
2008494,"MARCUM LLP","730 THIRD AVE","730","NEW YORK","NY","United States","10017","Y",688,"Y","N","Y","N",""
2008494,"ASHLAND PARTNERS & COMPANY, LLP","3512 EXCEL DRIVE","SUITE 103","MEDFORD","OR","United States","97504","Y",3783,"Y","N","Y","N",""
2008507,"COHEN & COMPANY","201 INTERNATIONAL CIRCLE","SUITE 400","HUNT VALLEY","MD","United States","21030","Y",93,"Y","Y","N","N","Yes"
2006524,"PLANTE & MORAN, PLLC","634 FRONT AVENUE N.W.","SUITE 300","GRAND RAPIDS","MI","United States","49504","Y",166,"Y","N","Y","N",""
2008398,"BDO USA, P.C.","2600 W. BIG BEAVER ROAD","SUITE 600","TROY","MI","United States","48084","Y",243,"Y","Y","N","N","Yes"
2008576,"TAMA, BUDAJ & RAAB CPAS","32783 MIDDLEBELT ROAD","","FARMINGTON HILLS","MI","United States","48334-1726","N",,"","N","Y","N",""
2008618,"EIDE BAILY LLP","US BANCORP CENTER, 800 NICOLLET MALL","SUITE 1300","MINNEAPOLIS","MN","United States","55402","Y",286,"Y","N","Y","Y","Yes"
2002365,"WITHUM SMITH+BROWN, PC","506 CARNEIGE CENTER","SUITE 400","PRINCETON","NJ","United States","08540","Y",100,"Y","Y","N","N","Not Yet Received"
2010082,"KPMG LLP","1601 MARKET STREET","","PHILADELPHIA","PA","United States","19103-7240","Y",185,"Y","Y","N","N","Yes"
2011215,"WATKINS UIBERALL PLLC","1661 AARON BRENNER DR","","MEMPHIS","TN","United States","38120","Y",1738,"Y","Y","N","N","Yes"
2011215,"PLANTE MORAN","634 FRONT AVENUE","","GRAND RAPIDS","MI","United States","49504","Y",166,"Y","N","Y","N",""
2008174,"CAVANAUGH NELSON PLC","999 WATERSIDE DRIVE","SUITE 2250","NORFOLK","VA","United States","23510","N",,"","N","Y","N",""
2007646,"COHNREZNICK LLP","4 BECKER FARM ROAD","P.O. BOX 954","ROSELAND","NJ","United States","07068","Y",596,"Y","Y","Y","N","Yes"
2009454,"MITCHELL & TITUS LLP","2000 MARKET STREET, SUITE 620","","PHILADELPHIA","PA","United States","19103","Y",523,"Y","N","Y","Y","Yes"
2009505,"MITCHELL & TITUS LLP","2000 MARKET STREET, SUITE 620","","PHILADELPHIA","PA","United States","19103","Y",523,"Y","N","Y","N",""
2009401,"KPMG","1601 MARKET STREET","","PHILADELPHIA","PA","United States","19103","Y",185,"Y","Y","Y","Y","Yes"
2009401,"DELOITTE & TOUCHE, LLP","1700 MARKET STREET","","PHILADELPHIA","PA","United States","19103","Y",34,"Y","Y","N","N","Not Yet Received"
2007809,"ASHLAND PARTNERS & COMPANY LLP","3512 EXCEL DRIVE","SUITE 103","MEDFORD","OR","United States","97504","Y",3783,"N","N","Y","N",""
2007646,"KPMG LLP","55 SECOND ST","SUITE 1400","SAN FRANCISCO","CA","United States","94105","Y",21,"Y","Y","N","N","Yes"
1989930,"MESCH MCBRIDE, PLLC","3100 WEST 7TH STREET","SUITE 330","FORT WORTH","TX","United States","76107","Y",6192,"Y","Y","N","N","Yes"
1989930,"PRICEWATERHOUSECOOPERS LLP","2001 ROSS AVENUE","SUITE 1800","DALLAS","TX","United States","75201","Y",238,"Y","Y","N","N","Yes"
2007662,"COHNREZNICK LLP","1301 6TH AVENUE","","NEW YORK","NY","United States","10019","Y",596,"Y","Y","N","N","Yes"
2010008,"BAKER TILLY US, LLP","205 N MICHIGAN AVENUE","28TH FLOOR","CHICAGO","IL","United States","60601-5927","Y",23,"Y","N","Y","N",""
2006472,"ERNST & YOUNG, LLP","155 N WACKER DR","","CHICAGO","IL","United States","60606","Y",42,"Y","Y","N","N","Yes"
2006472,"ERNST & YOUNG, LTD","62 FORUM LANE, CAMANA BAY","P.O. BOX 510","GRAND CAYMAN","","Cayman Islands","KY11106","Y",1655,"Y","Y","N","N","Yes"
2006472,"DELOITTE & TOUCHE LLP","30 ROCKEFELLER PLAZA","","NEW YORK","NY","United States","10112","Y",34,"Y","Y","N","N","Yes"
2009220,"COHNREZNICK LLP","7501 WISCONSIN AVENUE","SUITE 400E","BETHESDA","MD","United States","20814-6583","Y",596,"Y","Y","N","N","Yes"
2009110,"COULTER & JUSTUS, P.C.","9717 COGDILL ROAD","SUITE 201","KNOXVILLE","TN","United States","37932","Y",430,"Y","N","Y","N",""
2007695,"DELOITTE & TOUCHE LLP","695 TOWN CENTER DR.","SUITE 1000","COSTA MESA","CA","United States","92626","Y",34,"Y","Y","Y","N","Yes"
2010211,"ASHLAND PARTNERS & COMPANY LLP","3512 EXCEL DRIVE","SUITE 103","MEDFORD","OR","United States","97504","Y",3783,"N","N","Y","N",""
2010053,"ASHLAND PARTNERS & COMPANY LLP","3512 EXCEL DR","SUITE 103","MEDFORD","OR","United States","97504","Y",3783,"N","N","Y","N",""
2010083,"PRICEWATERHOUSECOOPERS LLP","ONE NORTH WACKER","","CHICAGO","IL","United States","60606","Y",238,"Y","Y","Y","N","Yes"
2010162,"CLARK SCHAEFER HACKETT /  MR. ZACH DOTZAUER, CPA","ONE EAST 4TH STREET","SUITE 1200","CINCINNATI","OH","United States","45202-3708","Y",539,"Y","N","Y","N",""
2011655,"DELOITTE & TOUCHE","695 TOWN CENTER DRIVE","SUITE 1200","COSTA MESA","CA","United States","92626-7188","Y",34,"Y","Y","N","N","Yes"
2011918,"DELOITTE & TOUCHE LLP","650 S. TRYON STREET","SUITE 1800","CHARLOTTE","NC","United States","28202-4200","Y",34,"Y","Y","N","N","Yes"
1982581,"PLANTE & MORAN, PLLC","3000 TOWN CENTER","SUITE 100","SOUTHFIELD","MI","United States","48075","Y",166,"Y","Y","N","N","Yes"
1982581,"COHEN & CO","1350 EUCLID","SUITE 800","CLEVELAND","OH","United States","44115","Y",925,"Y","Y","Y","N","Yes"
1982581,"SCHELLMAN & COMPANY, LLC","4010 W. BOY SCOUT BLVD","SUITE 600","TAMPA","FL","United States","33607","Y",2284,"Y","N","N","Y","Yes"
2010353,"PRICEWATERHOUSECOOPERS LLP","300 MADISON AVENUE, 32ND FLOOR","","NEW YORK","NY","United States","10017","Y",238,"Y","Y","Y","N","Yes"
2012352,"BAKER TILLY US, LLP","205 N MICHIGAN AVENUE","28 FLOOR","CHICAGO","IL","United States","60601-5927","Y",23,"Y","Y","N","N","Yes"
2001874,"ERNST & YOUNG LLP","200 CLARENDON ST.","","BOSTON","MA","United States","02116","Y",42,"Y","Y","N","N","No"
2007652,"PLANTE & MORAN, PLLC","10 SOUTH RIVERSIDE PLAZA","9TH FLOOR","CHICAGO","IL","United States","60606","Y",166,"Y","N","Y","N",""
2003058,"WITHUMSMITH+BROWN, PC","506 CARNEGIE CENTER, SUITE 400","","PRINCETON","NJ","United States","08540","Y",100,"Y","N","Y","Y","Yes"
2007061,"ERNST & YOUNG LTD (CAYMAN)","62 FORUM LANE, SUITE 6401","CAMANA BAY","GRAND CAYMAN","","Cayman Islands","KY1-1106","Y",1655,"Y","Y","N","N","Yes"
2007902,"WEAVER AND TIDWELL, LLP","2821 WEST 7TH STREET","SUITE 700","FORT WORTH","TX","United States","76107","N",,"","N","Y","N",""
2007385,"SPICER JEFFRIES","455 NORTH CITYFRONT PLAZA DR.","","CHICAGO","IL","United States","60611","Y",349,"Y","Y","N","N","Yes"
2011804,"R&A CPA'S","4542 E. CAMP LOWELL DR.  STE 100","","TUCSON","AZ","United States","85712","Y",3707,"Y","N","Y","N",""
2012181,"SPICER JEFFRIES LLP","4601 DTC BLVD","STE 700","DENVER","CO","United States","80237","Y",349,"Y","Y","N","N","Not Yet Received"
2012186,"ERNST & YOUNG LLP","55 IVAN ALLEN JR BLVD","SUITE 1000","ALTANTA","GA","United States","30308","Y",42,"Y","N","N","Y","Yes"
2001973,"MELTON & MELTON, L.L.P.","6002 ROGERDALE, STE. 200","","HOUSTON","TX","United States","77072","Y",777,"Y","Y","N","Y","Yes"
2012210,"CROWE LLP","1395 BRICKELL AVENUE","SUITE 1150","MIAMI","FL","United States","33131","Y",173,"Y","N","Y","Y","Not Yet Received"
2006993,"PRICEWATERHOUSECOOPERS LLP","111 HIGH STREET","","BOSTON","MA","United States","02110","Y",238,"Y","Y","N","N","Yes"
2006993,"EDELSTEIN & COMPANY","160 FEDERAL STREET","9TH FLOOR","BOSTON","MA","United States","02110","Y",3376,"Y","N","Y","N",""
2006993,"PRICEWATERHOUSECOOPERS","ONE SPENCER DOCK","NORTH WALL QUAY","DUBLIN","","Ireland","","Y",1366,"Y","Y","N","N","Yes"
2006993,"PRICEWATERHOUSECOOPERS, SOCIETE COOPERATIVE","2 RUE GERHARD MERCATOR","","LUXEMBOURG","","Luxembourg","L-2182","Y",1328,"Y","Y","N","N","Yes"
2006993,"PRICEWATERHOUSECOOPERS","ONE INTERNATIONAL TOWERS SYDNEY","WATERMANS QUAY","SYDNEY","","Australia","","Y",1379,"Y","Y","N","N","Yes"
2006993,"PRICEWATERHOUSECOOPERS CI LLP","37 ESPLANADE","","ST HELIER","","Jersey","","Y",1412,"Y","Y","N","N","Yes"
2012272,"ROLLERI & SHEPPARD CPAS, LLP","2150 POST ROAD","5TH FLOOR","FAIRFIELD","CT","United States","06824","Y",3437,"Y","N","Y","N",""
2012011,"ERNST & YOUNG S.A.","35E AVENUE JOHN F. KENNEDY","","LUXEMBOURG","","Luxembourg","L-1855","Y",1367,"Y","Y","N","Y","Yes"
2012011,"GRANT THORNTON","757 THIRD AVENUE","","NEW YORK","NY","United States","10017","Y",248,"Y","Y","Y","N","Yes"
2012011,"PRICEWATERHOUSE COOPERS","300 MADISON AVENUE","","NEW YORK","NY","United States","10017","Y",238,"Y","Y","N","N","Yes"
2012011,"ERNST & YOUNG LLP","ONE MANHATTAN WEST","","NEW YORK","NY","United States","10001","Y",42,"Y","Y","N","N","Yes"
2012011,"ERNST & YOUNG LIMITED","62 FORUM LANE","","CAMANA BAY","","Cayman Islands","","Y",1655,"Y","Y","N","N","Yes"
2007985,"ASHLAND PARTNERS & COMPANY LLP","3512 EXCEL DRIVE","SUITE 103","MEDFORD","OR","United States","97504","Y",3783,"N","N","Y","N",""
2007391,"SPICER JEFFERIES LLP","4601 DTC BLVD","SUITE 700","DENVER","CO","United States","80237","Y",349,"Y","Y","Y","N","Yes"
2007946,"EISNERAMPER, LLP","ONE LOGAN SQUARE","","PHILADELPHIA","PA","United States","19103","Y",274,"Y","Y","N","Y","Yes"
2008088,"MARCUM LLP","105 EISENHOWER PARKWAY","SUITE 301","ROSELAND","NJ","United States","07068","Y",688,"Y","Y","Y","N","Yes"
2008088,"PRICEWATERHOUSECOOPERS, LLP","300 MADISON AVENUE","","NEW YORK","NY","United States","10017","Y",238,"Y","Y","N","N","Yes"
2008088,"PRICEWATERHOUSECOOPERS, LLP (CLARION PARTNERS MULTI STRATEGY REAL ESTATE OFFSHORE FUND LP)","18 FORUM LANE","P.O. BOX 258","CAMANA BAY, GRAND CAYMAN","","Cayman Islands","KY1-1104","Y",1266,"Y","Y","N","N","Yes"
2008088,"PRICEWATERHOUSECOOPERS, LLP (CIV PORTFOLIO, LP ONLY)","2121 NORTH PEARL STREET, SUITE 2000","","DALLAS","TX","United States","75201","Y",238,"Y","Y","N","N","Yes"
2008088,"PRICEWATERHOUSECOOPERS, SOCIETE COOPERATIVE","2 RUE GERHARD MERCATOR","","LUXEMBOURG","","Luxembourg","L-2182","Y",1328,"Y","Y","N","N","Yes"
2008088,"RICHEY MAY & CO","9780 S MERIDIAN BLVD.","SUITE 500","ENGLEWOOD","CO","United States","80112","Y",673,"Y","Y","N","N","Yes"
2007762,"CITRIN & COOPERMAN","529 5TH AVENUE","","NEW YORK","NY","United States","10017","Y",2468,"Y","Y","N","N","Yes"
2007762,"GRASSI & COMPANY CPAS","488 MADISON AVENUE","21ST FLOOR","NEW YORK","NY","United States","10022","Y",606,"Y","N","Y","N",""
2008103,"ARMANINO LLP","6 CITY PLACE DRIVE","SUITE 900","ST. LOUIS","MO","United States","63141","Y",643,"Y","N","Y","N",""
2003075,"MARCUM LLP","730 THIRD AVE","730","NEW YORK","NY","United States","10017","Y",688,"Y","N","Y","N",""
2003075,"ASHLAND PARTNERS & COMPANY, LLP","3512 EXCEL DRIVE","SUITE 103","MEDFORD","OR","United States","97504","Y",3783,"Y","N","Y","N",""
2007374,"KPMG LLP","ONE FINANCIAL PLAZA","755 MAIN STREET","HARTFORD","CT","United States","06103","Y",185,"Y","N","Y","N",""
2008258,"BONADIO & CO., LLP","432 NORTH FRANKLIN STREET  #60","","SYRACUSE","NY","United States","13204","Y",1884,"Y","N","Y","N",""
2006154,"BDO USA, LLP","330 NORTH WABASH AVENUE","SUITE 3200","CHICAGO","IL","United States","60611","Y",243,"Y","Y","N","N","Yes"
2008363,"KPMG LLP","1601 MARKET STREET","","PHILADELPHIA","PA","United States","19103-7240","Y",185,"Y","Y","N","N","Yes"
2008363,"KPMG LLP","SIX CRICKET SQUARE","","GRAND CAYMAN","","Cayman Islands","KY1-1106","Y",1323,"Y","Y","N","N","Yes"
2008363,"KPMG LLP","345 PARK AVENUE","","NEW YORK","NY","United States","10154","Y",1323,"Y","Y","N","N","Yes"
2008376,"MOSS ADAMS LLP","999 3RD AVENUE #2800","","SEATTLE","WA","United States","98104","Y",659,"Y","N","Y","N",""
2008376,"REKDAL HOPKINS HOWARD, PS","2275 116TH AVE NE","STE 100","BELLEVUE","WA","United States","98004","Y",5996,"Y","Y","N","N","Not Yet Received"
2008332,"PRICEWATERHOUSECOOPERS","300 MADISON AVENUE","","NEW YORK","NY","United States","10017","Y",238,"Y","Y","N","N","Yes"
2009839,"DELOITTE & TOUCHE, LLP","111 SOUTH WACKER DRIVE","","CHICAGO","IL","United States","60606","Y",34,"Y","Y","N","N","Yes"
2009839,"KPMG LLP","AON CENTER","200 E. RANDOLPH STREET, SUITE 5500","CHICAGO","IL","United States","60601","Y",185,"Y","Y","N","N","Yes"
2009839,"FORVIS MAZARS, LLP","135 W 50TH STREET","","NEW YORK","NY","United States","10020","Y",686,"Y","Y","N","N","Yes"
2009839,"COHEN & COMPANY","1350 EUCLID AVE","SUITE 800","CLEVELAND","OH","United States","44115","Y",925,"Y","Y","N","Y","Yes"
2009839,"ERNST & YOUNG","5 TIMES SQUARE","","NEW YORK","NY","United States","10036","Y",42,"Y","Y","N","N","Yes"
2009839,"KPMG","345 PARK AVENUE","","NEW YORK","NY","United States","10154","Y",185,"Y","Y","N","N","Yes"
2009839,"FORVIS MAZARS, LLP","135 W 50TH STREET","","NEW YORK","NY","United States","10020","Y",686,"Y","N","Y","N",""
2009839,"SCHNEIDER DOWNS & CO., INC.","ONE PPG PLACE, SUITE 1700","","PITTSBURGH","PA","United States","15222","Y",358,"Y","Y","N","N","Yes"
2009839,"ERNST & YOUNG LLP","200 CLARENDON ST","","BOSTON","MA","United States","02116","Y",42,"Y","Y","N","N","Yes"
2010232,"DELOITTE & TOUCHE LLP","1700 MARKET STREET","","PHILADELPHIA","PA","United States","19103","Y",34,"Y","N","N","Y","No"
2010241,"ERNST & YOUNG LLP","14O1 MCKINNEY ST.","SUITE 2400","HOUSTON","TX","United States","77010","Y",1000,"Y","N","Y","N",""
2006371,"KATZ, SAPPER & MILLER LLP","800 E 96TH STREET","STE 500","INDIANAPOLIS","IN","United States","46240","Y",2804,"Y","N","Y","N",""
2007949,"ERNST & YOUNG LLP","200 CLARENDON STREET","","BOSTON","MA","United States","02116","Y",42,"Y","Y","N","N","Yes"
2007949,"ERNST & YOUNG LTD.","62 FORUM LANE, CAYMAN BAY","","GRAND CAYMAN","","Cayman Islands","","Y",1655,"Y","Y","N","N","Yes"
2007949,"DELOITTE AUDIT SOCIETE A RESPONSABILITE LIMITEE","20 BOULEVARD DE KOCKELSCHEUER","L-1821","LUXEMBOURG","","Luxembourg","","Y",1287,"Y","Y","N","N","Yes"
2008448,"WARREN AVERETT","2500 ACTON ROAD","","BIRMINGHAM","AL","United States","35243","Y",2226,"Y","N","Y","Y","Yes"
1992080,"RSM US","4 TIMES SQUARE","151 W 42ND ST, 19TH  FL","NEW YORK","NY","United States","10036","Y",49,"Y","Y","N","N","Yes"
2008546,"BERKOW, SCHECHTER & COMPANY LLP","350 BEDFORD STREET","","STAMFORD","CT","United States","06901","Y",4040,"Y","N","Y","N",""
2005850,"COHN RESNICK","1212 AVENUE OF THE AMERICAS","","NEW YORK","NY","United States","10036","Y",596,"Y","Y","N","N","Yes"
2004531,"DELOITTE & TOUCHE LLP","30 ROCKEFELLER PLAZA","","NEW YORK","NY","United States","10112","Y",34,"Y","Y","N","N","Yes"
2004882,"ERNST & YOUNG LLP","725 SOUTH FIGUEROA ST.","#200","LOS ANGELES","CA","United States","90017","Y",42,"Y","Y","N","N","Yes"
2010000,"RSM US LLP","555 17TH STREET, SUITE 1000","","DENVER","CO","United States","80202","Y",49,"Y","Y","Y","N","Yes"
2004810,"KPMG LLP","201 MAIN STREET","SUITE 2200","FORT WORTH","TX","United States","76102","Y",185,"Y","Y","Y","N","Yes"
2010695,"PLANTE & MORAN PLLC","27400 NORTHWESTERN HWY","","SOUTHFIELD","MI","United States","48034","Y",166,"Y","N","Y","N",""
2008632,"FORVIS","2700 POST OAK BLVD","SUITE 1500","HOUSTON","TX","United States","77056","Y",686,"Y","N","Y","Y","Yes"
2006746,"HILL, BARTH & KING, LLC","4099 TAMIAMI TRAIL N","SUITE 200","NAPLES","FL","United States","34103","Y",2206,"N","N","Y","N",""
2008694,"ASHLAND PARTNERS","3512 EXCEL DRIVE","SUITE 103","MEDFORD","OR","United States","97504","Y",3783,"Y","N","Y","N",""
2009117,"WEAVER & TIDWELL","2300 NORTH FIELD STREET","","DALLAS","TX","United States","75201","Y",410,"Y","Y","N","N","Yes"
2007175,"ERNST & YOUNG LTD.","62 FORUM LANE, SUITE 6401","CAMANA BAY, PO BOX 510","GRAND CAYMAN","","Cayman Islands","KY1-1106","Y",1655,"Y","Y","N","N","Yes"
2007453,"ERNST & YOUNG LTD.","35E. AVENUE JOHN F. KENNEDY","L-2017 LUXEMBOURG","BP 780","","Luxembourg","L-1855","Y",1367,"Y","N","N","Y","Yes"
2012234,"CROWE LP","488 MADISON AVE., SUITE 1200","","NEW YORK","NY","United States","10022","Y",173,"Y","N","Y","N",""
2012234,"MEADOWS URQUHART ACREE & COOK LLP","1802 BAYBERRY COURT","SUITE 102","RICHMOND","VA","United States","23226","Y",3688,"Y","Y","N","N","Not Yet Received"
2008810,"ASHLAND PARTNERS & COMPANY LLP","3512 EXCEL DR., SUITE 103","","MEDFORD","OR","United States","97504","Y",3783,"Y","N","Y","N",""
2008721,"ERNST & YOUNG LTD (CAYMAN)","62 FORUM LANE, SUITE 6401","CAMANA BAY","GRAND CAYMAN","","Cayman Islands","KY1-1106","Y",1655,"Y","Y","N","N","Yes"
2009016,"MEISEL, TUTEUR & LEWIS, P.C.","101 EISENHOWER PKWY","","ROSELAND","NJ","United States","07068","Y",3861,"Y","N","Y","N",""
2006962,"HARPER & PEARSON COMPANY, P.C.","ONE RIVERWAY DRIVE","SUITE 1900","HOUSTON","TX","United States","77056","Y",431,"Y","Y","N","N","Yes"
2007453,"PRICEWATERHOUSECOOPERS AARATA LLC","OTEMACHI PARK BUILDING","1-1-1 OTEMACHI","CHIYODA, TOKYO","","Japan","100-0004","Y",2743,"Y","N","N","Y","Yes"
2007471,"FGMK, LLC","2801 LAKESIDE DRIVE","3RD FLOOR","BANNOCKBURN","IL","United States","60015","Y",3968,"Y","N","Y","N",""
2006843,"ASHLAND PARTNERS & COMPANY LLP","3512 EXCEL DRIVE","SUITE 103","MEDFORD","OR","United States","97504","Y",3783,"N","N","Y","N",""
2007480,"CITRIN COOPERMAN & COMPANY, LLP","50 ROCKEFELLER PLAZA","","NEW YORK","NY","United States","10020","Y",2468,"Y","N","Y","N",""
1989716,"DEMARCO SCIACCOTTA WILKENS & DUNLEAVY LLP","20646 ABBEY WOODS CT N","SUITE 201","FRANKFORT","IL","United States","60423","Y",5376,"Y","N","Y","Y","Yes"
2007674,"KPMG","1676 INTERNATIONAL DRIVE","","MCLEAN","VA","United States","22102","Y",185,"Y","Y","N","N","Yes"
1998586,"ASHLAND PARTNERS & CO LLP","3512 EXCEL DRIVE","SUITE 103","MEDFORD","OR","United States","97504","Y",3783,"Y","N","Y","Y","Yes"
2006999,"ERNST & YOUNG LLP","5 TIMES SQUARE","","NEW YORK","NY","United States","10036","Y",42,"Y","Y","N","N","Yes"
2005836,"SMITH ELLIOTT KEARNS & COMPANY LLC","19405 EMERALD SQUARE","SUITE 1400","HAGERSTOWN","MD","United States","21742","Y",266,"Y","N","Y","N",""
2009687,"ERNST & YOUNG","725 SOUTH FIGUEROA STREET","","LOS ANGELES","CA","United States","90017","Y",42,"Y","N","Y","Y","Yes"
2009649,"RSM US LLP","30 S. WACKER DRIVE","SUITE 330","CHICAGO","IL","United States","60006","Y",104,"Y","Y","N","N","Yes"
2010758,"HOLLAND, BROMLEY, BARNHILL & BRETT LLP","530 STEPHENSON AVENUE","#200","SAVANNAH","GA","United States","31405","N",,"","N","Y","N",""
2010768,"DELOITTE & TOUCHE LLP","200 BERKLEY STREET","","BOSTON","MA","United States","02116","Y",34,"Y","Y","Y","N","Yes"
2007619,"UHY LLP","27725 STANSBURY BLVD STE 200","","FARMINGTON HILLS","MI","United States","48334","Y",1195,"Y","Y","N","N","Yes"
2007927,"ASHLAND PARTNERS & COMPANY LLP","3512 EXCEL DRIVE","SUITE 103","MEDFORD","OR","United States","97504","Y",392,"Y","N","Y","N",""
2007954,"LILLING & COMPANY LLP","TWO SEABIRD BLVD","","PORT WASHINGTON","NY","United States","11050","Y",3480,"Y","N","Y","N",""
2007195,"PLANTE & MORAN, PLLC","10 SOUTH RIVERSIDE PLAZA","9TH FLOOR","CHICAGO","IL","United States","60606","Y",166,"Y","N","Y","N",""
2007970,"DELOITTE & TOUCHE LLP","350 SOUTH GRAND AVE, SUITE 200","","LOS ANGELES","CA","United States","90071","Y",1193,"Y","Y","Y","N","Yes"
2007970,"PRICEWATERHOUSECOOPERS LLP","350 SOUTH GRAND AVE, 49TH FLOOR","","LOS ANGELES","CA","United States","90071","Y",238,"Y","Y","N","N","Yes"
2006293,"ERNST & YOUNG CHARTERED ACCOUNTANTS","HARCOURT CENTRE","HARCOURT STREET","DUBLIN","","Ireland","","Y",1411,"Y","Y","N","N","Yes"
2006293,"ERNST & YOUNG LTD","62 FORUM LANE","P.O. BOX 510","CAMANA BAY","","Cayman Islands","KY11106","Y",1655,"Y","Y","N","N","Yes"
2010848,"PRICEWATERHOUSECOOPERS LLP","101 SEAPORT BLVD","","BOSTON","MA","United States","02210","Y",238,"Y","N","Y","Y","Yes"
2009544,"PRICEWATERHOUSECOOPERS,LLP","300 MADISON AVE","","NEW YORK","NY","United States","10017","Y",238,"Y","Y","N","N","Not Yet Received"
2009060,"KPMG LLP","345 PARK AVE","","NEW YORK","NY","United States","10154","Y",185,"Y","Y","Y","N","Yes"
2011274,"FORVIS","2700 POST OAK BLVD","SUITE 1500","HOUSTON","TX","United States","77056","Y",686,"Y","N","Y","Y","Yes"
2007757,"ASHLAND PARTNERS & COMPANY LLP","3512 EXCEL DRIVE","SUITE 103","MEDFORD","OR","United States","97504","Y",3783,"Y","N","Y","N",""
2008292,"BROWN EDWARDS","3906 ELECTRIC RD","","ROANOKE","VA","United States","24018","N",,"","N","Y","N",""
2008013,"KPMG LLP","345 PARK AVENUE","","NEW YORK","NY","United States","10154","Y",185,"Y","N","Y","Y","Yes"
2008006,"COHEN & CO.","1350 EUCLID AVENUE","SUITE 800","CLEVELAND","OH","United States","44115","Y",925,"Y","Y","Y","N","Yes"
2007239,"PRICEWATERHOUSECOOPERS LLC","300 MADISON AVENUE","","NEW YORK","NY","United States","10017-6204","Y",238,"Y","Y","Y","Y","Yes"
2008463,"ERNST & YOUNG LLP","155 N WACKER DR","","CHICAGO","IL","United States","60606","Y",42,"Y","Y","N","N","Yes"
2010121,"DEMARCO SCIACCOTTA WILKENS & DUNLEAVY","20646 ABBEY WOODS CT. N","SUITE 201","FRANKFORT","IL","United States","60423","Y",5376,"Y","N","Y","N",""
2011284,"COHEN & COMPANY, LTD.","1350 EUCLID AVENUE","SUITE 800","CLEVELAND","OH","United States","44115","Y",925,"Y","N","Y","N",""
2011344,"COHEN & COMPANY, LTD.","1350 EUCLID AVENUE","SUITE 800","CLEVELAND","OH","United States","44115","Y",925,"Y","N","Y","N",""
2011346,"COHEN & COMPANY, LTD.","1350 EUCLID AVENUE","SUITE 800","CLEVELAND","OH","United States","44115","Y",925,"Y","N","Y","N",""
2002179,"BAKER TILLY US LLP","2500 DALLAS PKWY","","PLANO","TX","United States","75093","Y",23,"Y","Y","N","N","Yes"
2002179,"KEITER, STEPHENS, HURST, GARY & SHREAVES, P.C.","4401 DOMINION BOULEVARD","","GLEN ALLEN","VA","United States","23060","Y",80,"Y","N","Y","N",""
2011136,"ERNST & YOUNG LLP","5 TIMES SQUARE","","NEW YORK","NY","United States","10036","Y",42,"Y","Y","N","N","Yes"
2011237,"GRANT THORNTON LLP","201 SOUTH COLLEGE STREET","SUITE 2500","CHARLOTTE","NC","United States","28244","Y",248,"Y","Y","N","N","Yes"
2008222,"BERKOWER LLC","517 US-1 #4103","","ISELIN","NJ","United States","08830","Y",217,"Y","Y","N","N","Not Yet Received"
2008295,"ROBERT MILNER, CPA","4806 W. GANDY BLVD.","","TAMPA","FL","United States","33611","Y",3289,"Y","N","Y","N",""
2007278,"WALTER & SHUFFAIN, P.C.","ONE INTERNATIONAL PLACE","SUITE 1010","BOSTON","MA","United States","02110","Y",5439,"Y","N","Y","N",""
2006386,"EISNERAMPER LLP","ONE CALIFORNIA STREET","SUITE 1700","SAN FRANCISCO","CA","United States","94111","Y",274,"Y","N","Y","N",""
2008602,"ASHLAND PARTNERS & COMPANY, LLP","3512 EXCEL DR","SUITE 103","MEDFORD","OR","United States","97504","Y",3783,"Y","N","Y","N",""
2008602,"EISNERAMPER LLC","ONE LOGAN SQUARE","130 NORTH 18TH STREET, SUITE 3000","PHILADELPHIA","PA","United States","19103","Y",274,"Y","Y","N","N","Yes"
2008627,"ASSURANCE DIMENSIONS","2000 BANKS ROAD","SUITE 218","MARGATE","FL","United States","33063","Y",5036,"Y","N","Y","N",""
2009312,"ARY ROEPCKE MULCHAEY, P.C.","TWO MIRANOVA PLACE","SUITE 600","COLUMBUS","OH","United States","43215","Y",160,"Y","N","Y","N",""
2009031,"COHEN & COMPANY LTD","1350 EUCLID AVE","STE 800","CLEVELAND","OH","United States","44115","Y",925,"Y","N","Y","N",""
2009413,"ASHLAND PARTNERS & COMPANY LLP","3512 EXCEL DRIVE","SUITE 103","MEDFORD","OR","United States","97504","Y",3783,"Y","N","Y","N",""
2006133,"ERNST & YOUNG LLP","801 GRAND AVENUE","SUITE 3000","DES MOINES","IA","United States","50309","Y",42,"Y","N","Y","N",""
2008456,"LAPORTE CPAS & BUSINESS ADVISORS","111 VETERANS MEMORIAL BLVD","SUITE 600","METAIRIE","LA","United States","70005-4913","Y",601,"Y","Y","Y","N","Yes"
2009446,"ASHLAND PARTNERS & CO LLP","3512 EXCEL DRIVE","SUITE 103","MEDFORD","OR","United States","97504","Y",3783,"Y","N","Y","Y","Yes"
2009516,"ASSURANCE DIMENSIONS","4920 W CYPRESS STREET","SUITE 102","TAMPA","FL","United States","33607","Y",5036,"Y","N","Y","N",""
2006515,"FORVIS","400 CROSS POINTE BLVD","P.O. BOX 628","EVANSVILLE","IN","United States","47704","Y",686,"Y","N","N","Y","Yes"
2006515,"ASHLAND PARTNERS & COMPANY LLP","3512 EXCEL DRIVE","SUITE 103","MEDFORD","OR","United States","97504","Y",3783,"Y","N","Y","N",""
2009475,"ASSURANCE DIMENSIONS","2000 BANKS RD.","SUITE 218","MARGATE","FL","United States","33063","Y",5036,"Y","N","Y","N",""
2010368,"FORVIS, LLP","191 PEACHTREE STREET, NE","SUITE 2700","ATLANTA","GA","United States","30303","Y",686,"Y","Y","Y","N","Yes"
2010398,"KPMG LLP","345 PARK AVENUE","","NEW YORK","NY","United States","10154","Y",185,"Y","Y","N","N","Not Yet Received"
2009557,"FRAZIER & DEETER","1230 PEACHTREE STREET","SUITE 1500","ATLANTA","GA","United States","30309","Y",215,"Y","N","Y","N",""
2010464,"ASHLAND PARTNERS & COMPANY LLP","3512 EXCEL DRIVE","SUITE 103","MEDFORD","OR","United States","97504","Y",3783,"Y","N","Y","N",""
1993802,"ASHLAND PARTNERS & COMPANY LLP","3512 EXCEL DRIVE","SUITE 103","MEDFORD","OR","United States","97504","Y",3783,"Y","N","Y","N",""
1993802,"RSM US LLP","80 CITY SQUARE","","BOSTON","MA","United States","02129","Y",49,"Y","N","N","Y","Yes"
2010769,"HBK CPAS AND CONSULTANTS","100 PINEWOOD LANE","SUITE 201","WARRENDALE","PA","United States","15086","Y",2206,"Y","N","Y","N",""
2005691,"FORVIS","1801 CALIFORNIA STREET","SUITE 2900","DENVER","CO","United States","80202","Y",686,"Y","N","Y","N",""
2009247,"TAIT, WELLER, & BAKER","TWO LIBERTY PLACE 50 SOUTH 16TH STREET","SUITE 2900","PHILADELPHIA","PA","United States","19102","Y",445,"Y","N","Y","N",""
2009560,"KPMG LLP","550 SOUTH HOPE STREET","SUITE 1500","LOS ANGELES","CA","United States","90071","Y",185,"Y","N","Y","N",""
2003160,"CAVANAUGH NELSON PLC","999 WATERSIDE DRIVE","SUITE 2250","NORFOLK","VA","United States","23510","N",,"","N","Y","N",""
2011511,"ERNST & YOUNG","BLOCK 1, HARCOURT CENTRE","HARCOURT STREET","DUBLIN 2","","Ireland","","Y",1411,"Y","Y","N","N","Yes"
2011530,"ERNST & YOUNG","BLOCK 1, HARCOURT CENTRE","HARCOURT STREET","DUBLIN 2","","Ireland","","Y",1411,"Y","Y","N","N","Yes"
2011392,"CITRIN COOPERMAN","180 PARK AVENUE","SUITE 200","FLORHAM PARK","NJ","United States","07932","Y",2468,"Y","N","Y","N",""
2011729,"DELOITTE & TOUCHE LLP","30 ROCKEFELLER PLAZA","","NEW YORK","NY","United States","10112-0015","Y",34,"Y","N","Y","Y","Yes"
2011750,"BAKER TILLY US, LLP","50 FREMONT STREET","SUITE 4000","SAN FRANCISCO","CA","United States","94105","Y",402,"Y","N","Y","N",""
2011742,"DELOITTE & TOUCHE LLP","30 ROCKEFELLER PLAZA","","NEW YORK","NY","United States","10112-0015","Y",34,"Y","Y","Y","Y","Yes"
2011593,"ASSURANCE DIMENSIONS","4920 W CYPRESS STREET, SUITE 102","","TAMPA","FL","United States","33607","Y",5036,"Y","N","Y","N",""
2011799,"ERNST & YOUNG","HARCOURT CENTRE","HARCOURT STREET","DUBLIN","","Ireland","","Y",1411,"Y","Y","N","N","Not Yet Received"
2010296,"RW GROUP, LLC","400 OLD FORGE LANE","SUITE 401","KENNETT SQUARE","PA","United States","19348","Y",5020,"Y","N","Y","N",""
2011821,"BAKER TILLY US, LLP","50 FREMONT STREET","SUITE 4000","SAN FRANCISCO","CA","United States","94105","Y",402,"Y","N","Y","N",""
2011842,"WHITLEYPENN","8343 DOUGLAS AVENUE","SUITE 400","DALLAS","TX","United States","75225","Y",49,"Y","Y","Y","Y","Yes"
2009398,"KPMG LLC","SUITE 2000","303 PEACHTREE STREET N. E.","ATLANTA","GA","United States","30308-3210","Y",185,"Y","N","Y","Y","Yes"
2008898,"SMITH ELLIOTT KEARNS & COMPANY, LLC","480 N. POTOMAC STREET","","HAGERSTOWN","MD","United States","21740","Y",266,"Y","N","Y","N",""
2006342,"KPMG","RIPERIAN PLAZA","71 EAGLE STREET","BRISBANE","","Australia","4000","Y",1020,"Y","Y","N","N","Yes"
2009554,"BDO USA, PC","8401 GREENSBORO DRIVE","","MCLEAN","VA","United States","22102","Y",243,"Y","Y","N","N","Yes"
2009106,"WEAVER AND TIDWELL, L.L.P.","1230 ROSECRANS AVE.","SUITE 510","MANHATTAN BEACH","CA","United States","90266","Y",410,"Y","Y","N","Y","Yes"
2009546,"WALTER & SHUFFAIN, P.C.","ONE INTERNATIONAL PLACE","SUITE 1010","BOSTON","MA","United States","02110","Y",5439,"Y","N","Y","N",""
2009816,"RODEFER MOSS & CO, PLLC","608 MABRY HOOD ROAD","","KNOXVILLE","TN","United States","37932","Y",910,"Y","N","Y","N",""
2009835,"ERNST & YOUNG LLP","312 WALNUT ST","SUITE 1900","CINCINNATI","OH","United States","45202","Y",42,"Y","Y","Y","N","Yes"
2009844,"ASHLAND PARTNERS & COMPANY LLP","3512 EXCEL DRIVE","SUITE 103","MEDFORD","OR","United States","97504","Y",3783,"Y","N","Y","N",""
2007871,"EISNERAMPER LLP","733 THIRD AVENUE","","NEW YORK","NY","United States","10017","Y",274,"Y","N","Y","N",""
2008353,"KATZ ABOSH","9690 DEERECO ROAD","SUITE 500","TIMONIUM","MD","United States","21093","N",,"","N","Y","N",""
2009982,"WOLF & COMPANY, P.C.","255 STATE STREET","","BOSTON","MA","United States","02109","Y",392,"Y","N","N","Y","Yes"
2009987,"KEITER CPA","4401 DOMINION BOULEVARD","","GLEN ALLEN","VA","United States","23060","Y",80,"Y","N","Y","N",""
2010125,"KPMG LLP","345 PARK AVENUE","","NEW YORK","NY","United States","10154","Y",185,"Y","N","Y","N",""
2007449,"PWC MONACO","24 AV DE FONTVIELLE, AIGUE MARINE B","98000","MONACO","","Monaco","","Y",1347,"Y","N","N","Y","Yes"
2007291,"CITRIN COOPERMAN & COMPANY LLP","50 ROCKEFELLER PLAZA","","NEW YORK","NY","United States","10020","Y",2468,"Y","N","Y","N",""
2007515,"CITRIN COOPERMAN & COMPANY LLP","50 ROCKEFELLER PLAZA","","NEW YORK","NY","United States","10020","Y",2468,"Y","N","Y","N",""
2007443,"WIPFLI, LLC","235 PEACHTREE STREET","SUITE 1800","ATLANTA","GA","United States","30303","Y",344,"Y","N","N","Y","Yes"
2007479,"RSM US LLP","30 S WACKER DR","STE 3300","CHICAGO","IL","United States","60606","Y",49,"Y","Y","N","N","Not Yet Received"
2004329,"ASHLAND PARTNERS & COMPANY LLP","3512 EXCEL DR., SUITE 103","","MEDFORD","OR","United States","97504","Y",3783,"Y","N","Y","N",""
2007557,"FISCHER CUNNANE & ASSOCIATES LTD","11 TURNER LANE","","WEST CHESTER","PA","United States","19380","Y",1940,"Y","N","Y","N",""
2007487,"ASHLAND PARTNERS & COMPANY LLP","3512 EXCEL DRIVE","SUITE 103","MEDORD","OR","United States","97504","Y",3783,"Y","N","Y","Y","Yes"
2001461,"ROLLERI & SHEPPARD CPAS, LLP","2150 POST RD","5TH FLOOR","FAIRFIELD","CT","United States","06824","Y",3437,"Y","N","Y","N",""
2007532,"PRICEWATERHOUSECOOPERS LLP","300 MADISON AVENUE","","NEW YORK","NY","United States","10017","Y",238,"Y","N","Y","N",""
2007574,"FGMK, LLC","333 W. WACKER DRIVE, 6TH FLOOR","","CHICAGO","IL","United States","60606","Y",3968,"Y","N","Y","N",""
2007033,"DELOITTE & TOUCHE LLP","60 NEXUS WAY, 8TH FLOOR","CAMANA BAY","GRAND CAYMAN","","Cayman Islands","KY1-1109","Y",1096,"Y","Y","N","N","Yes"
2007581,"KPMG LLP","10 SOUTH BROADWAY","SUITE 900","SAINT LOUIS","MO","United States","63102-1736","Y",185,"Y","N","Y","Y","Yes"
2006763,"PRICEWATERHOUSECOOPERS LLP","18 YORK STREET","SUITE 2500","TORONTO","","Canada","M5J0B2","Y",238,"Y","Y","Y","N","Not Yet Received"
2007677,"MOUNTJOY CHILTON MEDLEY LLP","201 EAST FIFTH STREET","SUITE 2100","CINCINNATI","OH","United States","45202","Y",2276,"Y","N","Y","N",""
2007579,"PRICEWATERHOUSECOOPERS LLP","125 HIGH STREET","","BOSTON","MA","United States","02110","Y",238,"Y","Y","Y","N","Yes"
1995979,"EIDE BAILLY LLP","200 E. 10TH ST.","STE. 500","SIOUX FALLS","SD","United States","57117-5125","Y",286,"Y","N","N","Y","Yes"
2007451,"ASHLAND PARTNERS & COMPANY LLP","3512 EXCEL DR","SUITE 103","MEDFORD","OR","United States","97504","Y",3783,"N","N","Y","N",""
2007156,"BERKOW SCHECHTER & COMPANY LLP","350 BEDFORD STREET","","STAMFORD","CT","United States","06901","Y",4040,"N","N","Y","N",""
2007744,"BERKOW, SCHECHTER & COMPANY LLP","350 BEDFORD STREET","","STAMFORD","CT","United States","06901","Y",4040,"Y","N","Y","N",""
2007752,"BERKOW, SCHECHTER & COMPANY LLP","350 BEDFORD STREET","","STAMFORD","CT","United States","06901","Y",4040,"Y","N","Y","N",""
2007768,"ANDERS MINKLER HUBER & HELM LLP","800 MARKET STREET","SUITE 500 I","ST. LOUIS","MO","United States","63101","Y",2100,"Y","N","Y","N",""
2007773,"PLANTE & MORAN, PLLC","10 SOUTH RIVERSIDE PLAZA","9TH FLOOR","CHICAGO","IL","United States","60606","Y",166,"Y","N","Y","N",""
2007787,"PRICEWATERHOUSECOOPERS LLP","300 MADISON AVENUE","","NEW YORK","NY","United States","10017","Y",238,"Y","N","Y","Y","Yes"
2007533,"ERNST & YOUNG LLP","THE FROST TOWER SUITE 1901 111 W HOUSTON STREET","","SAN ANTONIO","TX","United States","78205","Y",42,"Y","N","Y","N",""
2007533,"ERNST & YOUNG LLP","200 CLARENDON STREET","","BOSTON","MA","United States","02116","Y",42,"Y","Y","N","N","Yes"
2007911,"CROWE LP","488 MADISON AVE., SUITE 1200","","NEW YORK","NY","United States","10022","Y",173,"Y","N","Y","N",""
2007732,"DELOITTE AND TOUCHE LLP","655 WEST BROADWAY, SUITE 700","","SAN DIEGO","CA","United States","92101","Y",34,"Y","N","Y","Y","Yes"
2007749,"DEMARCO SCIACCOTTA WILKENS & DUNLEAVY, LLP","20646 ABBEY WOODS CT N","SUITE 201","FRANKFORT","IL","United States","60423","Y",5376,"Y","N","Y","N",""
2004381,"DANNIBLE & MCKEE, LLP","FINANCIAL PLAZA","221 S. WARREN STREET","SYRACUSE","NY","United States","13202-2687","Y",528,"Y","N","Y","Y","Yes"
2007911,"MEADOWS URQUHART ACREE & COOK LLP","1802 BAYBERRY COURT","SUITE 102","RICHMOND","VA","United States","23226","Y",3688,"Y","Y","N","N","Not Yet Received"
2003319,"KPMG LLP","6565 AMERICAS PKWY","#700","ALBUQUERQUE","NM","United States","87110","Y",185,"Y","Y","N","N","Yes"
2007961,"LILLING & COMPANY LLP","TWO SEABIRD BLVD","","PORT WASHINGTON","NY","United States","11050","Y",3480,"Y","N","Y","N",""
2007969,"DELOITTE & TOUCHE LLP","350 SOUTH GRAND AVE, SUITE 200","","LOS ANGELES","CA","United States","90071","Y",1193,"Y","Y","Y","N","Yes"
2007881,"PRICEWATERHOUSECOOPERS","300 MADISON AVENUE","SUITE 24","NEW YORK","NY","United States","10017","Y",238,"Y","Y","N","Y","Not Yet Received"
1996129,"LBMC, PC","P.O.BOX 1869","201","BRENTWOOD","TN","United States","37027","Y",450,"Y","N","Y","N",""
2006417,"DELOITTE","111 S WACKER DR","","CHICAGO","IL","United States","60606","Y",34,"Y","Y","N","N","Yes"
2008760,"GRANT THORNTON LLP","1100 PEACHTREE ST. NE","SUITE 1200","ATLANTA","GA","United States","30309","Y",248,"Y","N","Y","N",""
2007861,"KPMG LLP","345 PARK AVENUE","","NEW YORK","NY","United States","10154","Y",185,"Y","Y","N","N","Not Yet Received"
2008908,"ASHLAND PARTNERS & COMPANY LLP","3512 EXCEL DRIVE, SUITE 103","","MEDFORD","OR","United States","97504","Y",3783,"Y","N","Y","N",""
2006417,"COHEN & COMPANY, LTD.","151 N. FRANKLIN ST. STE 575, CHICAGO, IL 60606","","CHICAGO","IL","United States","60606","Y",925,"Y","Y","N","N","Not Yet Received"
2008935,"DEJOY & COMPANY","280 EAST BROAD STREET","SUITE 300","ROCHESTER","NY","United States","14604","Y",1069,"Y","N","Y","N",""
2008776,"ASSURANCE DIMENSIONS","4920 W. CYPRESS STREET,","SUITE 102","TAMPA","FL","United States","33607","Y",5036,"Y","N","Y","N",""
2008776,"PRESTI & NAEGELE LLC","350 BEDFORD ST.","#303","STAMFORD","CT","United States","06901","N",,"","Y","N","N","Yes"
2008954,"PRICEWATERHOUSE COOPERS","601 S. FIGUEROA ST","9TH FLOOR","LOS ANGELES","CA","United States","90017","Y",238,"Y","Y","N","N","Yes"
2007251,"ERNST & YOUNG LLP","155 NORTH WACKER DRIVE","23RD FLOOR","CHICAGO","IL","United States","60606","Y",42,"Y","Y","Y","Y","Yes"
2008965,"ERNST & YOUNG","155 N. WACKER DRIVE","","CHICAGO","IL","United States","60606","Y",42,"Y","N","Y","Y","Yes"
2008965,"KATZ SAPPER & MILLER","800 EAST 96TH STREET, SUITE 500","","INDIANAPOLIS","IN","United States","46240","Y",2804,"Y","Y","N","N","Yes"
2008965,"BOBER, MARKEY, FEDEROVICH & COMPANY","3421 RIDGEWOOD ROAD","SUITE 300","AKRON","OH","United States","44333","Y",1172,"Y","Y","N","N","Yes"
2008965,"DELOITTE & TOUCHE LLP","111 SOUTH WACKER DRIVE","","CHICAGO","IL","United States","60606-4301","Y",34,"Y","Y","N","N","Yes"
2006893,"PRICEWATERHOUSECOOPERS LLP","214 NORTH TRYON STREET","SUITE 3600","CHARLOTTE","NC","United States","28202","Y",238,"Y","N","Y","N",""
2008421,"CBIZ CPAS","225 WEST WACKER DRIVE","SUITE 2500","CHICAGO","IL","United States","60606","Y",199,"Y","N","Y","N",""
2008992,"PLANTE & MORAN PLLC","27400 NORTHWESTERN HWY","","SOUTHFIELD","MI","United States","48034","Y",166,"Y","N","Y","N",""
2008407,"HILL, BARTH & KING LLC","100 PINEWOOD LANE","SUITE 201","WARRENDALE","PA","United States","15086","Y",2206,"Y","N","Y","N",""
2009017,"ASHLAND PARTNERS","3512 EXCEL DRIVE","SUITE 103","MEDFORD","OR","United States","97504","Y",3783,"Y","N","Y","N",""
2009340,"KEITER","4401 DOMINION BOULEVARD","","GLEN ALLEN","VA","United States","23060","Y",80,"Y","N","Y","N",""
