"FilingID","Accountant Name","Street 1","Street 2","City","State","Country","Postal Code","Registered PCAOB","PCAOB Number","PCAOB Inspection","Audit","Examination","Report","Unqualified Opinion"
1998247,"WSRP, LLC","155 NORTH 400 WEST","STE 400","SALT LAKE CITY","UT","United States","84103","Y",374,"Y","N","Y","N",""
1999396,"DEMARCO SCIACCOTTA WILKENS & DUNLEAVY, LLP","20646 ABBEY WOODS CT. N.","SUITE 201","FRANKFORT","IL","United States","60423","Y",5376,"Y","N","Y","N",""
1999342,"CBIZ, INC.","750 THIRD AVENUE","11TH FLOOR","NEW YORK","NY","United States","10017","Y",199,"Y","Y","N","N","Not Yet Received"
1999124,"ASHLAND PARTNERS & COMPANY LLP","3512 EXCEL DRIVE","SUITE 103","MEDFORD","OR","United States","97504","Y",3783,"N","N","Y","N",""
1997842,"KPMG LLP","345  PARK AVENUE","","NEW YORK","NY","United States","10154","Y",185,"Y","N","Y","Y","Yes"
1997641,"UHY LLP","955 MT. HERMON ROAD","","SALISBURY","MD","United States","21804","Y",141,"Y","N","Y","N",""
1999282,"MARCUM LLP","10 MELVILLE PARK ROAD","","MELVILLE","NY","United States","11747","Y",688,"Y","N","N","N",""
1998101,"KNIGHT, ROLLERI, SHEPPARD CPAS LLP","1499 POST ROAD","SUITE 1040","FAIRFIELD","CT","United States","06824","Y",3437,"Y","N","Y","N",""
1986058,"BAUER AND COMPANY LLC","P.O. BOX 27887","","AUSTIN","TX","United States","78755","Y",6072,"Y","N","Y","N",""
1995505,"WEAVER AND TIDWELL, L.L.P.","4400 POST OAK PARKWAY","SUITE 1100","HOUSTON","TX","United States","77027","Y",410,"Y","Y","N","N","Yes"
1996267,"SNYDER COMPANY CPAS & TRUSTED ADVISORS","11200 ROCKVILLE PILE","SUITE 415","NORTH BETHESDA","MD","United States","20852","N",,"","N","Y","N",""
1997359,"ASHLAND PARTNERS & COMPANY, LLP","3512 EXCEL DRIVE","SUITE 103","MEDFORD","OR","United States","97504","Y",3783,"Y","N","Y","N",""
1997423,"PRICEWATERHOUSECOOPERS LLP","101 SEAPORT BOULEVARD","","BOSTON","MA","United States","02110","Y",238,"Y","Y","Y","Y","Yes"
1997369,"PKF OF TEXAS","5847 SAN FELIPE","SUITE 2400","HOUSTON","TX","United States","77057","Y",342,"Y","N","Y","N",""
1997369,"FORVIS LLP","2800 POST OAK BOULEVARD","SUITE 3200","HOUSTON","TX","United States","77056","Y",686,"Y","N","N","Y","Yes"
1997391,"ASHLAND PARTNERS & COMPANY LLP","3512 EXCEL DRIVE","SUITE 102","MEDFORD","OR","United States","97504","Y",3783,"N","N","Y","N",""
1997318,"GRANT THORNTON LLP","2001 MARKET STREET","SUITE 700","PHILADELPHIA","PA","United States","19103-7080","Y",248,"Y","N","Y","N",""
1997481,"KPMG LLP","TWO FINANCIAL CENTER, 60 SOUTH STREET","","BOSTON","MA","United States","02111","Y",185,"Y","Y","N","N","Yes"
1994753,"COHEN & COMPANY","1835 MARKET STREET","SUITE 310","PHILADELPHIA","PA","United States","19103","Y",552,"Y","N","Y","N",""
1996323,"BELFINT LYONS SHUMAN","1011 CENTRE ROAD","SUITE 310","WILMINGTON","DE","United States","19805","Y",359,"Y","N","Y","N",""
1997366,"MOSS ADAMS LLP","999 THIRD AVENUE","SUITE 2800","SEATTLE","WA","United States","98104","Y",659,"Y","Y","N","N","Yes"
1997366,"DELOITTE & TOUCHE LLP","925 4TH AVENUE","SUITE 3300","SEATTLE","WA","United States","98104","Y",34,"Y","Y","N","Y","Yes"
1997366,"BDO USA LLP","8401 GREENSBORO DRIVE","SUITE 800","MCLEAN","VA","United States","22102","Y",243,"Y","Y","Y","N","Yes"
1997366,"ERNST & YOUNG","ONE MANHATTAN WEST","401 9TH AVENUE","NEW YORK","NY","United States","10001","Y",42,"Y","N","Y","N",""
1997366,"ASHLAND PARTNERS & COMPANY LLP","3512 EXCEL DRIVE","SUITE 103","MEDFORD","OR","United States","97504","Y",3783,"N","Y","Y","N","Yes"
1997378,"ERNST & YOUNG LLP","5 TIMES SQUARE","","NEW YORK","NY","United States","10036","Y",42,"Y","Y","N","N","Yes"
1997390,"WARREN AVERETT","2500 ACTON ROAD","","BIRMINGHAM","AL","United States","35243","Y",2226,"Y","N","Y","Y","Yes"
1997235,"KPMG LLP","345 PARK AVENUE","","NEW YORK","NY","United States","10154","Y",185,"Y","Y","N","N","Yes"
1997235,"KPMG LLP","BAY ADELAIDE CENTER","333 BAY STREET","TORONTO","","Canada","M5H 2S5","Y",185,"Y","Y","N","N","Yes"
1997607,"BENNETT THRASHER LLP","3300 RIVERWOOD PARKWAY","SUITE 700","ATLANTA","GA","United States","30339","Y",4051,"Y","N","Y","N",""
1997635,"SC&H GROUP, LLC","910 RIDGEBROOK ROAD","","SPARKS","MD","United States","21152","Y",2297,"Y","Y","Y","N","Yes"
1997673,"ARMANINO LLP","6 CITY PLACE DRIVE","SUITE 900","ST. LOUIS","MO","United States","63141","Y",643,"Y","N","Y","N",""
1997313,"ERNST & YOUNG LLP","300 FIRST STAMFORD PLACE","","STAMFORD","CT","United States","06902","Y",42,"Y","Y","N","N","Yes"
1997398,"ERNST & YOUNG","2323 VICTORY AVENUE","SUITE 2000","DALLAS","TX","United States","77219","Y",42,"Y","Y","N","N","Yes"
1997398,"KPMG","2323 ROSS AVENUE","SUITE 1400","DALLAS","TX","United States","75201","Y",185,"Y","Y","N","N","Yes"
1997383,"ABIP CPA","7330 SAN PEDRO AVE","SUITE 901","SAN ANTONIO","TX","United States","78216","Y",5585,"Y","Y","N","N","No"
1997383,"BODWELL VASEK WELLS DESIMONE LLP","8117 PRESTON ROAD, WEST TOWER","SUITE 460","DALLAS","TX","United States","75225","Y",7004,"Y","N","Y","N",""
1999402,"RSM US LLP","200 ELM STREET","","STAMFORD","CT","United States","06902","Y",49,"Y","Y","N","N","Yes"
1995027,"AGL CPA GROUP","1870 BUFORD HIGHWAY","SUITE 100","ATLANTA","GA","United States","30097","Y",3488,"Y","Y","N","N","Yes"
1995079,"KPMG LLP","100 NORTH TAMPA STREET","SUITE 1700","TAMPA","FL","United States","33602-5145","Y",185,"Y","N","Y","Y","Yes"
1995094,"KPMG LLP","100 NORTH TAMPA STREET","#1700","TAMPA","FL","United States","33602-5145","Y",185,"Y","N","Y","Y","Yes"
1995104,"ARMANINO LLP","6 CITYPLACE DRIVE","SUITE 900","ST. LOUIS","MO","United States","63141","Y",32,"Y","N","Y","N",""
1997989,"DELOITTE & TOUCHE","PO BOX 1787","","GEORGE TOWN, GRAND CAYMAN","","Cayman Islands","KY1-1109","Y",1096,"Y","Y","N","N","Yes"
1992004,"EISNERAMPER LLP","160 FEDERAL STREET","9TH FLOOR","BOSTON","MA","United States","02110","Y",3376,"Y","N","Y","N",""
1999305,"SCOTT AND COMPANY LLC","1441 MAIN STREET","SUITE 800","COLUMBIA","SC","United States","29201","N",,"","N","Y","N",""
1999369,"RICHEY MAY & CO.","9605 S KINGSTON CT","SUITE 200","ENGLEWOOD","CO","United States","80112","Y",673,"Y","N","Y","N",""
1983958,"KEITER, STEPHENS, HURST, GARY & SHREAVES, P.C.","4401 DOMINION BOULEVARD","","GLEN ALLEN","VA","United States","23060","Y",80,"Y","Y","N","N","Not Yet Received"
1995180,"M GROUP, L.L.P.","515 W SOUTHLAKE BLVD","","SOUTHLAKE","TX","United States","76092","N",,"","Y","N","N","Yes"
1994508,"CBIZ, INC","730 THIRD AVENUE","","NEW YORK","NY","United States","10017","Y",199,"Y","Y","Y","N","Not Yet Received"
1995213,"NICHOLS, CAULEY & ASSOCIATES, LLC","3550 ENGINEERING DRIVE","SUITE 250","PEACHTREE CORNERS","GA","United States","30092","Y",281,"Y","Y","Y","N","Not Yet Received"
1995035,"ASSURANCE DIMENSIONS","2000 BANKS ROAD","SUITE 218","MARGATE","FL","United States","33063","Y",5036,"Y","N","Y","N",""
1994685,"PRAGER METIS CPAS, LLC","222 MOUNT AIRY ROAD","","BASKING RIDGE","NJ","United States","07920","Y",273,"Y","N","Y","N",""
1999712,"COHEN & COMPANY LTD","1350 EUCLID AVE","STE 800","CLEVELAND","OH","United States","44115","Y",925,"Y","N","Y","N",""
1997765,"RICHEY MAY","9780 S MERIDIAN BLVD","SUITE 500","ENGELWOOD","CO","United States","80112","N",,"","N","Y","N",""
1993210,"PLANTE MORAN","10 SOUTH RIVERSIDE PLAZA","9TH FLOOR","CHICAGO","IL","United States","60606","Y",166,"Y","N","Y","N",""
1997958,"FGMK, LLC","2801 LAKESIDE DRIVE","3RD FLOOR","BANNOCKBURN","IL","United States","60015","Y",3968,"Y","N","Y","N",""
1997207,"ERNST & YOUNG","1700 ONE WILLIAMS CTR","","TULSA","OK","United States","74172-0172","Y",42,"Y","N","Y","Y","Yes"
1997207,"KPMG LLP","TWO NATIONWIDE PLAZA","","COLUMBUS","OH","United States","43215","Y",42,"Y","Y","N","N","Yes"
1999475,"PLANTE MORAN","10 SOUTH RIVERSIDE PLAZA 9TH FLOOR","","CHICAGO","IL","United States","60606-3770","Y",166,"Y","N","Y","N",""
1999475,"EISNERAMPER","100 N. 18TH ST","","PHILADELPHIA","PA","United States","19103","Y",274,"Y","Y","N","N","Yes"
1999475,"DELOITTE & TOUCHE LLP","1700 MARKET STREET","","PHILADELPHIA","PA","United States","19103-3984","Y",34,"Y","Y","N","N","Yes"
1999475,"ERNST & YOUNG LLP","ONE MANHATTAN WEST","395 - 9TH AVENUE","NEW YORK","NY","United States","10001","Y",42,"Y","Y","N","N","Yes"
1999884,"BAKER NEWMAN & NOYES LLC","280 FORE ST","","PORTLAND","ME","United States","04101-4177","Y",231,"Y","N","Y","N",""
1987984,"WHITTLESEY P.C.","280 TRUMBULL STREET, 24TH FLOOR","","HARTFORD","CT","United States","06103","Y",2538,"Y","N","Y","N",""
1997237,"PRICEWATERHOUSECOOPERS LLP","1 N UPPER WACKER DRIVE","","CHICAGO","IL","United States","60606","Y",238,"Y","Y","N","N","Yes"
1998466,"STOUT, CAUSEY & HORNING (CAYMAN)","27 HOSPITAL ROAD","","GRAND CAYMAN","","Cayman Islands","KY1-1109","N",,"","Y","N","N","Yes"
1999762,"DELOITTE & TOUCHE, LLP","100 SOUTH 4TH STREET","SUITE 300","ST LOUIS","MO","United States","63102-1821","Y",34,"Y","N","Y","Y","Yes"
1999799,"PLANTE & MORAN, PLLC","10 SOUTH RIVERSIDE PLAZA","9TH FLOOR","CHICAGO","IL","United States","60606","Y",166,"Y","N","Y","Y","Yes"
1999825,"KPMG LLP","1601 MARKET STREET","","PHILADELPHIA","PA","United States","19103-7240","Y",185,"Y","Y","N","N","Yes"
1999486,"BDO USA, LLP","1700 MARKET STREET","","PHILADELPHIA","PA","United States","19103","Y",243,"Y","Y","N","N","Yes"
1998500,"LILLING & COMPANY LLP","2 SEAVIEW BOULEVARD","","PORT WASHINGTON","NY","United States","11050","Y",3480,"Y","N","Y","N",""
1996521,"PRICEWATERHOUSECOOPERS","2 RUE GERHARD MERCATOR","","LUXEMBOURG CITY","","Luxembourg","","Y",1328,"Y","Y","N","N","Yes"
1999721,"SNYDER COHN, PC","11200 ROCKVILLE PIKE","SUITE 415","NORTH BETHESDA","MD","United States","20852","Y",5134,"Y","N","Y","N",""
1999415,"ASSURANCE DIMENSIONS","4920 W CYPRESS STREET","SUITE 102","TAMPA","FL","United States","33607","Y",5036,"Y","N","Y","N",""
1999863,"BDO USA, LLP","211 EAST WATER STREET","SUITE 300","KALAMAZOO","MI","United States","49007","Y",243,"Y","N","N","N",""
1999863,"ERNST & YOUNG LLP","SUITE 500, 700 NICOLLET MALL","","MINNEAPOLIS","MN","United States","55402","Y",42,"Y","N","Y","N",""
1999863,"KSM (KATZ, SAPPER & MILLER)","800 E 96TH ST","SUITE 500","INDIANAPOLIS","IN","United States","46240","Y",2804,"Y","Y","N","N","Yes"
1999863,"CROWE LLP","801 S FIGUEROA ST","SUITE 1750","LOS ANGELES","CA","United States","90017","Y",173,"Y","Y","N","N","Yes"
1999178,"BAKER TILLY US LLP","2500 DALLAS PKWY","","PLANO","TX","United States","75093","Y",23,"Y","Y","N","N","Yes"
1999178,"KEITER, STEPHENS, HURST, GARY & SHREAVES, P.C.","4401 DOMINION BOULEVARD","","GLEN ALLEN","VA","United States","23060","Y",80,"Y","N","Y","N",""
1999379,"D. BROOKS AND ASSOCIATES CPA'S, P.A.","4440 PGA BLVD","SUITE 104","PALM BEACH GARDENS","FL","United States","33410","Y",4048,"Y","N","Y","N",""
1997412,"HELLAM, VARON & CO. INC. P.S.","1750 112TH AVENUE NE SUITE E200","","BELLEVUE","WA","United States","98004","N",,"","N","Y","N",""
1999678,"HELLAM, VARON & CO. INC. P.S.","1750 112TH AVENUE NE SUITE E200","","BELLEVUE","WA","United States","98004","N",,"","N","Y","N",""
1999887,"KATZ SAPPER & MILLER","800 EAST 96TH STREET, SUITE 500","","INDIANAPOLIS","IN","United States","46240","Y",2804,"Y","Y","N","N","Yes"
1999612,"RSM US LLP","555 17TH STREET","SUITE 1200","DENVER","CO","United States","80202","Y",49,"Y","Y","N","N","Yes"
1999858,"DELOITTE & TOUCHE LLP","111 SOUTH WACKER DRIVE","","CHICAGO","IL","United States","60606","Y",34,"Y","Y","N","N","Yes"
1999887,"ERNST & YOUNG","155 N. WACKER DRIVE","","CHICAGO","IL","United States","60606","Y",42,"Y","N","Y","Y","Yes"
1999887,"BOBER, MARKEY, FEDEROVICH & COMPANY","3421 RIDGEWOOD ROAD","SUITE 300","AKRON","OH","United States","44333","Y",1172,"Y","Y","N","N","Yes"
1999887,"DELOITTE & TOUCHE LLP","111 SOUTH WACKER DRIVE","","CHICAGO","IL","United States","60606-4301","Y",34,"Y","Y","N","N","Yes"
1995349,"PWC","1 NORTH WACKER DRIVE","","CHICAGO","IL","United States","60606","Y",238,"Y","Y","N","N","Yes"
1999894,"DELOITTE & TOUCHE LLP","30 ROCKEFELLER PLAZA","","NEW YORK","NY","United States","10112","Y",1046,"Y","N","Y","Y","Yes"
1992757,"KPMG","345 PARK AVENUE","","NEW YORK","NY","United States","10154","Y",185,"Y","N","N","Y","Yes"
2000059,"CITRIN COOPERMAN","30 BRAINTREE HILL OFFICE","PARK SUITE 300","BRAINTREE","MA","United States","02184","Y",2468,"Y","N","Y","N",""
1995999,"DELOITTE & TOUCHE, LLP","100 SOUTH 4TH STREET","SUITE 300","ST. LOUIS","MO","United States","63102","Y",34,"Y","N","Y","Y","Yes"
2000019,"ASHLAND PARTNERS","3512 EXCEL DRIVE","SUITE 103","MEDFORD","OR","United States","97504","Y",3783,"Y","N","Y","N",""
2000016,"PRICEWATERHOUSE COOPERS LLP","300 MADISON AVENUE","","NEW YORK","NY","United States","10017-6204","Y",238,"Y","N","Y","Y","Yes"
1996968,"MAYER HOFFMAN MCCANN P.C.","5100 POPLAR AVENUE","30TH FLOOR","MEMPHIS","TN","United States","38137","Y",199,"Y","Y","N","N","Yes"
1999720,"ASHLAND PARTNERS & COMPANY, LLP","3512 EXCEL DRIVE","SUITE 103","MEDFORD","OR","United States","97504","Y",3783,"Y","N","Y","N",""
1999735,"GRANT THORNTON LLP","201 SOUTH COLLEGE STREET","SUITE 2500","CHARLOTTE","NC","United States","28244","Y",248,"Y","Y","N","N","Yes"
1999717,"ASHLAND PARTNERS & COMPANY LLP","3512 EXCEL DRIVE","SUITE 103","MEDFORD","OR","United States","97504","Y",3783,"Y","N","Y","N",""
1999594,"PBC ADVISORS","903 COMMERCE DRIVE","","OAKBROOK","IL","United States","60253","N",,"","N","N","Y","No"
1996631,"DELOITTE ACCOUNTANTS B.V.","ORTELIUSLAAN 982, 3528 BD","","UTRECHT","","Netherlands","3180","Y",1243,"Y","Y","N","N","Yes"
1996631,"PRICEWATERHOUSECOOPERS LLP","PWC TOWER, 18 YORK STREET, SUITE 2500","","TORONTO","","Canada","M5J 0B2","Y",271,"Y","Y","N","N","Yes"
1996549,"GRANT THORNTON LLP","757 3RD AVENUE","9TH FLOOR","NEW YORK","NY","United States","10017","Y",248,"Y","N","Y","N",""
2000505,"KEITER, STEPHENS, HURST, GARY & SHREAVES, P.C.","4401 DOMINION BOULEVARD","","GLEN ALLEN","VA","United States","23060","Y",80,"Y","Y","N","N","Not Yet Received"
2000441,"PRICEWATERHOUSECOOPERS","300 MADISON AVENUE","","NEW YORK","NY","United States","10017","Y",238,"Y","N","Y","Y","No"
1992766,"COHEN & COMPANY LTD","1350 EUCLID AVE","#800","CLEVELAND","OH","United States","44115","Y",925,"Y","Y","N","N","Yes"
1981322,"COHEN & COMPANY LTD","1350 EUCLID AVE","#800","CLEVELAND","OH","United States","44115","Y",925,"Y","Y","N","N","Yes"
2000505,"ASHLAND PARTNERS & COMPANY, LLP","3512 EXCEL DR.","SUITE 103","MEDFORD","OR","United States","97504","Y",3783,"Y","N","Y","N",""
2000498,"MOSS ADAMS, LLP","999 3RD AVE","SUITE 2800","SEATTLE","WA","United States","98104-4019","Y",659,"Y","Y","N","N","Yes"
2000550,"GRANT THORNTON (SOC 1)","75 STATE ST., 13TH FLOOR","","BOSTON","MA","United States","02109","Y",248,"Y","N","N","Y","Yes"
2000550,"RSM US, LLP (CUSTODY AUDIT)","80 CITY SQUARE","","BOSTON","MA","United States","02129","Y",49,"Y","N","Y","N",""
1986161,"CITRIN COOPERMAN & COMPANY LLP","1800 JFK BOULEVARD","","PHILADELPHIA","PA","United States","19103","N",,"N","Y","N","N","Yes"
1986161,"BDO USA, P.C.","1801 MARKET ST","#1200","PHILADELPHIA","PA","United States","19103","Y",234,"Y","Y","N","N","Yes"
2000605,"ASHLAND PARTNERS & COMPANY LLP","3512 EXCEL DRIVE, SUITE 103","","MEDFORD","OR","United States","97504","Y",3783,"Y","N","Y","N",""
1999055,"DELOITTE & TOUCHE, LLP","111 SOUTH WACKER DRIVE","","CHICAGO","IL","United States","60606","Y",34,"Y","Y","N","N","Yes"
1999055,"KPMG LLP","AON CENTER","200 E. RANDOLPH STREET, SUITE 5500","CHICAGO","IL","United States","60601","Y",185,"Y","Y","N","N","Yes"
1999055,"FORVIS MAZARS, LLP","135 W 50TH STREET","","NEW YORK","NY","United States","10020","Y",686,"Y","Y","N","N","Yes"
1999055,"COHEN & COMPANY","1350 EUCLID AVE","SUITE 800","CLEVELAND","OH","United States","44115","Y",925,"Y","Y","N","Y","Yes"
1999055,"ERNST & YOUNG","5 TIMES SQUARE","","NEW YORK","NY","United States","10036","Y",42,"Y","Y","N","N","Yes"
1999055,"KPMG","345 PARK AVENUE","","NEW YORK","NY","United States","10154","Y",185,"Y","Y","N","N","Yes"
1999055,"FORVIS MAZARS, LLP","135 W 50TH STREET","","NEW YORK","NY","United States","10020","Y",686,"Y","N","Y","N",""
1999055,"SCHNEIDER DOWNS & CO., INC.","ONE PPG PLACE, SUITE 1700","","PITTSBURGH","PA","United States","15222","Y",358,"Y","Y","N","N","Yes"
1999055,"ERNST & YOUNG LLP","200 CLARENDON ST","","BOSTON","MA","United States","02116","Y",42,"Y","Y","N","N","Yes"
1996719,"DELOITTE & TOUCHE LLP","100 SOUTH MILL AVENUE","SUITE 1800","TEMPE","AZ","United States","85281","Y",34,"Y","N","Y","N",""
1998497,"ERNST & YOUNG LLP","5 TIMES SQUARE","","NEW YORK","NY","United States","10036-6530","Y",42,"Y","Y","N","N","No"
1998497,"GRANT THORNTON","4695 MACARTHUR COURT SUITE 1600","","NEWPORT BEACH","CA","United States","92660","Y",248,"Y","Y","N","N","No"
1996722,"ERNST & YOUNG LLP","FIVE TIMES SQUARE","","NEW YORK","NY","United States","10036","Y",42,"Y","Y","N","N","Yes"
1996722,"BDO USA, LLP","421 FAYETTEVILLE ST.","SUITE 300","RALEIGH","NC","United States","27601","Y",243,"Y","Y","N","N","Yes"
1996036,"DELOITTE","111 S WACKER DR","","CHICAGO","IL","United States","60606","Y",34,"Y","Y","N","N","Yes"
1999642,"ASSURANCE DIMENSIONS","4920 WEST CYPRESS STREET","SUITE 102","TAMPA","FL","United States","33607","Y",5036,"Y","N","Y","N",""
1995528,"BAKER TILLY US, LLP","2500 DALLAS PARKWAY","SUITE 300","PLANO","TX","United States","75093","Y",23,"Y","N","Y","N",""
1999167,"GRANT THORNTON LLP","201 SOUTH COLLEGE STREET","SUITE 2500","CHARLOTTE","NC","United States","28244","Y",248,"Y","Y","N","N","Yes"
1995747,"FRANK, RIMERMAN & CO., LLP","60 SOUTH MARKET STREET, SUITE 500","","SAN JOSE","CA","United States","95113","Y",1596,"Y","Y","N","N","Yes"
1991688,"FISCHERCUNNANE CERTIFIED PUBLIC ACCOUNTANTS & CONSULTANTS","11 TURNER LANE","","WEST CHESTER","PA","United States","19380","Y",1940,"Y","N","Y","N",""
1996036,"COHEN & COMPANY, LTD.","151 N. FRANKLIN ST. STE 575, CHICAGO, IL 60606","","CHICAGO","IL","United States","60606","Y",925,"Y","Y","N","N","Not Yet Received"
1996065,"KPMG LLP","345 PARK AVENUE","4TH FLOOR","NEW YORK","NY","United States","10154","Y",185,"Y","N","Y","Y","Yes"
1992180,"WOLF & CO.","255 STATE STREET","","BOSTON","MA","United States","02109","Y",392,"Y","Y","N","N","Yes"
1995764,"ERNST & YOUNG LLP","155 N WACKER DR","","CHICAGO","IL","United States","60606","Y",42,"Y","Y","N","N","Yes"
1995810,"CROWE LLP","1395 BRICKELL AVENUE","SUITE 1150","MIAMI","FL","United States","33131","Y",173,"Y","N","Y","Y","Not Yet Received"
1995794,"DELOITTE & TOUCHE LLP","100 KIMBALL DRIVE","","PARSIPPANY","NJ","United States","07054","Y",34,"Y","Y","N","N","Yes"
1995720,"MP CPAS","ONE MONARCH PLACE","SUITE 900","SPRINGFIELD","MA","United States","01144","N",,"","N","Y","N",""
1995860,"GRASSI & CO.","360 MADISON AVENUE","","NEW YORK","NY","United States","10017","Y",606,"Y","Y","N","N","Yes"
1995896,"PRICEWATERHOUSECOOPERS LLP","101 SEAPORT BOULEVARD","","BOSTON","MA","United States","02110","Y",238,"Y","Y","Y","Y","Yes"
1996236,"HARPER & PEARSON COMPANY","ONE RIVERWAY DRIVE","SUITE1900","HOUSTON","TX","United States","77056","Y",431,"Y","N","Y","N",""
1995290,"WEAVER AND TIDWELL, L.L.P.","4400 POST OAK PARKWAY","SUITE 1100","HOUSTON","TX","United States","77027","Y",410,"Y","Y","N","N","Yes"
1988546,"FGMK, LLC","333 W. WACKER DRIVE","6TH FLOOR","CHICAGO","IL","United States","60606","Y",3968,"Y","N","Y","N",""
1995545,"ERNST & YOUNG","725 SOUTH FIGUEROA STREET","","LOS ANGELES","CA","United States","90017","Y",42,"Y","N","Y","Y","Yes"
1996217,"PRICEWATERHOUSECOOPERS LLP","1 N UPPER WACKER DRIVE","","CHICAGO","IL","United States","60606","Y",238,"Y","Y","N","N","Yes"
1996595,"CAVANAUGH NELSON PLC","999 WATERSIDE DRIVE","SUITE 2250","NORFOLK","VA","United States","23510","N",,"","N","Y","N",""
1992258,"ERNST & YOUNG LLP","4131 PARKLAKE AVE STE 500","","RALEIGH","NC","United States","27612","Y",42,"Y","Y","N","N","Yes"
1996705,"ASHLAND PARTNERS & COMPANY, LLP","3512 EXCEL DR.","SUITE 103","MEDFORD","OR","United States","97504","Y",3783,"Y","N","Y","N",""
1990277,"DELOITTE & TOUCHE","PO BOX 1787","","GEORGE TOWN, GRAND CAYMAN","","Cayman Islands","KY1-1109","Y",1096,"Y","Y","N","N","Yes"
1996707,"UHY, LLP","15 SUNNEN DRIVE","SUITE 100","ST. LOUIS","MO","United States","63143-3819","Y",1195,"Y","N","Y","N",""
1990432,"DELOITTE","35/F ONE PACIFIC PLACE","88 QUEENSWAY","ADMIRALTY","","Hong Kong","","Y",1113,"Y","Y","N","N","Not Yet Received"
1996764,"DELOITTE & TOUCHE LLP","555 W. 5TH STREET # 2700","","LOS ANGELES","CA","United States","90013","Y",34,"Y","N","Y","Y","Yes"
1992891,"SIANA CARR O'CONNOR & LYNAM, LLP","1500 E. LANCASTER AVE","SUITE 202","PAOLI","PA","United States","19301","Y",3705,"Y","N","Y","N",""
1994607,"PLANTE MORAN LLC","10 S. RIVERSIDE PLAZA","9TH FLOOR","CHICAGO","IL","United States","60606","Y",6581,"Y","N","Y","N",""
1994035,"LARRY LIBERFARB, P.C.","11 VANDERBILT AVE.","SUITE 220","NORWOOD","MA","United States","02062","N",,"N","N","Y","N",""
1997056,"ASHLAND PARTNERS & COMPANY LLP","525 BIGHAM KNOLL SUITE 200","","JACKSONVILLE","OR","United States","97530","Y",3783,"N","N","Y","N",""
1997056,"PRICEWATERHOUSE COOPER","300 MADISON AVENUE","","NEW YORK","NY","United States","10017-6204","Y",238,"Y","Y","N","N","Yes"
1997056,"ARMANINO","50 W SAN FERNANDO ST","","SAN JOSE","CA","United States","95113","Y",32,"Y","Y","N","N","Yes"
1995138,"ADEPTUS PARTNERS, LLC","733 ROUTE 35 NORTH","SUITE A","OCEAN","NJ","United States","07712","Y",100,"Y","N","Y","Y","Yes"
1995285,"FORVIS MAZARS, LLP","135 WEST 50TH STREET","","NEW YORK","NY","United States","10020","Y",339,"Y","N","Y","N",""
1995285,"FORVIS MAZARS, LLP","500 RIDGEFIELD COURT","","ASHEVILLE","NC","United States","28806","Y",339,"Y","Y","N","N","Yes"
1995542,"ASHLAND PARTNERS & COMPANY LLP","3512 EXCEL DRIVE","SUITE 103","MEDFORD","OR","United States","97504","Y",3783,"N","N","Y","N",""
1995615,"ASHLAND PARTNERS & COMPANY LLP","3512 EXCEL DRIVE","SUITE 103","MEDFORD","OR","United States","97504","Y",3783,"N","N","Y","N",""
1995604,"KNIGHT, ROLLERI, SHEPPARD, CPAS LLP","1499 POST ROAD","","FAIRFIELD","CT","United States","06824","Y",3437,"Y","N","Y","N",""
1996909,"PLANTE & MORAN PLLC","27400 NORTHWESTERN HWY","","SOUTHFIELD","MI","United States","48034","Y",166,"Y","N","Y","N",""
1996071,"KPMG LLP","345 PARK AVENUE","","NEW YORK","NY","United States","10154","Y",185,"Y","Y","N","N","Not Yet Received"
1996071,"PRICEWATERHOUSECOOPERS LLP","1 EMBANKMENT PLACE","","LONDON","","United Kingdom","WC2N 6RH","Y",876,"Y","Y","N","N","Not Yet Received"
1996071,"FORVIS MAZARS, LLP","135 W 50TH STREET","","NEW YORK","NY","United States","10020","Y",686,"Y","Y","N","N","Not Yet Received"
1996071,"PRICEWATERHOUSECOOPERS, SOCIETE COOPERATIVE","2 RUE GERHARD","B.P.1443","MERCATOR","","Luxembourg","L-1014","Y",1328,"Y","Y","N","N","Yes"
1996663,"DSWD GROUP","20646 ABBEY WOODS CT. N","SUITE 201","FRANKFORT","IL","United States","60423","N",,"","N","Y","N",""
1996987,"DELOITTE & TOUCHE LLP","250 EAST 5TH STREET","SUITE 1900","CINCINNATI","OH","United States","45202","Y",34,"Y","N","Y","N",""
1997028,"THE COLEMAN COMPANY, PLLC","8 EAST HURON STREET","#2201","CHICAGO","IL","United States","60611","Y",5153,"Y","N","Y","N",""
1997115,"PRICEWATERHOUSECOOPERS","ONE SPENCER DOCK","NORTHWALL QUAY","DUBLIN 1","","Ireland","","Y",1366,"Y","Y","N","N","Yes"
1997115,"PRICEWATERHOUSECOOPERS LLP","18 YORK ST #2600","","TORONTO","","Canada","M5J 0B2","Y",271,"Y","Y","N","N","Yes"
1997115,"PRICEWATERHOUSECOOPERS LLP","300 MADISON AVE","","NEW YORK","NY","United States","10017","Y",238,"Y","Y","N","N","Yes"
1997115,"PRICEWATERHOUSECOOPERS, SOCIÉTÉ COOPÉRATIVE","2 RUE GERHARD MERCATOR","","LUXEMBOURG CITY","","Luxembourg","B.P.1443 L1","Y",1328,"Y","Y","N","N","Yes"
1997115,"PRICEWATERHOUSECOOPERS (CAYMAN ISLANDS)","18 FORUM LANE, CAMANA BAY","PO BOX 258","GRAND CAYMAN","","Cayman Islands","KY1-1104","Y",1266,"Y","Y","N","N","Yes"
1997143,"ASHLAND PARTNERS & COMPANY LLP","3512 EXCEL DR.","STE 103","MEDFORD","OR","United States","97504","Y",3783,"Y","N","Y","N",""
1998316,"PRICEWATERHOUSECOOPERS LLP","ONE NORTH WACKER","","CHICAGO","IL","United States","60606","Y",238,"Y","Y","N","Y","Yes"
1998150,"ROSEN KUSLANSKY, CPA, P.C.","7 PENN PLAZA","SUITE 1700","NEW YORK","NY","United States","10001","Y",3032,"Y","Y","N","N","Not Yet Received"
1998150,"EISNERAMPER LLP","733 THIRD AVENUE","","NEW YORK","NY","United States","10017","Y",274,"Y","Y","N","N","Not Yet Received"
1998224,"CITRIN COOPERMAN & COMPANY LLP","50 ROCKEFELLER PLAZA","","NEW YORK","NY","United States","10020","Y",2468,"Y","N","Y","N",""
1998218,"COHEN & COMPANY, LTD.","342 N. WATER ST.","SUITE 830","MILWAUKEE","WI","United States","53202","Y",925,"Y","N","Y","Y","Yes"
1998316,"PRICEWATERHOUSECOOPERS","18 FORUM LANE, CAMANA BAY, P.O. BOX 258","","GRAND CAYMAN","","Cayman Islands","KY1-1104","Y",1266,"Y","Y","N","N","Yes"
1998360,"ERNST & YOUNG LLP","220 SOUTH SIXTH STREET","SUITE 1400","MINNEAPOLIS","MN","United States","55402","Y",42,"Y","Y","N","N","Yes"
1998445,"ASHLAND PARTNERS & COMPANY LLP","3512 EXCEL DR, SUITE 103","","MEDFORD","OR","United States","97504","Y",3783,"N","N","Y","N",""
1999493,"ERNST & YOUNG LTD.","SUITE 6401","62 FORUM LANE, CAMANA BAY","PO BOX 510","","Cayman Islands","KY1-1106","Y",1655,"Y","Y","N","N","Yes"
1998477,"ASSURANCE DIMENSIONS","4920 W CYPRESS ST","","TAMPA","FL","United States","33607","N",,"","N","Y","N",""
1999281,"ERNST AND YOUNG, LLP","ONE COMMERCE SQUARE, SUITE 700","2005 MARKET STREET","PHILADELPHIA","PA","United States","19103","Y",42,"Y","N","Y","N",""
1995933,"SPICER JEFFRIES LLP","4601 DTC BOULEVARD, SUITE 700","","DENVER","CO","United States","80237","Y",349,"Y","Y","Y","Y","Not Yet Received"
1999053,"EISNER AMPER LLP","750 THIRD AVENUE","","NEW YORK","NY","United States","10017","Y",274,"Y","Y","Y","N","Yes"
1999355,"COHEN & COMPANY","1350 EUCLID AVE","SUITE 800","CLEVELAND","OH","United States","44115","Y",925,"Y","N","Y","N",""
1998695,"LILLING & COMPANY LLP","TWO SEAVIEW BOULEVARD","","PORT WASHINGTON","NY","United States","11050","Y",3480,"Y","N","Y","N",""
1999493,"ERNST & YOUNG LLP","55 IVAN ALLEN JR. BLVD","SUITE 1000","ATLANTA","GA","United States","30308","Y",42,"Y","Y","N","N","Yes"
1999493,"PRICE WATERHOUSE COOPERS","18 FORUM LANE","CAMANA BAY, P.O. BOX 258","GRAND CAYMAN","","Cayman Islands","KY1-1104","Y",1266,"Y","Y","N","N","Yes"
1999493,"PRICE WATERHOUSE COOPERS","ONE SPENCER DOCK","NORTH WALL QUAY","DUBLIN 1","","Ireland","","Y",1366,"Y","Y","N","N","Yes"
1999493,"ERNST & YOUNG AUDITORES INDEPENDENTES S/S LTDA","PRAIA DE BOTAFOGO, 370","","RIO DE JANEIRO","","Brazil","","Y",1448,"Y","N","N","Y","Yes"
1999493,"WITHUMSMITH+BROWN, PC","200 JEFFERSON PARK","SUITE 400","WHIPPANY","NJ","United States","07981","Y",100,"Y","Y","N","N","Yes"
1998626,"WALTER & SHUFFAIN, P.C.","ONE INTERNATIONAL PLACE,","SUITE 1010","BOSTON","MA","United States","02110","Y",5439,"N","N","Y","N",""
1995994,"BPM, LLP","ONE CALIFORNIA STREET","SUITE 2500","SAN FRANCISCO","CA","United States","94111","Y",207,"Y","N","Y","N",""
1995671,"ASHLAND PARTNERS & COMPANY LLP","3512 EXCEL DR","SUITE 103","MEDFORD","OR","United States","97504","Y",3783,"N","N","Y","N",""
1995938,"PRICEWATERHOUSE COOPERS LLP","300 MADISON AVENUE","","NEW YORK","NY","United States","10017-6204","Y",238,"Y","N","Y","Y","Yes"
1995680,"ERNST & YOUNG","5 TIMES SQUARE","","NEW YORK","NY","United States","10036","Y",42,"Y","Y","N","N","Yes"
1996047,"ASHLAND PARTNERS & COMPANY LLP","3512 EXCEL DR","SUITE 103","MEDFORD","OR","United States","97504","Y",3783,"Y","N","Y","N",""
1998517,"O'CONNOR DAVIES","665 FIFTH AVENUE","","NEW YORK","NY","United States","10022","Y",127,"Y","N","Y","N",""
1998517,"COHNREZNICK LLP","1212 AVENUE OF THE AMERICAS","","NEW YORK","NY","United States","10036","Y",596,"Y","Y","N","N","Yes"
1997564,"MOSS ADAMS LLP","999 THIRD AVENUE STE 2800","","SEATTLE","WA","United States","98104","Y",659,"Y","Y","Y","N","Yes"
1988225,"SEMPLE, MARCHAL & COOPER, LLP","3101 NORTH CENTRAL AVENUE","SUITE 1600","PHOENIX","AZ","United States","85012","Y",178,"Y","N","Y","Y","No"
1994798,"KPMG LLP","345 PARK AVENUE","","NEW YORK","NY","United States","10154","Y",185,"Y","N","Y","N",""
1993401,"ASHLAND PARTNERS & COMPANY LLP","3512 EXCEL DR","SUITE 103","MEDFORD","OR","United States","97504","Y",3783,"Y","N","Y","N",""
2000740,"MEADOWS URQUHART ACREE & COOK LLP","1802 BAYBERRY COURT","SUITE 102","RICHMOND","VA","United States","23226","Y",3688,"Y","Y","N","N","Not Yet Received"
1999240,"PRICEWATERHOUSECOOPERS LLP","101 SEAPORT BOULEVARD","","BOSTON","MA","United States","02210","Y",238,"Y","Y","N","Y","Yes"
1999240,"BELFINT LYONS & SHUMAN","1011 CENTRE ROAD","SUITE 310","WILMINGTON","DE","United States","19805","N",,"","Y","N","Y","Yes"
1999004,"PRICEWATERHOUSECOOPERS JAPAN LLC","1-1-1","OTEMACHI, CHIYODA-KU","TOKYO","","Japan","100-0004","Y",2743,"Y","Y","N","N","No"
1999004,"ERNST & YOUNG SHINNIHON LLC","1-1-2","YURAKU-CHO, CHIYODA-KU","TOKYO","","Japan","100-0006","Y",789,"Y","N","N","Y","No"
2000240,"PRICEWATERHOUSECOOPERS LLP","101 SEAPORT BLVD","","BOSTON","MA","United States","02210","Y",238,"Y","Y","Y","N","Yes"
2000740,"CROWE LP","488 MADISON AVE., SUITE 1200","","NEW YORK","NY","United States","10022","Y",173,"Y","N","Y","N",""
2000743,"KPMG LLP","100 NORTH TAMPA STREET","#1700","TAMPA","FL","United States","33602-5145","Y",185,"Y","N","Y","Y","Yes"
2000754,"PRICEWATERHOUSECOOPERS LLP","300 MADISON AVENUE","","NEW YORK","NY","United States","10017","Y",238,"Y","N","Y","Y","Yes"
2000247,"ASHLAND PARTNERS & COMPANY LLP","3512 EXCEL DRIVE","SUITE 103","MEDFORD","OR","United States","97504","Y",392,"Y","N","Y","N",""
1999430,"PRICEWATERHOUSECOOPERS LLP","18 FORUM LANE","CAMANA BAY","GRAND CAYMAN","","Cayman Islands","","Y",1266,"Y","Y","N","N","Yes"
1999430,"KPMG","P.O. BOX 493 CENTURY YARD, CRICKET SQUARE","","GRAND CAYMAN","","Cayman Islands","","Y",1323,"Y","Y","N","N","Yes"
2000723,"PRICEWATERHOUSECOOPERS LLP","101 SEAPORT BOULEVARD","","BOSTON","MA","United States","02210","Y",238,"Y","N","Y","Y","Yes"
2000761,"ASHLAND PARTNERS & COMPANY LLP","3512 EXCEL DRIVE","SUITE 103","MEDORD","OR","United States","97504","Y",3783,"Y","N","Y","Y","Yes"
2000781,"ASHLAND PARTNERS & COMPANY LLP","3512 EXCEL DRIVE, SUITE 103","","MEDFORD","OR","United States","97504","Y",3783,"Y","N","Y","N",""
1998409,"DELOITTE & TOUCHE LLP","30 ROCKEFELLER CENTER","","NEW YORK","NY","United States","10112","Y",34,"Y","N","N","Y","Yes"
1998423,"ERNST & YOUNG LLP","200 CLARENDON STREET","","BOSTON","MA","United States","02116","Y",42,"Y","Y","N","N","Yes"
1998423,"ERNST & YOUNG LTD.","62 FORUM LANE, CAYMAN BAY","","GRAND CAYMAN","","Cayman Islands","","Y",1655,"Y","Y","N","N","Yes"
1998423,"DELOITTE AUDIT SOCIÉTÉ À RESPONSABILITÉ LIMITÉE","20 BOULEVARD DE KOCKELSCHEUER","L-1821","LUXEMBOURG","","Luxembourg","","Y",1287,"Y","Y","N","N","Yes"
1998421,"ERNST & YOUNG LLP","200 CLARENDON","","BOSTON","MA","United States","02116","Y",42,"Y","Y","N","N","Yes"
1998421,"ERNST & YOUNG LTD.","62 FORUM LANE, CAYMAN BAY","P.O. BOX 510","GRAND CAYMAN","","Cayman Islands","","Y",1655,"Y","Y","N","N","Yes"
1998419,"DELOITTE AND TOUCHE, LLP","200 BERKELEY STREET","","BOSTON","MA","United States","02116-5022","Y",34,"Y","Y","N","N","Yes"
1998419,"DELOITTE AND TOUCHE","ONE CAPITAL PLACE","PO BOX 1787","GRAND CAYMAN","","Cayman Islands","KYI-1109","Y",1096,"Y","Y","N","N","Yes"
1998693,"WEAVER & TIDWELL","2300 NORTH FIELD STREET","","DALLAS","TX","United States","75201","Y",410,"Y","Y","N","N","Yes"
1997574,"ASA & ASSOCIATES LLP","AUROBINDO TOWER, 81/1","THIRD FLOOR,  ADCHINI, AUROBINDO MARG","NEW DELHI","","India","110017","Y",3083,"Y","N","Y","N",""
1996856,"ASA & ASSOCIATES LLP","AUROBINDO TOWER, 81/1","THIRD FLOOR,  ADCHINI, AUROBINDO MARG","NEW DELHI","","India","110017","Y",3083,"Y","N","Y","N",""
1999558,"PRICEWATERHOUSECOOPERS LLP","300 MADISON AVENUE","24TH FLOOR","NEW YORK","NY","United States","10017","Y",238,"Y","Y","N","N","Yes"
1999558,"ERNST & YOUNG","5 TIMES SQUARE","","NEW YORK","NY","United States","10036","Y",42,"Y","Y","N","N","Yes"
2000932,"COHEN FUND AUDIT SERVICES","1350 EUCLID AVENUE","SUITE 800","CLEVELAND","OH","United States","44115","Y",925,"Y","N","Y","N",""
2001017,"BONADIO & CO., LLP","171 SULLY'S TRAIL","SUITE 201","PITTSFORD","NY","United States","14534","Y",1884,"Y","N","Y","N",""
2000838,"PRICEWATERHOUSECOOPERS LLP","45 SOUTH SEVENTH STREET","SUITE 3400","MINNEAPOLIS","MN","United States","55402","Y",238,"Y","N","Y","Y","Yes"
1998765,"DELOITTE & TOUCHE LLP","1700 MARKET STREET","","PHILADELPHIA","PA","United States","19103","Y",34,"Y","Y","N","N","Yes"
1998771,"DELOITTE & TOUCHE LLP","1700 MARKET STREET","","PHILADELPHIA","PA","United States","19103","Y",34,"Y","Y","Y","N","Yes"
1998787,"HAYNIE & COMPANY","1785 WEST 2320 SOUTH","","SALT LAKE CITY","UT","United States","84119","Y",457,"Y","N","Y","N",""
1998815,"DELOITTE & TOUCHE LLP","1700 MARKET STREET","","PHILADELPHIA","PA","United States","19103","Y",34,"Y","Y","Y","N","Yes"
1998815,"PRICEWATERHOUSECOOPERS AG","BIRCHSTRASSE 160","","ZURICH","","Switzerland","8050","Y",1358,"Y","Y","N","N","Yes"
1998815,"DELOITTE AUDIT SARL","20, BOULEVARD DE KOCKELSCHEUER","","LUXEMBOURG","","Luxembourg","L-1821","Y",1287,"Y","Y","N","N","Yes"
1998946,"KPMG LLP","777 DUNSMUIR STREET","PO BOX 10426","VANCOUVER, BC","","Canada","V7Y 1K3","Y",85,"Y","N","Y","Y","Yes"
1995744,"BAKER TILLY","2500 DALLAS PARKWAY","SUITE300","PLANO","TX","United States","75093","Y",23,"Y","N","Y","N",""
1995955,"ERNST AND YOUNG","5 TIMES SQUARE","","NEW YORK","NY","United States","10036","Y",42,"Y","Y","N","N","Yes"
1995955,"DELOITTE & TOUCHE LLP","30 ROCKEFELLER PLAZA","","NEW YORK","NY","United States","10112","Y",34,"Y","Y","N","N","Yes"
1998815,"DELOITTE & TOUCHE LLP","60 NEXUS WAY, 8TH FLOOR","CAMANA BAY, PO BOX 1787","GRAND CAYMAN","","Cayman Islands","KY1-1109","Y",1096,"Y","Y","N","N","Yes"
1998815,"DELOITTE IRELAND","EARLSFORT TERRACE","","DUBLIN","","Ireland","2","Y",1193,"Y","Y","N","N","Yes"
1998815,"PRICEWATERHOUSECOOPERS, SOCIÉTÉ COOPÉRATIVE","2, RUE GERHARD MERCATOR","B.P. 1443","LUXEMBOURG","","Luxembourg","L-1014","Y",1328,"Y","Y","N","N","Yes"
1998815,"PRICEWATERHOUSECOOPERS LTD.","P.O. BOX HM 1171","","HAMILTON","","Bermuda","HM EX","Y",1403,"Y","Y","N","N","Yes"
1998815,"PRICEWATERHOUSECOOPERS","18 FORUM LANE, CAMANA BAY","P.O. BOX 258","GRAND CAYMAN","","Cayman Islands","KY1-1104","Y",1266,"Y","Y","N","N","Yes"
1998714,"ERNST & YOUNG LLP","220 SOUTH SIXTH STREET SUITE 1400","","MINNEAPOLIS","MN","United States","55402","Y",42,"Y","Y","N","N","Yes"
1987286,"PRICEWATERHOUSECOOPERS, LLP","PRICEWATERHOUSECOOPERS CENTER","300 MADISON AVENUE","NEW YORK","NY","United States","10017","Y",238,"Y","N","Y","Y","Yes"
1986543,"KPMG LLP","345 PARK AVENUE","","NEW YORK","NY","United States","10154-0102","Y",185,"Y","Y","N","N","Yes"
1986543,"KPMG AZSA LLC","OTEMACHI FINANCIAL CITY SOUTH TOWER","1-9-7 OTEMACHI","CHIYODA-KU, TOKYO","","Japan","100-8172","Y",1009,"Y","Y","N","Y","Not Yet Received"
1986543,"KPMG LLP","15 CANADA SQUARE","","LONDON","","United Kingdom","E14 5GL","Y",1118,"Y","Y","N","Y","Not Yet Received"
1987286,"PRICEWATERHOUSECOOPERS LLP","THREE EMBARCADERO CENTER","","SAN FRANCISCO","CA","United States","94111-4004","Y",238,"Y","Y","N","N","Yes"
1995954,"ERNST & YOUNG LLP","55 IVAN ALLEN JR BLVD","SUITE 1000","ALTANTA","GA","United States","30308","Y",42,"Y","N","N","Y","Yes"
1995973,"WIPFLI, LLC","235 PEACHTREE STREET","SUITE 1800","ATLANTA","GA","United States","30303","Y",344,"Y","N","N","Y","Yes"
1996015,"BAKER TILLY US, LLP","2500 DALLAS PARKWAY, SUITE 300","","PLANO","TX","United States","75093","Y",23,"Y","N","Y","N",""
1996015,"SPICER JEFFRIES LLP","5251 S. QUEBEC ST., SUITE 200","","GREENWOOD VILLAGE","CO","United States","80111","Y",349,"Y","Y","N","N","Yes"
1996015,"FRANK, RIMERMAN + CO, LLP","60 SOUTH MARKET STREET","SUITE 500","SAN JOSE","CA","United States","95113","Y",1596,"Y","Y","N","N","Yes"
1996010,"KPMG LLP","345 PARK AVENUE","","NEW YORK","NY","United States","10154-0102","Y",185,"Y","Y","N","N","Not Yet Received"
1995560,"COHEN & CO.","1350 EUCLID AVENUE","SUITE 800","CLEVELAND","OH","United States","44115","Y",925,"Y","Y","Y","N","Yes"
1996080,"SPICER JEFFRIES LLP","4601 DTC BLVD, SUITE 700","","DENVER","CO","United States","80237","Y",349,"Y","Y","N","Y","Yes"
1993342,"KPMG LLP","345 PARK AVENUE","","NEW YORK","NY","United States","10154","Y",185,"Y","Y","N","N","Yes"
1993342,"KPMG LLP","1 HARBOURMASTER PLACE","IFSC","DUBLIN 1","","Ireland","D01 F6F5","Y",1116,"Y","Y","N","N","Yes"
1993342,"KPMG LLP","SIX, CRICKET SQUARE","","GEORGE TOWN","","Cayman Islands","KY1-1106","Y",1323,"Y","Y","N","N","Yes"
1993342,"ERNST & YOUNG LLP","ONE MANHATTAN WEST","","NEW YORK","NY","United States","10001","Y",42,"Y","Y","N","N","Yes"
1993342,"ERNST & YOUNG LTD.","62 FORUM LANE","CAMANA BAY","GEORGE TOWN","","Cayman Islands","","Y",1655,"Y","Y","N","N","Yes"
1993342,"ERNST & YOUNG CHARTERED ACCOUNTANTS","HARCOURT CENTRE","HARCOURT STREET","DUBLIN","","Ireland","DUBLIN D2","Y",1411,"Y","Y","N","N","Yes"
2000750,"PRICEWATERHOUSECOOPERS LLP","400 BELLEMEADE ST","SUITE 402","GREENSBORO","NC","United States","27401","Y",238,"Y","Y","N","N","Yes"
2001072,"ASSURANCE DIMENSIONS, INC.","4920 WEST CYPRESS STREET","SUITE 102","TAMPA","FL","United States","33607","Y",5036,"Y","N","Y","N",""
1999777,"EISNERAMPER LLP","750 3RD AVENUE","","NEW YORK","NY","United States","10017","Y",274,"Y","Y","N","N","Yes"
2001093,"EISNERAMPER, LLP","ONE CALIFORNIA","SUITE 1700","SAN FRANCISCO","CA","United States","94111","Y",274,"Y","N","Y","N",""
2001093,"WEAVER AND TIDWELL, LLP","1230 ROSECRANS AVENUE","SUITE 510","MANHATTAN BEACH","CA","United States","90266","Y",410,"Y","Y","N","N","Yes"
2001093,"MARCUM LLP","777 S FIGUEROA ST","29TH FLOOR","LOS ANGELES","CA","United States","90017","Y",688,"Y","Y","N","N","Yes"
2000491,"DEMARCO SCIACCOTTA WILKENS & DUNLEAVY, LLP","20646 ABBEY WOODS CT N","SUITE 201","FRANKFORT","IL","United States","60423","Y",5376,"Y","N","Y","N",""
2000492,"MOSS ADAMS, LLP","999 3RD AVE","SUITE 2800","SEATTLE","WA","United States","98104-4019","Y",659,"Y","Y","N","N","Yes"
2000576,"DELOITTE & TOUCHE LLP","200 BERKELEY STREET","","BOSTON","MA","United States","02116","Y",34,"Y","Y","N","N","Yes"
2000552,"DELOITTE & TOUCHE LLP","ONE CAPITAL PLACE","136 SHEDDEN ROAD, P.O. BOX 1787","GEORGE TOWN","","Cayman Islands","KY1-1109","Y",34,"Y","Y","N","N","Yes"
2000552,"GRANT THORNTON LLP","13-18 CITY QUAY","","DUBLIN 2","","Ireland","D02 ED70","Y",1402,"Y","Y","N","N","Yes"
1996627,"KPMG LLP","200 E RANDOLPH ST","#5500","CHICAGO","IL","United States","60601","Y",185,"Y","Y","Y","N","Yes"
1997784,"ERNST & YOUNG LLP","155 NORTH WACKER DRIVE","","CHICAGO","IL","United States","60606-1787","Y",42,"Y","N","Y","N",""
1997784,"ERNST & YOUNG LLP","155 NORTH WACKER DRIVE","","CHICAGO","IL","United States","60606-1787","Y",42,"Y","N","N","Y","Yes"
1997840,"WEAVER & TIDWELL, LLP","24 GREENWAY PLAZA","SUITE 1800","COLORADO SPRINGS","CO","United States","77046","Y",410,"Y","Y","N","N","Not Yet Received"
2000618,"SEMPLE, MARCHAL & COOPER, LLP","3101 NORTH CENTRAL AVENUE","SUITE 1600","PHOENIX","AZ","United States","85012","Y",178,"Y","N","Y","N",""
1984213,"PRICEWATERHOUSECOOPERS LLP","45 S. 7TH STREET","SUITE 3400","MINNEAPOLIS","MN","United States","55402","Y",238,"Y","N","Y","Y","Yes"
1988621,"KPMG LLP","345 PARK AVE","","NEW YORK","NY","United States","10154","Y",185,"Y","Y","N","N","Yes"
1988618,"RSM US LLP","30 SOUTH WACKER DR","STE 3300","CHICAGO","IL","United States","60606","Y",49,"Y","N","Y","Y","Yes"
1988618,"KPMG LLP","677 WASHINGTON BLVD","","STAMFORD","CT","United States","06901","Y",185,"Y","Y","N","N","Yes"
1990565,"WIPFLI LLP","100 TRI-STATE INTERNATIONAL","SUITE 300","LINCOLNSHIRE","IL","United States","60069","Y",344,"Y","N","Y","N",""
1988032,"PRICEWATERHOUSECOOPERS LLP","300 MADISON AVE","","NEW YORK","NY","United States","10017","Y",238,"Y","Y","N","N","Yes"
2000738,"KPMG LLP","100 NORTH TAMPA STREET","SUITE 1700","TAMPA","FL","United States","33602-5145","Y",185,"Y","N","Y","Y","Yes"
2000188,"ANDREWS HOOPER PAVLIK PLC","43252 WOODWARD AVENUE, SUITE 150","","BLOOMFIELD HILLS","MI","United States","48302","Y",1426,"Y","N","Y","N",""
2000777,"KPMG LLP","345  PARK AVENUE","","NEW YORK","NY","United States","10154","Y",185,"Y","N","Y","Y","Yes"
1997882,"DCPA","2121 AVENUE OF THE STARS","SUITE 800","CENTURY CITY","CA","United States","90067","Y",6567,"Y","N","Y","N",""
1998303,"BAKER NEWMAN & NOYES, LLC","280 FORE STREET","","PORTLAND","ME","United States","04101","Y",231,"Y","N","Y","N",""
1998303,"EISNERAMPER LLC","733 THIRD AVENUE","","NEW YORK","NY","United States","10017","Y",274,"Y","Y","N","N","Yes"
1998223,"HILL, BARTH & KING LLC","100 PINEWOOD LANE","SUITE 201","WARRENDALE","PA","United States","15086","Y",2206,"Y","N","Y","N",""
1988956,"KPMG LLP","1000 WALNUT","SUITE 1000","KANSAS","MO","United States","64106","Y",185,"Y","Y","N","N","No"
1996127,"KPMG LLP","PO BOX 493","","345 PARK AVENUE","NY","United States","10154","Y",185,"Y","Y","N","N","Yes"
2000918,"RICHEY, MAY & CO.,LLP","9605 S KINGSTON CT.","SUITE 200","ENGLEWOOD","CO","United States","80112","Y",673,"Y","Y","N","N","Yes"
2000952,"COHEN & COMPANY, LTD","1350 EUCLID AVENUE","SUITE 800","CLEVELAND","OH","United States","44115","Y",925,"Y","Y","N","N","Yes"
2000952,"FORVIS, LLP","201 N ILLINOIS STREET","SUITE 700","INDIANAPOLIS","IN","United States","46204","Y",686,"Y","Y","N","N","Yes"
2000952,"CHERRY BEKAERT LLP","200 SOUTH 10TH STREET","SUITE 900","RICHMOND","VA","United States","23219","Y",677,"Y","Y","N","N","Yes"
2000768,"ERNST & YOUNG LLP","8484 WESTPARK DR","","MCLEAN","VA","United States","22102","Y",42,"Y","N","Y","Y","Yes"
2000992,"ERNST & YOUNG S.A.","35E AVENUE JOHN F. KENNEDY","","LUXEMBOURG","","Luxembourg","L-1855","Y",1367,"Y","Y","N","Y","Yes"
2000992,"GRANT THORNTON","757 THIRD AVENUE","","NEW YORK","NY","United States","10017","Y",248,"Y","Y","Y","N","Yes"
2000992,"PRICEWATERHOUSE COOPERS","300 MADISON AVENUE","","NEW YORK","NY","United States","10017","Y",238,"Y","Y","N","N","Yes"
2000992,"ERNST & YOUNG LLP","ONE MANHATTAN WEST","","NEW YORK","NY","United States","10001","Y",42,"Y","Y","N","N","Yes"
2000992,"ERNST & YOUNG LIMITED","62 FORUM LANE","","CAMANA BAY","","Cayman Islands","","Y",1655,"Y","Y","N","N","Yes"
2000997,"FRANK, RIMERMAN + CO. LLP","1801 PAGE MILL ROAD","","PALO ALTO","CA","United States","94304","Y",1596,"Y","Y","N","N","Yes"
1997555,"CHERRY BEKAERT, LLP","222 SECOND AVENUE SOUTH","SUITE 1240","NASHVILLE","TN","United States","37201","Y",677,"Y","Y","N","N","Not Yet Received"
2000062,"ERNST & YOUNG, LLP","4131 PARKALAKE AVENUE","SUITE 500","RALEIGH","NC","United States","27612-2389","Y",42,"Y","Y","Y","N","Yes"
1990545,"COHNREZNICK LLP","14675 DALLAS PKWY","SUITE 150","DALLAS","TX","United States","75254","Y",596,"Y","N","Y","N",""
1997913,"KPMG, LLP","345 PARK AVENUE","","NEW YORK","NY","United States","10154","Y",185,"Y","Y","N","N","Not Yet Received"
1998415,"WALTER & SHUFFAIN, P. C.","ONE INTERNATIONAL PLACE","","BOSTON","MA","United States","02110","Y",5439,"N","N","Y","N",""
1998489,"PRICEWATERHOUSECOOPERS,LLP","300 MADISON AVE","","NEW YORK","NY","United States","10017","Y",238,"Y","Y","N","N","Not Yet Received"
1996339,"MCM CPAS & ADVISORS","2600 MEIDINGER TOWER","462 S 4TH STREET","LOUISVILLE","KY","United States","40202","Y",2276,"Y","N","Y","N",""
1998261,"ASHLAND PARTNERS & COMPANY, LLP","3512 EXCEL DR, SUITE 103","","MEDFORD","OR","United States","97504","Y",3783,"Y","N","Y","N",""
2000905,"GRANT THORNTON","1717 MAIN STREET","SUITE 1800","DALLAS","TX","United States","75201","Y",248,"Y","N","N","Y","Yes"
2000905,"ERNST & YOUNG LLP","2323 VICTORY AVENUE","SUITE 2000","DALLAS","TX","United States","75219","Y",42,"Y","Y","N","N","Yes"
2000905,"ASHLAND PARTNERS & COMPANY LLP","3512 EXCEL DRIVE","SUITE 103","MEDFORD","OR","United States","97504","Y",3783,"Y","N","Y","N",""
2000358,"PRICEWATERHOUSECOOPERS","18 FORUM LANE","","GEORGE TOWN","","Cayman Islands","","Y",1266,"Y","Y","N","N","Yes"
2000358,"DELOITTE IRELAND LLP","29 EARLSFORT TERRACE","","DUBLIN 2","","Ireland","","Y",1193,"Y","Y","N","N","Yes"
2000925,"SPICER JEFFRIES LLP","4601 DTC BOULEVARD","SUITE 700","DENVER","CO","United States","80237","Y",349,"Y","Y","N","N","Yes"
2000831,"ASA & ASSOCIATES LLP","AUROBINDO TOWER, 81/1","THIRD FLOOR,  ADCHINI, AUROBINDO MARG","NEW DELHI","","India","110017","Y",3083,"Y","N","Y","N",""
1992320,"LIEBMAN GOLDBERG & HYMOWITZ LLP","595 STEWART AVENUE","SUITE 420","GARDEN CITY","NY","United States","11530","Y",473,"Y","Y","Y","N","Not Yet Received"
1998099,"KPMG LLP","345 PARK AVENUE","","NEW YORK","NY","United States","10154","Y",185,"Y","Y","Y","Y","Not Yet Received"
1998099,"PRICEWATERHOUSECOOPERS LLP","ONE SPENCER DOCK","NORTH WALL QUAY","DUBLIN","","Ireland","","Y",1366,"Y","Y","N","N","Not Yet Received"
1998099,"KPMG LLP","SIX CRICKET SQUARE","","GEORGE TOWN","","Cayman Islands","KY1-1106","Y",1323,"Y","Y","N","N","Not Yet Received"
1998099,"PRICEWATERHOUSECOOPERS LLP","18 FORUM LANE","CAMANA BAY","GEORGE TOWN","","Cayman Islands","KY1-1104","Y",1266,"Y","Y","N","N","Not Yet Received"
1998099,"PRICEWATERHOUSECOOPERS, SOCIETE COOPERATIVE","2 RUE GERHARD MERCATOR","","LUXEMBOURG L-1014","","Luxembourg","","Y",1328,"Y","Y","N","N","Not Yet Received"
2000778,"SPICER JEFFERS","4601 DTC BLVD","SUITE 700","DENVER","CO","United States","80237","Y",349,"Y","Y","Y","N","Not Yet Received"
2000835,"WOLF & COMPANY, P.C.","255 STATE ST","","BOSTON","MA","United States","02109-2618","Y",392,"Y","N","Y","N",""
1999389,"ASHLAND PARTNERS & COMPANY LLP","3512 EXCEL DR","SUITE 103","MEDFORD","OR","United States","97504","Y",3783,"Y","N","Y","N",""
1999077,"COHNREZNICK LLP","21700 OXNARD STREET","","WOODLAND HILLS","CA","United States","91367","Y",596,"Y","Y","Y","N","Yes"
2000852,"EIDE BAILY LLP","US BANCORP CENTER, 800 NICOLLET MALL","SUITE 1300","MINNEAPOLIS","MN","United States","55402","Y",286,"Y","N","Y","Y","Yes"
2000284,"FRANK RIMERMAN & CO LLP","60 SOUTH MARKET STREET","SUITE 500","SAN JOSE","CA","United States","95113","Y",1596,"Y","Y","N","N","Yes"
2000404,"DELOITTE & TOUCHE LLP","30 ROCKEFELLER PLAZA","","NEW YORK","NY","United States","10281-1414","Y",34,"Y","Y","Y","N","Not Yet Received"
2000817,"EDELSTEIN & COMPANY, LLP","160 FEDERAL ST","9TH FLOOR","BOSTON","MA","United States","02110","Y",3376,"Y","N","Y","N",""
2000817,"PRICEWATERHOUSECOOPERS LLP","101 SEAPORT BLVD","","BOSTON","MA","United States","02210","Y",238,"Y","Y","N","N","Yes"
2000903,"KPMG LLP","PO BOX 493","","345 PARK AVENUE","NY","United States","10154","Y",185,"Y","Y","N","N","Yes"
1998312,"LALLY & CO., LLC","5700 CORPORATE DR","SUITE 800","PITTSBURGH","PA","United States","15237","Y",3578,"Y","N","Y","N",""
2000931,"ERNST & YOUNG","155 N. WACKER DRIVE","","CHICAGO","IL","United States","60606","Y",42,"Y","N","Y","Y","Yes"
2000931,"KATZ SAPPER & MILLER","800 EAST 96TH STREET, SUITE 500","","INDIANAPOLIS","IN","United States","46240","Y",2804,"Y","Y","N","N","Yes"
2000931,"BOBER, MARKEY, FEDEROVICH & COMPANY","3421 RIDGEWOOD ROAD","SUITE 300","AKRON","OH","United States","44333","Y",1172,"Y","Y","N","N","Yes"
2000931,"DELOITTE & TOUCHE LLP","111 SOUTH WACKER DRIVE","","CHICAGO","IL","United States","60606-4301","Y",34,"Y","Y","N","N","Yes"
1997331,"KEITER, STEPHENS, HURST, GARY & SHREAVES, P.C.","4401 DOMINION BOULEVARD","","GLEN ALLEN","VA","United States","23060","Y",80,"Y","N","Y","N",""
1999168,"KAMDAR DESAI & PATEL LLP","SUMATI SMRUTI CHS","296 CADELL ROAD","MUMBAI","","India","400028","N",,"","N","Y","N",""
2001078,"EISNERAMPER LLP","750 3RD AVENUE","","NEW YORK","NY","United States","10017","Y",274,"Y","Y","N","N","Yes"
1996094,"TANNER LLC","36 STATE ST","SUITE 600","SALT LAKE CITY","UT","United States","84111","Y",270,"Y","Y","N","N","Yes"
1995432,"KEITER","4401 DOMINION BOULEVARD","","GLEN ALLEN","VA","United States","23060","Y",80,"Y","N","Y","N",""
1987814,"ANCHIN, BLOCK & ANCHIN LLP","3 TIMES SQUARE","","NEW YORK","NY","United States","10036","Y",168,"Y","Y","N","N","Not Yet Received"
1993947,"AKRAM","206 HIGH HOUSE RD SUITE 106","SUITE A","CARY","NC","United States","27513","Y",5961,"Y","N","Y","N",""
1996098,"AKRAM","206 HIGH HOUSE RD SUITE 106","SUITE A","CARY","NC","United States","27513","Y",5961,"Y","N","Y","N",""
1995294,"ASHLAND PARTNERS & COMPANY LLP","3512 EXCEL DRIVE","SUITE 103","MEDORD","OR","United States","97504","Y",3783,"Y","N","Y","Y","Yes"
1996145,"ASHLAND PARTNERS & COMPANY, LLP","3512 EXCEL DR","SUITE 103","MEDFORD","OR","United States","97504","Y",3783,"Y","N","Y","N",""
1996145,"EISNERAMPER LLC","ONE LOGAN SQUARE","130 NORTH 18TH STREET, SUITE 3000","PHILADELPHIA","PA","United States","19103","Y",274,"Y","Y","N","N","Yes"
1996056,"GRANT THORNTON LLP","757 3RD AVENUE","9TH FLOOR","NEW YORK","NY","United States","10017","Y",248,"Y","N","Y","N",""
1996183,"PRICE WATERHOUSE COOPERS LLP","601 S. FIGUEROA ST","","LOS ANGELES","CA","United States","90017","Y",238,"Y","Y","N","N","Yes"
1996183,"ASHLAND PARTNERS  & COMPANY","3512 EXCEL DRIVE, SUITE103","","MEDFORD","OR","United States","97504","Y",3783,"Y","N","Y","N",""
1996199,"ASHLAND PARTNERS","3512 EXCEL DRIVE","SUITE 103","MEDFORD","OR","United States","97504","Y",3783,"Y","N","Y","N",""
1996206,"PRICE WATERHOUSE COOPERS LLP","601 S. FIGUEROA ST","","LOS ANGELES","CA","United States","90017","Y",238,"Y","Y","N","N","Yes"
1996206,"ASHLAND PARTNERS  & COMPANY","3512 EXCEL DRIVE, SUITE103","","MEDFORD","OR","United States","97504","Y",3783,"Y","N","Y","N",""
1981657,"PRICEWATERHOUSECOOPERS AARATA LLC","OTEMACHI PARK BUILDING","1-1-1 OTEMACHI","CHIYODA, TOKYO","","Japan","100-0004","Y",2743,"Y","N","N","Y","Yes"
1981657,"ERNST & YOUNG LTD.","35E. AVENUE JOHN F. KENNEDY","L-2017 LUXEMBOURG","BP 780","","Luxembourg","L-1855","Y",1367,"Y","N","N","Y","Yes"
1998035,"RSM US LLP","80 CITY SQUARE","SUITE 700","BOSTON","MA","United States","02129","Y",807,"Y","Y","N","N","Yes"
1998035,"KPMG LLP","TWO FINANCIAL CENTER","60 SOUTH ST","BOSTON","MA","United States","02111","Y",185,"Y","Y","N","N","Yes"
1996560,"ERNST & YOUNG LLP","5 TIMES SQUARE","","NEW YORK","NY","United States","10036","Y",42,"Y","Y","N","N","Yes"
1996560,"ERNST & YOUNG LTD.","62 FORUM LANE","CAMANA BAY","GEORGE TOWN","","Cayman Islands","","Y",1655,"Y","Y","N","N","Yes"
1996560,"CBIZ CPAS P.C.","700 WEST 47TH STREET","SUITE","KANSAS CITY","MO","United States","64112","Y",688,"Y","Y","N","N","Yes"
1998170,"PRICEWATERHOUSECOOPERS LLP","300 MADISON AVENUE","","NEW YORK","NY","United States","10017","Y",238,"Y","Y","Y","Y","Yes"
1998170,"ERNST & YOUNG","5 TIMES SQUARE","","NEW YORK","NY","United States","10036","Y",42,"Y","Y","N","N","Yes"
1997336,"GRAY GRAY & GRAY","150 ROYALL STREET","SUITE 102","CANTON","MA","United States","02021-1054","Y",899,"Y","Y","Y","Y","Not Yet Received"
1997408,"GRAY GRAY & GRAY","150 ROYALL STREET","SUITE 102","CANTON","MA","United States","02021-1054","Y",899,"Y","Y","Y","Y","Not Yet Received"
1996134,"LUTZ & COMPANY, PC","13616 CALIFORNIA ST.","SUITE 300","OMAHA","NE","United States","68154","Y",6473,"Y","N","Y","N",""
1989463,"SQUIRE","1329 S","800 E","OREM","UT","United States","84097","Y",507,"Y","Y","N","N","Yes"
1997610,"ASHLAND PARTNERS & COMPANY, LLP","3512 EXCEL DR, SUITE 103","","MEDFORD","OR","United States","97504","Y",3783,"Y","N","Y","N",""
1997079,"CLARK SCHAEFER HACKETT","ONE EAST FOURTH STREET","SUITE 1200","CINCINNATI","OH","United States","45202","Y",539,"Y","N","Y","N",""
1995735,"EISNERAMPER LLP","733 THIRD AVENUE","","NEW YORK","NY","United States","10017","Y",274,"Y","Y","N","N","Yes"
1995715,"MALONEY & NOVOTNY LLC","1111 SUPERIOR AVENUE","SUITE 700","CLEVELAND","OH","United States","44114","Y",320,"Y","N","Y","N",""
1995821,"BAKER TILLY","2500 DALLAS PKWY","SUITE 300","PLANO","TX","United States","75093","Y",23,"Y","N","Y","N",""
1995140,"FRAZIER & DEETER","1230 PEACHTREE STREET","SUITE 1500","ATLANTA","GA","United States","30309","Y",215,"Y","N","Y","N",""
1995844,"PERROTTI AND CARRADE","1 MCINNIS PARKWAY","SUITE 200","SAN RAFAEL","CA","United States","94903","N",,"","N","Y","N",""
1993485,"HILL, BARTH & KING, LLC","100 PINEWOOD LANE, SUITE 201","","WARRENDALE","PA","United States","15086","Y",2206,"Y","N","Y","N",""
1989492,"BAKER TILLY US, LLP","100 SOUTH ASHLEY DRIVE","SUITE 1550","TAMPA","FL","United States","33602","Y",23,"Y","Y","N","N","Not Yet Received"
1997531,"KEITER, STEPHENS, HURST, GARY & SHREAVES, P.C.","4401 DOMINION BOULEVARD","","GLEN ALLEN","VA","United States","23060","Y",80,"Y","Y","N","N","Not Yet Received"
1995518,"JOHN W. WALTON ACCOUNTANCY CORPORATION","7700 IRVINE CENTER DRIVE","SUITE 800","IRVINE","CA","United States","92618","N",,"","Y","Y","Y","Yes"
1995404,"ERNST AND YOUNG, LLP","ONE COMMERCE SQUARE, SUITE 700","2005 MARKET STREET","PHILADELPHIA","PA","United States","19103","Y",42,"Y","N","Y","N",""
1995621,"PRICEWATERHOUSECOOPERS","ONE INTERNATIONAL TOWERS SYDNEY","WATERMANS QUAY, BARANGAROO","SYDNEY","","Australia","2001","N",,"","Y","N","N","Yes"
1995622,"PRICEWATERHOUSECOOPERS (AUSTRALIA)","ONE INTERNATIONAL TOWERS","WATERMANS QUAY","BARANGAROO","","Australia","2000","N",,"","Y","N","N","Yes"
1995193,"ERNST & YOUNG LLP","200 CLAREDON ST.","","BOSTON","MA","United States","02116","Y",42,"Y","Y","N","Y","Not Yet Received"
1995193,"PRICEWATERHOUSECOOPERS","101 SEAPORT BOULEVARD","SUITE 100","BOSTON","MA","United States","02110","Y",238,"Y","Y","N","Y","Not Yet Received"
1996273,"KPMG LLP","100 NORTH TAMPA STREET","#1700","TAMPA","FL","United States","33602-5145","Y",185,"Y","N","Y","Y","Yes"
1994916,"CLIFTONLARSONALLEN LLP","420 S ORANGE AVE","#500","ORLANDO","FL","United States","32801","Y",655,"Y","Y","N","N","Not Yet Received"
1994916,"BAKER TILLY US, LLP","225 SOUTH 6TH ST","","MINNEAPOLIS","MN","United States","55402","Y",23,"Y","Y","N","N","Not Yet Received"
1994916,"BAKER TILLY US, LLP","205 NORTH MICHIGAN AVENUE","","CHICAGO","IL","United States","60601-5927","Y",23,"Y","Y","N","N","Not Yet Received"
1996304,"ASHLAND PARTNERS & COMPANY LLP","3512 EXCEL DR, SUITE 103","","MEDFORD","OR","United States","97504","Y",3783,"N","N","Y","N",""
1997724,"DSWD GROUP","20646 ABBEY WOODS CT. N","SUITE 201","FRANKFORT","IL","United States","60423","N",,"","N","Y","N",""
1996078,"ASSURANCE DIMENSIONS","4920 W CYPRESS STREET","SUITE 102","TAMPA","FL","United States","33607","Y",5036,"Y","N","Y","Y","Not Yet Received"
1992472,"ERNST & YOUNG LTD.","SUITE 6401","62 FORUM LANE, CAMANA BAY","PO BOX 510","","Cayman Islands","KY1-1106","Y",1655,"Y","Y","N","N","Yes"
1992472,"ERNST & YOUNG LLP","55 IVAN ALLEN JR. BLVD","SUITE 1000","ATLANTA","GA","United States","30308","Y",42,"Y","Y","N","N","Yes"
1992472,"PRICE WATERHOUSE COOPERS","18 FORUM LANE","CAMANA BAY, P.O. BOX 258","GRAND CAYMAN","","Cayman Islands","KY1-1104","Y",1266,"Y","Y","N","N","Yes"
1992472,"PRICE WATERHOUSE COOPERS","ONE SPENCER DOCK","NORTH WALL QUAY","DUBLIN 1","","Ireland","","Y",1366,"Y","Y","N","N","Yes"
1992472,"ERNST & YOUNG AUDITORES INDEPENDENTES S/S LTDA","PRAIA DE BOTAFOGO, 370","","RIO DE JANEIRO","","Brazil","","Y",1448,"Y","N","N","Y","Yes"
1992472,"WITHUMSMITH+BROWN, PC","200 JEFFERSON PARK","SUITE 400","WHIPPANY","NJ","United States","07981","Y",100,"Y","Y","N","N","Yes"
1989528,"ERNST & YOUNG","ERNST & YOUNG BUILDING","HARCOURT CENTRE, HARCOURT ROAD","DUBLIN 2","","Ireland","","Y",1411,"Y","Y","N","N","Yes"
1989528,"ERNST & YOUNG","SUITE 6401","62 FORUM LANE","GRAND CAYMAN","","Cayman Islands","KY1-1106","Y",1655,"Y","Y","N","N","Yes"
1996946,"KPMG LLP","303 EAST WACKER DRIVE","","CHICAGO","IL","United States","60601","Y",185,"Y","Y","Y","Y","Yes"
1996946,"DELOITTE & TOUCHE LLP","111 S. WACKER DRIVE","","CHICAGO","IL","United States","60606-4302","Y",34,"Y","Y","Y","Y","Yes"
1998412,"DELOITTE & TOUCHE LLP","30 ROCKEFELLER CENTER","","NEW YORK","NY","United States","10112","Y",34,"Y","N","N","Y","Yes"
1997701,"KNIGHT, ROLLERI, SHEPPARD, CPAS LLP","1499 POST ROAD","","FAIRFIELD","CT","United States","06824","Y",3437,"Y","N","Y","N",""
1996039,"DELOITTE & TOUCHE, LLP","111 SOUTH WACKER DRIVE","","CHICAGO","IL","United States","60606","Y",34,"Y","Y","N","N","Yes"
1996039,"KPMG LLP","AON CENTER","200 E. RANDOLPH STREET, SUITE 5500","CHICAGO","IL","United States","60601","Y",185,"Y","Y","N","N","Not Yet Received"
1996039,"FORVIS MAZARS, LLP","135 W 50TH STREET","","NEW YORK","NY","United States","10020","Y",686,"Y","Y","N","N","Not Yet Received"
1996039,"COHEN & COMPANY","1350 EUCLID AVE","SUITE 800","CLEVELAND","OH","United States","44115","Y",925,"Y","Y","N","Y","Yes"
1996039,"ERNST & YOUNG","5 TIMES SQUARE","","NEW YORK","NY","United States","10036","Y",42,"Y","Y","N","N","Yes"
1996039,"KPMG","345 PARK AVENUE","","NEW YORK","NY","United States","10154","Y",185,"Y","Y","N","N","Yes"
1996039,"FORVIS MAZARS, LLP","135 W 50TH STREET","","NEW YORK","NY","United States","10020","Y",686,"Y","N","Y","N",""
1996039,"SCHNEIDER DOWNS & CO., INC.","ONE PPG PLACE, SUITE 1700","","PITTSBURGH","PA","United States","15222","Y",358,"Y","Y","N","N","Not Yet Received"
1996039,"ERNST & YOUNG LLP","200 CLARENDON ST","","BOSTON","MA","United States","02116","Y",42,"Y","Y","N","N","Yes"
1996459,"BAKER TILLY US, LLP","100 SOUTH ASHLEY DRIVE","SUITE 1550","TAMPA","FL","United States","33602","Y",23,"Y","Y","N","N","Not Yet Received"
1996462,"COHEN & CO LTD","1350 EUCLID AVENUE","SUITE 800","CLEVELAND","OH","United States","44115","Y",925,"Y","Y","N","N","Yes"
1996325,"ERNST & YOUNG LLP","5 TIMES SQUARE","","NEW YORK","NY","United States","10036-6530","Y",42,"Y","Y","N","N","Yes"
1998269,"BDO LLP","55 BAKER STREET","","LONDON","","United Kingdom","W1U 7EU","Y",1295,"Y","Y","N","N","Yes"
1998269,"DELOITTE & TOUCHE LLP","111 S. WACKER DR.","SUITE 2100","CHICAGO","IL","United States","60606","Y",34,"Y","Y","N","N","Yes"
1998208,"ASSURANCE DIMENSIONS","2000 BANKS ROAD","SUITE 218","MARGATE","FL","United States","33063","Y",5036,"Y","N","Y","Y","Yes"
1998735,"ASHLAND PARTNERS & COMPANY LLP","3512 EXCEL DRIVE","SUITE 103","MEDFORD","OR","United States","97504","Y",3783,"N","N","Y","N",""
1998673,"ASHLAND PARTNERS & COMPANY LLP","3512 EXCEL DR.","SUITE 103","MEDFORD","OR","United States","97504","Y",3783,"Y","N","Y","N",""
1998683,"LUMSDEN & MCCORMICK","369 FRANKLIN STREET","","BUFFALO","NY","United States","14202","Y",130,"Y","N","Y","N",""
1998774,"DELOITTE AUDIT S.A.R.L","20, BOULEVARD DE KOCKELSCHEUER","","LUXEMBOURG","","Luxembourg","L-1821","Y",1287,"Y","Y","N","N","Yes"
1988250,"LAVINE, LOFGREN, MORRIS & ENGELBERG, LLP","4180 LAJOLLA VILLAGE DR., UNIT 300","","LAJOLLA","CA","United States","92037","Y",3496,"Y","N","Y","N",""
1997886,"FGMK, LLC","333 W. WACKER DRIVE","6TH FLOOR","CHICAGO","IL","United States","60606","Y",3968,"Y","N","Y","N",""
1998830,"KPMG LLP","1350 AVENUE OF THE AMERICAS","","NEW YORK","NY","United States","10019","Y",185,"Y","Y","N","N","Not Yet Received"
1998830,"KPMG LLP","P.O. BOX 493","SIX CRICKET SQUARE","GRAND CAYMAN","","Cayman Islands","KY1-1106","Y",1323,"Y","Y","N","N","Not Yet Received"
1997809,"ERNST & YOUNG, LLP","1828 WALNUT STREET","SUITE 04-100","KANSAS CITY","MO","United States","64108","Y",42,"Y","N","Y","Y","Yes"
1997837,"KPMG LLP","200 E. RANDOLPH ST.","SUITE 5500","CHICAGO","IL","United States","60601-6436","Y",185,"Y","N","Y","N",""
1997797,"HILL, BARTH & KING, LLC","100 PINEWOOD LANE","SUITE 201","WARRENDALE","PA","United States","15086","Y",2206,"Y","N","Y","N",""
1997924,"DELOITTE & TOUCHE LLP","100 SOUTH MILL AVENUE","SUITE 1800","TEMPE","AZ","United States","85281","Y",34,"Y","N","Y","N",""
1998736,"BAKER NEWMAN & NOYES, LLC","280 FORE STREET","","PORTLAND","ME","United States","04101","Y",231,"Y","N","Y","N",""
1998736,"EISNERAMPER LLC","733 THIRD AVENUE","","NEW YORK","NY","United States","10017","Y",274,"Y","Y","N","N","Yes"
1998740,"DELOITTE & TOUCHE LLP","1700 MARKET STREET","","PHILADELPHIA","PA","United States","19103","Y",34,"Y","N","Y","Y","Yes"
1998804,"DELOITTE & TOUCHE LLP","1700 MARKET STREET","","PHILADELPHIA","PA","United States","19103","Y",34,"Y","Y","Y","N","Yes"
1998804,"DELOITTE IRELAND LLP","DELOITTE & TOUCHE HOUSE, EARLSFORT TERRACE","","DUBLIN","","Ireland","2","Y",1193,"Y","Y","N","N","Yes"
1998804,"PRICEWATERHOUSECOOPERS LLP","TWO COMMERCE SQUARE","2001 MARKET STREET #1800","PHILADELPHIA","PA","United States","19103","Y",238,"Y","Y","N","N","Yes"
1998804,"PRICEWATERHOUSECOOPERS AG","BIRCHSTRASSE 160","","ZURICH","","Switzerland","8050","Y",1358,"Y","Y","N","N","Yes"
1998804,"PRICEWATERHOUSECOOPERS, SOCIÉTÉ COOPÉRATIVE","2, RUE GERHARD MERCATOR","B.P. 1443","LUXEMBOURG","","Luxembourg","L-1014","Y",1328,"Y","Y","N","N","Yes"
1998804,"DELOITTE & TOUCHE LLP","60 NEXUS WAY, 8TH FLOOR","CAMANA BAY, PO BOX 1787","GRAND CAYMAN","","Cayman Islands","KY1-1109","Y",1096,"Y","Y","N","N","Yes"
1998804,"DELOITTE AUDIT S.A.R.L","20, BOULEVARD DE KOCKELSCHEUER","","LUXEMBOURG","","Luxembourg","L-1821","Y",1287,"Y","Y","N","N","Yes"
1996231,"KPMG LLP","100 NORTH TAMPA STREET","SUITE 1700","TAMPA","FL","United States","33602-5145","Y",185,"Y","N","Y","Y","Yes"
1996270,"ASSURANCE DIMENSIONS, INC.","4920 W. CYPRESS STREET","SUITE 102","TAMPA","FL","United States","33607","Y",50363,"Y","N","Y","N",""
1997949,"DBBMCKENNON","20321 SW BIRCH ST","SUITE 200","NEWPORT BEACH","CA","United States","92660","Y",3501,"Y","Y","N","N","Yes"
1996814,"NAVOLIO & TALLMAN LLP","201 MISSION STREET","SUITE 650","SAN FRANCISCO","CA","United States","94105","Y",5442,"N","N","Y","N",""
1997972,"BAKER TILLY VIRCHOW KRAUSE, LLP","777 E WISCONSIN AVENUE","","MILWAUKEE","WI","United States","53202","Y",23,"Y","N","Y","N",""
1999993,"BAKER TILLY US LLP","2500 DALLAS PKWY","","PLANO","TX","United States","75093","Y",23,"Y","Y","N","N","Yes"
2000293,"ERNST & YOUNG AG","MAAGPLATZ 1","","ZURICH","","Switzerland","8005","Y",1460,"Y","Y","N","N","Yes"
2000293,"ERNST & YOUNG S.A.","35E, AVENUE JOHN F. KENNEDY","","LUXEMBOURG","","Luxembourg","L-1855","Y",1367,"Y","Y","N","N","Yes"
1999331,"PRICEWATERHOUSECOOPERS LLP","PRICEWATERHOUSECOOPERS CENTER","300 MADISON AVENUE","NEW YORK","NY","United States","10017-6204","Y",238,"Y","Y","N","N","Yes"
1999331,"ERNST & YOUNG LLP","5 TIMES SQUARE","","NEW YORK","NY","United States","10036-6530","Y",42,"Y","Y","N","N","Yes"
1999331,"GRANT THORNTON","18400 VON KARMAN AVE","#900","IRVINE","CA","United States","92612","Y",248,"Y","Y","N","N","Yes"
1998023,"GRANT THORNTON LLP","201 SOUTH COLLEGE STREET","SUITE 2500","CHARLOTTE","NC","United States","28244","Y",248,"Y","Y","N","N","Yes"
1998855,"CITRIN COOPERMAN","30 BRAINTREE HILL OFFICE","PARK SUITE 300","BRAINTREE","MA","United States","02184","Y",2468,"Y","N","Y","N",""
1999237,"COHNREZNICK LLP","1 S. WACKER DRIVE","SUITE 3500","CHICAGO","IL","United States","60606","Y",596,"Y","Y","N","N","Yes"
1996532,"ERNST & YOUNG CHARTERED ACCOUNTANTS","HARCOURT CENTRE","HARCOURT STREET","DUBLIN","","Ireland","D02 YA40","Y",42,"Y","Y","N","N","Yes"
1993584,"KPMG LLP","15 CANADA SQUARE","","LONDON","","United Kingdom","E14 5GL","Y",1118,"Y","Y","N","N","Not Yet Received"
1993584,"RSM US LLP","151 W 42ND STREET","19TH FLOOR","NEW YORK","NY","United States","10036","Y",49,"Y","Y","N","N","Yes"
1995929,"RSM US LLP","ONE SOUTH WACKER DRIVE","","CHICAGO","IL","United States","60606","Y",49,"Y","Y","N","N","Yes"
1995929,"DELOITTE","DELOITTE & TOUCHE HOUSE","EARLSFORT TERRACE","DUBLIN 2","","Ireland","","Y",1193,"Y","Y","N","N","Yes"
1999923,"CBIZ CPAS P.C.","1000 CAMPBELL MITHUN TOWER, 222 S. NINTH ST","","MINNEAPOLIS","MN","United States","55402","Y",199,"Y","N","Y","N",""
1999956,"ASHLAND PARTNERS & COMPANY LLP","3512 EXCEL DRIVE","SUITE 103","MEDFORD","OR","United States","97504","Y",3783,"N","N","Y","N",""
1999056,"KPMG LLP","401 COMMERCE STREET","SUITE 100","NASHVILLE","TN","United States","37219","Y",185,"Y","N","Y","Y","Yes"
1998651,"GRANT THORTON LLP","201 S COLLEGE ST STE 2500","","CHARLOTTE","NC","United States","28244","Y",248,"Y","Y","Y","N","Yes"
1999087,"ANDERS","800 MARKET ST","STE 500","ST. LOUIS","MO","United States","63101","Y",2100,"Y","N","Y","N",""
1994171,"PRICEWATERHOUSECOOPERS LLP","300 MADISON AVE","","NEW YORK","NY","United States","10017","Y",238,"Y","Y","N","N","Yes"
2000042,"NICHOLS, CAULEY, & ASSOCIATES, LLC","3550 ENGINEERING DRIVE","SUITE 250","PEACHTREE CORNERS","GA","United States","30092","Y",281,"Y","N","Y","N",""
1999993,"KEITER, STEPHENS, HURST, GARY & SHREAVES, P.C.","4401 DOMINION BOULEVARD","","GLEN ALLEN","VA","United States","23060","Y",80,"Y","N","Y","N",""
1999727,"SPICER JEFFRIES LLP","4601 DTC BOULEVARD, SUITE 700","","DENVER","CO","United States","80237","Y",349,"Y","Y","Y","Y","Not Yet Received"
1998848,"COHN REZNIK","1301 AVENUE OF THE AMERICAS","","NEW YORK","NY","United States","10019","Y",596,"Y","Y","Y","N","Not Yet Received"
1996263,"PWC MONACO","24 AV DE FONTVIELLE, AIGUE MARINE B","98000","MONACO","","Monaco","","Y",1347,"Y","N","N","Y","Yes"
1975919,"COHEN & COMPANY, LTD","1350 EUCLID AVE.","","CLEVELAND","OH","United States","44115","Y",925,"Y","Y","N","N","Yes"
1996345,"ASHLAND PARTNERS & COMPANY LLP","3512 EXCEL DR, SUITE 103","","MEDFORD","OR","United States","97504","Y",3783,"N","N","Y","N",""
1996351,"GRANT THORNTON LLP","171 N. CLARK STREET","SUITE 200","CHICAGO","IL","United States","60601","Y",248,"Y","N","Y","Y","Yes"
1995919,"FORVIS MAZARS","30 ISABELLA STREET","SUITE 107","PITTSBURGH","PA","United States","15212","Y",686,"Y","N","Y","N",""
1996367,"PLANTE MORAN","10 SOUTH RIVERSIDE PLAZA 9TH FLOOR","","CHICAGO","IL","United States","60606-3770","Y",166,"Y","N","Y","N",""
1996367,"EISNERAMPER","100 N. 18TH ST","","PHILADELPHIA","PA","United States","19103","Y",274,"Y","Y","N","N","Yes"
1996367,"DELOITTE & TOUCHE LLP","1700 MARKET STREET","","PHILADELPHIA","PA","United States","19103-3984","Y",34,"Y","Y","N","N","Yes"
1996367,"ERNST & YOUNG LLP","ONE MANHATTAN WEST","395 - 9TH AVENUE","NEW YORK","NY","United States","10001","Y",42,"Y","Y","N","N","Yes"
1996382,"MICHAEL COGLIANESE CPA, P.C.","1215 EAST LAKE STREET","SUITE 303","BLOOMINGTON","IL","United States","60108","Y",3874,"Y","Y","N","N","Yes"
1998491,"DELOITTE AND TOUCHE, LLP","200 BERKELEY STREET","","BOSTON","MA","United States","02116-5022","Y",34,"Y","Y","N","N","Yes"
2000460,"PRICEWATERHOUSECOOPERS LLP","PRICEWATERHOUSECOOPERS CENTER","300 MADISON AVENUE","NEW YORK","NY","United States","10017","Y",238,"Y","N","Y","Y","No"
2000520,"SYMPHONA LLP","1050 CROWN POINT PKWY","SUITE 810","ATLANTA","GA","United States","30338","Y",5829,"Y","N","Y","N",""
1996387,"GRANT THORNTON LLP","757 THIRD AVE","","NEW YORK","NY","United States","10017","Y",248,"Y","N","Y","N",""
1996425,"ASSURANCE DIMENSIONS","4920 W CYPRESS STREET","SUITE 102","TAMPA","FL","United States","33607","Y",5036,"Y","N","Y","N",""
1996433,"EMERICK & COMPANY, P.C.","4520 MADISON AVE","SUITE G","KANSAS CITY","MO","United States","64111","Y",5152,"Y","N","Y","N",""
1996442,"MICHAEL COGLIANESE","300 NORTH STATE STREET","SUITE 5720","CHICAGO","IL","United States","60654","Y",3874,"Y","Y","N","N","No"
1996448,"EISNER AMPER","ONE MARKET, LANDMARK, SUITE 620","","SAN FRANCISCO","CA","United States","94105","Y",274,"Y","Y","N","N","Yes"
1994452,"PRICEWATERHOUSECOOPERS LLP","1075 PEACHTREE STREET NE","SUTE 2600","ATLANTA","GA","United States","30309","Y",238,"Y","N","Y","Y","Yes"
1996313,"GEFFEN MESHER","888 SW 5TH AVE., SUITE 800","","PORTLAND","OR","United States","97204","Y",3912,"Y","N","Y","Y","Yes"
1996471,"COHEN & CO LTD","1350 EUCLID AVENUE","SUITE 800","CLEVELAND","OH","United States","44115","Y",925,"Y","Y","N","N","Yes"
1996492,"SPICER JEFFRIES LLP","4601 DTC BLVD SUITE 700","","DENVER","CO","United States","80237","Y",349,"Y","Y","N","N","Yes"
1997731,"PRICEWATERHOUSECOOPERS","NORTH WALL QUAY","","DUBLIN","","Ireland","1","Y",1366,"Y","Y","N","N","Yes"
1977416,"DELOITTE & TOUCHE LLP","30 ROCKEFELLER PLAZA","41ST FLOOR","NEW YORK","NY","United States","10112-0015","Y",34,"Y","Y","N","N","Yes"
1998187,"ERNST & YOUNG LLP","200 CLARENDON STREET","45TH FLOOR","BOSTON","MA","United States","02116","Y",42,"Y","Y","N","N","Yes"
1998187,"RSM US LLP","80 CITY SQUARE","","BOSTON","MA","United States","02129-3742","Y",49,"Y","Y","N","N","Yes"
1998187,"ERNST & YOUNG LLP","ERNST & YOUNG TOWER","222 BAY STREET, PO BOX 251","TORONTO","","Canada","M5K 1J7","Y",1263,"Y","Y","N","N","Yes"
2000609,"MAYER HOFFMAN MCCANN, P.C.","222 S. 9TH STREET","SUITE 1000","MINNEAPOLIS","MN","United States","55402","Y",199,"Y","N","Y","N",""
1981186,"BDO USA, P.C.","200 PARK AVENUE","38TH FLOOR","NEW YORK","NY","United States","10166","Y",243,"Y","Y","N","N","No"
2000628,"ASHLAND PARTNERS & COMPANY, LLP","3512 EXCEL DRIVE","SUITE 103","MEDFORD","OR","United States","97504","Y",3783,"N","N","Y","N",""
1998611,"KEITER","4401 DOMINION BOULEVARD","2ND FLOOR","GLEN ALLEN","VA","United States","23060","Y",131975,"Y","N","Y","N",""
1995234,"RICHEY, MAY & CO. LLP","9605 S. KINGSTON CT.","SUITE 200","ENGLEWOOD","CO","United States","80112","Y",673,"Y","Y","N","N","Yes"
1996736,"ERNST & YOUNG","155 N. WACKER DRIVE","","CHICAGO","IL","United States","60606","Y",42,"Y","N","N","Y","Yes"
1996693,"ERNST & YOUNG","155 N. WACKER DRIVE","","CHICAGO","IL","United States","60606","Y",42,"Y","N","N","Y","Yes"
1987361,"SC&H GROUP INC.","910 RIDGEBROOK ROAD","","SPARKS","MD","United States","21152","Y",2297,"Y","Y","Y","N","Yes"
1995768,"ASHLAND PARTNERS","3512 EXCEL DR","SUITE 103","MEDFORD","OR","United States","97504","Y",3783,"N","N","Y","N",""
1996648,"EIDE BAILLY LLP","300 N. LAKE AVE STE 930","","PASADENA","CA","United States","91101","Y",286,"Y","N","Y","N",""
1988192,"COHNREZNICK LLP","816 CONGRESS","SUITE 200","AUSTIN","TX","United States","78701","Y",596,"Y","N","Y","N",""
1999283,"KPMG LLP","10 SOUTH BROADWAY","SUITE 900","SAINT LOUIS","MO","United States","63102-1736","Y",185,"Y","N","Y","Y","Yes"
1988192,"ARMANINO LLP","1710 W 6TH STREET","","AUSTIN","TX","United States","78703","Y",32,"Y","N","N","Y","Not Yet Received"
1998789,"KPMG LLP","15 CANADA SQUARE","CANARY WHARF","LONDON","","United Kingdom","E14 5GL","Y",1118,"Y","Y","N","N","Yes"
1998789,"KPMG LUXEMBOURG","39 AV. JOHN F. KENNEDY","","LUXEMBOURG","","Luxembourg","1855","Y",2831,"Y","Y","N","N","Yes"
1998670,"HLB GRAVIER, LLP","4000 PONCE DE LEON BLVD.","SUITE 610","CORAL GABLES","FL","United States","33146","Y",3676,"Y","Y","N","N","Not Yet Received"
1981499,"HARPER & PEARSON COMPANY, P.C.","ONE RIVERWAY DRIVE","SUITE 1900","HOUSTON","TX","United States","77056","Y",431,"Y","Y","N","N","Yes"
1999422,"FORVIS MAZARS LLP","1155 AVENUE OF THE AMERICAS","STE 1200","NEW YORK","NY","United States","10036","Y",686,"Y","N","Y","Y","Not Yet Received"
1999113,"DELOITTE & TOUCHE LLP","30 ROCKEFELLER PLAZA","","NEW YORK","NY","United States","10112","Y",34,"Y","Y","N","N","Yes"
1997569,"MENGEL METZGER BARR & CO, LLP","100 CHESTNUT STREET","SUITE 1200","ROCHESTER","NY","United States","14604","Y",557,"Y","Y","Y","N","Yes"
1993515,"ARENA SNYDER & DUNLAP LLP","722 SPRINGDALE DRIVE","","EXTON","PA","United States","19341","N",,"","N","Y","N",""
1997038,"EMERICK & COMPANY, P.C.","4520 MADISON AVE","SUITE G","KANSAS CITY","MO","United States","64111","Y",5152,"Y","N","Y","N",""
1997042,"DELOITTE & TOUCHE LLP","100 SOUTH MILL AVENUE","SUITE 1800","TEMPE","AZ","United States","85281","Y",34,"Y","N","Y","N",""
1997048,"ERNST & YOUNG, LLP","1001 LAKESIDE AVE","SUITE 1800","CLEVELAND","OH","United States","44114","Y",42,"Y","Y","N","N","Yes"
1985428,"BAKER TILLY VIRCHOW KRAUSE, LLP","225 SOUTH 6TH STREET, SUITE 2300","","MINNEAPOLIS","MN","United States","55402-4661","Y",23,"Y","N","Y","N",""
1999470,"PRICEWATERHOUSECOOPERS LLP","214 NORTH TRYON STREET","SUITE 3600","CHARLOTTE","NC","United States","28202","Y",238,"Y","N","Y","N",""
1998111,"ASHLAND PARTNERS & COMPANY LLP","3512 EXCEL DRIVE, SUITE 103","","MEDFORD","OR","United States","97504","Y",3783,"Y","N","Y","N",""
1998752,"PRICEWATERHOUSECOOPERS LLP","101 SEAPORT BLVD","","BOSTON","MA","United States","02210","Y",238,"Y","N","Y","Y","Yes"
1999467,"HANCOCK ASKEW & CO., LLP","100 RIVERVIEW DRIVE","","SAVANNAH","GA","United States","31404","Y",794,"Y","N","Y","Y","Yes"
1999509,"COHEN & CO.","1350 EUCLID AVENUE","SUITE 800","CLEVELAND","OH","United States","44115","Y",925,"Y","Y","Y","N","Yes"
1999339,"KPMG LLC","4200 WELLS FARGO CENTER","90 SOUTH SEVENTH STREET","MINNEAPOLIS","MN","United States","55402","Y",185,"Y","Y","N","N","Yes"
1999613,"ASHLAND PARTNERS & COMPANY LLP","3512 EXCEL DRIVE","SUITE 103","MEDFORD","OR","United States","97504","Y",3783,"Y","N","Y","N",""
1999786,"EMERICK & COMPANY, P.C.","4520 MADISON AVE","SUITE G","KANSAS CITY","MO","United States","64111","Y",5152,"Y","N","Y","N",""
1999527,"PRICEWATERHOUSECOOPERS LLP","PWC TOWER, 18 YORK STREET","SUITE 2600","TORONTO ON","","Canada","M5J 0B2","Y",271,"Y","Y","N","N","Yes"
1994813,"BERRY DUNN","51 SAWYER ROAD","SUITE 610","WALTHAM","MA","United States","02452","Y",136,"Y","N","Y","N",""
1993709,"DELOITTE","555 W 5TH STREET","SUITE 2700","LOS ANGELES","CA","United States","90013","Y",34,"Y","Y","N","N","Yes"
1995115,"PLANTE & MORAN, PLLC","634 FRONT AVENUE","SUITE 400","GRAND RAPIDS","MI","United States","49504","Y",166,"Y","Y","Y","N","Yes"
1995225,"ERNST & YOUNG LLP","560 MISSION ST. #1500","","SAN FRANCISCO","CA","United States","94105","Y",42,"Y","N","Y","Y","Yes"
2000212,"ERNST & YOUNG","ONE MANHATTEN WEST","395 9TH AVE","NEW YORK","NY","United States","10001","Y",1396,"Y","Y","N","N","Not Yet Received"
1999102,"DAVILA ADVISORY LLC","10135 MANCHESTER ROAD SUITE 206","","ST. LOUIS","MO","United States","63122","Y",6667,"Y","N","Y","N",""
2000202,"WEAVER & TIDWELL","2300 NORTH FIELD STREET","","DALLAS","TX","United States","75201","Y",410,"Y","Y","N","N","Yes"
2000227,"ASSURANCE DIMENSIONS","2000 BANKS ROAD","SUITE 218","MARGATE","FL","United States","33063","Y",5036,"Y","N","Y","N",""
2000333,"BAKER TILLY US, LLP","2500 DALLAS PARKWAY","SUITE 300","PLANO","TX","United States","75093","Y",23,"Y","N","Y","N",""
1995252,"COHEN AND COMPANY, LTD.","1350 EUCLID AVE.","SUITE 800","CLEVELAND","OH","United States","44115","Y",925,"Y","Y","Y","N","Yes"
1995685,"ARY ROEPCKE MULCHAEY, P.C.","TWO MIRANOVA PLACE","SUITE 600","COLUMBUS","OH","United States","43215","Y",160,"Y","N","Y","N",""
1995730,"CBIZ CPAS P.C.","53 STATE STREET","17TH FLOOR","BOSTON","MA","United States","02109","Y",199,"Y","Y","N","N","Yes"
1995861,"COHEN & COMPANY, LTD.","1350 EUCLID AVENUE","SUITE 800","CLEAVLAND","OH","United States","44115","Y",925,"Y","Y","N","N","Yes"
1995907,"ASHLAND PARTNERS & COMPANY LLP","3512 EXCEL DRIVE","SUITE 103","MEDFORD","OR","United States","97504","Y",3783,"Y","N","Y","N",""
1998267,"PWC","101 SEAPORT BOULEVARD","","BOSTON","MA","United States","02210","Y",238,"Y","Y","N","N","Yes"
2000395,"ASHLAND PARTNERS & COMPANY, LLP","3512 EXCEL DRIVE","SUITE 103","MEDFORD","OR","United States","97504","Y",3783,"Y","N","Y","N",""
1999980,"DELOITTE & TOUCHE LLP","30 ROCKEFELLER PLAZA","","NEW YORK","NY","United States","10112","Y",34,"Y","N","Y","Y","Yes"
2000400,"RSM US LLP","151 W. 42ND STREET","19TH FLOOR","NEW YORK","NY","United States","10036","Y",49,"Y","Y","N","N","No"
1992741,"GRANT THORNTON LLP","171 N. CLARK STREET","SUITE 200","CHICAGO","IL","United States","60601-3370","Y",248,"Y","N","N","Y","Yes"
1992741,"BPM LLP","ONE CALIFORNIA STREET","SUITE 2500","SAN FRANCISCO","CA","United States","94111","Y",207,"Y","N","Y","N",""
1992741,"PRICEWATERHOUSECOOPERS","18 FORUM LANE, CAMANA BAY","","GRAND CAYMAN, BWI","","Cayman Islands","","Y",1266,"Y","Y","N","N","Not Yet Received"
1992741,"PRICEWATERHOUSECOOPERS LLP","101 SEAPORT BOULEVARD","","BOSTON","MA","United States","02210","Y",238,"Y","Y","N","N","Not Yet Received"
1992651,"BERKOW, SCHECHTER & CO., LLP","C/O ERICK R. STEEN, CPA","350 BEDFORD STREET","STAMFORD","CT","United States","06901","Y",4040,"Y","N","Y","N",""
1996628,"BDO CAYMAN LTD.","GOVERNORS SQUARE, 23 LIME TREE BAY AVENUE","2ND FLOOR, BUILDING 3","GEORGE TOWN","","Cayman Islands","KY1-1205","Y",2162,"Y","Y","Y","N","Yes"
1996635,"DELOITTE ACCOUNTANTS B.V.","ORTELIUSLAAN 982, 3528 BD","","UTRECHT","","Netherlands","3180","Y",1243,"Y","Y","N","N","Yes"
1996635,"PRICEWATERHOUSECOOPERS LLP","PWC TOWER, 18 YORK STREET, SUITE 2500","","TORONTO","","Canada","M5J 0B2","Y",271,"Y","Y","N","N","Yes"
1996673,"KPMG LLP","10 SOUTH BROADWAY","SUITE 900","SAINT LOUIS","MO","United States","63102-1736","Y",185,"Y","N","Y","Y","Yes"
1996574,"SPICER JEFFRIES LLP","4601 DTC BOULEVARD","SUITE 700","DENVER","CO","United States","80237","Y",349,"Y","N","Y","N",""
1996726,"JAMES L. HICKEY, CPA PC","170 MAIN STREET - SUITE 110","","TEWKSBURY","MA","United States","01876","N",,"","N","Y","N",""
1996404,"BERRY DUNN","51 SAWYER ROAD","SUITE 610","WALTHAM","MA","United States","02452","Y",136,"Y","N","Y","N",""
1995858,"FRANK, RIMERMAN & CO. LLP","ONE EMBARCADERO CENTER","SUITE 2410","SAN FRANCISCO","CA","United States","94111","Y",1596,"Y","Y","N","N","Not Yet Received"
1975025,"PLANTE & MORAN, PLLC","10 SOUTH RIVERSIDE PLAZA","9TH FLOOR","CHICAGO","IL","United States","60606","Y",166,"Y","N","Y","N",""
1996740,"ERNST AND YOUNG, LLP","ONE COMMERCE SQUARE, SUITE 700","2005 MARKET STREET","PHILADELPHIA","PA","United States","19103","Y",42,"Y","N","Y","N",""
1996745,"WOLF & COMPANY, P.C.","255 STATE STREET","","BOSTON","MA","United States","02109","Y",392,"Y","N","Y","N",""
1995772,"DANNIBLE & MCKEE, LLP","FINANCIAL PLAZA","221 S. WARREN ST.","SYRACUSE","NY","United States","13202-2687","Y",528,"Y","N","Y","N",""
1995772,"MEISEL TUTEUR & LEWIS","101 EISENHOWER PKWY","","ROSELAND","NJ","United States","07068","Y",3861,"Y","Y","N","N","Yes"
1996013,"ROY & BENTAS CPA'S PC.","697A UNION STREET","","MANCHESTER","NH","United States","03104","Y",3587,"Y","N","Y","N",""
1995443,"ANDERS MINKLER HUBER & HELM LLP","800 MARKET STREET,  , MO 63101-2","SUITE 500","ST. LOUIS","MO","United States","63101-2501","Y",2100,"Y","N","Y","N",""
1995696,"ROGER KRAUSE CPA","2210 RIDGEWOOD ROAD, SUITE 101","BERKSHIRE PLACE","WYOMISSING","PA","United States","19610","N",,"N","N","Y","N",""
1995698,"ROGER KRAUSE CPA","2210 RIDGEWOOD ROAD, SUITE 101","BERKSHIRE PLACE","WYOMISSING","PA","United States","19610","N",,"N","N","Y","N",""
2000414,"COHEN & CO.","201 INTERNATIONAL CIR.","SUITE 400","BALTIMORE","MD","United States","21030","Y",925,"Y","Y","N","N","Yes"
1999711,"UHY LLP","4 TOWER PLACE, EXECUTIVE PARK","7TH FLOOR","ALBANY","NY","United States","12203","Y",1195,"Y","Y","Y","N","Yes"
1999711,"COHNREZNICK LLP","7501 WISCONSIN AVENUE SUITE 400E","","BETHESDA","MD","United States","20814","Y",596,"Y","Y","N","N","Not Yet Received"
1997552,"DELOITTE","EARLSFORT TERRACE","","DUBLIN","","Ireland","DUBLIN 2","Y",1193,"Y","Y","N","N","Yes"
2000359,"RW GROUP LLC","400 OLD FORGE LANE","SUITE 401","KENNETT SQUARE","PA","United States","19348","Y",5020,"Y","N","Y","N",""
2000403,"WSRP, LLC","155 NORTH 400 WEST","STE 400","SALT LAKE CITY","UT","United States","84103","Y",374,"Y","N","Y","N",""
2000391,"ASHLAND PARTNERS & COMPANY, LLP","3512 EXCEL DRIVE","SUITE 103","MEDFORD","OR","United States","97504","Y",3783,"Y","N","Y","N",""
2000402,"RSM US LLP","919 E MAIN STREET","SUITE 1800","RICHMOND","VA","United States","23219","Y",49,"Y","Y","N","N","Yes"
2000414,"DELOITTE & TOUCHE LLP","555 MISSION ST","1400","SAN FRANCISCO","CA","United States","94105","Y",34,"Y","Y","N","N","Yes"
2000414,"NAVOLIO & TALLMAN LLP","2121 N. CALIFORNIA BLVD","SUITE 610","WALNUT CREEK","CA","United States","94596","Y",5442,"Y","Y","N","N","Not Yet Received"
1999650,"DELOITTE & TOUCHE LLP","1601 WEWATTA ST","SUITE 400","DENVER","CO","United States","80202-6479","Y",34,"Y","N","Y","Y","Yes"
1990238,"EISNERAMPER, LLP","ONE LOGAN SQUARE 130 N 18TH ST","STE 3000","PHILADELPHIA","PA","United States","19103","Y",274,"Y","N","Y","N",""
1997907,"ERNST & YOUNG, LLP","1001 LAKESIDE AVE","SUITE 1800","CLEVELAND","OH","United States","44114","Y",42,"Y","Y","N","N","Yes"
1997926,"ERNST & YOUNG, LLP","1001 LAKESIDE AVE","SUITE 1800","CLEVELAND","OH","United States","44114","Y",42,"Y","Y","N","N","Yes"
1987125,"CITRIN COOPERMAN & COMPANY LLP","180 PARK AVENUE","SUITE 200","FLORHAM PARK","NJ","United States","07933","Y",2468,"Y","N","Y","N",""
1995721,"CITRIN COOPERMAN & COMPANY LLP","180 PARK AVENUE","SUITE 200","FLORHAM PARK","NJ","United States","07933","Y",2468,"Y","N","Y","N",""
1995271,"RSM US LLP","80 CITY SQUARE","","BOSTON","MA","United States","02129-3742","Y",49,"Y","Y","N","N","Not Yet Received"
1995271,"CHERRY BEKAERT LLP","3800 GLENWOOD AVENUE","SUITE 200","RALEIGH","NC","United States","27612-4875","Y",677,"Y","Y","N","N","Not Yet Received"
1995271,"RSM CAYMAN, LTD.","ZEPHYR HOUSE, MARY STREET","","GEORGETOWN","","Cayman Islands","MS 39078","Y",6894,"Y","Y","N","N","Not Yet Received"
1993432,"DELOITTE & TOUCHE LLP","650 S. TRYON STREET","SUITE 1800","CHARLOTTE","NC","United States","28202-4200","Y",34,"Y","Y","N","N","Yes"
1995329,"ERNST AND YOUNG","62","FORUM LN","GRAND CAYMAN","","Cayman Islands","","Y",1655,"Y","Y","N","N","Yes"
2000614,"KPMG","60 SOUTH STREET","","BOSTON","MA","United States","02111","Y",185,"Y","Y","N","N","Yes"
2000891,"EIDE BAILY LLP","US BANCORP CENTER, 800 NICOLLET MALL","SUITE 1300","MINNEAPOLIS","MN","United States","55402","Y",286,"Y","N","Y","Y","Yes"
2000758,"PRICEWATERHOUSECOOPERS LLP","7 MORE LONDON RIVERSIDE","","LONDON","","United Kingdom","","Y",876,"Y","Y","N","N","Yes"
2000758,"PRICEWATERHOUSECOOPERS, SOCIÉTÉ COOPÉRATIVE","2, RUE GERHARD MERCATOR B.P. 1443","","L-1014 LUXEMBOURG","","Luxembourg","","Y",1328,"Y","Y","N","N","Yes"
1992782,"ERNST & YOUNG","HARCOURT CENTRE","HARCOURT STREET","DUBLIN","","Ireland","","Y",1411,"Y","Y","N","N","Not Yet Received"
2000922,"ERNST & YOUNG LLP","200 CLARENDON ST.","","BOSTON","MA","United States","02116","Y",42,"Y","Y","N","N","No"
1989812,"ERNST & YOUNG LLP","5 TIMES SQUARE","","NEW YORK","NY","United States","10036","Y",42,"Y","Y","N","N","Yes"
1996218,"ERNST & YOUNG LLP","5 TIMES SQUARE","","NEW YORK","NY","United States","10036","Y",42,"Y","Y","N","N","Yes"
1995421,"SUMMIT LLC","999 18TH STREET","SUITE 3000","DENVER","CO","United States","80202","Y",5251,"Y","Y","Y","N","Yes"
1995421,"SPICER JEFFRIES LLP","4601 DTC BLVD STE 700","","DENVER","CO","United States","80237","Y",349,"Y","Y","Y","N","Yes"
1996260,"ERNST & YOUNG, LLP","1828 WALNUT STREET","SUITE 04-100","KANSAS CITY","MO","United States","64108","Y",42,"Y","N","Y","Y","Yes"
1996397,"WATKINS UIBERALL PLLC","1661 AARON BRENNER DRIVE","","MEMPHIS","TN","United States","38120","Y",1738,"Y","N","Y","N",""
1999841,"ERNST & YOUNG","ERNST & YOUNG BUILDING","HARCOURT CENTRE, HARCOURT ROAD","DUBLIN","","Ireland","","Y",1411,"Y","Y","N","N","Yes"
1999841,"ERNST & YOUNG","SUITE 6401","62 FORUM LANE","GRAND CAYMAN","","Cayman Islands","KY1-1106","Y",1655,"Y","Y","N","N","Yes"
2000840,"DELOITTE & TOUCHE LLP","30 ROCKEFELLER  PLAZA","","NEW YORK","NY","United States","10112","Y",248,"Y","Y","N","N","Yes"
2000274,"RICHEY MAY & CO.","9605 S. KINGSTON CT.","SUITE 200","ENGLEWOOD","CO","United States","80112","Y",673,"Y","Y","N","Y","Yes"
2000525,"BAKER TILLY US, LLP","66 HUDSON BOULEVARD E","SUITE 2200","NEW YORK","NY","United States","10001","Y",23,"Y","Y","Y","N","Not Yet Received"
2001016,"FREED MAXICK CPAS, P.C.","424 MAIN STREET","SUITE 800","BUFFALO","NY","United States","14202","Y",317,"Y","N","Y","N",""
2001077,"DELOITTE & TOUCHE LLP","100 SOUTH MILL AVENUE","SUITE 1800","TEMPE","AZ","United States","85281","Y",34,"Y","N","Y","N",""
1996428,"ASSURANCE DIMENSIONS","4920 W CYPRESS STREET","SUITE 102","TAMPA","FL","United States","33607","Y",5036,"Y","N","Y","N",""
1996052,"KPMG LLP","02 GODREJ BUSINESS DISTRICT, FIRST FLOOR BLOCK A","PIROJSHANAGAR, VIKHROLI - WEST","MUMBAI","","India","400 079","Y",185,"Y","N","N","Y","Not Yet Received"
1994263,"DELOITTE & TOUCHE LLP","111 S. WACKER DRIVE","SUITE 1800","CHICAGO","IL","United States","60606","Y",77351,"Y","Y","N","N","Not Yet Received"
1994263,"KPMG","345 PARK AVE","","NEW YORK","NY","United States","10154","Y",851,"Y","Y","N","N","Not Yet Received"
1996422,"PRICEWATERHOUSECOOPERS LLP","1075 PEACHTREE STREET NE","","ATLANTA","GA","United States","30309","Y",238,"Y","Y","N","N","Yes"
1996733,"ERNST & YOUNG","155 N. WACKER DRIVE","","CHICAGO","IL","United States","60606","Y",42,"Y","N","N","Y","Yes"
1996894,"LILLING & COMPANY LLP","TWO SEAVIEW BOULEVARD","","PORT WASHINGTON","NY","United States","11050","Y",3480,"Y","N","Y","Y","Not Yet Received"
1996897,"DELOITTE & TOUCHE LLP","30 ROCKEFELLER PLAZA","","NEW YORK","NY","United States","10112","Y",34,"Y","N","Y","Y","Yes"
1996902,"BAUKNIGHT, PIETRAS & STORMER, P.A.","1501 MAIN STREET","STE 600","COLUMBIA","SC","United States","29201","N",,"","N","Y","N",""
1996915,"ERNST & YOUNG, LLP","1828 WALNUT STREET","SUITE 04-100","KANSAS CITY","MO","United States","64108","Y",42,"Y","N","Y","Y","Yes"
1997051,"EMERICK & COMPANY, P.C.","4520 MADISON AVE","SUITE G","KANSAS CITY","MO","United States","64111","Y",5152,"Y","N","Y","N",""
1978393,"ASSURANCE DIMENSIONS","4920 W CYPRESS STREET","SUITE 102","TAMPA","FL","United States","33607","Y",5036,"Y","N","Y","N",""
1998173,"PRICEWATERHOUSECOOPERS LLP","ONE NORTH WACKER","","CHICAGO","IL","United States","60606","Y",238,"Y","Y","N","N","Yes"
1998173,"PRICEWATERHOUSECOOPERS","18 FORUM LANE","P.O. BOX 258","GEORGE TOWN","","Cayman Islands","KY1-1104","Y",1266,"Y","Y","N","N","Yes"
1998173,"COHEN & COMPANY, LTD.","342 N. WATER ST.","SUITE 830","MILWAUKEE","WI","United States","53202","Y",925,"Y","Y","N","N","Yes"
1996303,"HLB GRAVIER, LLP","396 ALHAMBRA CIRCLE","SUITE 900","CORAL GABLES","FL","United States","33134","Y",3676,"Y","N","N","Y","Not Yet Received"
1993733,"PRICEWATERHOUSECOOPERS","18 FORUM LANE","","CAMANA BAY GRAND CAYMAN","","Cayman Islands","BWI","Y",1266,"Y","Y","N","N","No"
1993733,"PRICEWATERHOUSECOOPERS","78 MILL STREET","ZONE 5, CENTRAL BUSINESS DISTRICT","QORMI","","Malta","CBD 5090","N",,"","Y","N","N","No"
1994194,"FGMK, LLC","2801 LAKESIDE DRIVE","3RD FLOOR","BANNOCKBURN","IL","United States","60015","Y",3968,"Y","N","Y","N",""
1996984,"ASHLAND PARTNERS & COMPANY LLP","3512 EXCEL DR","SUITE 103","MEDFORD","OR","United States","97504","Y",3783,"N","N","Y","N",""
1993275,"KPMG LLP","200 EAST RANDOLPH STREET","SUITE 5500","CHICAGO","IL","United States","60601","Y",185,"Y","Y","Y","N","Yes"
1994437,"SNYDER COHN, PC","11200 ROCKVILLE PIKE","SUITE 415","NORTH BETHESDA","MD","United States","20852","Y",5134,"N","N","Y","N",""
1996215,"PRICEWATERHOUSE COOPERS LLP","PRICEWATERHOUSECOOPER CENTER","300 MADISON AVENUE","NEW YORK","NY","United States","10017","Y",238,"Y","Y","Y","Y","Yes"
1996485,"RSM US LLP","555 17TH STREET, SUITE 1000","","DENVER","CO","United States","80202","Y",49,"Y","Y","Y","N","Yes"
1998219,"PRICEWATERHOUSECOOPERS LLP","300 MADISON AVENUE","","NEW YORK","NY","United States","10017","Y",238,"Y","Y","N","N","Yes"
1998219,"ERNST & YOUNG LLP","5 TIMES SQUARE","","NEW YORK","NY","United States","10036","Y",42,"Y","Y","N","N","Yes"
1998313,"GBQ PARTNERS LLC","230 WEST STREET","SUITE 700","COLUMBUS","OH","United States","43215","Y",1808,"Y","N","Y","N",""
1998311,"WALTER & SHUFFAIN, P.C.","ONE INTERNATIONAL PLACE","SUITE 1010","BOSTON","MA","United States","02110","Y",5439,"Y","N","Y","N",""
1997199,"ERNST & YOUNG","ONE MANHATTEN WEST","395 9TH AVE","NEW YORK","NY","United States","10001","Y",1396,"Y","Y","N","N","Not Yet Received"
1997371,"D. BROOKS AND ASSOCIATES CPA'S, P.A.","4440 PGA BLVD, SUITE 104","","PALM BEACH GARDENS","FL","United States","33410","Y",4048,"Y","N","Y","N",""
1997375,"ERNST & YOUNG","ONE MANHATTAN WEST","401 9TH AVENUE","NEW YORK","NY","United States","10001","Y",42,"Y","Y","N","N","No"
1997389,"WARREN AVERETT","2500 ACTON ROAD","","BIRMINGHAM","AL","United States","35243","Y",2226,"Y","N","Y","Y","Yes"
1997351,"CHERRY BEKAERT ADVISORY, LLC","P.O. BOX 25549","","RICHMOND","VA","United States","23260","Y",2276,"Y","N","Y","N",""
1997457,"SPICER JEFFRIES LLP","4601 DTC BOULEVARD, SUITE 700","","DENVER","CO","United States","80237","Y",349,"Y","Y","Y","N","Yes"
1998109,"BERRY DUNN","51 SAWYER ROAD","SUITE 610","WALTHAM","MA","United States","02452","Y",136,"Y","N","Y","N",""
1998142,"BAKER TILLY VIRCHOW KRAUSE, LLP","777 E WISCONSIN AVENUE","","MILWAUKEE","WI","United States","53202","Y",23,"Y","N","Y","N",""
1996884,"ASSURANCE DIMENSIONS","2000 BANKS ROAD","SUITE 218","MARGATE","FL","United States","33063","Y",5036,"Y","Y","Y","N","Yes"
1990514,"CITRIN COOPERMAN & COMPANY LLP","50 ROCKEFELLER PLAZA","","NEW YORK","NY","United States","10020","Y",2468,"Y","N","Y","N",""
1998182,"PRICEWATERHOUSECOOPERS LLP","300 MADISON AVENUE","","NEW YORK","NY","United States","10017","Y",238,"Y","Y","Y","Y","Yes"
1993948,"ERNST & YOUNG LLP","5 TIMES SQUARE","","NEW YORK","NY","United States","10036","Y",42,"Y","Y","Y","N","Yes"
1993948,"PRICEWATERHOUSECOOPERS","ONE SPENCER DOCK, NORTH WALL QUAY","","DUBLIN","","Ireland","","Y",1366,"Y","Y","N","N","Yes"
1992493,"KPMG LLP","345 PARK AVENUE","","NEW YORK","NY","United States","10154","Y",185,"Y","N","N","Y","Yes"
1992493,"KPMG LLP","BNY MELLON CENTER","500 GRANT STREET","PITTSBURGH","PA","United States","15219","Y",185,"Y","N","N","Y","Yes"
1994851,"ERNST & YOUNG, LLP","1001 LAKESIDE AVE","SUITE 1800","CLEVELAND","OH","United States","44114","Y",42,"Y","Y","N","N","Yes"
1998340,"KPMG LLP","4600-333 BAY ST.","","TORONTO","","Canada","M5H 2S5","Y",85,"Y","Y","N","N","Yes"
1998382,"GBQ PARTNERS LLC","230 WEST STREET","SUITE 700","COLUMBUS","OH","United States","43215","Y",1808,"Y","N","Y","N",""
1998337,"CITRIN COOPERMAN & COMPANY LLP","88 FROELICH FARM BOULEVARD","3RD FLOOR","WOODBURY","NY","United States","11797","Y",2468,"Y","Y","N","N","Yes"
1999765,"MAYER HOFFMAN MCCANN P.C.","5100 POPLAR AVENUE","30TH FLOOR","MEMPHIS","TN","United States","38137","Y",199,"Y","Y","N","N","Yes"
1997875,"DELOITTE & TOUCHE LLP","30 ROCKEFELLER PLAZA","","NEW YORK","NY","United States","10112-0015","Y",1046,"Y","N","Y","Y","Yes"
1999927,"PRICEWATERHOUSECOOPERS LLP","101 SEAPORT BOULEVARD","","BOSTON","MA","United States","02110","Y",238,"Y","Y","Y","Y","Yes"
1999959,"KPMG LLP","777 DUNSMUIR STREET","PO BOX 10426","VANCOUVER, BC","","Canada","V7Y 1K3","Y",85,"Y","N","Y","Y","Yes"
1999616,"WSRP, LLC","155 NORTH 400 WEST","STE 400","SALT LAKE CITY","UT","United States","84103","Y",374,"Y","N","Y","N",""
1999435,"ASHLAND PARTNERS & COMPANY LLP","3512 EXCEL DR.","SUITE 103","MEDFORD","OR","United States","97504","Y",3783,"Y","N","Y","N",""
1989574,"ERNST & YOUNG","ONE MANHATTEN WEST","395 9TH AVE","NEW YORK","NY","United States","10001","Y",1396,"Y","Y","N","N","Not Yet Received"
1993267,"ERNST & YOUNG LLP","55 IVAN ALLEN JR BLVD NW","STE 1000","ATLANTA","GA","United States","30308","Y",42,"Y","Y","N","N","Yes"
1997036,"KATZ ABOSH","9690 DEERECO ROAD","SUITE 500","TIMONIUM","MD","United States","21093","N",,"","N","Y","N",""
1998192,"MALONEY + NOVOTNY LLC","1111 SUPERIOR AVENUE, SUITE 700","","CLEVELAND","OH","United States","44114","N",,"N","N","Y","N",""
1992694,"PRICEWATERHOUSECOOPERS LLP","300 MADISON AVENUE","","NEW YORK","NY","United States","10017","Y",238,"Y","Y","Y","Y","Yes"
1992694,"ERNST & YOUNG","5 TIMES SQUARE","","NEW YORK","NY","United States","10036","Y",42,"Y","Y","N","N","Yes"
1996403,"ERNST & YOUNG","1700 ONE WILLIAMS CENTER","","TULSA","OK","United States","74172-0172","Y",42,"Y","N","Y","Y","Yes"
1998177,"PRICEWATERCOOPERS LLC","300 MADISON AVENUE","","NEW YORK","NY","United States","10017","Y",238,"Y","Y","Y","Y","Yes"
2000048,"WSRP, LLC","155 NORTH 400 WEST","STE 400","SALT LAKE CITY","UT","United States","84103","Y",374,"Y","N","Y","N",""
2000071,"WSRP, LLC","155 NORTH 400 WEST","STE 400","SALT LAKE CITY","UT","United States","84103","Y",374,"Y","N","Y","N",""
1988982,"EISNERAMPER","733 THIRD AVENUE","","NEW YORK","NY","United States","10017","Y",274,"Y","N","Y","N",""
1977184,"ERNST & YOUNG LLP","200 CLARENDON STREET","","BOSTON","MA","United States","02116","Y",42,"Y","Y","Y","N","Yes"
1977184,"DELOITTE & TOUCHE LLP","30 ROCKEFELLER CENTER","","NEW YORK","NY","United States","10112","Y",34,"Y","N","N","Y","Yes"
1977184,"ERNST & YOUNG LTD","62 FORUM LANE, CAYMAN BAY","PO BOX 510","GRAND CAYMAN","","Cayman Islands","","Y",1655,"Y","Y","N","N","Yes"
1977184,"ERNST & YOUNG SA","35E, AVENUE JOHN F. KENNEDY 1855","","MUNSBACH","","Luxembourg","","Y",1367,"Y","Y","N","N","Yes"
1977184,"DELOITTE & TOUCHE LLP","200 BERKELEY STREET","","BOSTON","MA","United States","02116","Y",34,"Y","Y","N","N","Yes"
1977184,"DELOITTE & TOUCHE LLP","1700 MARKET ST","SUITE 2700","PHILADELPHIA","PA","United States","19103","Y",34,"Y","Y","N","N","Not Yet Received"
1998763,"BONADIO & CO., LLP","100 CORPORATE PARKWAY","SUITE 200","AMHERST","NY","United States","14226","Y",1884,"Y","N","N","Y","Yes"
1998763,"PRICEWATERHOUSECOOPERS, LLP","300 MADISON AVENUE","","NEW YORK","NY","United States","10017","Y",238,"Y","Y","N","N","Yes"
1998763,"BONADIO & CO., LLP","100 CORPORATE PARKWAY","SUITE 200","AMHERST","NY","United States","14226","Y",1884,"Y","N","Y","N",""
2000182,"ERNST & YOUNG LLP","ONE MANHATTAN WEST","395 9TH AVE","NEW YORK","NY","United States","10036","Y",42,"Y","Y","N","N","Yes"
2000230,"ASHLAND PARTNERS AND COMPANY LLP","3512 EXCEL DRIVE, STE 103","","MEDFORD","OR","United States","97504","Y",3783,"Y","N","Y","N",""
1999591,"PRICEWATERHOUSECOOPERS, LLP","101 SEAPORT BOULEVARD","","BOSTON","MA","United States","02210-1705","Y",238,"Y","Y","Y","N","Yes"
2000054,"FORVIS MAZARS LLP","1155 AVENUE OF THE AMERICAS","STE 1200","NEW YORK","NY","United States","10036","Y",686,"Y","N","Y","Y","Not Yet Received"
1993794,"KPMG, LLP","201 MAIN STREET","","FORT WORTH","TX","United States","76102-4140","Y",185,"Y","Y","Y","N","Yes"
1993794,"BDO USA, LLP","6050 SOUTHWEST BLVD.","SUITE 300","FORT WORTH","TX","United States","76109","Y",243,"Y","Y","N","N","Yes"
2000547,"PRICEWATERHOUSECOOPERS","300 MADISON AVENUE","","NEW YORK","NY","United States","10017","Y",238,"Y","N","Y","Y","No"
1997732,"ERNST & YOUNG LTD.","62 FORUM LANE","CAMANA BAY, P.O. BOX 510","GRAND CAYMAN","","Cayman Islands","KY1-1106","Y",1655,"Y","Y","N","N","Yes"
2000593,"COHEN & CO.","201 INTERNATIONAL CIR.","SUITE 400","BALTIMORE","MD","United States","21030","Y",925,"Y","Y","N","N","Yes"
2000593,"DELOITTE & TOUCHE LLP","555 MISSION ST","1400","SAN FRANCISCO","CA","United States","94105","Y",34,"Y","Y","N","N","Yes"
2000593,"NAVOLIO & TALLMAN LLP","2121 N. CALIFORNIA BLVD","SUITE 610","WALNUT CREEK","CA","United States","94596","Y",5442,"Y","Y","N","N","Not Yet Received"
1998617,"MATT STILLE, CPA OF COHNREZNICK LLP","816 CONGRESS AVENUE","SUITE 200","AUSTIN","TX","United States","78701","Y",596,"Y","Y","N","N","Not Yet Received"
1998781,"DELOITTE & TOUCHE LLP","1700 MARKET STREET","","PHILADELPHIA","PA","United States","19103","Y",34,"Y","Y","Y","N","Yes"
1998781,"DELOITTE & TOUCHE LLP","60 NEXUS WAY, 8TH FLOOR","CAMANA BAY, PO BOX 1787","GRAND CAYMAN","","Cayman Islands","KY1-1109","Y",1096,"Y","Y","N","N","Yes"
1998781,"DELOITTE AUDIT SARL","20, BOULEVARD DE KOCKELSCHEUER","","LUXEMBOURG","","Luxembourg","L-1821","Y",1287,"Y","Y","N","N","Yes"
1998790,"ASHLAND PARTNERS & COMPANY LLP","3512 EXCEL DR.","SUITE 103","MEDFORD","OR","United States","97504","Y",3783,"Y","N","Y","N",""
1998882,"PRICEWATERHOUSECOOPERS","18 FORUM LANE","CAMANA BAY","GRAND CAYMAN","","Cayman Islands","","Y",1266,"Y","Y","N","N","Yes"
1998858,"DEMARCO SCIACCOTTA WILKENS & DUNLEAVY, LLP","20646 ABBEY WOODS CT N","SUITE 201","FRANKFORT","IL","United States","60423","Y",5376,"Y","N","Y","N",""
1998860,"CITRIN COOPERMAN & COMPANY, LLP","325 COLUMBIA TURNPIKE","SUITE 202","FLORHAM PARK","NJ","United States","07932","Y",2468,"Y","N","Y","N",""
1998882,"PRICEWATERHOUSECOOPERS LLP","300 MADISON AVENUE","","NEW YORK","NY","United States","10012","Y",238,"Y","Y","N","N","Yes"
1999664,"ASHLAND PARTNERS & COMPANY LLP","3512 EXCEL DRIVE","SUITE 103","MEDFORD","OR","United States","97504","Y",3783,"Y","N","Y","Y","Yes"
1998588,"KEITER","4401 DOMINION BOULEVARD, 2ND FLOOR","","GLEN ALLEN","VA","United States","23060","Y",131975,"Y","N","Y","N",""
2000513,"ERNST & YOUNG LTD.","62 FORUM LANE","CAMANA BAY","GEORGE TOWN","","Cayman Islands","KY11106","Y",1655,"Y","Y","N","N","Yes"
2000194,"DELOITTE & TOUCHE LLP","30 ROCKEFELLER CENTER","","NEW YORK","NY","United States","10112","Y",34,"Y","N","Y","Y","Yes"
1994978,"LBMC, PC","P.O.BOX 1869","201","BRENTWOOD","TN","United States","37027","Y",450,"Y","N","Y","N",""
1999608,"FORVIS MAZARS, LLP","1201 WALNUT STREET, SUITE 1700","","KANSAS CITY","MO","United States","64106","Y",686,"Y","N","Y","Y","Yes"
1995379,"PRICEWATERHOUSECOOPERS LLP","300 MADISON AVENUE","","NEW YORK","NY","United States","10017","Y",238,"Y","Y","Y","N","Yes"
1995085,"SPICER JEFFRIES LLP","4601 DTC BLVD","STE 700","DENVER","CO","United States","80237","Y",349,"Y","Y","N","N","Not Yet Received"
1989510,"ASSURANCE DIMENSIONS","2000 BANKS RD.","SUITE 218","MARGATE","FL","United States","33063","Y",5036,"Y","N","Y","N",""
1999136,"RICHEY, MAY & CO., LLP","9780 S MERIDIAN BLVD","SUITE 500","ENGLEWOOD","CO","United States","80112","Y",673,"Y","Y","N","N","Not Yet Received"
1995261,"KPMG LLP","10 SOUTH BROADWAY","SUITE 900","SAINT LOUIS","MO","United States","63102-1736","Y",185,"Y","N","Y","Y","Yes"
1995370,"MICHAEL COGLIANESE CPA, P.C.","300 N. STATE ST.","SUITE 5720","CHICAGO","IL","United States","60654","Y",3874,"Y","N","Y","N",""
1995379,"PRICEWATERHOUSECOOPERS","18 FORUM LANE","CAMANA BAY, P.O. BOX 258","GRAND CAYMAN","","Cayman Islands","","Y",1266,"Y","Y","N","N","Yes"
1995379,"BAKER TILLY TFW LLP","600 NORTH BRIDGE ROAD","#05-01 PARKVIEW SQUARE","SINGAPORE","","Singapore","188778","Y",2435,"Y","Y","N","N","Yes"
1995379,"PRICEWATERHOUSECOOPERS CI LLP","ROYAL BANK PLACE","1 GLATEGNY ESPLANADE","ST. PETER PORT","","Guernsey","GY1 4ND","Y",1412,"Y","Y","N","N","Yes"
1995379,"PRICEWATERHOUSECOOPERS LLP","7 MORE LONDON RIVERSIDE","","LONDON","","United Kingdom","SE1 2RT","Y",876,"Y","Y","N","N","Yes"
1992856,"ELLIOTT DAVIS LLC","341 COOL SPRINGS BOULEVARD","SUITE 340","FRANKLIN","TN","United States","37067","Y",149,"Y","Y","N","N","Not Yet Received"
1995397,"PRICEWATERHOUSE COOPERS","225 SOUTH SIXTH STREET","SUITE 1400","MINNEAPOLIS","MN","United States","55402","Y",238,"Y","Y","N","Y","Yes"
1995540,"HILL, BARTH & KING LLC","100 PINEWOOD LANE","SUITE 201","WARRENDALE","PA","United States","15086","Y",2206,"Y","N","Y","N",""
1992512,"WIPFLI","7733 FORSYTH BLVD.","#1200","ST. LOUIS","MO","United States","63105","N",,"","N","Y","N",""
1995554,"KPMG LLP","200 E. RANDOLPH ST.","SUITE 5500","CHICAGO","IL","United States","60601-6436","Y",185,"Y","N","Y","N",""
1995565,"EISNERAMPER LLP","733 THIRD AVENUE","","NEW YORK","NY","United States","10017","Y",274,"Y","Y","N","N","Yes"
1993290,"BAKER TILLY US, LLP","50 FREMONT STREET","SUITE 4000","SAN FRANCISCO","CA","United States","94105","Y",402,"Y","N","Y","N",""
1999869,"FORVIS, LLP","191 PEACHTREE STREET, NE","SUITE 2700","ATLANTA","GA","United States","30303","Y",686,"Y","Y","Y","N","Yes"
2000302,"BDO USA LLP","ONE BUSH STREET","","SAN FRANCISCO","CA","United States","94104","Y",243,"Y","Y","N","N","Yes"
1997665,"KPMG LLP","345 PARK AVENUE","","NEW YORK","NY","United States","10154","Y",185,"Y","Y","N","N","Yes"
1997665,"PRICEWATERHOUSECOOPERS LLP","1 EMBANKMENT PLACE","","LONDON","","United Kingdom","WC2N 6RH","Y",876,"Y","Y","N","N","Yes"
1997665,"FORVIS MAZARS, LLP","135 W 50TH STREET","","NEW YORK","NY","United States","10020","Y",686,"Y","Y","N","N","Yes"
1997665,"PRICEWATERHOUSECOOPERS, SOCIETE COOPERATIVE","2 RUE GERHARD","B.P.1443","MERCATOR","","Luxembourg","L-1014","Y",1328,"Y","Y","N","N","Yes"
1999802,"GRANT THORNTON (CAYMAN) LLP","2ND FLOOR, CENTURY YARD","CRICKET SQUARE, 171 ELGIN AVENUE","GEORGE TOWN","","Cayman Islands","KY1-1102","Y",4346,"Y","Y","N","N","Not Yet Received"
1998537,"WEAVER AND TIDWELL, L.L.P","400 POST OAK PKWY, SUITE 1100","","HOUSTON","TX","United States","77027","Y",410,"Y","Y","Y","N","Yes"
2000152,"PIPARA & CO LLP","#13, 13TH FLOOR, TRADELINK, A BLOCK, KAMLA MILLS","SENAPATI BAPAT MARG, LOWER PAREL,","MUMBAI, MAHARASHTRA","","India","400013","Y",6841,"Y","N","Y","N",""
