"FilingID","Accountant Name","Street 1","Street 2","City","State","Country","Postal Code","Registered PCAOB","PCAOB Number","PCAOB Inspection","Audit","Examination","Report","Unqualified Opinion"
1923731,"ERNST & YOUNG LLP","200 CLAREDON ST.","","BOSTON","MA","United States","02116","Y",42,"Y","Y","N","Y","Not Yet Received"
1925326,"RICHEY, MAY & CO., LLP","9780 SOUTH MERIDIEN BOULEVARD","SUITE 500","ENGLEWOOD","CO","United States","80112","Y",673,"Y","Y","N","N","Not Yet Received"
1925391,"BAUER & CO","5910 COURTYARD DRIVE","SUITE 230","AUSTIN","TX","United States","78731","Y",6072,"Y","Y","Y","N","Yes"
1922302,"ASHLAND PARTNERS & COMPANY LLP","3512 EXCEL DRIVE","SUITE 103","MEDFORD","OR","United States","97504","Y",3783,"Y","N","Y","N",""
1928327,"PKF SAN DIEGO, LLP","2020 CAMINO DEL RIO NORTH","SUITE 1000","SAN DIEGO","CA","United States","92108","Y",27,"Y","N","Y","N",""
1922716,"FARKOUH FURMAN & FACCIO CPAS","460 PARK AVENUE","","NEW YORK","NY","United States","10022","Y",3630,"Y","Y","N","N","Yes"
1924221,"PRICEWATERHOUSECOOPERS LLP","2001 MARKET STREET","SUITE 1800","PHILADELPHIA","PA","United States","19103-7042","Y",238,"Y","N","Y","Y","No"
1924303,"BONADIO & CO., LLP","171 SULLY'S TRAIL","SUITE 201","PITTSFORD","NY","United States","14534","Y",1884,"Y","N","Y","N",""
1927921,"KPMG LLP","10 SOUTH BROADWAY","SUITE 900","SAINT LOUIS","MO","United States","63102-1736","Y",185,"Y","N","Y","Y","Yes"
1926089,"HILL,BARTH & KING LLC","6603 SUMMIT DRIVE","","CANFIELD","OH","United States","44406","Y",2206,"N","N","Y","N",""
1926089,"WIPFLI LLC","100 TRI-STATE INTERNATIONAL","SUITE 300","LINCOLNSHIRE","IL","United States","60069","Y",344,"Y","Y","N","N","Yes"
1926089,"WOLF & COMPANY, P.C","255 STATE STREET","","BOSTON","MA","United States","02109","Y",392,"Y","Y","N","N","Yes"
1926652,"ASHLAND PARTNERS & COMPANY LLP","3512 EXCEL DRIVE","SUITE 103","MEDFORD","OR","United States","97504","Y",3783,"Y","N","Y","N",""
1928327,"ARMANINO LLP","12657 ALCOSTA BOULEVARD","SUITE 500","SAN RAMON","CA","United States","94583-4600","Y",32,"Y","N","N","Y","Yes"
1922697,"EDELSTEIN & COMPANY LLP","160 FEDERAL STREET","9TH FLOOR","BOSTON","MA","United States","02110-1700","Y",3376,"Y","N","Y","N",""
1924438,"EIDE BAILLY LLP","300 NORTH LAKE AVEMIE","SUITE 930","PASADENA","CA","United States","91101-4106","Y",286,"Y","N","Y","N",""
1924520,"BDO USA, P.C.","330 N WABASH AVENUE","SUITE 3200","CHICAGO","IL","United States","60611","Y",243,"Y","Y","Y","N","Yes"
1924590,"ASSURANCE DIMENSIONS","2000 BANKS ROAD","#218","MARGATE","FL","United States","33063","Y",5036,"Y","N","Y","Y","Yes"
1928454,"ERNST & YOUNG LLP","100 ADELAIDE ST. WEST","","TORONTO, ONTARIO","","Canada","M5H 0B3","Y",1263,"Y","N","Y","Y","Yes"
1932780,"HILL, BARTH & KING, LLC","3838 TAMIAMI TRAIL NORTH","SUITE 200","NAPLES","FL","United States","34103","Y",2206,"Y","N","Y","N",""
1928454,"KPMG LLP, CHARTERED ACCOUNTANTS","BAY ADELAIDE CENTRE, 333 BAY STREET","SUITE 4600","TORONTO","","Canada","M5H 2S5","Y",85,"Y","N","N","Y","Yes"
1921122,"PRICEWATERHOUSECOOPERS LLP","18 YORK STREET","SUITE 2600","TORONTO, ONTARIO","","Canada","M5J 0B2","Y",271,"Y","Y","N","Y","Yes"
1921122,"KPMG","333 BAY STREET, SUITE 4600","BAY ADELAIDE CENTRE","TORONTO, ONTARIO","","Canada","M5H 2S5","Y",85,"Y","N","Y","Y","Yes"
1921400,"PKF","2020 CAMINO DEL RIO NORTH","SUITE 500","SAN DIEGO","CA","United States","92108","Y",27,"Y","N","Y","N",""
1932440,"ELIOTT DAVIS DECOSIMO","2859 PACES FERRY ROAD SE","SUITE 1210","ATLANTA","GA","United States","30339-6208","Y",149,"Y","Y","N","N","Yes"
1930568,"KPMG LLP","333 BAY STREET, SUITE 4600","","TORONTO, ONTARIO","","Canada","M5H 2S5","Y",185,"Y","N","N","Y","Yes"
1932852,"TUTTLE AND BOND PLLC","1928 JACKSON LANE","","CHINA SPRING","TX","United States","76633","Y",6543,"Y","N","N","N",""
1922656,"PRICEWATERHOUSECOOPERS","2 COMMERCE SQUARE, SUITE 1700","2001 MARKET STREET","PHILADELPHIA","PA","United States","19103","Y",238,"Y","N","N","Y","No"
1930916,"WIPFLI LLP","2460 EXECUTIVE DRIVE","","ST. CHARLES","MO","United States","63303","Y",344,"Y","N","Y","N",""
1929664,"BROWN EDWARDS & COMPANY, LLP","828 MAIN STREET","STE 1401","LYNCHBURG","VA","United States","24504","Y",423,"Y","N","Y","N",""
1926442,"COHN REZNICK","14 SYLVAN WAY, THIRD FLOOR","","PARSIPPANY","NJ","United States","07054","Y",596,"Y","N","Y","N",""
1922475,"ERNST & YOUNG LLP","200 CLARENDON","","BOSTON","MA","United States","02116","Y",42,"Y","Y","N","N","Yes"
1922475,"ERNST & YOUNG LTD.","62 FORUM LANE, CAYMAN BAY","P.O. BOX 510","GRAND CAYMAN","","Cayman Islands","","Y",1655,"Y","Y","N","N","Yes"
1923265,"ASSURANCE DIMENSIONS","200 BANDS ROAD","SUITE 218","MARGATE","FL","United States","33607","Y",5036,"Y","N","Y","N",""
1923269,"ASSURANCE DIMENSIONS","2000 BANKS ROAD","SUITE 218","MARGATE","FL","United States","33063","Y",5036,"Y","N","Y","N",""
1930334,"SNYDER COHN, PC","11200 ROCKVILLE PIKE","SUITE 415","NORTH BETHESDA","MD","United States","20852","Y",5134,"Y","N","Y","N",""
1928118,"LARRY D. LIBERFARB, P.C., CERTIFIED PUBLIC ACCOUNTANTS","11 VANDERBILT AVENUE","SUITE 220","NORWOOD","MA","United States","02062","Y",2560,"Y","N","Y","N",""
1928143,"GBQ","230 WEST ST","UNIT 700","COLUMBUS","OH","United States","43215","Y",1808,"Y","Y","N","N","Not Yet Received"
1928409,"PRICEWATERHOUSECOOPERS LLP","PRICEWATERHOUSECOOPERS CENTER","300 MADISON AVENUE","NEW YORK","NY","United States","10017","Y",238,"Y","Y","Y","Y","Yes"
1932983,"MEADEN & MOORE","137 S. MAIN STREET","SUITE 300","AKRON","OH","United States","44308","Y",314,"Y","Y","N","N","Yes"
1932983,"ERNST & YOUNG, LLP","950 MAIN AVENUE","SUITE 1800","CLEVELAND","OH","United States","44113","Y",42,"Y","Y","N","N","Yes"
1922685,"CITRIN COOPERMAN & COMPANY LLP","50 ROCKEFELLER PLAZA","","NEW YORK","NY","United States","10020","Y",2468,"Y","N","Y","N",""
1922441,"CITRIN COOPERMAN & COMPANY LLP","50 ROCKEFELLER PLAZA","","NEW YORK","NY","United States","10020","Y",2468,"Y","N","Y","N",""
1928174,"HBK","100 PINEWOOD LN, SUITE 201","","WARRENDALE","PA","United States","15086","Y",2206,"Y","N","Y","N",""
1928153,"CLIFTONLARSONALLEN LLP","420 S ORANGE AVE","#500","ORLANDO","FL","United States","32801","Y",655,"Y","Y","N","N","Yes"
1928153,"BAKER TILLY US, LLP","225 SOUTH 6TH ST","","MINNEAPOLIS","MN","United States","55402","Y",23,"Y","Y","N","N","Yes"
1928153,"BAKER TILLY US, LLP","205 NORTH MICHIGAN AVENUE","","CHICAGO","IL","United States","60601-5927","Y",23,"Y","Y","N","N","Yes"
1932985,"COHNREZNICK LLP","1 S. WACKER DRIVE","SUITE 3500","CHICAGO","IL","United States","60606","Y",596,"Y","Y","N","N","Yes"
1933008,"RICHEY MAY & CO.","9605 KINGSTON CT. #200","","ENGLEWOOD","CO","United States","80112","Y",673,"Y","Y","N","N","Yes"
1932997,"ASSURANCE DIMENSIONS","200 BANDS ROAD","SUITE 218","MARGATE","FL","United States","33607","Y",5036,"Y","N","Y","N",""
1931108,"ADEPTUS PARTNERS LLC","733 STATE ROUTE 35","","OCEAN","NJ","United States","07712","Y",3686,"Y","N","Y","N",""
1923822,"ASHLAND PARTNERS","3512 EXCEL DR","SUITE 103","MEDFORD","OR","United States","97504","Y",3783,"Y","N","Y","N",""
1933039,"ASSURANCE DIMENSIONS","2000 BANKS ROAD","SUITE 218","MARGATE","FL","United States","33063","Y",5036,"Y","N","Y","N",""
1933059,"SNYDER COHN, P.C.","11200 ROCKVILLE PIKE","SUITE 415","ROCKVILLE","MD","United States","20852","Y",5134,"Y","N","Y","N",""
1933106,"KPMG LLP","100 NORTH TAMPA STREET","SUITE 1700","TAMPA","FL","United States","33602-5145","Y",185,"Y","N","Y","Y","Yes"
1914027,"3783ASHLAND PARTNERS & COMPANY LLP","3512 EXCEL DRIVE","STE. 103","MEDFORD","OR","United States","97504","Y",3783,"Y","N","Y","N",""
1923081,"COHNREZNICK LLP","1301 AVENUE OF THE AMERICAS","","NEW YORK","NY","United States","10019","Y",596,"Y","Y","N","N","Not Yet Received"
1919182,"DEMARCO SCIACCOTTA WILKENS & DUNLEAVY, LLP","20646 ABBEY WOODS CT. N.","SUITE 201","FRANKFORT","IL","United States","60423","Y",5376,"Y","N","Y","N",""
1926467,"KPMG LLP","1601 MARKET STREET","","PHILADELPHIA","PA","United States","19103","Y",185,"Y","Y","N","N","Yes"
1926467,"ASHLAND PARTNERS & COMPANY LLP","3512 EXCEL DRIVE","SUITE 103","MEDFORD","OR","United States","97504","Y",3783,"N","N","Y","N",""
1923081,"CROWE LLP","330 EAST JEFFERSON BLVD","","SOUTH BEND","IN","United States","46624","Y",173,"Y","Y","N","N","Not Yet Received"
1926983,"BDO USA, P.C.","2600 W. BIG BEAVER ROAD","SUITE 600","TROY","MI","United States","48084","Y",243,"Y","Y","N","N","Yes"
1926952,"EDELSTEIN & COMPANY, LLP","160 FEDERAL STREET","9TH FLOOR","BOSTON","MA","United States","02110","Y",3376,"Y","N","Y","N",""
1927104,"ERNST & YOUNG LLP","1 PPG PLACE","SUITE 2100","PITTSBURGH","PA","United States","15213","Y",42,"Y","N","Y","Y","Yes"
1924305,"PRICEWATERHOUSECOOPER LLP","100 EAST PRATT STREET, SUITE 2600","","BALTIMORE","MD","United States","21202","Y",238,"Y","Y","N","N","Yes"
1923986,"ERNST & YOUNG LLP","312 WALNUT ST","SUITE 1900","CINCINNATI","OH","United States","45202","Y",42,"Y","Y","Y","N","Yes"
1923986,"KPMG","312 WALNUT ST","SUITE 3400","CINCINNATI","OH","United States","45202","Y",185,"Y","Y","N","N","No"
1924227,"KEITER, CPA","4401 DOMINION BLVD","","GLEN ALLEN","VA","United States","23060","Y",1111,"Y","N","Y","N",""
1924313,"PRICEWATERHOUSECOOPER LLP","100 EAST PRATT STREET, SUITE 2600","","BALTIMORE","MD","United States","21202","Y",238,"Y","N","Y","N",""
1922755,"KPMG","CENTURY YARD","CRICKET SQUARE","GRAND CAYMAN","","Cayman Islands","KY1-1106","Y",1323,"Y","Y","N","N","Yes"
1922755,"KPMG LLP","51 JOHN F. KENNEDY PARKWAY","","SHORT HILLS","NJ","United States","07078","Y",185,"Y","Y","N","N","Yes"
1916467,"FORVIS","2700 POST OAK BLVD","SUITE 1500","HOUSTON","TX","United States","77056","Y",686,"Y","N","Y","Y","Yes"
1924547,"ERNST & YOUNG LTD.","62 FORUM LANE","","CAMANA BAY","","Cayman Islands","","Y",1655,"Y","Y","N","N","Yes"
1924557,"JOEL E. SAMMET & CO., LLP","15 MAIDEN LANE","SUITE 500","NEW YORK","NY","United States","10038-5117","Y",3983,"Y","Y","Y","N","Yes"
1924923,"BERKOW, SCHECHTER & COMPANY LLP","350 BEDFORD STREET","","STAMFORD","CT","United States","06901","Y",4040,"Y","N","Y","N",""
1918691,"BERKOW, SCHECHTER & COMPANY LLP","350 BEDFORD STREET","","STAMFORD","CT","United States","06901","N",,"","N","Y","N",""
1922520,"MAZARS USA LLP","135 WEST 50TH STREET","","NEW YORK","NY","United States","10020","Y",339,"Y","Y","Y","N","Yes"
1924302,"PRICEWATERHOUSECOOPERS","300 MADISON AVENUE","24TH FLOOR","NEW YORK","NY","United States","10017","Y",238,"Y","N","Y","N",""
1923915,"DELOITTE & TOUCHE LLP","925 FOURTH AVENUE, SUITE 3300","","SEATTLE","WA","United States","98104","Y",34,"Y","Y","N","N","Yes"
1924934,"PRICEWATERHOUSECOOPERS LLP","214 N TRYON STREET","#4200","CHARLOTTE","NC","United States","28202","Y",238,"Y","N","Y","N",""
1925053,"CADE, CRENSHAW & ASSOCIATES, P.C.","2100 SOUTHBRIDGE PARKWAY","SUITE 460","BIRMINGHAM","AL","United States","35209","N",,"","N","Y","N",""
1923238,"COHNREZNICK LLP","1212 AVENUE OF THE AMERICAS","","NEW YORK","NY","United States","10036","Y",596,"Y","Y","N","N","Yes"
1922051,"SPICER JEFFRIES LLP","4601 DTC BOULEVARD","SUITE 700","DENVER","CO","United States","80237","Y",349,"Y","Y","N","N","Yes"
1924569,"DELOITTE & TOUCHE LLP","30 ROCKEFELLER PLAZA","","NEW YORK","NY","United States","10112","Y",34,"Y","N","Y","Y","Yes"
1924567,"ASSURANCE DIMENSIONS","2000 BANKS ROAD","#218","MARGATE","FL","United States","33063","Y",5036,"Y","N","Y","Y","Yes"
1925476,"PRICEWATERHOUSECOOPERS LLP","45 SOUTH SEVENTH STREET","SUITE 3400","MINNEAPOLIS","MN","United States","55402","Y",238,"Y","N","Y","Y","Yes"
1927404,"RICHEY MAY & CO","9605 S. KINGSTON COURT","SUITE 200","ENGLEWOOD","CO","United States","80112","Y",673,"Y","Y","N","N","Yes"
1927404,"YOUNT, HYDE AND BARBOUR, P.C.","4419 PHEASANT RIDGE ROAD","SUITE 302","ROANOKE","VA","United States","24014","Y",613,"Y","Y","N","N","Yes"
1927477,"MARCUM LLP","730 THIRD AVE","730","NEW YORK","NY","United States","10017","Y",688,"Y","N","Y","N",""
1925605,"COULTER AND JUSTUS","9717 COGDILL ROAD SUITE 201","","KNOXVILLE","TN","United States","37932","Y",430,"Y","Y","Y","N","No"
1931570,"KPMG LLP","333 BAY STREET","SUITE 4600","TORONTO, ONTARIO","","Canada","M5H 2S5","Y",185,"Y","Y","N","Y","Not Yet Received"
1932582,"ERNST & YOUNG LLP","155 N. WACKER DR","","CHICAGO","IL","United States","60606","Y",42,"Y","Y","N","N","Yes"
1926237,"MOSS ADAMS LLP","999 THIRD AVENUE STE 2800","","SEATTLE","WA","United States","98104","Y",659,"Y","Y","Y","N","Yes"
1932635,"EISNER AMPER","ONE MARKET, LANDMARK, SUITE 620","","SAN FRANCISCO","CA","United States","94105","Y",274,"Y","Y","N","N","Yes"
1924207,"CAVANAUGH NELSON PLC","999 WATERSIDE DRIVE","SUITE 2250","NORFOLK","VA","United States","23510","N",,"","N","Y","N",""
1927703,"BPM LLP","1 CALIFORNIA STREET","#2500","SAN FRANCISCO","CA","United States","94111","Y",207,"Y","N","Y","N",""
1930913,"KEITER","4401 DOMINION BOULEVARD","INNSBROOK CORPORATE CENTER","GLEN ALLEN","VA","United States","23060","Y",80,"Y","N","Y","N",""
1929795,"PRICEWATERHOUSECOOPERS LLP","300 MADISON AVENUE","24TH FLOOR","NEW YORK","NY","United States","10017","Y",238,"Y","Y","N","N","Yes"
1929795,"ERNST & YOUNG","5 TIMES SQUARE","","NEW YORK","NY","United States","10036","Y",42,"Y","Y","N","N","Yes"
1931039,"KPMG LLP","345  PARK AVENUE","","NEW YORK","NY","United States","10154","Y",185,"Y","N","Y","Y","Yes"
1930981,"ERNST & YOUNG ACCOUNTANTS LLP","CROSS TOWERS","ANTONIO VIVALDISTRAAT 150","AMSTERDAM","","Netherlands","1083","Y",1396,"Y","Y","N","N","Yes"
1930981,"ERNST & YOUNG LLP","ONE MANHATTAN WEST","395 9TH AVENUE","NEW YORK","NY","United States","10001","Y",42,"Y","Y","N","N","Yes"
1920050,"KPMG LLP","600 MAISONNEUVE BLVD WEST","SUITE 1500","MONTREAL","","Canada","H3A 0A3","Y",85,"Y","Y","N","N","Not Yet Received"
1932709,"DELOITTE IRELAND LLP","DELOITTE & TOUCHE HOUSE, EARLSFORT TERRACE","","DUBLIN","","Ireland","D02 AY28","Y",1193,"Y","Y","N","N","Yes"
1919726,"DELOITTE & TOUCHE LLP","60 NEXUS WAY, 8TH FL","CAMARA BAY POB 1787","GRAND CAYMAN","","Cayman Islands","KY1-1109","Y",1096,"Y","Y","N","N","Yes"
1931180,"PRICEWATERHOUSECOOPERS AG","BIRCHSTRASSE 160","","ZURICH","","Switzerland","CH-8050","Y",1358,"Y","Y","N","N","Yes"
1931180,"PRICEWATERHOUSECOOPERS CI LLP","PO BOX 321","ROYAL BANK PLACE, 1 GLATEGNY ESPLANADE","ST. PETER PORT","","Guernsey","GY1 4ND","Y",1412,"Y","Y","N","N","Yes"
1931180,"PRICEWATERHOUSECOOPERS LLP","2121 NORTH PEARL STREET","","DALLAS","TX","United States","75201-2997","Y",238,"Y","Y","N","N","Yes"
1931250,"PRICEWATERHOUSECOOPERS","300 MADISON AVENUE","","NEW YORK","NY","United States","10017","Y",238,"Y","N","Y","Y","No"
1930108,"SC&H ATTEST SERVICES, P.C.","910 RIDGEBROOK RD","","SPARKS","MD","United States","21152","Y",2297,"Y","Y","N","N","Yes"
1929763,"PRICEWATERHOUSE COOPERS LLP","300 MADISON AVENUE","","NEW YORK","NY","United States","10017-6204","Y",238,"Y","N","Y","Y","Yes"
1929940,"BAKER TILLY US, LLP","225 S. SIXTH STREET","","MINNEAPOLIS","MN","United States","55402","Y",23,"Y","N","Y","N",""
1921822,"PRICEWATERHOUSECOOPERS","300 MADISON AVE","7 CHURCH STREET","NEW YORK","NY","United States","10017","Y",1403,"Y","Y","Y","N","Yes"
1921822,"KPMG","LODHA EXCELUS, APOLLO MILLS COMPOUND","","MUMBAI","","India","400011","Y",2115,"Y","N","N","Y","Yes"
1921822,"DELOITTE & TOUCHE","EARSFORT TERRACE","","DUBLIN","","Ireland","2","Y",1193,"Y","Y","Y","N","Yes"
1930132,"WOLF & COMPANY, P.C.","255 STATE STREET","","BOSTON","MA","United States","02109","Y",392,"Y","N","Y","N",""
1928716,"PRICEWATERHOUSECOOPERS LLP","101 SEAPORT BOULEVARD","SUITE 500","BOSTON","MA","United States","02110","Y",238,"Y","Y","N","N","Yes"
1928716,"KESSELMAN AND KESSELMAN, A MEMBER FIRM OF PRICEWATERHOUSECOOPERS INTERNATIONAL LIMITED","TRADE TOWER","25 HAMERED STREET","TEL AVIV","","Israel","6812508","Y",1309,"Y","Y","N","N","Yes"
1923115,"DEMARCO SCIACCOTTA WILKENS & DUNLEAVY, LLP","20646 ABBEY WOODS CT N SUITE 201","","FRANKFORT","IL","United States","60423","Y",5376,"Y","N","Y","N",""
1930628,"PRICEWATERHOUSECOOPERS LLP","101 SEAPORT BOULEVARD","","BOSTON","MA","United States","02210","Y",238,"Y","Y","N","N","Yes"
1933315,"ERNST & YOUNG LLP","155 N WACKER DR","","CHICAGO","IL","United States","60606","Y",42,"Y","Y","N","N","Yes"
1928556,"PRICEWATERHOUSECOOPERS LLP","201 MARKET STREET","SUITE 1800","PHILADELPHIA","PA","United States","19103","Y",238,"Y","Y","N","N","Yes"
1932098,"DELOITTE & TOUCHE","ONE CAPITAL PLACE","SHEDDEN ROAD","GEORGE TOWN","","Cayman Islands","","Y",1096,"Y","Y","N","N","Yes"
1932175,"KPMG LLP","1601 MARKET STREET","","PHILADELPHIA","PA","United States","19103","Y",185,"Y","N","N","Y","Yes"
1932175,"PRICEWATERHOUSECOOPERS, LLP","100 EAST PRATT STREET, SUITE 2600","","BALTIMORE","MD","United States","21202","Y",238,"Y","N","Y","N",""
1933777,"EISNER AMPER","ONE MARKET, LANDMARK, SUITE 620","","SAN FRANCISCO","CA","United States","94105","Y",274,"Y","Y","N","N","Yes"
1927435,"ERNST & YOUNG","18101 VON KARMAN AVENUE","","IRVINE","CA","United States","92612","Y",42,"Y","Y","N","N","Yes"
1933609,"PRICEWATERHOUSECOOPER LLP","100 EAST PRATT STREET, SUITE 2600","","BALTIMORE","MD","United States","21202","Y",238,"Y","Y","N","N","Yes"
1932062,"HAYNIE & COMPANY","15460 PIN OAK DR","","THE WOODLANDS","TX","United States","77384","Y",457,"Y","Y","N","N","Not Yet Received"
1929981,"ERNST & YOUNG","155 NORTH WACKER DRIVE","","CHICAGO","IL","United States","60606","Y",42,"Y","Y","N","N","Yes"
1929981,"PLANTE & MORAN PLLC","10 S RIVERSIDE PLAZA","","CHICAGO","IL","United States","60606","Y",166,"Y","Y","Y","N","Yes"
1929981,"BAKER TILLY US, LLP","205 NORTH MICHIGAN AVENUE","28TH FLOOR","CHICAGO","IL","United States","60601-5927","Y",23,"Y","Y","N","N","Yes"
1925676,"ASSURANCE DIMENSIONS","4920 W CYPRESS ST #102","","TAMPA","FL","United States","33607","N",,"","N","Y","N",""
1928728,"EISNER AMPER","ONE MARKET, LANDMARK, SUITE 620","","SAN FRANCISCO","CA","United States","94105","Y",274,"Y","Y","N","N","Yes"
1930286,"KPMG LLP","1601 MARKET STREET","","PHILADELPHIA","PA","United States","19103-7240","Y",185,"Y","Y","N","N","Yes"
1929805,"ERNST & YOUNG S.A.","35E AVENUE JOHN F. KENNEDY","","LUXEMBOURG","","Luxembourg","L-1855","Y",1367,"Y","Y","N","N","Yes"
1929805,"DELOITTE & TOUCHE LLP","200 BERKELEY STREET","10TH FLOOR","BOSTON","MA","United States","02116","Y",34,"Y","Y","N","N","Yes"
1924768,"ASHLAND PARTNERS & COMPANY LP","3512 EXCEL DRIVE, SUITE 103","","MEDFORD","OR","United States","97504","Y",3783,"N","N","Y","N",""
1924768,"A-LIGN (PRICE AND ASSOCIATES CPAS, LLC)","400 N. ASHLEY DRIVE","SUITE 1325","TAMPA","FL","United States","33602","Y",5012,"Y","N","N","Y","Yes"
1932372,"PRICEWATERHOUSECOOPERS, LLP","100 EAST PRATT STREET, SUITE 2600","","BALTIMORE","MD","United States","21202","Y",238,"Y","Y","N","N","Yes"
1930288,"ERNST & YOUNG LLP","715 SOUTH FIGUEROA STREET","","LOS ANGELES","CA","United States","90017-5418","Y",42,"Y","Y","Y","N","Yes"
1928677,"ELLIOTT DAVIS, LLC","629 MARKET STREET, SUITE 100","","CHATTANOOGA","TN","United States","37402","Y",149,"Y","N","Y","N",""
1928677,"MARGOLIN, WINER & EVENS LLP","ONE PENN PLAZA","SUITE 3000","NEW YORK","NY","United States","10119","Y",332,"Y","Y","N","N","Yes"
1927958,"FRAZIER & DEETER","401 E. JACKSON STREET","SUITE 2425","TAMPA","FL","United States","33602","Y",215,"Y","N","Y","N",""
1927981,"KPMG LLP","10 SOUTH BROADWAY","SUITE 900","SAINT LOUIS","MO","United States","63102-1736","Y",185,"Y","N","Y","Y","Yes"
1928059,"DELOITTE & TOUCHE LLP","30 ROCKEFELLER PLAZA","","NEW YORK","NY","United States","10112","Y",1046,"Y","N","Y","Y","Yes"
1926424,"COHEN & COMPANY","1350 EUCLID AVE.","SUITE 800","CLEVELAND","OH","United States","44115","Y",925,"Y","Y","N","N","Yes"
1928119,"PRICEWATERHOUSE COOPERS","18 FORUM LANE","NORTH CHURCH STREET","GEORGETOWN","","Cayman Islands","","Y",1266,"Y","Y","N","N","Yes"
1930599,"PRICEWATERHOUSECOOPERS LLP","101 SEAPORT BOULEVARD","","BOSTON","MA","United States","02210","Y",238,"Y","Y","N","Y","Yes"
1930599,"BELFINT LYONS & SHUMAN","1011 CENTRE ROAD","SUITE 310","WILMINGTON","DE","United States","19805","N",,"","Y","N","Y","Yes"
1930609,"PRICEWATERHOUSECOOPERS LLP","101 SEAPORT BOULEVARD","","BOSTON","MA","United States","02210","Y",238,"Y","Y","Y","Y","Yes"
1930529,"ERNST & YOUNG LLP","1775 TYSONS BLVD","","TYSONS","VA","United States","22102","Y",42,"Y","Y","N","N","Yes"
1930529,"ERNST & YOUNG LLP","5 TIMES SQUARE","","NEW YORK","NY","United States","10036","Y",42,"Y","Y","N","N","Yes"
1930529,"ERNST & YOUNG LTD.","62 FORUM LANE","","GEORGE TOWN","","Cayman Islands","","Y",1655,"Y","Y","N","N","Yes"
1930529,"ERNST & YOUNG S.A.","35 E AVENUE JOHN F. KENNEDY","","LUXEMBOURG CITY","","Luxembourg","L-1855","Y",1367,"Y","Y","N","N","Yes"
1930529,"ERNST & YOUNG LLP","1 MORE LONDON PLACE","","LONDON","","United Kingdom","SE1 2AF","Y",1438,"Y","Y","N","N","Yes"
1925524,"RW GROUP LLC","400 OLD FORGE LANE","SUITE 401","KENNETT SQUARE","PA","United States","19348","Y",5020,"Y","N","Y","N",""
1924694,"FORVIS, LLP","191 PEACHTREE STREET, NE","SUITE 2700","ATLANTA","GA","United States","30303","Y",686,"Y","Y","Y","N","Yes"
1925062,"CROWE HORWATH LLP","3815 RIVER CROSSING PKWY","SUITE 300","INDIANAPOLIS","IN","United States","46240","Y",173,"Y","N","Y","N",""
1925601,"MAILLIE, LLP","500 N LEWIS RD","","ROYERSFORD","PA","United States","19468","Y",2429,"Y","N","Y","N",""
1925100,"DELOITTE & TOUCHE LLP","30 ROCKEFELLER PLAZA","","NEW YORK","NY","United States","10112-0115","Y",34,"Y","Y","Y","N","Yes"
1911874,"PRICEWATERHOUSECOOPERS LLP","300 MADISON AVENUE","","NEW YORK","NY","United States","10017","Y",238,"Y","Y","N","N","Yes"
1922572,"BDO USA, LLLP","421 FAYETTEVILLE STREET","","RALEIGH","NC","United States","07078","Y",243,"Y","N","Y","N",""
1924789,"ASSURANCE DIMENSIONS. LLC","4920 W CYPRESS STREET","SUITE 102","TAMPA","FL","United States","33607","Y",5036,"Y","N","Y","N",""
1925062,"MENGEL METZGER BARR & CO. LLP","100 CHESTNUT ST.","SUITE 1200","ROCHESTER","NY","United States","14604","Y",557,"Y","Y","Y","N","Yes"
1923879,"BROWN, ARMSTRONG ACCOUNTANCY CORPORATION","4200 TRUXTUN AVENUE","SUITE 300","BAKERSFIELD","CA","United States","93309","Y",237,"Y","N","Y","N",""
1925122,"PRICEWATERHOUSECOOPERS","ONE INTERNATIONAL TOWERS SYDNEY","WATERMANS QUAY, BARANGAROO","SYDNEY","","Australia","2001","N",,"","Y","N","N","Yes"
1922318,"COHNREZNICK LLP","1301 AVENUE OF THE AMERICAS","10TH FLOOR","NEW YORK","NY","United States","10019","Y",596,"Y","Y","N","N","Yes"
1924706,"ASSURANCE DIMENSIONS ALSO D/B/A/ MCNAMARA AND ASSOCIATES, LLC","3111 N. UNIVERSITY DRIVE","SUITE 621","CORAL SPRINGS","FL","United States","33065","Y",5036,"Y","N","Y","N",""
1923112,"BAKER TILLY VIRCHOW KRAUSE, LLP","225 SOUTH SIXTH STREET","SUITE 2300","MINNEAPOLIS","MN","United States","55402","Y",185,"Y","N","Y","N",""
1919024,"TANNER LLC","36 STATE ST","SUITE 600","SALT LAKE CITY","UT","United States","84111","Y",270,"Y","Y","N","N","Yes"
1922361,"PLANTE MORAN","10 SOUTH RIVERSIDE PLAZA","9TH FLOOR","CHICAGO","IL","United States","60606","Y",166,"Y","N","Y","Y","Yes"
1924877,"RICHEY MAY","9780 S MERIDIAN BLVD","SUITE 500","ENGLEWOOD","CO","United States","80112","Y",673,"Y","Y","Y","Y","Not Yet Received"
1925083,"MAYER HOFFMAN MCCANN PC","5100 POPLAR AVENUE 30TH FLOOR","","MEMPHIS","TN","United States","38137","Y",199,"Y","Y","N","N","Yes"
1922460,"ERNST & YOUNG LTD.","62 FORUM LANE","","CAMANA BAY","","Cayman Islands","","Y",1655,"Y","Y","N","N","Yes"
1922366,"COHEN & COMPANY LTD","1350 EUCLID AVE., SUITE 800","","CLEVELAND","OH","United States","44114-1717","Y",925,"Y","Y","N","N","Yes"
1921934,"ASHLAND PARTNERS & COMPANY LLP","3512 EXCEL DRIVE","SUITE 103","MEDFORD","OR","United States","97504","Y",3783,"N","N","Y","N",""
1922288,"EISNERAMPER","750 3RD AVE","","NEW YORK","NY","United States","10017","Y",274,"Y","Y","N","N","Not Yet Received"
1923824,"CROWE HORWATH LLP","ONE MID AMERICA PLAZA","","OAK BROOK TERRACE","IL","United States","60181-4450","Y",173,"Y","N","Y","N",""
1925467,"ANCHIN, BLOCK & ANCHIN","1375 BROADWAY","","NEW YORK","NY","United States","10018","Y",168,"Y","Y","Y","N","Yes"
1922198,"STELMACK, DOBRANSKY & EANNANCE","3328 WASHINGTON ROAD","","MCMURRAY","PA","United States","15317","Y",5297,"Y","N","Y","N",""
1922540,"KPMG LLP","100 NORTH TAMPA STREET","SUITE 1700","TAMPA","FL","United States","33602-5145","Y",185,"Y","N","Y","Y","Yes"
1921569,"CHERRY BEKAERT, LLP","3310 WEST END. AVE. SUITE 550","","NASHVILLE","TN","United States","37203","Y",677,"Y","N","N","N",""
1922551,"KPMG LLP","100 NORTH TAMPA STREET","#1700","TAMPA","FL","United States","33602-5145","Y",185,"Y","N","Y","Y","Yes"
1922612,"DELOITTE & TOUCHE LLP","555 WEST 5TH STREET, SUITE 2700","","LOS ANGELES","CA","United States","90013","Y",34,"Y","Y","N","N","Yes"
1920508,"KPMG LLP","303 EAST WACKER DRIVE","","CHICAGO","IL","United States","60601","Y",185,"Y","Y","Y","Y","Yes"
1920508,"DELOITTE & TOUCHE LLP","111 S. WACKER DRIVE","","CHICAGO","IL","United States","60606-4302","Y",34,"Y","Y","Y","Y","Yes"
1925500,"KPMG","2323 ROSS AVENUE","SUITE 1400","DALLAS","TX","United States","75201-2721","Y",185,"Y","Y","Y","N","Yes"
1925500,"PWC","2121 N PEARL ST SUITE 2000","SUITE 1800","DALLAS","TX","United States","75201","Y",238,"Y","Y","N","N","Yes"
1925500,"RSM LLC","13355 NOEL ROAD","SUITE 800","DALLAS","TX","United States","75240","Y",49,"Y","Y","N","N","Yes"
1925500,"CROWE LLP","485 LEXINGTON AVE FLOOR 11","","NEW YORK","NY","United States","10017","Y",173,"Y","Y","N","N","Yes"
1925557,"KPMG","550 SOUTH HOPE STREET","SUITE 1500","LOS ANGLES","CA","United States","90071","Y",185,"Y","Y","N","N","Yes"
1926169,"ASSURANCE DIMENSIONS","4920 W CYPRESS STREET","SUITE 102","TAMPA","FL","United States","33607","Y",5036,"Y","N","Y","N",""
1922389,"COHEN & CO LTD","1350 EUCLID AVENUE","SUITE 800","CLEVELAND","OH","United States","44115","Y",925,"Y","Y","N","N","Yes"
1922636,"GRANT THORNTON","1717 MAIN STREET","SUITE 1800","DALLAS","TX","United States","75201","Y",248,"Y","N","N","Y","No"
1922636,"ERNST & YOUNG LLP","2323 VICTORY AVENUE","SUITE 2000","DALLAS","TX","United States","75219","Y",42,"Y","Y","N","N","Yes"
1922636,"ASHLAND PARTNERS & COMPANY LLP","3512 EXCEL DRIVE","SUITE 103","MEDFORD","OR","United States","97504","Y",3783,"Y","N","Y","N",""
1920564,"RYAN & JURASKA LLP","141 WEST JACKSON BOULEVARD","","CHICAGO","IL","United States","60604","Y",3407,"Y","N","Y","N",""
1922863,"DELOITTE AND TOUCHE, LLP","200 BERKELEY STREET","","BOSTON","MA","United States","02116-5022","Y",34,"Y","Y","N","N","Yes"
1922863,"DELOITTE AND TOUCHE","ONE CAPITAL PLACE","PO BOX 1787","GRAND CAYMAN","","Cayman Islands","KYI-1109","Y",1096,"Y","Y","N","N","Yes"
1922871,"ASSURANCE DIMENSIONS","2000 BANKS ROAD","SUITE 218","MARGATE","FL","United States","33063","Y",5036,"Y","N","Y","N",""
1925709,"ASHLAND PARTNERS & COMPANY, LLP","3512 EXCEL DR","SUITE 103","MEDFORD","OR","United States","97504","Y",3783,"Y","N","Y","N",""
1922483,"PLANTE & MORAN, PLLC","10 SOUTH RIVERSIDE PLAZA","9TH FLOOR","CHICAGO","IL","United States","60606","Y",166,"Y","N","Y","N",""
1925358,"SPICER JEFFRIES LLP","4601 DTC BOULEVARD, SUITE 700","","DENVER","CO","United States","80237","Y",349,"Y","Y","Y","N","Yes"
1928169,"ERNST & YOUNG, LLP","200 CLARENDON STREET","","BOSTON","MA","United States","02116","Y",42,"Y","Y","N","N","Yes"
1924733,"PRICEWATERHOUSECOOPERS, SOCIETE COOPERATIVE","2 RUE GERHARD","B.P.1443","MERCATOR","","Luxembourg","L-1014","Y",1328,"Y","Y","N","N","Yes"
1924938,"BERKOW, SCHECHTER & COMPANY LLP","350 BEDFORD STREET","","STAMFORD","CT","United States","06901","Y",4040,"Y","N","Y","N",""
1924978,"BERKOW, SCHECHTER & COMPANY LLP","350 BEDFORD STREET","","STAMFORD","CT","United States","06901","Y",4040,"Y","N","Y","N",""
1925082,"KPMG LLP","200 E. RANDOLPH ST.","SUITE 5500","CHICAGO","IL","United States","60601-6436","Y",185,"Y","N","Y","N",""
1929892,"PRICEWATERHOUSECOOPERS LLP","PRICEWATERHOUSECOOPERS CENTER","300 MADISON AVENUE","NEW YORK","NY","United States","10017","Y",238,"Y","N","Y","Y","No"
1926796,"ASSURANCE DIMENSIONS","4920 W CYPRESS STREET","SUITE 102","TAMPA","FL","United States","33607","Y",5036,"Y","N","Y","N",""
1924733,"KPMG LLP","875 THIRD AVENUE","","NEW YORK","NY","United States","10022","Y",185,"Y","Y","N","N","Not Yet Received"
1924733,"PRICEWATERHOUSECOOPERS LLP","1 EMBANKMENT PLACE","","LONDON","","United Kingdom","WC2N 6RH","Y",876,"Y","Y","N","N","Not Yet Received"
1924733,"MAZARS USA LLP","135 W 50TH STREET","","NEW YORK","NY","United States","10020","Y",339,"Y","Y","N","N","Not Yet Received"
1924733,"ERNST & YOUNG","62 FORUM LANE","CAMANA  BAY P.O. BOX 510","GRAND CAYMAN","","Cayman Islands","KY1-1106","Y",1655,"Y","Y","N","N","Yes"
1926922,"LBMC, PC","P.O.BOX 1869","201","BRENTWOOD","TN","United States","37027","Y",450,"Y","N","Y","N",""
1926596,"FULVIO & ASSOCIATES, LLP","5 WEST 37TH ST., 4TH FLOOR","","NEW YORK","NY","United States","10018","Y",6529,"Y","Y","N","N","Yes"
1926955,"PRICEWATERHOUSECOOPERS LLP","300 MADISON AVENUE","","NEW YORK","NY","United States","10017","Y",238,"Y","Y","Y","N","Not Yet Received"
1926955,"PRICEWATERHOUSECOOPERS","18 FORUM LANE","CAMANA BAY","GEORGE TOWN","","Cayman Islands","KY1-1104","Y",1266,"Y","Y","N","N","Yes"
1920635,"LILLING & COMPANY LLP","TWO SEAVIEW BOULEVARD","","PORT WASHINGTON","NY","United States","11050","Y",3480,"Y","N","Y","Y","Not Yet Received"
1930130,"DELOITTE","19-21 BANK STREET, CYBERCITY","7-8 FLOOR STANDARD CHARTERED TOWER","EBENE","","Mauritius","72201","N",,"","Y","N","N","Yes"
1925491,"ERNST & YOUNG LTD.","62 FORUM LANE","","CAMANA BAY GRAND CAYMAN","","Cayman Islands","KY1-9006","Y",1655,"Y","Y","N","N","Not Yet Received"
1921776,"RSM US LLP","4 TIMES SQUARE","","NEW YORK","NY","United States","10036","Y",1506,"Y","Y","N","N","Yes"
1927179,"TAMA, BUDAJ & RAAB CPAS","32783 MIDDLEBELT ROAD","","FARMINGTON HILLS","MI","United States","48334-1726","N",,"","N","Y","N",""
1927249,"ASHLAND PARTNERS & COMPANY LLP","3512 EXCEL DRIVE","SUITE 103","MEDORD","SC","United States","97504","Y",3783,"Y","N","Y","Y","Yes"
1929162,"ASHLAND PARTNERS & COMPANY LLP","3512 EXCEL DRIVE","SUITE 103","MEDFORD","OR","United States","97504","Y",3783,"Y","N","Y","Y","Yes"
1926502,"PRICEWATERHOUSECOOPERS LLC","300 MADISON AVE","","NEW YORK","NY","United States","10017","Y",238,"Y","N","Y","Y","Yes"
1930136,"RSM US LLP","1230 PEACHTREE STREET NW","SUITE 1700","ATLANTA","GA","United States","30309","Y",49,"Y","Y","N","N","Yes"
1930136,"WIPFLI CPA & CONSULTANTS","235 PEACHTREE ST. NE","SUITE 1800","ATLANTA","GA","United States","30303","Y",344,"Y","N","Y","N",""
1926909,"PRICEWATERHOUSECOOPERS LLP","1000 LOUISIANA STREET","#5800","HOUSTON","TX","United States","77002","Y",238,"Y","N","Y","Y","Yes"
1922241,"AKRAM & ASSOCIATES PLLC","206 HIGH HORSE RD","SUITE 106","CARY","NC","United States","27513","Y",5961,"Y","Y","N","Y","Yes"
1928200,"JESSER, RAVID, JASON, BASSO AND FARBER, LLP","150 N. WACKER DRIVE","SUITE 3100","CHICAGO","IL","United States","60606","Y",851,"Y","N","N","N",""
1930438,"DELOITTE & TOUCHE","50 FREMONT STREET","SUITE 3100","SAN FRANCISCO","CA","United States","94105","Y",34,"Y","Y","N","N","Yes"
1930438,"PRICEWATERHOUSECOOPERS LLP","BIRCHSTRASSE 160","POSTFACH","ZURICH","","Switzerland","CH-8050","Y",876,"Y","Y","N","N","Yes"
1930578,"MOSS ADAMS, LLP","6100 UPTOWN BLVD. NE","","ALBUQUERUQUE","NM","United States","87110","Y",659,"Y","Y","N","N","Yes"
1932024,"PRICEWATERHOUSECOOPERS","21/F, EDINBURGH TOWER, THE LANDMARK","15 QUEEN'S ROAD CENTRAL","HONG KONG","","Hong Kong","","Y",1389,"Y","Y","N","N","Yes"
1925071,"GBQ","230 WEST ST","UNIT 700","COLUMBUS","OH","United States","43215","Y",1808,"Y","Y","N","N","Not Yet Received"
1929117,"DELOITTE & TOUCHE LP","30 ROCKEFELLER PLAZA","","NEW YORK","NY","United States","10112","Y",34,"Y","Y","N","N","Yes"
1922398,"ASHLAND PARTNERS & COMPANY LLP","3512 EXCEL DRIVE","SUITE 103","MEDFORD","OR","United States","97504","Y",3783,"Y","N","Y","Y","Yes"
1928865,"DELOITTE","19-21 BANK STREET, CYBERCITY","7-8 FLOOR STANDARD CHARTERED TOWER","EBENE","","Mauritius","72201","N",,"","Y","N","N","Yes"
1926506,"ELIOTT DAVIS DECOSIMO","2859 PACES FERRY ROAD SE","SUITE 1210","ATLANTA","GA","United States","30339-6208","Y",149,"Y","Y","N","N","Yes"
1931132,"PRICEWATERHOUSE COOPERS","699 WALNUT ST","","DES MOINES","IA","United States","50309","Y",238,"Y","N","Y","N",""
1931231,"ASSURANCE DIMENSIONS","2000 BANKS ROAD","SUITE 218","MARGATE","FL","United States","33063","Y",5036,"Y","Y","N","Y","Yes"
1931490,"GOLDMAN & COMPANY, CPAS PC","3535 ROSWELL RD.","SUITE 32","MARIETTA","GA","United States","30062","Y",1952,"Y","N","Y","Y","Yes"
1931477,"SCHOEDEL & SCHOEDEL, CPAS, PLLC","422 W RIVERSIDE AVE, STE 1420","","SPOKANE","WA","United States","99201","Y",3793,"Y","N","Y","N",""
1930854,"JAMES G. PIROLLI, CPA","207 BUCK ROAD","SUITE 1C","HOLLAND","PA","United States","18966","N",,"N","N","Y","N",""
1930532,"ERNST & YOUNG LLP","ONE MANHATTAN WEST","","NEW YORK","NY","United States","10036","Y",42,"Y","Y","Y","N","Yes"
1930532,"ERNST & YOUNG LTD","62 FORUM LN","","GEORGE TOWN","","Cayman Islands","","Y",1655,"Y","Y","N","N","Yes"
1930532,"ERNST & YOUNG LLP","1775 TYSONS BLVD","","TYSONS","VA","United States","22102","Y",42,"Y","Y","N","N","Yes"
1933168,"ASSURANCE DIMENSIONS","4920 W CYPRESS ST #102","","TAMPA","FL","United States","33607","N",,"","N","Y","N",""
1931125,"D. BROOKS AND ASSOCIATES, CPA'S PA","4440 PGA BLVD","STE 104","PALM BEACH GARDENS","FL","United States","33410","N",,"","N","Y","N",""
1929446,"KPMG LLP","345 PARK AVENUE","","NEW YORK","NY","United States","10154","Y",185,"Y","Y","N","N","Yes"
1929446,"COHN REZNICK LLP","1301 AVENUE OF THE AMERICAS","","NEW YORK","NY","United States","10019","Y",596,"Y","Y","N","N","Yes"
1927995,"ELLIOTT DAVIS LLC","341 COOL SPRINGS BOULEVARD","SUITE 340","FRANKLIN","TN","United States","37067","Y",149,"Y","Y","N","N","Not Yet Received"
1924491,"ASHLAND PARTNERS","3512 EXCEL DRIVE","SUITE 103","MEDFORD","OR","United States","97504","Y",326262,"Y","N","Y","N",""
1925205,"ERNEST D. LOEWENWARTER & CO LLP","200 OLD COUNTRY ROAD, SUITE 274","","MINEOLA","NY","United States","11501","N",,"","N","Y","N",""
1929400,"CROWE LP","488 MADISON AVE., SUITE 1200","","NEW YORK","NY","United States","10022","Y",173,"Y","N","Y","N",""
1929400,"MEADOWS URQUHART ACREE & COOK LLP","1802 BAYBERRY COURT","SUITE 102","RICHMOND","VA","United States","23226","Y",3688,"Y","Y","N","N","Yes"
1927886,"SPICER JEFFRIES LLP","4601 DTC BOULEVARD","SUITE 700","DENVER","CO","United States","80237","Y",349,"Y","N","Y","N",""
1933501,"RYAN & JURASKA LLP","141 W. JACKSON BLVD.","","CHICAGO","IL","United States","60604","Y",3407,"Y","N","Y","N",""
1934243,"DELOITTE & TOUCHE (CAYMAN)","ONE CAPITAL PLACE","P.O. BOX 1787","GRAND CAYMAN","","Cayman Islands","KY1-1109","Y",1096,"Y","Y","N","N","Yes"
1922626,"PRICEWATERHOUSECOOPERS LLP","300 MADISON AVE.","","NEW YORK","NY","United States","10017","Y",238,"Y","Y","N","N","Not Yet Received"
1929501,"ERNST WINTTER & ASSOCIATES LLP","675 YGNACIO VALLEY ROAD","SUITE A200","WALNUT CREEK","CA","United States","94596","Y",3438,"Y","N","Y","N",""
1929214,"ERNST & YOUNG LLP","200 CLARENDON STREET","","BOSTON","MA","United States","02116","Y",42,"Y","Y","N","N","Yes"
1929214,"ERNST & YOUNG LTD.","62 FORUM LANE","CAMANA BAY, P.O. BOX 510","GRAND CAYMAN","","Cayman Islands","KY1-1106","Y",1655,"Y","Y","N","N","Yes"
1929214,"ERNST & YOUNG S.A.","35E AVENUE JOHN F. KENNEDY","","LUXEMBOURG","","Luxembourg","L-1855","Y",1367,"Y","Y","N","N","Yes"
1934406,"DELOITTE & TOUCHE LLP","111 SOUTH WACKER DRIVE","","CHICAGO","IL","United States","60606-4301","Y",34,"Y","Y","N","N","Yes"
1929654,"BDO USA, LLP","1 BUSH ST. #1800","","SAN FRANCISCO","CA","United States","94104","Y",243,"Y","Y","N","N","Yes"
1929654,"KPMG, LLP","2175 NORTH CALIFORNIA BOULEVARD","10TH FLOOR","WALNUT CREEK","CA","United States","94596","Y",185,"Y","Y","N","N","Yes"
1928320,"ASHLAND PARTNERS & COMPANY, LLP","3512 EXCEL DR","STE 103","MEDFORD","OR","United States","97504","Y",3783,"N","N","Y","N",""
1929627,"PRICEWATERHOUSE COOPERS LLP","ONE NORTH WACKER","","CHICAGO","IL","United States","60606","Y",238,"Y","N","Y","Y","Yes"
1922429,"KPMG LLP","345  PARK AVENUE","","NEW YORK","NY","United States","10154","Y",185,"Y","N","Y","Y","Yes"
1922537,"ERWIN & CO.","6311 RANCH DRIVE","","LITTLE ROCK","AR","United States","72223","Y",3417,"Y","N","Y","N",""
1922586,"DELOITTE AUDIT S.A.R.L","REVISEUR D'ENTERPRISES","20, BOULEVARD DE KOCKELSCHEUER","LUXEMBOURG","","Luxembourg","L-1821","Y",1287,"Y","Y","N","N","Yes"
1922603,"DELOITTE & TOUCHE LLP","1700 MARKET STREET","","PHILADELPHIA","PA","United States","19103","Y",34,"Y","Y","Y","N","Yes"
1922603,"DELOITTE IRELAND LLP","DELOITTE & TOUCHE HOUSE, EARLSFORT TERRACE","","DUBLIN","","Ireland","2","Y",1193,"Y","N","N","N",""
1922603,"PRICEWATERHOUSECOOPERS LLP","TWO COMMERCE SQUARE","2001 MARKET STREET #1800","PHILADELPHIA","PA","United States","19103","Y",238,"Y","Y","N","N","Yes"
1922603,"PRICEWATERHOUSECOOPERS AG","BIRCHSTRASSE 160","","ZURICH","","Switzerland","8050","Y",1358,"Y","Y","N","N","Yes"
1922603,"PRICEWATERHOUSECOOPERS","2, RUE GERHARD MERCATOR","","GRAND DUCHY OF LUXEMBOURG","","Luxembourg","L-2182","Y",1328,"Y","Y","N","N","Yes"
1922603,"DELOITTE & TOUCHE LLP","ONE CAPITAL PLACE","PO BOX 1787","GRAND CAYMAN","","Cayman Islands","KY1-1109","Y",1096,"Y","Y","N","N","Yes"
1922603,"DELOITTE AUDIT S.A.R.L","REVISEUR D'ENTREPRISES AGREE,","20, BOULEVARD DE KOCKELSCHEUER","LUXEMBOURG","","Luxembourg","L-1821","Y",1287,"Y","Y","N","N","Yes"
1917354,"ASHLAND PARTNERS & COMPANY LLP","3512 EXCEL DRIVE","SUITE 103","MEDFORD","OR","United States","97504","Y",3783,"Y","N","Y","N",""
1922763,"WEAVER & TIDWELL","800 S FIGUEROA ST.","SUITE 780","LOS ANGELES","CA","United States","90017","Y",410,"Y","Y","N","N","No"
1923635,"KPMG LLP","333 BAY STREET, SUITE 4600","","TORONTO, ONTARIO","","Canada","M5H 2S5","Y",185,"Y","N","N","Y","Yes"
1924204,"BAKER TILLY","1000 2ND AVE","STE. 3400","SEATTLE","WA","United States","98104","Y",3912,"Y","N","Y","Y","Yes"
1922743,"PRICEWATERHOUSECOOPERS LLP","18 YORK STREET, SUITE 2500","PWC TOWER","TORONTO","","Canada","M5J 0B2","Y",271,"Y","Y","Y","N","Yes"
1922868,"DELOITTE AND TOUCHE, LLP","200 BERKELEY STREET","","BOSTON","MA","United States","02116-5022","Y",34,"Y","Y","N","N","Yes"
1922913,"ROSEWOOD CPA ADVISORS","313 MILLS AVENUE","","GREENVILLE","SC","United States","29605","N",,"","N","Y","N",""
1922920,"ERNST & YOUNG","155 N. WACKER DRIVE","","CHICAGO","IL","United States","60606","Y",42,"Y","N","Y","Y","Yes"
1922920,"KATZ SAPPER & MILLER","800 EAST 96TH STREET, SUITE 500","","INDIANAPOLIS","IN","United States","46240","Y",2804,"Y","Y","N","N","Yes"
1922920,"BOBER, MARKEY, FEDEROVICH & COMPANY","3421 RIDGEWOOD ROAD","SUITE 300","AKRON","OH","United States","44333","Y",1172,"Y","Y","N","N","Yes"
1922920,"DELOITTE & TOUCHE LLP","111 SOUTH WACKER DRIVE","","CHICAGO","IL","United States","60606-4301","Y",34,"Y","Y","N","N","Yes"
1922381,"KPMG LLP","345 PARK AVENUE","","NEW YORK","NY","United States","10154-0102","Y",185,"Y","Y","N","N","Yes"
1922381,"ERNST & YOUNG, LLP","1 MANHATTAN WEST","","NEW YORK","NY","United States","10036-6530","Y",42,"Y","Y","N","N","Yes"
1922381,"PRICEWATERHOUSECOOPERS","18 FORUM LANE","P.O. BOX 258","GRAND CAYMAN","","Cayman Islands","KY1-1104","Y",238,"Y","Y","N","N","Yes"
1922381,"S.R. BATLIBOI & CO. LLP","29 SENAPATI BAPAT MARG","DADAR (WEST)","MUMBAI","","India","400028","Y",1272,"Y","Y","N","N","Yes"
1922381,"DELOITTE HASKINS & SELLS LLP","1 INTERNATIONAL CENTER, SENAPATI BAPAT MARG","ELPHINSTONE ROAD (WEST)","MUMBAI","","India","400013","Y",1180,"Y","Y","N","N","Yes"
1925610,"PRICEWATERHOUSECOOPERS LLP","125 HIGH STREET","","BOSTON","MA","United States","02110","Y",238,"Y","Y","N","N","Yes"
1924612,"ELLIOTT DAVIS, LLC","629 MARKET STREET, SUITE 100","","CHATTANOOGA","TN","United States","37402","Y",149,"Y","N","Y","N",""
1924612,"MARGOLIN, WINER & EVENS LLP","ONE PENN PLAZA","SUITE 3000","NEW YORK","NY","United States","10119","Y",332,"Y","Y","N","N","Yes"
1923893,"SPICER JEFFRIES LLP","4601 DTC BLVD, SUITE 700","","DENVER","CO","United States","80237","Y",349,"Y","N","Y","N",""
1924711,"PRICEWATERHOUSECOOPERS LLP","300 MADISON AVE","","NEW YORK","NY","United States","10017","Y",238,"Y","Y","Y","N","Yes"
1924873,"KEITER, CPA","4401 DOMINION BLVD","","GLEN ALLEN","VA","United States","23060","Y",1111,"Y","N","Y","N",""
1910905,"PWC LUXEMBOURG","2, RUE GERHARD MERCATOR","","LUXEMBOURG","","Luxembourg","L-2182","Y",1328,"Y","Y","N","Y","Yes"
1930839,"MATT STILLE, CPA OF COHNREZNICK LLP","816 CONGRESS AVENUE","SUITE 200","AUSTIN","TX","United States","78701","Y",596,"Y","Y","N","N","Not Yet Received"
1922364,"DELOITTE & TOUCHE LLP","100 SOUTH MILL AVENUE","SUITE 1800","TEMPE","AZ","United States","85281","Y",34,"Y","N","Y","N",""
1927012,"CHERRY BEKAERT","4625 4TH STREET","","LOUISVILLE","KY","United States","40202","Y",677,"Y","Y","Y","Y","Yes"
1930506,"ERNST & YOUNG ACCOUNTANTS LLP","CROSS TOWERS","ANTONIO VIVALDISTRAAT 150 HP","AMSTERDAM","","Netherlands","1083","Y",1396,"Y","Y","N","N","Yes"
1926364,"DELOITTE & TOUCHE LLP","30 ROCKEFELLER PLAZA","","NEW YORK","NY","United States","10112","Y",34,"Y","Y","N","N","Yes"
1931237,"GBQ PARTNERS LLC","230 WEST STREET, SUITE 700","","COLUMBUS","OH","United States","43215","Y",1808,"Y","N","Y","N",""
1931274,"DELOITTE & TOUCHE LLP","695 TOWN CENTER DRIVE","SUITE 1200","COSTA MESA","CA","United States","92626","Y",34,"Y","N","Y","N",""
1930601,"DELOITTE & TOUCHE LLP","695 TOWN CENTER DRIVE","SUITE 1200","COSTA MESA","CA","United States","92626-7188","Y",34,"Y","Y","Y","N","Yes"
1928619,"SPICER JEFFERIES","4601 DTC BLVD","SUITE 700","DENVER","CO","United States","80237","Y",349,"Y","Y","N","N","Yes"
1931922,"KAUFMAN ROSSIN","3310 MARY STREET","SUITE 501","MIAMI","FL","United States","33133","Y",137,"Y","N","Y","N",""
1925782,"BAKER TILLY","1000 2ND AVE","STE. 3400","SEATTLE","WA","United States","98104","Y",3912,"Y","N","Y","Y","Yes"
1925813,"LILLING & COMPANY LLP","TWO SEAVIEW BOULEVARD","","PORT WASHINGTON","NY","United States","11050","Y",3480,"Y","N","Y","N",""
1925864,"ERNST & YOUNG","725 SOUTH FIGUEROA STREET","","LOS ANGELES","CA","United States","90017","Y",42,"Y","N","Y","Y","Yes"
1925772,"COHEN & COMPANY","1350 EUCLID AVENUE","SUITE 800","CLEVELAND","OH","United States","44115","Y",925,"Y","N","Y","N",""
1932148,"PRICEWATERHOUSECOOPERS LLC","300 MADISON AVE","","NEW YORK","NY","United States","10017","Y",238,"Y","N","Y","Y","Yes"
1932194,"ASSURANCE DIMENSIONS","4920 W CYPRESS STREET STE 102","","TAMPA","FL","United States","33607","Y",5036,"Y","N","Y","N",""
1932196,"DELOITTE & TOUCHE, LLP","100 SOUTH 4TH STREET","SUITE 300","ST. LOUIS","MO","United States","63102","Y",34,"Y","N","Y","Y","Yes"
1930924,"PRICEWATERHOUSECOOPERS LLP","PRICEWATERHOUSECOOPERS CENTER","300 MADISON AVENUE","NEW YORK","NY","United States","10017","Y",238,"Y","N","Y","Y","No"
1923866,"MOSS ADAMS, LLC","14555 DALLAS PARKWAY","SUITE 300","DALLAS","TX","United States","75254","Y",659,"Y","N","Y","Y","Yes"
1920814,"ERNST & YOUNG LLP","560 MISSION STREET","SUITE 1600","SAN FRANCISCO","CA","United States","94105","Y",42,"Y","Y","Y","N","Yes"
1920814,"PWC LLP","405 HOWARD STREET","SUITE 600","SAN FRANCISCO","CA","United States","94105","Y",238,"Y","Y","N","N","Yes"
1920814,"PWC LLP","18 FORUM LANE","CAMANA BAY, P.O. BOX 258","GRAND CAYMAN","","Cayman Islands","KY1-1104","Y",1266,"Y","Y","N","N","Yes"
1920814,"EIDE BAILLY LLP","800 NICOLLET MALL, SUITE 1300","","MINNEAPOLIS","MN","United States","55402","Y",286,"Y","N","N","Y","Yes"
1920814,"RSM US LLP","44 MONTGOMERY ST.","SUITE 3900","SAN FRANCISCO","CA","United States","94104","Y",49,"Y","Y","N","N","Yes"
1925078,"MENGEL METZGER BARR & CO. LLP","100 CHESTNUT ST.","SUITE 1200","ROCHESTER","NY","United States","14604","Y",557,"Y","Y","Y","N","Yes"
1925078,"CROWE HORWATH LLP","3815 RIVER CROSSING PKWY","SUITE 300","INDIANAPOLIS","IN","United States","46240","Y",173,"Y","N","Y","N",""
1922576,"BAKER NEWMAN & NOYES, LLC","280 FORE STREET","","PORTLAND","ME","United States","04101","Y",231,"Y","N","Y","N",""
1922576,"EISNERAMPER LLC","733 THIRD AVENUE","","NEW YORK","NY","United States","10017","Y",274,"Y","Y","N","N","Not Yet Received"
1928231,"FORVIS, LLP","191 PEACHTREE STREET, NE","SUITE 2700","ATLANTA","GA","United States","30303","Y",686,"Y","Y","Y","N","Yes"
1928503,"COHEN & COMPANY","201 INTERNATIONAL CIRCLE","SUITE 400","HUNT VALLEY","MD","United States","21030","Y",925,"Y","N","Y","N",""
1926226,"ANCHIN, BLOCK & ANCHIN LLP","3 TIMES SQUARE","24TH FLOOR","NEW YORK","NY","United States","10036","Y",168,"Y","N","Y","N",""
1928453,"ZAPKEN & LOEB, LLP","3 CROSSWAYS PARK DRIVE WEST","","WOODBURY","NY","United States","11797","N",,"","N","Y","N",""
1931852,"ERNST & YOUNG LLP","155 NORTH WACKER DRIVE","23RD FLOOR","CHICAGO","IL","United States","60606","Y",42,"Y","Y","Y","Y","Yes"
1932244,"COHEN & COMPANY, LTD.","1350 EUCLID AVE","SUITE 800","CLEVELAND","OH","United States","44115","Y",925,"Y","Y","N","N","Yes"
1932244,"PLANTE & MORAN, PLLC","10 SOUTH RIVERSIDE PLAZA","9TH FLOOR","CHICAGO","IL","United States","60606","Y",166,"Y","N","Y","N",""
1932244,"BAKER TILLY US, LLP","205 N MICHIGAN AVE","STE 2800","CHICAGO","IL","United States","60601","Y",23,"Y","Y","N","N","Yes"
1932244,"MELLEN, SMITH & PIVOZ PLC","30800 TELEGRAPH RD","","BINGHAM FARMS","MI","United States","48025","Y",3975,"Y","Y","N","N","Yes"
1924024,"WHITTLESEY PC","280 TRUMBULL ST.","24TH FLOOR","HARTFORD","CT","United States","06103","Y",2538,"Y","N","Y","N",""
1926514,"WSRP, LLC","155 NORTH 400 WEST","SUITE 400","SALT LAKE CITY","UT","United States","84103","Y",374,"Y","N","Y","N",""
1928688,"PRICEWATERHOUSECOOPERS LLP","300 MADISON AVENUE","","NEW YORK","NY","United States","10017-6204","Y",238,"Y","Y","N","N","Yes"
1931035,"DELOITTE & TOUCHE LLP","30 ROCKEFELLER PLAZA","","NEW YORK","NY","United States","10112","Y",34,"Y","N","Y","N",""
1932521,"ASHLAND PARTNERS & COMPANY LLC","3512 EXCEL DRIVE","SUITE 103","MEDFORD","OR","United States","97504","Y",3783,"Y","N","Y","N",""
1932562,"DELOITTE & TOUCHE LLP","111 S WACKER DRIVE","","CHICAGO","IL","United States","60606","Y",34,"Y","Y","Y","N","Not Yet Received"
1932562,"ERNST & YOUNG LLP","155 N. WACKER DR","","CHICAGO","IL","United States","60606","Y",42,"Y","Y","N","N","Not Yet Received"
1932215,"COHEN & CO.","342 N. WATER STREET","SUITE 830","MILWAUKEE","WI","United States","53202","Y",925,"Y","N","Y","N",""
1921789,"EISNERAMPER LLP","733 THIRD AVENUE","","NEW YORK","NY","United States","10017","Y",274,"Y","Y","Y","N","Yes"
1932802,"WEAVER & TIDWELL","2300 NORTH FIELD STREET","","DALLAS","TX","United States","75201","Y",410,"Y","Y","N","N","Yes"
1924572,"ASHLAND PARTNERS & COMPANY LLP","3512 EXCEL DRIVE","UNIT 103","MEDFORD","OR","United States","98504","Y",3783,"Y","N","Y","N",""
1927236,"PRICEWATERHOUSECOOPERS LLP","101 SEAPORT BLVD","","BOSTON","MA","United States","02210","Y",238,"Y","N","Y","Y","Not Yet Received"
1923564,"MOUNTJOY CHILTON MEDLEY LLP","201 EAST FIFTH STREET","SUITE 2100","CINCINNATI","OH","United States","45202","Y",2276,"Y","N","Y","N",""
1923508,"MOSS ADAMS","999 THIRD AVENUE","STE. 2800","SEATTLE","WA","United States","98104","Y",659,"Y","N","Y","N",""
1923508,"COHEN & CO.","1835 MARKET ST","3RD FLOOR","PHILADELPHIA","PA","United States","19103","Y",925,"Y","Y","N","N","Yes"
1926725,"SPICER JEFFRIES LLP","4601 DTC BOULEVARD","SUITE 700","DENVER","CO","United States","80237","Y",349,"Y","Y","N","N","Yes"
1926513,"BAKER TILLY","225 SOUTH 6TH STREET","SUITE 2300","MINNEAPOLIS","MN","United States","55402","Y",23,"Y","N","Y","N",""
1926828,"SINGERLEWAK, LLP","2000 SOUTH COLORADO BLVD.","TOWER 2 SUITE 200","DENVER","CO","United States","80222","Y",367,"Y","N","Y","N",""
1926965,"ADEPTUS PARTNERS LLC","733 ROUTE 35 NORTH, SUITE A","","OCEAN","NJ","United States","07712","Y",3606,"Y","N","Y","N",""
1921773,"RSM US LLP","151 WEST 42ND STREET","19TH FLOOR","NEW YORK","NY","United States","10036","Y",49,"Y","Y","N","N","Yes"
1922662,"M GROUP, L.L.P.","515 W SOUTHLAKE BLVD","","SOUTHLAKE","TX","United States","76092","N",,"","Y","N","N","Yes"
1925370,"ASSURANCE DIMENSIONS","2000 BANKS ROAD","SUITE 218","MARGATE","FL","United States","33063","Y",5036,"Y","N","Y","N",""
1918224,"PRICE WATERHOUSE COOPERS LLP","225 SOUTH 6TH STREET","SUITE 1400","MINNEAPOLIS","MN","United States","55402","Y",238,"Y","Y","N","Y","Yes"
1932289,"EISNERAMPER LLP","ONE LOGAN SQUARE","130 NORTH 18TH STREET, SUITE 3000","PHILADELPHIA","PA","United States","19103","Y",274,"Y","N","Y","N",""
1933071,"LAVINE, LOFGREN, MORRIS & ENGELBERG","4180 LA JOLLA VILLAGE DRIVE","SUITE 300","LA JOLLA","CA","United States","92037","Y",3496,"Y","N","Y","N",""
1922777,"FGMK, LLC","2801 LAKESIDE DRIVE","3RD FLOOR","BANNOCKBURN","IL","United States","60015","Y",3968,"Y","N","Y","N",""
1923157,"PRICEWATERHOUSECOOPERS LLP","300 MADISON AVENUE, 32ND FLOOR","","NEW YORK","NY","United States","10017","Y",238,"Y","Y","Y","N","Yes"
1922451,"CITRIN COOPERMAN & COMPANY LLP","50 ROCKEFELLER PLAZA","","NEW YORK","NY","United States","10020","Y",2468,"Y","N","Y","N",""
1922678,"CITRIN COOPERMAN & COMPANY, LLP","50 ROCKEFELLER PLAZA","","NEW YORK","NY","United States","10020","Y",2468,"Y","N","Y","N",""
1923365,"STELMACK, DOBRANSKY & EANNANCE","3328 WASHINGTON ROAD","","MCMURRAY","PA","United States","15317","Y",5297,"Y","N","Y","N",""
1919088,"GEFFEN MESHER","888 SW 5TH AVE.","STE 800","PORTLAND","OR","United States","97204","Y",3912,"Y","N","Y","N",""
1908871,"KPMG","1 STOKES PLACE","ST STEPHEN'S GREEN","DUBLIN 2","","Ireland","DO2 DE03","Y",1116,"Y","Y","N","N","Yes"
1927371,"ASHLAND PARTNERS & COMPANY LLC","525 BIGHAM KNOLL, SUITE 200","","JACKSONVILLE","OR","United States","97530","Y",3783,"Y","N","Y","N",""
1933529,"PRICEWATERHOUSECOOPERS LLP","PRICEWATERHOUSECOOPERS CENTER","300 MADISON AVENUE","NEW YORK","NY","United States","10017","Y",238,"Y","Y","Y","Y","Yes"
1932161,"PRICEWATERHOUSECOOPERS LLP","263 TRESSER BOULEVARD","SUITE 800","STAMFORD","CT","United States","06901","Y",238,"Y","Y","N","N","Yes"
1926155,"MARCUM, LLP","1601 MARKET STREET","4TH FLOOR","PHILADELPHIA","PA","United States","19103","Y",688,"Y","Y","N","N","Yes"
1931738,"PLANTE MORAN","10 S. RIVERSIDE PLAZA","9TH FLOOR","CHICAGO","IL","United States","60606","Y",166,"Y","N","Y","N",""
1924583,"KPMG AUDITORES INDEPENDENTES","RUA RODRIGO SILVA, 26","","RIO DE JANEIRO","","Brazil","","Y",1124,"Y","Y","N","N","Yes"
1925449,"ASHLAND PARTNERS & COMPANY LLP","3512 EXCEL DRIVE","SUITE 103","MEDFORD","OR","United States","97504","Y",3783,"N","N","Y","N",""
1925945,"THE BONADIO GROUP","100 CORPORATE PKWY","SUITE 200","AMHERST","NY","United States","14226","Y",1884,"Y","N","Y","N",""
1924583,"ERNST & YOUNG  AUDITORES INDEPENDENTES","CONDOMINIUM BUILDING PB 370","BEACH OF BOTAFOGO, 370","RIO DE JANEIRO","","Brazil","22250-040","Y",1448,"Y","Y","N","N","Yes"
1926147,"SPICER JEFFRIES LLP","4601 DTC BOULEVARD","SUITE 700","DENVER","CO","United States","80237","Y",349,"Y","N","Y","N",""
1927811,"PRICEWATERHOUSECOOPERS LLP","101 SEAPORT BLVD","","BOSTON","MA","United States","02210","Y",238,"Y","N","Y","Y","Not Yet Received"
1927706,"MOSS ADAMS LLP","999 THIRD AVENUE","SUITE 2800","SEATTLE","WA","United States","98104","Y",659,"Y","Y","N","N","Yes"
1923672,"PRICEWATERHOUSECOOPERS LLP","1000 LOUISIANA STREET","#5800","HOUSTON","TX","United States","77002","Y",238,"Y","N","Y","Y","Yes"
1923683,"FRAZIER & DEETER","1230 PEACHTREE STREET","SUITE 1500","ATLANTA","GA","United States","30309","Y",215,"Y","N","Y","N",""
1923766,"COHEN & COMPANY, LTD.","201 INTERNATIONAL CIRCLE","SUITE 400","HUNT VALLEY","MD","United States","21030","Y",925,"Y","N","Y","N",""
1923890,"KPMG LLP","ONE FINANCIAL PLAZA","","HARTFORD","CT","United States","06103","Y",185,"Y","Y","N","N","Not Yet Received"
1933487,"PERELSON WEINER LLP","299 PARK AVENUE","","NEW YORK","NY","United States","10171","Y",588,"Y","N","Y","N",""
1933748,"PRICEWATERHOUSECOOPERS LLP","201 MARKET STREET","SUITE 1800","PHILADELPHIA","PA","United States","19103","Y",238,"Y","Y","N","N","Yes"
1933799,"PRAGER METIS CPAS, LLC, JOSEPH ZARKOWSKI, CPA","222 MOUNT AIRY ROAD","","BASKING RIDGE","NJ","United States","07920","Y",273,"Y","N","Y","N",""
1929249,"RSM US LLP","ONE SOUTH WACKER DRIVE","SUITE 800","CHICAGO","IL","United States","60606-4650","Y",49,"Y","Y","N","N","Yes"
1929249,"ERNST AND YOUNG LLP","155 NORTH WACKER DRIVE","","CHICAGO","IL","United States","60606","Y",42,"Y","Y","N","N","Yes"
1929416,"MALONEY + NOVOTNY LLC","1111 SUPERIOR AVENUE","SUITE 700","CLEVELAND","OH","United States","44114","Y",320,"Y","N","Y","N",""
1933831,"ROLLERI & SHEPPARD CPAS, LLP","2150 POST ROAD","5TH FLOOR","FAIRFIELD","CT","United States","06824","Y",3437,"N","N","Y","N",""
1932697,"ASSURANCE DIMENSIONS","4920 W CYPRESS STREET","SUITE 102","TAMPA","FL","United States","33607","Y",5036,"Y","N","Y","Y","Not Yet Received"
1928132,"KPMG","1 HARBOURMASTER PLACE","IFSC","DUBLIN 1","","Ireland","","Y",1116,"Y","Y","N","N","Yes"
1928427,"ASSURANCE DIMENSIONS","2000 BANKS ROAD","SUITE 218","MARGATE","FL","United States","33063","Y",5036,"Y","N","Y","Y","Yes"
1928477,"KPMG LLP","200 E. RANDOLPH ST.","SUITE 5500","CHICAGO","IL","United States","60601-6436","Y",185,"Y","N","Y","N",""
1928516,"KPMG LLP","10 SOUTH BROADWAY","SUITE 900","SAINT LOUIS","MO","United States","63102-1736","Y",185,"Y","N","Y","Y","Yes"
1928514,"KPMG LLP","10 SOUTH BROADWAY","SUITE 900","SAINT LOUIS","MO","United States","63102-1736","Y",185,"Y","N","Y","Y","Yes"
1928091,"MOSS ADAMS","999 THIRD AVE","SUITE 2800","SEATTLE","WA","United States","98104","Y",659,"Y","Y","N","N","Yes"
1923601,"GBQ","230 WEST STREET","SUITE 700","COLUMBUS","OH","United States","43215","Y",1808,"Y","N","Y","N",""
1933890,"PRICEWATERHOUSECOOPERS","300 MADISON AVENUE","","NEW YORK","NY","United States","10017","Y",238,"Y","N","Y","Y","No"
1932762,"EISNERAMPER, LLP","ONE LOGAN SQUARE","","PHILADELPHIA","PA","United States","19103","Y",274,"Y","Y","N","Y","Yes"
1932110,"CAUSEY DEMGEN & MOORE INC.","1099 18TH STREET","SUITE 2300","DENVER","CO","United States","80202-1939","Y",647,"Y","N","Y","N",""
1921557,"FISCHER CUNNANE & ASSOCIATES, LTD","11 TURNER LANE","","WEST CHESTER","PA","United States","19380","Y",1940,"Y","N","Y","N",""
1933978,"KNIGHT, ROLLERI, SHEPPARD CPAS LLP","1499 POST ROAD","SUITE 1040","FAIRFIELD","CT","United States","06824","Y",3437,"Y","N","Y","N",""
1933955,"SANVILLE AND COMPANY","2617 HUNTINGDON PIKE","","HUNTIGDON VALLEY","PA","United States","19006","Y",169,"Y","Y","N","N","Not Yet Received"
1928553,"EISNERAMPER LLP","2651 NORTH HARDWOOD STREET","SUITE 220","DALLAS","TX","United States","75201","Y",1641,"Y","Y","N","N","Yes"
1927831,"DELOITTE & TOUCHE LLP","111 SOUTH WACKER DRIVE","","CHICAGO","IL","United States","60606-4301","Y",34,"Y","Y","N","N","Yes"
1928666,"WSRP, LLC","155 NORTH 400 WEST","SUITE 400","SALT LAKE CITY","UT","United States","84103","Y",374,"Y","N","Y","N",""
1927786,"TRACHTENBERG & PAUKER, LLP","100 CROSSWAYS PARK WEST","","WOODBURY","NY","United States","11797","Y",5507,"Y","N","Y","N",""
1925422,"WITHUMSMITH+BROWN, PC","SEAPORT WEST","155 SEAPORT BOULEVARD, FLOOR 3","BOSTON","MA","United States","02210","Y",100,"Y","N","Y","N",""
1925258,"ERNST & YOUNG LLP","725 SOUTH FIGUEROA ST.","#200","LOS ANGELES","CA","United States","90017","Y",42,"Y","Y","N","N","Yes"
1927695,"KPMG LLP","345 PARK AVENUE","","NEW YORK","NY","United States","10514","Y",185,"Y","Y","N","N","Yes"
1927695,"KPMG (CAYMAN ISLANDS )","P.O. BOX 4931350","CENTURY YARD, CRICKET SQUARE","GRAND CAYMAN","","Cayman Islands","KY1-1106","Y",1323,"Y","Y","N","N","Yes"
1927772,"ERNST & YOUNG LLP","155 NORTH WACKER DRIVE","23RD FLOOR","CHICAGO","IL","United States","60606","Y",42,"Y","Y","Y","Y","Yes"
1934019,"SPICER JEFFERIES LLP","4601 DTC BOULEVARD","SUITE 700","DENVER","CO","United States","80237","Y",349,"Y","Y","N","N","Yes"
1934012,"RSM US LLP","ONE SOUTH WACKER DRIVE","SUITE 800","CHICAGO","IL","United States","60606-4650","Y",49,"Y","Y","N","N","Yes"
1934012,"ERNST AND YOUNG LLP","155 NORTH WACKER DRIVE","","CHICAGO","IL","United States","60606","Y",42,"Y","Y","N","N","Yes"
1928517,"ERNST & YOUNG LLP","200 CLARENDON STREET","","BOSTON","MA","United States","02116","Y",42,"Y","Y","N","N","Yes"
1928517,"DELOITTE & TOUCHE, LLP","111 SOUTH WACKER DRIVE","","CHICAGO","IL","United States","60606","Y",34,"Y","Y","N","N","Yes"
1928517,"KPMG LLP","AON CENTER","200 E. RANDOLPH STREET, SUITE 5500","CHICAGO","IL","United States","60601","Y",185,"Y","Y","N","N","Yes"
1928517,"ERNST & YOUNG LLP","ONE TAIKOO PLACE","27/F, 979 KING'S ROAD","QUARRY BAY","","Hong Kong","","Y",1409,"Y","Y","N","N","Yes"
1928517,"MAZARS USA LLP","135 W 50TH STREET","","NEW YORK","NY","United States","10020","Y",339,"Y","N","Y","N",""
1928517,"COHEN & COMPANY","1350 EUCLID AVE","SUITE 800","CLEVELAND","OH","United States","44115","Y",925,"Y","Y","N","Y","Yes"
1928517,"ERNST & YOUNG","5 TIMES SQUARE","","NEW YORK","NY","United States","10036","Y",42,"Y","Y","N","N","Yes"
1928517,"ERNST & YOUNG","62 FORUM LANE","CAMANA BAY, P.O.BOX 510","GRAND CAYMAN","","Cayman Islands","KY1-1106","Y",1655,"Y","Y","N","N","Yes"
1928517,"KPMG","345 PARK AVENUE","","NEW YORK","NY","United States","10154","Y",185,"Y","Y","N","N","Yes"
1928517,"MAZARS USA LLP","135 W 50TH STREET","","NEW YORK","NY","United States","10020","Y",339,"Y","Y","N","N","Not Yet Received"
1928517,"SCHNEIDER DOWNS & CO., INC.","ONE PPG PLACE, SUITE 1700","","PITTSBURGH","PA","United States","15222","Y",358,"Y","Y","N","N","Not Yet Received"
1928517,"ERNST & YOUNG LLP","200 CLARENDON ST","","BOSTON","MA","United States","02116","Y",42,"Y","Y","N","N","Yes"
1926719,"BROWN, EDWARDS & COMPANY, LLP","319 MCCLANAHAN ST, SW","","ROANOKE","VA","United States","24014","Y",423,"Y","Y","N","N","Yes"
1927808,"COHEN FUND AUDIT SERVICES","1350 EUCLID AVENUE","SUITE 800","CLEVELAND","OH","United States","44115","Y",925,"Y","N","Y","N",""
1927246,"PRICEWATERHOUSECOOPERS LLP","300 MADISON AVENUE","","NEW YORK","NY","United States","10017-6204","Y",238,"Y","Y","N","N","Yes"
1934154,"3783ASHLAND PARTNERS & COMPANY LLP","3512 EXCEL DRIVE","STE. 103","MEDFORD","OR","United States","97504","Y",3783,"Y","N","Y","N",""
1929449,"LAVINE, LOFGREN, MORRIS & ENGLEBERG LLP","4180 LA JOLLA VILLAGE DR.  SUITE 300","","LA JOLLA","CA","United States","92037","Y",3496,"Y","N","Y","N",""
1932866,"ERNST & YOUNG LLP","200 CLARENDON STREET","","BOSTON","MA","United States","02116","Y",42,"Y","Y","N","N","Not Yet Received"
1932866,"GRASSI & CO.","488 MADISON AVENUE","21ST FLOOR","NEW YORK","NY","United States","10022","Y",606,"Y","N","Y","N",""
1924828,"EISNERAMPER","750 3RD AVENUE","","NEW YORK","NY","United States","10017","Y",274,"Y","Y","Y","N","Yes"
1934225,"PKF","2020 CAMINO DEL RIO NORTH","SUITE 500","SAN DIEGO","CA","United States","92108","Y",27,"Y","N","Y","N",""
1925239,"ASHLAND PARTNERS & COMPANY LLP","3512 EXCEL DRIVE","SUITE 103","MEDFORD","OR","United States","97504","Y",3783,"N","N","Y","N",""
1925662,"MARCUM LLP","53 STATE STREET","17 FLOOR","BOSTON","MA","United States","02109","Y",688,"Y","N","Y","N",""
1924381,"MARCUM LLP","730 THIRD AVE","730","NEW YORK","NY","United States","10017","Y",688,"Y","N","Y","N",""
1923817,"PRICEWATERHOUSECOOPERS LLP","300 MADISON AVENUE","","NEW YORK","NY","United States","10017","Y",238,"Y","N","Y","Y","Yes"
1925897,"FORVIS","2700 POST OAK BLVD","SUITE 1500","HOUSTON","TX","United States","77056","Y",686,"Y","N","Y","Y","Yes"
1931157,"PRICEWATERHOUSECOOPERS AG","BIRCHSTRASSE 160","","ZURICH","","Switzerland","CH-8050","Y",1358,"Y","Y","N","N","Yes"
1931157,"PRICEWATERHOUSECOOPERS CI LLP","PO BOX 321","ROYAL BANK PLACE, 1 GLATEGNY ESPLANADE","ST. PETER PORT","","Guernsey","GY1 4ND","Y",1412,"Y","Y","N","N","Yes"
1931157,"PRICEWATERHOUSECOOPERS LLP","2121 NORTH PEARL STREET","","DALLAS","TX","United States","75201-2997","Y",238,"Y","Y","N","N","Yes"
1930099,"ERNST & YOUNG","4365 EXECUTIVE DRIVE","SUITE 1600","SAN DIEGO","CA","United States","92121","Y",42,"Y","Y","N","N","Yes"
1933425,"CITRIN COOPERMAN & COMPANY LLP","88 FROELICH FARM BOULEVARD","3RD FLOOR","WOODBURY","NY","United States","11797","Y",2468,"Y","Y","N","N","Yes"
1933070,"KREISCHER MILLER","100 WITMER ROAD, SUITE 350","","HORSHAM","PA","United States","19044-2369","Y",1110,"Y","N","Y","N",""
1934336,"RICHEY MAY & CO.","9605 S KINGSTON CT","SUITE 200","ENGLEWOOD","CO","United States","80112","Y",673,"Y","N","Y","N",""
1934343,"COHEN & COMPANY, LTD","1350 EUCLID AVENUE","SUITE 800","CLEVELAND","OH","United States","44115","Y",925,"Y","Y","N","N","Yes"
1923155,"ASHLAND PARTNERS & COMPANY LLP","3512 EXCEL DR","SUITE 103","MEDFORD","OR","United States","97504","Y",3783,"N","N","Y","N",""
1923155,"SANDLER & ASSOCIATES, P.C.","144 GOULD STREET","","NEEDHAM","MA","United States","02492","Y",3709,"Y","Y","N","N","Yes"
1929964,"DELOITTE & TOUCHE LLP","1700 MARKET STREET","","PHILADELPHIA","PA","United States","19103","Y",34,"Y","N","N","Y","No"
1928907,"COHEN & CO.","342 N. WATER STREET","SUITE 830","MILWAUKEE","WI","United States","53202","Y",925,"Y","N","Y","N",""
1927357,"SUMMIT LLC","999 18TH STREET","SUITE 300","DENVER","CO","United States","80202","Y",5251,"Y","Y","N","N","Yes"
1929966,"LMHS, P.C.","80 WASHINGTON STREET, BUILDING S","","NORWELL","MA","United States","02061","Y",3373,"Y","Y","N","N","Yes"
1932406,"ERNST & YOUNG LLP","ONE MANHATTAN WEST","","NEW YORK","NY","United States","10001","Y",42,"Y","N","Y","N",""
1932286,"JENNIFER RICHARDSON, CPA","120 MADISON STREET","1700 AXA TOWER II","SYRACUSE","NY","United States","13202","N",,"","N","Y","N",""
1934362,"GRANT THORNTON (SSAE 18)","75 STATE ST., 13TH FLOOR","","BOSTON","MA","United States","02109","Y",248,"Y","N","N","Y","Yes"
1934362,"RSM US, LLP (CUSTODY AUDIT)","80 CITY SQUARE","","BOSTON","MA","United States","02129","Y",49,"Y","N","Y","N",""
1931703,"MAZARS USA LLP","135 WEST 50TH ST","","NEW YORK","NY","United States","10020","Y",339,"Y","N","Y","N",""
1932940,"DELOITTE & TOUCHE LLP","695 TOWN CENTER DRIVE","SUITE 1200","COSTA MESA","CA","United States","92626-7188","Y",34,"Y","Y","Y","N","Yes"
1926188,"SANVILLE & COMPANY","1514 OLD YORK ROAD","","ABINGTON","PA","United States","19001","Y",169,"Y","N","Y","Y","Yes"
1926181,"SANVILLE & COMPANY","1514 OLD YORK ROAD","","ABINGTON","PA","United States","19001","Y",169,"Y","N","Y","Y","Yes"
1927274,"KPMG LLP","345 PARK AVE","","NEW YORK","NY","United States","10154","Y",185,"Y","Y","N","N","Yes"
1930597,"MAZARS LUXEMBOURG","RUE GUILLAUME KROLL 51882","","LUXEMBOURG","","Luxembourg","","Y",6694,"Y","Y","N","N","Yes"
1931493,"PRICEWATERHOUSECOOPERS SA","AVENUE GIUSEPPE MOTTA 50","CASE POSTALE","GENEVA 2","","Switzerland","1211","Y",1358,"Y","N","Y","Y","Yes"
1931493,"COHEN & COMPANY, LTD.","201 INTERNATIONAL CIRCLE","SUITE 400","HUNT VALLEY","MD","United States","21030","Y",925,"Y","Y","N","N","Yes"
1924821,"KPMG, LLP","200 EAST RANDOLPH","SUITE 5500","CHICAGO","IL","United States","60601","Y",185,"Y","Y","Y","Y","Yes"
1922642,"HILL, BARTH & KING, LLC","3838 TAMIAMI TRAIL NORTH","SUITE 200","NAPLES","FL","United States","34103","Y",2206,"Y","N","Y","N",""
1928541,"BDO LLP","55 BAKER STREET","","LONDON","","United Kingdom","W1U 7EU","Y",1295,"Y","Y","N","N","Yes"
1928593,"ERNST & YOUNG LLP","725 SOUTH FIGUEROA ST.","#200","LOS ANGELES","CA","United States","90017","Y",42,"Y","Y","N","N","Yes"
1930085,"MICHAEL COGLIANESE","300 NORTH STATE STREET","SUITE 5720","CHICAGO","IL","United States","60654","Y",3874,"Y","Y","N","N","No"
1929611,"KPMG LLP","1601 MARKET STREET","","PHILADELPHIA","PA","United States","19103","Y",185,"Y","Y","N","N","Yes"
1930277,"ERNST & YOUNG","HARCOURT CENTRE","HARCOURT STREET","DUBLIN","","Ireland","2","Y",1411,"Y","Y","N","N","Yes"
1931360,"SPICER JEFFRIES","4601 DTC BLVD STE 700","","DENVER","CO","United States","80237","Y",349,"Y","Y","Y","N","Not Yet Received"
1923934,"DELOITTE TOUCHE","30 ROCKEFELLER PLAZA 30TH FLOOR","","NEW YORK","NY","United States","10112","Y",1096,"Y","Y","N","N","Yes"
1928401,"LWBJ, LLP","4200 UNIVERSITY AVE, SUITE 410","","WEST DES MOINES","IA","United States","50266","Y",896,"Y","N","Y","Y","Yes"
1923777,"AGL CPA GROUP LLC","1870 BUFORD HIGHWAY","SUITE 100","ATLANTA","GA","United States","30097","Y",3488,"Y","N","Y","N",""
1923608,"ASHLAND PARTNERS","3512 EXCEL DR","SUITE 103","MEDFORD","OR","United States","97504","Y",3783,"N","N","Y","N",""
1928541,"DELOITTE & TOUCHE LLP","111 S. WACKER DR.","SUITE 2100","CHICAGO","IL","United States","60606","Y",34,"Y","Y","N","N","Yes"
1926597,"BCO","622 THIRD AVENUE","SUITE 3100","NEW YORK","NY","United States","10017","Y",243,"Y","N","N","Y","Yes"
1926094,"ERNST & YOUNG LLP","ONE MANHATTAN WEST, 395 9TH AVENUE","","NEW YORK","NY","United States","10001-8600","Y",42,"Y","Y","N","N","Yes"
1928754,"ERNST & YOUNG LLP","ONE MANHATTAN WEST, 395 9TH AVENUE","","NEW YORK","NY","United States","10001-8600","Y",42,"Y","Y","N","N","Yes"
1929419,"KPMG","P.O. BOX 493 CENTURY YARD BUILDING","2ND FLOOR","GEORGE TOWN","","Cayman Islands","KY1-1106","Y",1323,"Y","Y","N","N","Yes"
1929419,"KPMG LLP","15 CANADA SQUARE","","LONDON","","United Kingdom","E14 5GL","Y",1118,"Y","Y","N","N","Yes"
1932032,"GRANT THORNTON LLP","700 MILAM STREET","SUITE 300","HOUSTON","TX","United States","77002","Y",248,"Y","Y","N","N","Yes"
1923937,"ERNST & YOUNG, LTD.","SUITE 6401","62 FORUM LANE","CAMANA BAY","","Cayman Islands","KY1-1106","Y",1655,"Y","Y","N","N","Yes"
1922929,"DELOITTE & TOUCHE LLP","CORNER HOUSE 20 PARLIAMENT STREET","","HAMILTON","","Bermuda","HM 12","Y",5230,"Y","Y","N","N","Yes"
1923369,"EIDE BALLY","300 N LAKE AVE","SUITE 930","PASADENA","CA","United States","91101-4106","N",,"","N","Y","N",""
1914600,"PRICEWATERHOUSECOOPERS","300 MADISON AVENUE","24TH FLOOR","NEW YORK","NY","United States","10017","Y",238,"Y","N","Y","N",""
1924136,"PRICEWATERHOUSECOOPERS","21/F, EDINBURGH TOWER, THE LANDMARK","15 QUEEN'S ROAD CENTRAL","HONG KONG","","Hong Kong","","Y",1389,"Y","Y","N","N","Yes"
1930840,"ASHLAND PARTNERS AND COMPANY LLP","3512 EXCEL DRIVE","","MEDFORD","OR","United States","97504","Y",3783,"Y","N","Y","N",""
1930840,"ERNST AND YOUNG","200 CLARENDON STREET","","BOSTON","MA","United States","02116","Y",42,"Y","N","N","Y","Yes"
1919437,"PRICE WATERHOUSE & CO.","304 AVENIDA DE LA CONSTITUCION","SUITE 800","SAN JAN","PR","United States","00918","Y",238,"Y","N","Y","Y","Yes"
1927933,"GALAXY ACCOUNTING SERVICES","15260 VENTURA BOULEVARD SUITE 1200","SUITE 165","SHERMAN OAKS","CA","United States","91403","N",,"","N","Y","N",""
1927933,"MOSS ADAMS","101 SECOND STREET SUITE 900","","SAN FRANCISCO","CA","United States","94105","Y",659,"Y","Y","N","Y","Yes"
1922622,"DELOITTE IRELAND","EARLSFORT TERRACE","","DUBLIN","","Ireland","2","Y",1193,"Y","Y","N","N","Yes"
1920890,"COHEN AND COMPANY, LTD.","1835 MARKET STREET,","SUITE 310","PHILADELPHIA","PA","United States","19103","Y",925,"Y","Y","N","N","Yes"
1922784,"DAVID LUNDGREN & COMPANY","505 N MUR-LEN ROAD","505","OLATHE","KS","United States","66062","Y",6075,"Y","N","Y","N",""
1922622,"DELOITTE & TOUCHE LLP","1700 MARKET STREET","","PHILADELPHIA","PA","United States","19103","Y",34,"Y","Y","Y","N","Yes"
1922622,"PRICEWATERHOUSECOOPERS AG","BIRCHSTRASSE 160","","ZURICH","","Switzerland","8050","Y",1358,"Y","Y","N","N","Yes"
1922622,"DELOITTE & TOUCHE LLP","ONE CAPITAL PLACE","PO BOX 1787","GRAND CAYMAN","","Cayman Islands","KY1-1109","Y",1096,"Y","Y","N","N","Yes"
1922622,"PRICEWATERHOUSECOOPERS","2, RUE GERHARD MERCATOR","","LUXEMBOURG","","Luxembourg","L-1014","Y",1328,"Y","Y","N","N","Yes"
1922622,"DELOITTE AUDIT SARL","20, BOULEVARD DE KOCKELSCHEUER","","LUXEMBOURG","","Luxembourg","L-1821","Y",1287,"Y","Y","N","N","Yes"
1922622,"PRICEWATERHOUSECOOPERS LTD.","P.O. BOX HM 1171","","HAMILTON","","Bermuda","HM EX","Y",1403,"Y","Y","N","N","Yes"
1922622,"PRICEWATERHOUSECOOPERS","18 FORUM LANE, CAMANA BAY","P.O. BOX 258","GRAND CAYMAN","","Cayman Islands","KY1-1104","Y",1266,"Y","Y","N","N","Yes"
1919569,"PRICEWATERHOUSECOOPERS LLP","125 HIGH STREET","","BOSTON","MA","United States","02110","Y",238,"Y","Y","Y","Y","Yes"
1922796,"DELOITTE & TOUCHE LLP","555 MISSION STREET","","SAN FRANCISCO","CA","United States","94105","Y",34,"Y","Y","N","N","Yes"
1922796,"ERNST & YOUNG LLP","560 MISSION ST., 16TH FLOOR","","SAN FRANCISCO","CA","United States","94105","Y",42,"Y","Y","N","N","Yes"
1908964,"PRICEWATERHOUSECOOPERS","2 COMMERCE SQUARE SUITE 1800","2001 MARKET STREET","PHILADLEPHIA","PA","United States","19103","Y",238,"Y","N","Y","Y","No"
1923047,"MCSOLEY MCCOY & CO.","118 TILLEY DRIVE","SUITE 202","SOUTH BURLINGTON","VT","United States","05403","Y",803,"Y","N","Y","N",""
1918100,"MOSS ADAMS LLP","999 THIRD STREET","SUITE 2800","SEATTLE","WA","United States","98104","Y",629,"Y","N","Y","N",""
1923087,"NICHOLS, CAULEY & ASSOCIATES, LLC","2800 CENTURY PARKWAY, SUITE 900","","ATLANTA","GA","United States","30345","Y",281,"Y","N","Y","N",""
1922841,"RSM US, LLP","4 TIMES SQUARE","19TH FLOOR","NEW YORK","NY","United States","10036","Y",49,"Y","Y","N","N","Yes"
1923015,"EISNERAMPER, LLP","ONE CALIFORNIA","SUITE 1700","SAN FRANCISCO","CA","United States","94111","Y",274,"Y","N","Y","N",""
1923015,"WEAVER AND TIDWELL, LLP","1230 ROSECRANS AVENUE","SUITE 510","MANHATTAN BEACH","CA","United States","90266","Y",410,"Y","Y","N","N","Yes"
1923015,"MARCUM LLP","777 S FIGUEROA ST","29TH FLOOR","LOS ANGELES","CA","United States","90017","Y",688,"Y","Y","N","N","Yes"
1923361,"MICHAEL COGLIANESE CPA, P.C.","300 N. STATE ST.","SUITE 5720","CHICAGO","IL","United States","60654","Y",3874,"Y","N","Y","N",""
1922771,"CITRIN COOPERMAN & COMPANY LLP","50 ROCKEFELLER PLAZA","","NEW YORK","NY","United States","10020","Y",2468,"Y","N","Y","N",""
1922452,"CITRIN COOPERMAN & COMPANY LLP","50 ROCKEFELLER PLAZA","","NEW YORK","NY","United States","10020","Y",2468,"Y","N","Y","N",""
1923632,"MELLEN, SMITH & PIVOZ PLC","30800 TELEGRAPH RD","","BINGHAM FARMS","MI","United States","48025","Y",3975,"Y","Y","N","N","Yes"
1923632,"COHEN & COMPANY, LTD.","1350 EUCLID AVE","SUITE 800","CLEVELAND","OH","United States","44115","Y",925,"Y","Y","N","N","Yes"
1923632,"PLANTE & MORAN, PLLC","10 SOUTH RIVERSIDE PLAZA","9TH FLOOR","CHICAGO","IL","United States","60606","Y",166,"Y","N","Y","N",""
1923632,"BAKER TILLY US, LLP","205 N MICHIGAN AVE","STE 2800","CHICAGO","IL","United States","60601","Y",23,"Y","Y","N","N","Yes"
1905164,"KPMG, LLP","1601 MARKET STREET","","PHILADELPHIA","PA","United States","19103","Y",185,"Y","Y","N","N","Yes"
1923438,"BAKER TILLY US, LLP","8219 LEESBURG PIKE","SUITE 800","VIENNA","VA","United States","22021","Y",23,"Y","Y","N","N","Yes"
1923889,"MICHAEL COGLIANESE CPA, P.C.","300 N. STATE ST.","SUITE 5720","CHICAGO","IL","United States","60654","Y",3874,"Y","N","Y","N",""
1923923,"ERNST & YOUNG, LTD.","SUITE 6401","62 FORUM LANE","CAMANA BAY","","Cayman Islands","KY1-1106","Y",1655,"Y","Y","N","N","Yes"
1924131,"PRICEWATERHOUSECOOPERS","21/F, EDINBURGH TOWER, THE LANDMARK","15 QUEEN'S ROAD CENTRAL","HONG KONG","","Hong Kong","","Y",1389,"Y","Y","N","N","Yes"
1925416,"ASHLAND PARTNERS & COMPANY, LLP","3512 EXCEL DRIVE","SUITE 103","MEDFORD","OR","United States","97504","Y",3783,"Y","N","Y","N",""
1922558,"CITRIN COOPERMAN & COMPANY, LLP","50 ROCKEFELLER PLAZA","","NEW YORK","NY","United States","10020","Y",2468,"Y","N","Y","N",""
1925787,"ASHLAND PARTNERS & COMPANY LLP","3512 EXCEL DRIVE","SUITE 103","MEDFORD","OR","United States","97504","Y",3783,"Y","N","Y","N",""
1926208,"ASHLAND PARTNERS & COMPANY LLP","3512 EXCEL DRIVE","SUITE 103","MEDFORD","OR","United States","97504","Y",3783,"Y","N","Y","N",""
1922265,"WOLF & COMPANY, P.C.","99 HIGH ST","","BOSTON","MA","United States","02110","Y",392,"Y","N","Y","N",""
1923948,"FULVIO & ASSOCIATES, LLP","WEST 37 STREET 4 FLOOR","","NEW YORK","NY","United States","10018","Y",6529,"Y","Y","N","N","Yes"
1918448,"PLANTE & MORAN, PLLC","10 SOUTH RIVERSIDE PLAZA","9TH FLOOR","CHICAGO","IL","United States","60606","Y",166,"Y","N","Y","N",""
1926066,"PRICEWATERHOUSECOOPERS LLP","400 BELLEMEADE ST","SUITE 402","GREENSBORO","NC","United States","27401","Y",238,"Y","Y","N","N","Yes"
1925174,"DELOITTE AND TOUCHE LLP","655 WEST BROADWAY, SUITE 700","","SAN DIEGO","CA","United States","92101","Y",34,"Y","N","Y","Y","Yes"
1920620,"KPMG LLP","STAMFORD SQUARE","3001 SUMMER STREET","STAMFORD","CT","United States","06905-4317","Y",185,"Y","Y","N","N","Not Yet Received"
1927964,"ERNST & YOUNG, LLP","1828 WALNUT STREET","SUITE 04-100","KANSAS CITY","MO","United States","64108","Y",42,"Y","N","Y","Y","Yes"
1904478,"BERKOW, SCHECHTER & COMPANY LLP","350 BEDFORD STREET","","STAMFORD","CT","United States","06901","Y",4040,"Y","N","Y","N",""
1924776,"KEITER, PC","4401 DOMINION BOULEVARD, 2ND FLOOR","","GLEN ALLEN","VA","United States","23060","Y",80,"Y","Y","N","N","Yes"
1923976,"THOMASGAITENS PC","ONE GATEWAY CENTER, SUITE 2025","420 FORT DUQUESNE BLVD","PITTSBURGH","PA","United States","15222","Y",5073,"Y","N","Y","N",""
1922843,"MAYER HOFFMAN MCCANN P.C.","225 WEST WACKER DRIVE","SUITE 2500","CHICAGO","IL","United States","60606","Y",199,"Y","N","Y","N",""
1924705,"BDO LLP","55 BAKER STREET","","LONDON","","United Kingdom","W1U 7EU","Y",1295,"Y","Y","N","N","Yes"
1924705,"DELOITTE & TOUCHE LLP","111 S. WACKER DR.","SUITE 2100","CHICAGO","IL","United States","60606","Y",34,"Y","Y","N","N","Yes"
1926222,"ERNST & YOUNG, LLP","ONE COMMERCE SQUARE, SUITE 700","2005 MARKET STREET","PHILADELPHIA","PA","United States","19103","Y",42,"Y","N","Y","Y","Yes"
1926630,"ERNST & YOUNG, LLP","ONE COMMERCE SQUARE, SUITE 700","2005 MARKET STREET","PHILADELPHIA","PA","United States","19103","Y",42,"Y","N","Y","Y","Yes"
1922088,"PRICEWATERHOUSECOOPERS LLP","PWC TOWER, SUITE 2600","18 YORK STREET","ONTARIO","","Canada","M5J 0B2","Y",271,"Y","Y","N","N","Yes"
1922088,"PRICEWATERHOUSECOOPERS LLP","7 MORE LONDON","RIVERSIDE","LONDON","","United Kingdom","SE1 2RT","Y",876,"Y","Y","N","N","Yes"
1922088,"PRICEWATERHOUSECOOPERS","ONE INTERNATIONAL TOWERS SYDNEY","WATERMANS QUAY, BARANGAROO, GPO BOX 2650","SYDNEY NSW","","Australia","2001","Y",1379,"Y","Y","N","N","Yes"
1906092,"PRICEWATERHOUSE COOPERS","18 FORUM LANE","","CAMANA BAY","","Cayman Islands","","Y",1266,"Y","Y","N","N","Yes"
1928263,"SANVILLE & COMPANY","325 N. ST. PAUL STREET","SUITE 3100","DALLAS","TX","United States","75201","Y",169,"Y","N","Y","N",""
1928192,"RBSM LLP","1360 BEVERLY ROAD","SUITE 305","MCLEAN","VA","United States","22101","Y",587,"Y","Y","N","N","Not Yet Received"
1923840,"D. BROOKS AND ASSOCIATES CPA'S, P.A.","4440 PGA BLVD, SUITE 104","","PALM BEACH GARDENS","FL","United States","33410","Y",4048,"Y","N","Y","N",""
1927505,"PANNELL KERR FOSTER OF TEXAS, PC","5847 SAN FELIPE STREET, SUITE 2600","","HOUSTON","TX","United States","77057","Y",342,"Y","N","Y","N",""
1931397,"WEAVER AND TIDWELL, L.L.P.","2821 WEST 7TH STREET, SUITE 700","","FORT WORTH","TX","United States","76107","Y",410,"Y","Y","N","N","Not Yet Received"
1931397,"WEAVER AND TIDWELL, L.L.P.","2821 W. SEVENTH STREET SUITE 700","","FT WORTH","TX","United States","76107","Y",410,"Y","N","Y","N",""
1931854,"ERNST & YOUNG LLP","725 SOUTH FIGUEROA ST.","#200","LOS ANGELES","CA","United States","90017","Y",42,"Y","Y","N","N","Yes"
1918139,"ASHLAND PARTNERS & COMPANY LLP","3512 EXCEL DRIVE","SUITE 103","MEDFORD","OR","United States","97504","Y",3783,"Y","N","Y","N",""
1918139,"KPMG","345 PARK AVENUE","","NEW YORK","NY","United States","10154","Y",185,"Y","N","N","Y","Yes"
1933918,"PRICEWATERHOUSECOOPERS LLP","300 MADISON AVENUE","24TH FLOOR","NEW YORK","NY","United States","10017","Y",238,"Y","Y","N","N","Yes"
1933918,"EISNERAMPER LLP","733 THIRD AVENUE","","NEW YORK","NY","United States","10017","Y",274,"Y","Y","N","N","Yes"
1933918,"PRICEWATERHOUSECOOPERS CAYMAN ISLANDS","18 FORUM LANE","","GRAND CAYMAN","","Cayman Islands","","Y",1266,"Y","Y","N","N","Yes"
1933924,"PRICEWATERHOUSECOOPERS LLP","300 MADISON AVENUE","24TH FLOOR","NEW YORK","NY","United States","10017","Y",238,"Y","Y","N","N","Yes"
1933924,"EISNERAMPER LLP","733 THIRD AVENUE","","NEW YORK","NY","United States","10017","Y",274,"Y","Y","N","N","Yes"
1931908,"ASSURANCE DIMENSIONS","2000 BANKS ROAD","#218","MARGATE","FL","United States","33063","Y",5036,"Y","N","Y","N",""
1934096,"3783ASHLAND PARTNERS & COMPANY LLP","3512 EXCEL DRIVE","STE. 103","MEDFORD","OR","United States","97504","Y",3783,"Y","N","Y","N",""
1934087,"PRICEWATERHOUSECOOPERS LLP","300 MADISON AVENUE","","NEW YORK","NY","United States","10017","Y",238,"Y","Y","N","N","Yes"
1933270,"DEMARCO SCIACCOTTA WILKENS & DUNLEAVY, LLP","20646 ABBEY WOODS CT N","SUITE 201","FRANKFORT","IL","United States","60423","Y",5376,"Y","N","Y","N",""
1930145,"FORVIS","2700 POST OAK BLVD","SUITE 1500","HOUSTON","TX","United States","77056","Y",686,"Y","N","Y","Y","Yes"
1922850,"MITCHELL & TITUS LLP","80 PINE STREET","SUITE 3200","NEW YORK","NY","United States","10005","Y",523,"Y","Y","N","N","Yes"
1930419,"J.W. HUNT AND COMPANY, LLP","1607 SAINT JULIAN PLACE","","COLUMBIA","SC","United States","29204","Y",397,"Y","N","Y","N",""
1928129,"GRANT THORNTON LLP","2001 MARKET STREET","SUITE 700","PHILADELPHIA","PA","United States","19103","Y",248,"Y","N","Y","N",""
1930510,"MOSS ADAMS, LLP","6100 UPTOWN BLVD. NE","","ALBUQUERUQUE","NM","United States","87110","Y",659,"Y","Y","N","N","Yes"
1927801,"PRICEWATERHOUSECOOPERS LLP","300 MADISON AVENUE","","NEW YORK","NY","United States","10017","Y",238,"Y","Y","Y","Y","Yes"
1927035,"RICHEY MAY & CO., LLP","9780 S MERIDIAN BLVD","SUITE 500","ENGLEWOOD","CO","United States","80112","Y",673,"Y","Y","N","N","Yes"
1934332,"PRICEWATERHOUSECOOPERS LLP","300 MADISON AVENUE","","NEW YORK","NY","United States","10017","Y",238,"Y","Y","Y","Y","Yes"
1934264,"ASHLAND PARTNERS & COMPANY, LLP","3512 EXCEL DRIVE","SUITE 103","MEDFORD","OR","United States","97504","Y",3783,"Y","N","Y","N",""
1930610,"PRICEWATERHOUSECOOPERS LLP","101 SEAPORT BOULEVARD","","BOSTON","MA","United States","02210","Y",238,"Y","Y","N","Y","Yes"
1930607,"DELOITTE & TOUCHE LLP","695 TOWN CENTER DRIVE","SUITE 1200","COSTA MESA","CA","United States","92626","Y",34,"Y","N","Y","N",""
1930607,"PRICEWATERHOUSECOOPERS LLP","601 SOUTH FIGUEROA STREET","","LOS ANGELES","CA","United States","90017","Y",238,"Y","Y","N","N","Yes"
1930202,"ASHLAND PARTNERS AND COMPANY LLP","3512 EXCEL DRIVE","","MEDFORD","OR","United States","97504","Y",3783,"Y","N","Y","N",""
1930202,"ERNST AND YOUNG","200 CLARENDON STREET","","BOSTON","MA","United States","02116","Y",42,"Y","N","N","Y","Yes"
1930671,"KPMG LLP","345 PARK AVE","","NEW YORK","NY","United States","10154","Y",185,"Y","Y","N","N","Yes"
1930814,"EISNER AMPER","ONE MARKET, LANDMARK, SUITE 620","","SAN FRANCISCO","CA","United States","94105","Y",274,"Y","Y","N","N","Yes"
1929287,"ANCHIN, BLOCK & ANCHIN LLP","3 TIMES SQUARE","24TH FLOOR","NEW YORK","NY","United States","10036","Y",168,"Y","N","Y","N",""
1921280,"BRAD VAN HOUTEN","1517 E PALM VALLEY BLVD","","ROUND ROCK","TX","United States","78664","N",,"","N","N","Y","No"
1928212,"THE BONADIO GROUP","100 CORPORATE PKWY","SUITE 200","AMHERST","NY","United States","14226","Y",1884,"Y","N","Y","N",""
1924857,"ERNST & YOUNG LLP","200 CLARENDON STREET","","BOSTON","MA","United States","02116","Y",42,"Y","Y","N","N","Not Yet Received"
1924857,"POVOL & FELDMAN CPA, PC","1981 MARCUS AVENUE","SUITE C100","LAKE SUCCESS","NY","United States","11042","Y",6311,"Y","Y","N","N","Not Yet Received"
1929410,"ERNST WINTTER & ASSOCIATES LLP","675 YGNACIO VALLEY ROAD, SUITE A200","","WALNUT CREEK","CA","United States","94596","Y",3438,"Y","N","Y","N",""
1929683,"DELOITTE & TOUCHE LLP","555 W. 5TH STREET # 2700","","LOS ANGELES","CA","United States","90013","Y",34,"Y","N","Y","Y","Yes"
1931111,"FRAZIER & DEETER","401 E. JACKSON STREET","SUITE 2425","TAMPA","FL","United States","33602","Y",215,"Y","N","Y","N",""
1918060,"PRICEWATERHOUSECOOPERS LLP","18 YORK STREET, SUITE 2600","PWC TOWER","TORONTO, ONTARIO","","Canada","M5J 0B2","Y",231,"Y","N","Y","Y","Yes"
1930936,"RSM CAYMAN LTD","7JX9+5P3 ZEPHYR HOUSE","MARY ST.","GEORGETOWN","","Cayman Islands","","Y",6894,"Y","Y","N","N","Yes"
1930745,"ASHLAND PARTNERS","3152 EXCEL DRIVE","STE 103","MEDFORD","OR","United States","97504","Y",3783,"N","N","Y","N",""
1928043,"THOMAS, ZOLLARS & LYNCH. LTD.","3330 E. INDIAN SCHOOL ROAD","","PHOENIX","AZ","United States","85018","N",,"","N","Y","N",""
1931038,"CHERRY BEKAERT","3800 GLENWOOD AVENUE, SUITE 200","","RALEIGH","NC","United States","27612","Y",677,"Y","N","Y","Y","Not Yet Received"
1929151,"PRICEWATERHOUSECOOPERS","300 MADISON AVENUE","","NEW YORK","NY","United States","10017","Y",238,"Y","N","Y","Y","No"
1931248,"WHITTLESEY P.C.","280 TRUMBULL STREET, 24TH FLOOR","","HARTFORD","CT","United States","06103","Y",2538,"Y","N","Y","N",""
1931291,"DELOITTE & TOUCHE LLP","695 TOWN CENTER DRIVE, SUITE 1200","","COSTA MESA","CA","United States","92626","Y",34,"Y","Y","N","N","Yes"
1922465,"ERNST & YOUNG LTD.","62 FORUM LANE","","CAMANA BAY","","Cayman Islands","","Y",1655,"Y","Y","N","N","Yes"
1925081,"ROTHSTEIN AND COMPANY, LLC","80 W AVON ROAD","","AVON","CT","United States","06001","Y",5351,"Y","N","Y","N",""
1930456,"KAUFMAN, ROSSIN & CO., A PROFESSIONAL ASSOCIATION","ONE TOWN CENTER ROAD","SUITE 400","BOCA RATON","FL","United States","33486","Y",137,"Y","N","Y","N",""
1931778,"ASSURANCE DIMENSIONS","2000 BANKS ROAD","SUITE 218","MARGATE","FL","United States","33063","Y",5036,"Y","N","Y","N",""
1931859,"ASHLAND PARTNERS & COMPANY LLP","3512 EXCEL DR., SUITE 103","","MEDFORD","OR","United States","97504","Y",3783,"Y","N","Y","N",""
1931423,"MAYER HOFFMAN MCCANN P.C.","1000 CAMPBELL MITHUN TOWER","222 SOUTH NINTH STREET","MINNEAPOLIS","MN","United States","55402","Y",199,"Y","Y","N","N","Yes"
1925651,"C. DEWITT FOARD & COMPANY, PA, CPAS","817 EAST MOREHEAD STREET","SUITE 100","CHARLOTTE","NC","United States","28202","N",,"","N","Y","N",""
1922191,"PRICEWATERHOUSECOOPERS LLP","P.O. BOX 258 GT","","GRAND CAYMAN","","Cayman Islands","KY1-1104","Y",1266,"Y","Y","N","N","Yes"
1922191,"PRICEWATERHOUSECOOPERS LLP","125 HIGH STREET","","BOSTON","MA","United States","02110","Y",238,"Y","Y","N","N","Yes"
1922478,"DELOITTE & TOUCHE LLP","30 ROCKEFELLER PLAZA","","NEW YORK","NY","United States","10112-0015","Y",34,"Y","N","Y","Y","Yes"
1922413,"ERNST & YOUNG LLP","1 PPG PLACE","SUITE 2100","PITTSBURGH","PA","United States","15213","Y",42,"Y","N","Y","Y","Yes"
1922228,"BDO USA, LLP","211 EAST WATER STREET","SUITE 300","KALAMAZOO","MI","United States","49007","Y",243,"Y","Y","N","N","Yes"
1922228,"ERNST & YOUNG LLP","SUITE 500, 700 NICOLLET MALL","","MINNEAPOLIS","MN","United States","55402","Y",42,"Y","N","Y","N",""
1922228,"KSM (KATZ, SAPPER & MILLER)","800 E 96TH ST","SUITE 500","INDIANAPOLIS","IN","United States","46240","Y",2804,"Y","Y","N","N","Yes"
1922228,"CROWE LLP","801 S FIGUEROA ST","SUITE 1750","LOS ANGELES","CA","United States","90017","Y",173,"Y","Y","N","N","Yes"
1922567,"DELOITTE & TOUCHE LLP","1700 MARKET STREET","","PHILADELPHIA","PA","United States","19103","Y",34,"Y","Y","N","N","Yes"
1922635,"DELOITTE & TOUCHE LLP","555 WEST 5TH STREET, SUITE 2700","","LOS ANGELES","CA","United States","90013","Y",34,"Y","Y","N","N","Yes"
1922591,"ASHLAND PARTNERS & COMPANY LLP","3512 EXCEL DR","SUITE 103","MEDFORD","OR","United States","97504","Y",3783,"N","N","Y","N",""
1922371,"EISNERAMPER LLP","733 THIRD AVENUE","","NEW YORK","NY","United States","10017","Y",274,"Y","N","Y","N",""
1918678,"MAYER HOFFMAN MCCANN P. C.","225 W WACKER DR, SUITE 2500","","CHICAGO","IL","United States","60606","Y",199,"Y","Y","N","N","Yes"
1921957,"EISNERAMPER LLP","750 THIRD AVENUE","","NEW YORK","NY","United States","10017","Y",274,"Y","Y","N","N","Yes"
1922735,"KPMG LLP","345 PARK AVENUE","","NEW YORK","NY","United States","10154","Y",185,"Y","N","Y","Y","Yes"
1922473,"PRICEWATERHOUSECOOPERS LLP","P.O. BOX 258 GT","","GRAND CAYMAN","","Cayman Islands","KY1-1104","Y",1266,"Y","Y","N","N","Yes"
1922473,"PRICEWATERHOUSECOOPERS LLP","125 HIGH STREET","","BOSTON","MA","United States","02110","Y",238,"Y","Y","N","N","Yes"
1922434,"BDO LLP","55 BAKER STREET","","LONDON","","United Kingdom","W1U 7EU","Y",1295,"Y","Y","N","N","Yes"
1922434,"DELOITTE & TOUCHE LLP","111 S. WACKER DR.","SUITE 2100","CHICAGO","IL","United States","60606","Y",34,"Y","Y","N","N","Yes"
1922314,"COHEN & COMPANY, LTD.","1350 EUCLID AVE","SUITE 800","CLEVELAND","OH","United States","44115","Y",925,"Y","Y","N","N","Yes"
1922314,"PLANTE & MORAN, PLLC","10 SOUTH RIVERSIDE PLAZA","9TH FLOOR","CHICAGO","IL","United States","60606","Y",166,"Y","N","Y","N",""
1922314,"BAKER TILLY US, LLP","205 N MICHIGAN AVE","STE 2800","CHICAGO","IL","United States","60601","Y",23,"Y","Y","N","N","Yes"
1922314,"MELLEN, SMITH & PIVOZ PLC","30800 TELEGRAPH RD","","BINGHAM FARMS","MI","United States","48025","Y",3975,"Y","Y","N","N","Yes"
1922554,"DELOITTE & TOUCHE LLP","1700 MARKET STREET","","PHILADELPHIA","PA","United States","19103","Y",34,"Y","N","Y","N",""
1922547,"DELOITTE AND TOUCHE LLP","655 WEST BROADWAY, SUITE 700","","SAN DIEGO","CA","United States","92101","Y",34,"Y","N","Y","Y","Yes"
1922411,"RSM US LLP","80 CITY SQUARE","","BOSTON","MA","United States","02129","Y",49,"Y","N","Y","Y","Yes"
1918681,"DEMARCO SCIACCOTTA WILKENS & DUNLEAVY, LLP","20646 ABBEY WOODS CT","","FRANKFORT","IL","United States","60423","Y",5376,"Y","Y","Y","N","Yes"
