"FilingID","Accountant Name","Street 1","Street 2","City","State","Country","Postal Code","Registered PCAOB","PCAOB Number","PCAOB Inspection","Audit","Examination","Report","Unqualified Opinion"
1975654,"WOLF & COMPANY, P.C.","255 STATE STREET","","BOSTON","MA","United States","02109","Y",392,"Y","N","Y","N",""
1980451,"ERNST & YOUNG","-","","LOS ANGELES","CA","United States","90017","Y",42,"Y","Y","N","N","Yes"
1980570,"KPMG LLP","333 BAY STREET, SUITE 4600","","TORONTO, ONTARIO","","Canada","M5H 2S5","Y",185,"Y","N","N","Y","Yes"
1980581,"GEFFEN MESHER & COMPANY, P.C.","888 SW FIFTH AVENUE","SUITE 800","PORTLAND","OR","United States","97204","Y",3912,"Y","N","Y","Y","Yes"
1976190,"ASHLAND PARTNERS & COMPANY LLP","3512 EXCEL DR","SUITE 103","MEDFORD","OR","United States","97504","Y",3783,"N","N","Y","N",""
1976991,"PRICEWATERHOUSECOOPERS AARATA LLC","OTEMACHI PARK BUILDING","1-1-1 OTEMACHI","CHIYODA, TOKYO","","Japan","100-0004","Y",2743,"Y","N","N","Y","Yes"
1976991,"ERNST & YOUNG LTD.","35E. AVENUE JOHN F. KENNEDY","L-2017 LUXEMBOURG","BP 780","","Luxembourg","L-1855","Y",1367,"Y","N","N","Y","Yes"
1979369,"SPICER JEFFERIES","4601 DTC BLVD","SUITE 700","DENVER","CO","United States","80237","Y",349,"Y","Y","N","N","Yes"
1979208,"ASHLAND PARTNERS & COMPANY LLP","3512 EXCEL DR","SUITE 103","MEDFORD","OR","United States","97504","Y",3783,"Y","N","Y","N",""
1979264,"COHEN & COMPANY, LTD.","201 INTERNATIONAL CIRCLE","","HUNT VALLEY","MD","United States","21030","Y",925,"Y","Y","N","N","Yes"
1979295,"BAKER TILLY VIRCHOW KRAUSE, LLP","225 S SIXTH STREET","SUITE 2300","MINNEAPOLIS","MN","United States","55402-4661","N",,"","N","Y","N",""
1979323,"KPMG, LLP","1601 MARKET ST.","","PHILADELPHIA","PA","United States","19103-2499","Y",185,"Y","Y","N","N","Yes"
1979323,"COHNREZNICK, LLP","3560 LENOX ROAD NE","NUMBER 2900","ATLANTA","GA","United States","30326","Y",596,"Y","Y","N","N","Yes"
1974951,"R&A CPA'S","4542 E. CAMP LOWELL DR.  STE 100","","TUCSON","AZ","United States","85712","Y",3707,"Y","N","Y","N",""
1951527,"GEFFEN MESHER","888 SW 5TH AVE., SUITE 800","","PORTLAND","OR","United States","97204","Y",3912,"Y","N","Y","Y","Yes"
1979461,"ERNST & YOUNG LLP","14O1 MCKINNEY ST.","SUITE 2400","HOUSTON","TX","United States","77010","Y",1000,"Y","N","Y","N",""
1979173,"KPMG LLP","100 NORTH TAMPA STREET","SUITE 1700","TAMPA","FL","United States","33602-5145","Y",185,"Y","N","Y","Y","Yes"
1979297,"PRICEWATERHOUSECOOPERS LLP","101 SEAPORT BOULEVARD","","BOSTON","MA","United States","02210","Y",238,"Y","N","Y","Y","Yes"
1979390,"ERNST & YOUNG LLP","55 IVAN ALLEN JR. BLVD","SUITE 1000","ATLANTA","GA","United States","30308","Y",42,"Y","N","Y","Y","Yes"
1977872,"ERNST & YOUNG LTD.","62 FORUM LANE","CAMANA BAY, PO BOX 510","GRAND CAYMAN","","Cayman Islands","","Y",1655,"Y","Y","N","N","Yes"
1977872,"ERNST & YOUNG","10 FLOOR, EAST TOWER, WORLD TRADE CENTRE","","MANAMA","","Bahrain","","Y",1555,"Y","Y","N","N","Yes"
1967927,"WITHUM SMITH + BROWN, PC","1411 BROADWAY","23RD FLOOR","NEW YORK","NY","United States","10018","Y",100,"Y","Y","N","N","Yes"
1976975,"BAUER AND COMPANY LLC","P.O. BOX 27887","","AUSTIN","TX","United States","78755","Y",6072,"Y","N","Y","N",""
1977242,"EIDE BAILLY, LLP","300 N. LAKE AVE.","#930","PASADENA","CA","United States","91101","Y",286,"Y","N","Y","N",""
1978236,"WALTER & SHUFFAIN, P.C.","ONE INTERNATIONAL PLACE,","SUITE 1010","BOSTON","MA","United States","02110","Y",5439,"N","N","Y","N",""
1975632,"SNYDER COHN, PC","11200 ROCKVILLE PIKE","SUITE 415","NORTH BETHESDA","MD","United States","20852","Y",5134,"N","N","Y","N",""
1979424,"WOLF & COMPANY, P.C.","255 STATE STREET","","BOSTON","MA","United States","02109","Y",392,"Y","N","Y","N",""
1979462,"WHITTLESEY FORWARD ADVISING","280 TRUMBULL STREET","24TH FLOOR","HARTFORD","CT","United States","06103-3599","Y",2538,"Y","N","Y","N",""
1983762,"PRICEWATERHOUSECOOPERS LLP","300 MADISON AVENUE","","NEW YORK","NY","United States","10017","Y",238,"Y","Y","Y","Y","Yes"
1983857,"PRICEWATERHOUSE COOPERS","699 WALNUT ST","","DES MOINES","IA","United States","50309","Y",238,"Y","N","Y","N",""
1983682,"KPMG AB","VASAGATAN 16","","STOCKHOLM","","Sweden","111 20","Y",1049,"Y","N","N","N",""
1983682,"KPMG CHARTERED ACCOUNTANTS","1 HARBOURMASTER PLACE","","DUBLIN","","Ireland","DUBLIN 1","Y",1116,"Y","N","N","N",""
1983762,"ERNST & YOUNG","5 TIMES SQUARE","","NEW YORK","NY","United States","10036","Y",42,"Y","Y","N","N","Yes"
1983876,"ERNST & YOUNG LLP","200 CLARENDON STREET","","BOSTON","MA","United States","02116","Y",42,"Y","Y","Y","N","Yes"
1981250,"PRICEWATERHOUSECOOPERS LLP","405 HOWARD STREET","SUITE 600","SAN FRANCISCO","CA","United States","94105","Y",238,"Y","Y","N","N","Yes"
1979449,"BAUKNIGHT, PIETRAS & STORMER, P.A.","1501 MAIN STREET","STE 600","COLUMBIA","SC","United States","29201","N",,"","N","Y","N",""
1981126,"BENNETT THRASHER LLP","3300 RIVERWOOD PKWY","STE 700","ATLANTA","GA","United States","30339","Y",4051,"Y","Y","N","N","Not Yet Received"
1981250,"BPM LLP","1723 CLOVERFIELD BOULEVARD","","SANTA MONICA","CA","United States","90404","Y",207,"Y","Y","Y","N","Yes"
1981388,"ASHLAND PARTNERS & COMPANY LLP","3512 EXCEL DRIVE","SUITE 103","MEDFORD","OR","United States","97504","Y",3783,"N","N","Y","N",""
1981394,"BERKOW, SCHECHTER & COMPANY LLP","350 BEDFORD STREET","","STAMFORD","CT","United States","06901","Y",4040,"N","N","Y","N",""
1981454,"PRICEWATERHOUSECOOPERS","ONE INTERNATIONAL TOWERS SYDNEY","WATERMANS QUAY, BARANGAROO","SYDNEY","","Australia","2001","N",,"","Y","N","N","Not Yet Received"
1982234,"BKD LLP","2700 POST OAK BLVD #1500","","HOUSTON","TX","United States","77056","Y",686,"Y","Y","N","N","Yes"
1981939,"SPICER JEFFRIES LLP","4601 DTC BLVD","SUITE 700","DENVER","CO","United States","80237","Y",349,"Y","Y","N","N","Yes"
1984017,"WIPFLI LLP","11 SCOTT STREET,","SUITE 400","WAUSAU","WI","United States","54403","Y",344,"Y","Y","Y","Y","Not Yet Received"
1984208,"ROSENBERG RICH BAKER BERMAN & COMPANY","265 DAVIDSON AVENUE","SUITE 210","SOMERSET","NJ","United States","08873-4120","Y",89,"Y","N","Y","N",""
1983722,"PWC US TAX LLP","405 HOWARD STREET","SUITE 600","SAN FRANCISCO","CA","United States","94105","Y",238,"Y","Y","N","N","Yes"
1934514,"WATKINS UIBERALL, PLLC","1601 AARON BRENNER DRIVE","SUITE 300","MEMPHIS","TN","United States","38120","Y",1738,"Y","N","Y","N",""
1981333,"TANNER","36 S. STATE","SUITE 600","SALT LAKE CITY","UT","United States","84111","Y",270,"Y","N","Y","Y","Yes"
1984246,"ASHLAND PARTNERS & COMPANY LLP","3512 EXCEL DRIVE","SUITE 103","MEDFORD","OR","United States","97504","Y",3783,"Y","N","Y","N",""
1982393,"KAUFMAN, ROSSIN & CO., A PROFESSIONAL ASSOCIATION","3310 MARY STREET","SUITE 501","MIAMI","FL","United States","33133","Y",137,"Y","Y","N","N","Yes"
1982586,"ASHLAND PARTNERS & COMPANY, LLP","3512 EXCEL DRIVE","","MEDFORD","OR","United States","97504","Y",3783,"N","Y","Y","N","Yes"
1981505,"PRICEWATERHOUSECOOPERS LLP","ONE NORTH WACKER","","CHICAGO","IL","United States","60606","Y",238,"Y","Y","N","Y","Yes"
1981505,"PRICEWATERHOUSECOOPERS","18 FORUM LANE, CAMANA BAY, P.O. BOX 258","","GRAND CAYMAN","","Cayman Islands","KY1-1104","Y",1266,"Y","Y","N","N","Yes"
1982805,"RSM US, LLP","1185 AVENUE OF THE AMERICAS","","NEW YORK","NY","United States","10036","Y",49,"Y","Y","N","N","Not Yet Received"
1979287,"NAVOLIO & TALLMAN LLP","201 MISSION STREET","SUITE 650","SAN FRANCISCO","CA","United States","94105","Y",5442,"N","N","Y","N",""
1982968,"MOSS ADAMS","999 THIRD AVENUE","STE. 2800","SEATTLE","WA","United States","98104","Y",659,"Y","N","Y","N",""
1982968,"COHEN & CO.","1835 MARKET ST","3RD FLOOR","PHILADELPHIA","PA","United States","19103","Y",925,"Y","Y","N","N","Yes"
1979533,"GRANT THORNTON LP","757 THIRD AVENUE","","NEW YORK","NY","United States","10017","Y",248,"Y","Y","N","N","Yes"
1980006,"BAKER TILLY VIRCHOW KRAUSE, LLP","1650 MARKET STREET","SUITE 4500","PHILADELPHIA","PA","United States","19103","Y",23,"Y","Y","Y","N","Yes"
1978799,"ASHLAND PARTNERS & COMPANY LLP","3512 EXCEL DRIVE","SUITE 103","MEDFORD","OR","United States","97504","Y",3783,"N","N","Y","N",""
1977499,"KPMG, LLP","200 EAST RANDOLPH","SUITE 5500","CHICAGO","IL","United States","60601","Y",185,"Y","Y","Y","Y","Yes"
1980177,"ASHLAND PARTNERS & COMPANY LLP","3512 EXCEL DR","SUITE 103","MEDFORD","OR","United States","97504","Y",3783,"Y","N","Y","N",""
1980067,"KPMG LLP","ONE FINANCIAL PLAZA","","HARTFORD","CT","United States","06103","Y",185,"Y","Y","N","N","Not Yet Received"
1980674,"MALONEY & NOVOTNY","1111 SUPERIOR AVE","SUITE 700","CLEVELAND","OH","United States","44114","Y",320,"Y","Y","Y","N","Yes"
1980749,"BDO USA","1801 MARKET STREET","SUITE 1200","PHILADELPHIA","PA","United States","19103","Y",243,"Y","Y","N","N","Yes"
1979156,"EISNERAMPER LLP","ONE CALIFORNIA STREET","SUITE 1700","SAN FRANCISCO","CA","United States","94111","Y",274,"Y","N","Y","N",""
1977395,"KPMG LLP","10 SOUTH BROADWAY","SUITE 900","SAINT LOUIS","MO","United States","63102-1736","Y",185,"Y","N","Y","Y","Yes"
1980758,"ERNST & YOUNG","155 N. WACKER DRIVE","","CHICAGO","IL","United States","60606","Y",42,"Y","N","Y","Y","Yes"
1980758,"KATZ SAPPER & MILLER","800 EAST 96TH STREET, SUITE 500","","INDIANAPOLIS","IN","United States","46240","Y",2804,"Y","Y","N","N","Yes"
1980758,"BOBER, MARKEY, FEDEROVICH & COMPANY","3421 RIDGEWOOD ROAD","SUITE 300","AKRON","OH","United States","44333","Y",1172,"Y","Y","N","N","Yes"
1980758,"DELOITTE & TOUCHE LLP","111 SOUTH WACKER DRIVE","","CHICAGO","IL","United States","60606-4301","Y",34,"Y","Y","N","N","Yes"
1980824,"BERRY DUNN","51 SAWYER ROAD","SUITE 610","WALTHAM","MA","United States","02452","Y",136,"Y","N","Y","N",""
1980301,"BDO USA, LLP","600 THIRD AVE","","NEW YORK","NY","United States","10016","Y",243,"Y","Y","Y","N","Yes"
1980235,"PRICEWATERHOUSECOOPERS LLP","101 SEAPORT BLVD","SUITE 500","BOSTON","MA","United States","02110","Y",238,"Y","N","Y","Y","Yes"
1951285,"SAWYER ASSURANCE","1005 GLADE RD, STE 135","","COLLEYVILLE","TX","United States","76034","N",,"","N","Y","N",""
1979255,"PRICEWATERHOUSECOOPERS LLP","214 N TRYON STREET","#4200","CHARLOTTE","NC","United States","28202","Y",238,"Y","N","Y","N",""
1979730,"NAVOLIO & TALLMAN LLP","201 MISSION STREET","SUITE 650","SAN FRANCISCO","CA","United States","94105","Y",5442,"N","N","Y","N",""
1975846,"WIPFLI LLP","11 SCOTT STREET,","SUITE 400","WAUSAU","WI","United States","54403","Y",344,"Y","Y","Y","Y","Not Yet Received"
1977914,"PLANTE MORAN","10 SOUTH RIVERSIDE PLAZA 9TH FLOOR","","CHICAGO","IL","United States","60606-3770","Y",166,"Y","N","Y","N",""
1977914,"EISNERAMPER","100 N. 18TH ST","","PHILADELPHIA","PA","United States","19103","Y",274,"Y","Y","N","N","Yes"
1977914,"DELOITTE & TOUCHE LLP","1700 MARKET STREET","","PHILADELPHIA","PA","United States","19103-3984","Y",34,"Y","Y","N","N","Yes"
1977914,"ERNST & YOUNG LLP","ONE MANHATTAN WEST","395 - 9TH AVENUE","NEW YORK","NY","United States","10001","Y",42,"Y","Y","N","N","Yes"
1977814,"PRICEWATERHOUSECOOPERS LLP","1 EMBANKMENT PLACE","","LONDON","","United Kingdom","WC2N 6R","Y",876,"Y","Y","N","Y","Yes"
1977869,"ARMANINO LLP","44 MONTGOMERY ST.","SUITE 900","SAN FRANCISCO","CA","United States","94104","Y",32,"Y","N","Y","N",""
1977977,"LAVINE, LOFGREN, MORRIS & ENGELBERG","4180 LA JOLLA VILLAGE DRIVE","SUITE 300","LA JOLLA","CA","United States","92037","Y",3496,"Y","N","Y","N",""
1977990,"PRICEWATERHOUSE COOPERS LLP","300 MADISON AVENUE","","NEW YORK","NY","United States","10017-6204","Y",238,"Y","N","Y","Y","Yes"
1978068,"YOUNT, HYDE & BARBOUR, P.C.","4419 PHEASANT RIDGE RD.","SUITE 302","ROANOKE","VA","United States","24014","Y",613,"Y","N","Y","N",""
1978100,"HOWARD, LLP","8350 MEADOW RD #286","","DALLAS","TX","United States","75231","N",,"","N","Y","N",""
1975041,"RSM LLP","ONE SOUTH WACKER DRIVE STE. 800","","CHICAGO","IL","United States","60606","Y",49,"Y","N","Y","N",""
1977629,"PLANTE MORAN","10 S. RIVERSIDE PLAZA","9TH FLOOR","CHICAGO","IL","United States","60606","Y",6581,"Y","N","Y","N",""
1977953,"COHEN & COMPANY LTD","1350 EUCLID AVENUE","SUITE 800","CLEVELAND","OH","United States","44115","Y",925,"Y","N","Y","Y","Not Yet Received"
1973764,"CITRIN COOPERMAN & COMPANY, LLP","30 BRAINTREE HILL OFFICE PARK, SUITE 300","","BRAINTREE","MA","United States","02184","Y",2468,"Y","Y","Y","N","Not Yet Received"
1974939,"LALLY & CO., LLC","5700 CORPORATE DRIVE, SUITE 800","","PITTSBURGH","PA","United States","15237-5851","Y",3578,"Y","Y","N","N","Yes"
1974939,"SR SNODGRASS","2100 CORPORATE DRIVE SUITE 400","","WEXFORD","PA","United States","15090","Y",74,"Y","N","Y","N",""
1972725,"BDO USA, P.C.","100 SE 2ND STREET","MIAMI TOWER - 17TH FLOOR","MIAMI","FL","United States","33131","Y",243,"Y","Y","N","N","Yes"
1974689,"ASHLAND PARTNERS & COMPANY LLP","3512 EXCEL DRIVE","SUITE 103","MEDFORD","OR","United States","97504","Y",3783,"N","N","Y","N",""
1974988,"PRICEWATERHOUSECOOPERS LLP","125 HIGH STREET","","BOSTON","MA","United States","02110","Y",238,"Y","Y","Y","N","Yes"
1975001,"KEITER, STEPHENS, HURST, GARY & SHREAVES, P.C","4401 DOMINION BLVD","","GLEN ALLEN","VA","United States","23060","Y",80,"Y","N","Y","N",""
1975027,"KPMG","1601 MARKET STREET","","PHILADELPHIA","PA","United States","19103","Y",185,"Y","Y","N","N","Yes"
1975041,"DELOITTE & TOUCHE","111 S. WACKER DRIVE","","CHICAGO","IL","United States","60606","Y",34,"Y","Y","N","N","Not Yet Received"
1975041,"BDO USA, LLP","330 N WABASH AVENUE","","CHICAGO","IL","United States","60611","Y",243,"Y","Y","N","N","Not Yet Received"
1975041,"FORVIS MAZARS, LLP","1003 RED BANKS ROAD","","GREENVILLE","NC","United States","27858","Y",686,"Y","Y","N","N","Yes"
1975041,"ASHLAND PARTNERS & COMPANY LLP","3512 EXCEL DRIVE","SUITE 103","MEDFORD","OR","United States","97504","Y",3783,"Y","N","Y","N",""
1943090,"LMHS, P.C.","80 WASHINGTON STREET, BUILDING S","","NORWELL","MA","United States","02061","Y",3373,"Y","Y","N","N","Yes"
1925289,"RODEFER MOSS & CO, PLLC","608 MABRY HOOD ROAD","","KNOXVILLE","TN","United States","37932","N",,"","N","Y","N",""
1981273,"BAKER TILLY US, LLP","2500 DALLAS PARKWAY, SUITE 300","","PLANO","TX","United States","75093","Y",23,"Y","N","Y","N",""
1981273,"SPICER JEFFRIES LLP","5251 S. QUEBEC ST., SUITE 200","","GREENWOOD VILLAGE","CO","United States","80111","Y",349,"Y","Y","N","N","Yes"
1981273,"FRANK, RIMERMAN + CO, LLP","60 SOUTH MARKET STREET","SUITE 500","SAN JOSE","CA","United States","95113","Y",1596,"Y","Y","N","N","Yes"
1981353,"ERNST & YOUNG LTD","SUITE 6401, P.O. BOX 510","62 FORUM LANE","GRAND CAYMAN","","Cayman Islands","KY1-1106","Y",1655,"Y","Y","N","N","Yes"
1980848,"PRICEWATERHOUSECOOPERS LLP","300 MADISON AVENUE","","NEW YORK","NY","United States","10017","Y",238,"Y","Y","Y","N","Yes"
1980848,"PRICEWATERHOUSECOOPERS","18 FORUM LANE","CAMANA BAY, P.O. BOX 258","GRAND CAYMAN","","Cayman Islands","","Y",1266,"Y","Y","N","N","Yes"
1980848,"BAKER TILLY TFW LLP","600 NORTH BRIDGE ROAD","#05-01 PARKVIEW SQUARE","SINGAPORE","","Singapore","188778","Y",2435,"Y","Y","N","N","Yes"
1980848,"PRICEWATERHOUSECOOPERS CI LLP","ROYAL BANK PLACE","1 GLATEGNY ESPLANADE","ST. PETER PORT","","Guernsey","GY1 4ND","Y",1412,"Y","Y","N","N","Yes"
1980848,"PRICEWATERHOUSECOOPERS LLP","7 MORE LONDON RIVERSIDE","","LONDON","","United Kingdom","SE1 2RT","Y",876,"Y","Y","N","N","Yes"
1981105,"DELOITTE & TOUCHE LLP","30 ROCKEFELLER PLAZA","","NEW YORK","NY","United States","10112","Y",34,"Y","N","Y","N",""
1980466,"DELOITTE LLP","30 ROCKEFELLER PLAZA","","NEW YORK","NY","United States","10112","Y",34,"Y","Y","N","N","Yes"
1981438,"ERNST & YOUNG, LLP","560 MISSION STREET","","SAN FRANCISCO","CA","United States","94105","Y",42,"Y","Y","N","N","Yes"
1978035,"ADEPTUS PARTNERS, LLC.","244 W 54TH STREET","9TH FLOOR","NEW YORK","NY","United States","10019","Y",3686,"Y","N","Y","N",""
1978135,"ANDERS MINKLER HUBER & HELM LLP","800 MARKET STREET","SUITE 500 I","ST. LOUIS","MO","United States","63101","Y",2100,"Y","N","Y","N",""
1978136,"UHY LLP","27725 STANSBURY BLVD STE 200","","FARMINGTON HILLS","MI","United States","48334","Y",1195,"Y","Y","N","N","Yes"
1978152,"DELOITTE IRELAND LLP","DELOITTE & TOUCHE HOUSE","29 EARLSFORT TERRACE","DUBLIN","","Ireland","D02 AY28","Y",1193,"Y","Y","N","N","Yes"
1978180,"EISNERAMPER, LLP","ONE CALIFORNIA","SUITE 1700","SAN FRANCISCO","CA","United States","94111","Y",274,"Y","N","Y","N",""
1978180,"WEAVER AND TIDWELL, LLP","1230 ROSECRANS AVENUE","SUITE 510","MANHATTAN BEACH","CA","United States","90266","Y",410,"Y","Y","N","N","Yes"
1978180,"MARCUM LLP","777 S FIGUEROA ST","29TH FLOOR","LOS ANGELES","CA","United States","90017","Y",688,"Y","Y","N","N","Yes"
1977963,"KPMG","345 PARK AVENUE","","NEW YORK","NY","United States","10154","Y",185,"Y","N","Y","Y","Yes"
1978206,"ERNST & YOUNG LLP","14O1 MCKINNEY ST.","SUITE 2400","HOUSTON","TX","United States","77010","Y",1000,"Y","N","Y","N",""
1970904,"DELOITTE & TOUCHE LLP","111 S. WACKER DRIVE","","CHICAGO","IL","United States","60606-4301","Y",34,"Y","Y","N","N","Yes"
1978834,"PRICE WATERHOUSE COOPER LLP","254 MUNOZ RIVERA AVENUE","ORIENTAL CENTER SUITE 900","SAN JUAN","PR","United States","00918","Y",238,"Y","N","N","Y","Yes"
1978918,"FORVIS","400 CROSS POINTE BLVD","P.O. BOX 628","EVANSVILLE","IN","United States","47704","Y",686,"Y","N","N","Y","Yes"
1978918,"ASHLAND PARTNERS & COMPANY LLP","3512 EXCEL DRIVE","SUITE 103","MEDFORD","OR","United States","97504","Y",3783,"Y","N","Y","N",""
1978938,"KATZ ABOSCH, P.A.","9690 DEERECO RD.","SUITE 500","TIMONIUM","MD","United States","21093","N",,"","N","Y","N",""
1978961,"SANVILLE & COMPANY","2617 HUNTINGDON PIKE","","HUNTINGDON VALLEY","PA","United States","19006","Y",169,"Y","N","Y","Y","Yes"
1975816,"SPICER JEFFRIES","4601 DTC BLVD STE 700","","DENVER","CO","United States","80237","Y",349,"Y","Y","N","N","Yes"
1978979,"SPICER JEFFRIES LLP","5251 S. QUEBEC STREET,","SUITE 200","GREENWOOD VILLAGE","CO","United States","80111","Y",349,"Y","Y","N","N","Yes"
1979024,"ASHLAND PARTNERS & COMPANY LLP","3512 EXCEL DR.","STE 103","MEDFORD","OR","United States","97504","Y",3783,"Y","N","Y","N",""
1922667,"ASHLAND PARTNERS & COMPANY, LLP","3512 EXCEL DRIVE","","MEDFORD","OR","United States","97504","Y",3783,"N","Y","Y","N","Yes"
1975060,"ASHLAND PARTNERS & COMPANY LLP","3512 EXCEL DR., SUITE 103","","MEDFORD","OR","United States","97504","Y",3783,"N","N","Y","N",""
1973885,"RW GROUP PLLC","400 OLD FORGE LANE","STE 401","KENNET SQUARE","PA","United States","19348","Y",5020,"Y","N","Y","N",""
1975161,"PRICEWATERHOUSECOOPERS LLP","601 SOUTH FIGUEROA STREET","","LOS ANGELES","CA","United States","90017","Y",238,"Y","N","Y","Y","Yes"
1975211,"SPICER JEFFRIES LLP","4601 DTC BOULEVARD","SUITE 700","DENVER","CO","United States","80237","Y",349,"Y","N","Y","N",""
1973373,"PRICEWATERHOUSECOOPERS LLP","18 YORK STREET","SUITE 2500","TORONTO","","Canada","M5J0B2","Y",238,"Y","Y","Y","N","Not Yet Received"
1975265,"DELOITTE & TOUCHE LLP","1601 WEWATTA ST","SUITE 400","DENVER","CO","United States","80202-6479","Y",34,"Y","N","Y","Y","Yes"
1981589,"ERNST & YOUNG LLP","LEVEL 18 ONE RAFFLES QUAY","","SINGAPORE","","Singapore","048583","Y",1247,"Y","Y","N","N","Yes"
1981589,"ERNST & YOUNG LTD","62 FORUM LN","","GEORGE TOWN","","Cayman Islands","","Y",1655,"Y","Y","N","N","Yes"
1975133,"PRICEWATERHOUSECOOPERS LLP","300 MADISON AVENUE","","NEW YORK","NY","United States","10017","Y",238,"Y","Y","Y","Y","Yes"
1975133,"ERNST & YOUNG","5 TIMES SQUARE","","NEW YORK","NY","United States","10036","Y",42,"Y","Y","N","N","Yes"
1981683,"MOSS ADAMS, LLP","6100 UPTOWN BLVD. NE","","ALBUQUERUQUE","NM","United States","87110","Y",659,"Y","Y","N","N","Yes"
1981706,"MOSS ADAMS, LLP","6100 UPTOWN BLVD. NE","","ALBUQUERUQUE","NM","United States","87110","Y",659,"Y","Y","N","N","Yes"
1962625,"SPICER JEFFRIES LLP","4601 DTC BLVD","STE 700","DENVER","CO","United States","80237","Y",349,"Y","Y","N","N","Yes"
1981854,"HILL, BARTH & KING LLC","100 PINEWOOD LANE","SUITE 201","WARRENDALE","PA","United States","15086","Y",2206,"Y","N","Y","N",""
1975922,"PRICEWATERHOUSECOOPERS LLP","300 MADISON AVENUE","","NEW YORK","NY","United States","10017-6204","Y",238,"Y","Y","N","N","Not Yet Received"
1977821,"GEFFEN MESHER AND COMPANY","888 SW 5TH AVE","SUITE 800","PORTLAND","OR","United States","97204","Y",3912,"Y","N","Y","N",""
1977569,"DELOITTE & TOUCHE LLP","111 SOUTH WACKER DRIVE","","CHICAGO","IL","United States","60606-4301","Y",34,"Y","Y","N","N","Yes"
1968474,"KPMG","620 S. TRYON STREET","SUITE 1000","CHARLOTTE","NC","United States","28202","Y",185,"Y","Y","N","N","Not Yet Received"
1978056,"ARMANINO LLP","6 CITYPLACE DRIVE","SUITE 900","ST. LOUIS","MO","United States","63141","Y",32,"Y","N","Y","N",""
1970508,"LUTZ & COMPANY, P.C.","13616 CALIFORNIA STREET","SUITE #300","OMAHA","NE","United States","68154-5336","Y",3624,"Y","N","Y","N",""
1975295,"ERNST & YOUNG","5 TIMES SQUARE","","NEW YORK","NY","United States","10036","Y",42,"Y","N","Y","Y","Yes"
1968500,"WOLF & CO.","255 STATE STREET","","BOSTON","MA","United States","02109","Y",392,"Y","Y","N","N","Yes"
1975364,"WOLF & CO.","255 STATE STREET","","BOSTON","MA","United States","02109","Y",392,"Y","Y","N","N","Yes"
1975415,"EISNERAMPER LLP","733 THIRD AVENUE","","NEW YORK","NY","United States","10017","Y",274,"Y","N","Y","N",""
1974811,"WIPFLI","125 SOUTH WACKER DRIVE","SUITE 1500","CHICAGO","IL","United States","60606-4477","Y",344,"Y","Y","Y","N","No"
1975430,"MEISEL, TUTEUR & LEWIS, P.C.","101 EISENHOWER PKWY","","ROSELAND","NJ","United States","07068","Y",3861,"Y","N","Y","N",""
1975433,"DELOITTE & TOUCHE LLP","111 SOUTH WACKER DRIVE","","CHICAGO","IL","United States","60606-4301","Y",34,"Y","Y","N","N","Yes"
1982597,"DELOITTE AND TOUCHE LLP","200 BERKELEY STREET","","BOSTON","MA","United States","02116","Y",34,"Y","Y","N","N","Yes"
1982773,"WALTER & SHUFFAIN, P.C.","ONE INTERNATIONAL PLACE","SUITE 1010","BOSTON","MA","United States","02110","Y",5439,"Y","N","Y","N",""
1982703,"ARMANINO LLP","21600 OXNARD STREET","SUITE 1180","WOODLAND HILLS","CA","United States","91367","Y",32,"Y","Y","Y","N","Yes"
1982875,"ASHLAND PARTNERS & COMPANY LLP","3512 EXCEL DRIVE","SUITE 103","MEDFORD","OR","United States","97504","Y",3783,"N","N","Y","N",""
1982875,"RSM","80 CITY SQUARE","","BOSTON","MA","United States","02129","Y",49,"Y","Y","N","N","Yes"
1982948,"ASHLAND PARTNERS & COMPANY LLP","3512 EXCEL DRIVE","SUITE 103","MEDFORD","OR","United States","97504","Y",3783,"N","N","Y","N",""
1982948,"RSM","80 CITY SQUARE","","BOSTON","MA","United States","02129","Y",49,"Y","Y","N","N","Yes"
1982961,"ERNST & YOUNG LLP","200 CLARENDON","","BOSTON","MA","United States","02116","Y",42,"Y","Y","N","N","Not Yet Received"
1982961,"ERNST & YOUNG LTD.","62 FORUM LANE, CAYMAN BAY","P.O. BOX 510","GRAND CAYMAN","","Cayman Islands","","Y",1655,"Y","Y","N","N","Not Yet Received"
1982969,"MOSS ADAMS","999 THIRD AVENUE","STE. 2800","SEATTLE","WA","United States","98104","Y",659,"Y","N","Y","N",""
1982969,"COHEN & CO.","1835 MARKET ST","3RD FLOOR","PHILADELPHIA","PA","United States","19103","Y",925,"Y","Y","N","N","Yes"
1983165,"KPMG, LLP","200 EAST RANDOLPH","SUITE 5500","CHICAGO","IL","United States","60601","Y",185,"Y","Y","Y","Y","Yes"
1983215,"DELOITTE & TOUCHE LLP","1700 MARKET STREET","","PHILADELPHIA","PA","United States","19103","Y",34,"Y","Y","Y","N","Yes"
1983215,"DELOITTE & TOUCHE LLP","60 NEXUS WAY, 8TH FLOOR","CAMANA BAY, PO BOX 1787","GRAND CAYMAN","","Cayman Islands","KY1-1109","Y",1096,"Y","Y","N","N","Yes"
1983215,"DELOITTE AUDIT SARL","20, BOULEVARD DE KOCKELSCHEUER","","LUXEMBOURG","","Luxembourg","L-1821","Y",1287,"Y","Y","N","N","Yes"
1983228,"DANNIBLE & MCKEE, LLP","DM FINANCIAL PLAZA","221 S. WARREN ST","SYRACUSE","NY","United States","13202","Y",528,"Y","N","Y","N",""
1977979,"ASHLAND PARTNERS & COMPANY, LLP","3512 EXCEL DRIVE","SUITE 103","MEDFORD","OR","United States","97504","Y",3783,"Y","N","Y","N",""
1968333,"BDO USA, P.C.","ONE BUSH STREET","","SAN FRANCISCO","CA","United States","94104","Y",243,"Y","Y","N","Y","Not Yet Received"
1978213,"ERNST & YOUNG LLP","14O1 MCKINNEY ST.","SUITE 2400","HOUSTON","TX","United States","77010","Y",1000,"Y","N","Y","N",""
1975587,"ASHLAND PARTNERS & COMPANY LLP","3512 EXCEL DRIVE","SUITE 103","MEDFORD","OR","United States","97504","Y",3783,"Y","N","Y","N",""
1979756,"ASHLAND PARTNERS & COMPANY LLP","3512 EXCEL DR,","SUITE 103","MEDFORD","OR","United States","97504","Y",3783,"Y","N","Y","N",""
1980566,"KAUFMAN, ROSSIN & CO., A PROFESSIONAL ASSOCIATION","ONE TOWN CENTER ROAD","SUITE 400","BOCA RATON","FL","United States","33486","Y",137,"Y","N","Y","N",""
1978885,"ERNST & YOUNG LLP","LEVEL 18 ONE RAFFLES QUAY","","SINGAPORE","","Singapore","048583","Y",1247,"Y","Y","N","N","Yes"
1978885,"ERNST & YOUNG LTD","62 FORUM LN","","GEORGE TOWN","","Cayman Islands","","Y",1655,"Y","Y","N","N","Yes"
1982816,"PRAGER METIS CPAS, LLC","222 MOUNT AIRY ROAD","SUITE 100","BASKING RIDGE","NJ","United States","07920","Y",273,"Y","Y","N","N","Not Yet Received"
1982944,"WIPFLI LLP","100 TRI-STATE INTERNATIONAL","SUITE 300","LINCOLNSHIRE","IL","United States","60069","Y",344,"Y","N","Y","N",""
1973452,"PRICEWATERHOUSECOOPERS","2121 N. PEARL STREET","STE 2000","DALLAS","TX","United States","75201","Y",238,"Y","Y","N","N","Yes"
1984224,"GRANT THORNTON","757 THIRD AVE","","NEW YORK","NY","United States","10017","Y",248,"Y","Y","N","N","Yes"
1984224,"KPMG","1 HARBOURMASTER PLACE","ISFSC","DUBLIN 1","","Ireland","","Y",1116,"Y","Y","N","N","Yes"
1984237,"COHNREZNICK LLP","21700 OXNARD STREET","","WOODLAND HILLS","CA","United States","91367","Y",596,"Y","Y","Y","N","Yes"
1980810,"ERNST AND YOUNG LTD.","P.O. BOX 510","62 FORUM LANE CAMANA BAY","GRAND CAYMAN","","Cayman Islands","KY1-1106","Y",1655,"Y","Y","N","N","Yes"
1980510,"HILL, BARTH AND KING LLC","100 PINEWOOD LANE","SUITE 201","WARRENDALE","PA","United States","15086","Y",2206,"Y","N","Y","N",""
1980879,"FRAZIER AND DEETER","401 E JACKSON ST, SUITE 2425","","TAMPA","FL","United States","33602","Y",215,"Y","Y","N","N","Yes"
1979796,"PRICEWATERHOUSECOOPERS LLP","THREE EMBARCADERO CENTER","","SAN FRANCISCO","CA","United States","94111-4034","Y",238,"Y","N","Y","N",""
1977945,"SPICER JEFFRIES LLP","4601 DTC BOULEVARD, SUITE 700","","DENVER","CO","United States","80237","Y",349,"Y","Y","Y","Y","Not Yet Received"
1984520,"KPMG LLP","PO BOX 493","SIX CRICKET SQUARE","GEORGE TOWN","","Cayman Islands","KY1-1106","Y",1323,"Y","Y","N","N","Yes"
1984520,"KPMG AG","FRIEDENSTRAßE 10","","MUNICH","","Germany","81671","Y",1021,"Y","Y","N","N","Yes"
1984668,"ASHLAND PARTNERS & COMPANY, LLP","3512 EXCEL DRIVE","SUITE 103","MEDFORD","OR","United States","97504","Y",3783,"Y","N","Y","N",""
1983459,"FRAZIER & DEETER, LLC","1230 PEACHTREE STREET NE","SUITE 1500","ATLANTA","GA","United States","30309","Y",215,"Y","Y","Y","N","Yes"
1979179,"SC&H GROUP, LLC","910 RIDGEBROOK ROAD","","SPARKS","MD","United States","21152","Y",2297,"Y","Y","Y","N","Yes"
1984731,"WIPFLI LLP","100 TRI-STATE INTERNATIONAL","SUITE 300","LINCOLNSHIRE","IL","United States","60069","Y",344,"Y","Y","N","N","Yes"
1984731,"BDO CAYMAN LTD","GOVERNORS SQUARE, 2ND FLOOR","BLDG 3, WEST BAY","GRAND CAYMAN","","Cayman Islands","","Y",2162,"Y","Y","N","N","Yes"
1978800,"ERNST & YOUNG LLP","2005 MARKET STREET","SUITE 700","PHILADELPHIA","PA","United States","19103-7049","Y",42,"Y","Y","N","N","Yes"
1978800,"CARR, RIGGS & INGRAM LLC","901 BOLL WEEVIL CIR","STE 200","ENTERPRISE","AL","United States","36330","Y",213,"Y","Y","N","N","Yes"
1978800,"CBIZ CPAS P.C.","9 PARKWAY N","SUITE 200","DEERFIELD","IL","United States","60015","Y",199,"Y","N","Y","N",""
1982752,"DELOITTE","111 S WACKER DR","","CHICAGO","IL","United States","60606","Y",34,"Y","Y","N","N","Yes"
1982752,"COHEN & COMPANY, LTD.","151 N. FRANKLIN ST. STE 575, CHICAGO, IL 60606","","CHICAGO","IL","United States","60606","Y",925,"Y","Y","N","N","Not Yet Received"
1984786,"BERKOW, SCHECHTER & COMPANY LLP","350 BEDFORD STREET","","STAMFORD","CT","United States","06901","Y",4040,"Y","N","Y","N",""
1984769,"ASHLAND PARTNERS & COMPANY LLP","3512 EXCEL DRIVE","SUITE 103","MEDFORD","OR","United States","97504","Y",3783,"N","N","Y","N",""
1984400,"ERNST & YOUNG, LLP","200 CLARENDON STREET","","BOSTON","MA","United States","02116","Y",42,"Y","Y","N","N","Yes"
1975976,"COHEN & COMPANY, LTD.","201 INTERNATIONAL CIRCLE","","HUNT VALLEY","MD","United States","21030","Y",925,"Y","Y","N","N","Yes"
1976172,"RICHEY MAY & CO.","9605 S KINGSTON CT","SUITE 200","ENGLEWOOD","CO","United States","80112","Y",673,"Y","N","Y","N",""
1976221,"WITHUMSMITH + BROWN, PC","1411 BROADWAY","","NEW YORK","NY","United States","10018","Y",100,"Y","N","Y","N",""
1976242,"WHITTLESEY FORWARD ADVISING","280 TRUMBULL STREET","24TH FLOOR","HARTFORD","CT","United States","06103-3599","Y",2538,"Y","N","Y","N",""
1976251,"ASHLAND PARTNERS & COMPANY LLP","3512 EXCEL DR","SUITE 103","MEDFORD","OR","United States","97504","Y",3783,"N","N","Y","N",""
1965567,"NICHOLS, CAULEY, & ASSOCIATES, LLC","3550 ENGINEERING DRIVE","SUITE 250","PEACHTREE CORNERS","GA","United States","30092","Y",281,"Y","N","Y","N",""
1984493,"RSM US LLLP","80 CITY SQUARE","","BOSTON","MA","United States","02129","Y",49,"Y","Y","N","N","Yes"
1982024,"ASSURANCE DIMENSIONS","4920 W CYPRESS STREET","SUITE 102","TAMPA","FL","United States","33607","Y",5036,"Y","N","Y","Y","Not Yet Received"
1983290,"DELOITTE & TOUCHE LLP","200 BERKELEY STREET","","BOSTON","MA","United States","02116","Y",34,"Y","Y","N","N","Yes"
1984738,"RSM US LLP","ONE SOUTH WACKER DRIVE","SUITE 800","CHICAGO","IL","United States","60606","Y",49,"Y","Y","N","N","Yes"
1984854,"ERNST & YOUNG LLP","801 GRAND AVE, SUITE 3000","","DES MOINES","IA","United States","50309","Y",42,"Y","Y","Y","Y","Yes"
1981522,"KPMG LLP","2323 ROSS AVENUE #1400","","DALLAS","TX","United States","75201","Y",185,"Y","Y","N","N","Yes"
1981054,"DELOITTE AUDIT S.A.R.L","560 RUE DE NEUDORF","","LUXEMBOURG","","Luxembourg","L-2220","Y",1287,"Y","N","N","Y","Yes"
1981054,"ERNST & YOUNG LLP","5 TIMES SQUARE","","NE YORK","NY","United States","10036","Y",42,"Y","N","N","Y","Yes"
1981054,"COHNREZNICK LLP","1301 AVENUE OF THE AMERICAS","","NEW YORK","NY","United States","10019","Y",596,"Y","Y","N","N","Yes"
1983284,"GRANT THORNTON LLP","500 N AKARD ST","SUITE 1200","DALLAS","TX","United States","75201","Y",248,"Y","Y","N","N","Yes"
1984454,"CLARK SCHAEFER HACKETT","ONE EAST FOURTH ST. SUITE 1200","","CINCINNATI","OH","United States","45202","Y",539,"Y","Y","N","Y","Yes"
1985296,"ERNST & YOUNG LLP","5 TIMES SQUARE","","NEW YORK","NY","United States","10036","Y",42,"Y","Y","N","N","Yes"
1976321,"BDO USA, LLP","ONE INTERNATIONAL PLACE","","BOSTON","MA","United States","02110","Y",243,"Y","Y","N","N","Yes"
1976367,"ASHLAND PARTNERS & COMPANY LLP","3512 EXCEL DRIVE","SUITE 103","MEDFORD","OR","United States","97504","Y",3783,"N","N","Y","N",""
1976378,"ASHLAND PARTNERS & COMPANY LLP","3512 EXCEL DRIVE","SUITE 103","MEDFORD","OR","United States","97504","Y",3783,"N","N","Y","N",""
1976401,"KPMG LLP","345 PARK AVENUE","4TH FLOOR","NEW YORK","NY","United States","10154","Y",185,"Y","N","Y","Y","Yes"
1976428,"FORVIS","2700 POST OAK BLVD","SUITE 1500","HOUSTON","TX","United States","77056","Y",686,"Y","N","Y","Y","Yes"
1976430,"YOUNT, HYDE & BARBOUR, P.C.","4419 PHEASANT RIDGE ROAD","SUITE 302","ROANOKE","VA","United States","24014","Y",613,"Y","N","Y","N",""
1973366,"BPM, LLP","ONE CALIFORNIA STREET","SUITE 2500","SAN FRANCISCO","CA","United States","94111","Y",207,"Y","N","Y","N",""
1969834,"WITHUMSMITH+BROWN, PC","1411 BROADWAY","23RD FLOOR","NEW YORK","NY","United States","10018","Y",100,"Y","Y","N","N","Yes"
1976586,"KATZ SAPPER & MILLER","800 E. 96TH STREET","SUITE 500","INDIANAPOLIS","IN","United States","46240","Y",2804,"Y","Y","N","N","Yes"
1976626,"DELOITTE & TOUCHE LLC","695 TOWN CENTER DR","SUITE 1000","COSTA MESA","CA","United States","92626","Y",34,"Y","Y","N","N","Yes"
1976746,"PRICEWATERHOUSECOOPERS LLP","TWO COMMERCE SQUARE, SUITE 1800","2001 MARKET STREET","PHILADELPHIA","PA","United States","19103","Y",238,"Y","N","Y","Y","Yes"
1976555,"PRICEWATERHOUSECOOPERS","300 MADISON AVE","","NEW YORK","NY","United States","10017-6204","Y",238,"Y","Y","N","N","Not Yet Received"
1976732,"EISNERAMPER LLP","733 THIRD AVENUE","","NEW YORK","NY","United States","10017","Y",274,"Y","Y","N","N","Yes"
1976598,"PRICEWATERHOUSECOOPERS LLP","101 SEAPORT BOULEVARD","SUITE 500","BOSTON","MA","United States","02210","Y",238,"Y","Y","N","N","Yes"
1975953,"ASHLAND PARTNERS & COMPANY LLP","3512 EXCEL DRIVE, SUITE 103","","MEDFORD","OR","United States","97504","Y",3783,"N","N","Y","N",""
1976702,"ERNST & YOUNG LLP","5 TIMES SQUARE","","NEW YORK","NY","United States","10036","Y",42,"Y","Y","Y","N","Yes"
1976992,"HACKER, JOHNSON, & SMITH PA","500 NORTH WESTSHORE BLVD.","#1000","TAMPA","FL","United States","33609","Y",400,"Y","Y","N","N","Not Yet Received"
1976598,"ERNST & YOUNG LLP","200 CLARENDON STREET","","BOSTON","MA","United States","02116","Y",42,"Y","Y","Y","N","Yes"
1977108,"DELOITTE AND TOUCHE LLP","655 WEST BROADWAY, SUITE 700","","SAN DIEGO","CA","United States","92101","Y",34,"Y","N","Y","Y","Yes"
1977277,"PRICEWATERHOUSECOOPERS (AUSTRALIA)","ONE INTERNATIONAL TOWERS","WATERMANS QUAY","BARANGAROO","","Australia","2000","N",,"","Y","N","N","Not Yet Received"
1969673,"CROWE LP","488 MADISON AVE., SUITE 1200","","NEW YORK","NY","United States","10022","Y",173,"Y","N","Y","N",""
1969673,"MEADOWS URQUHART ACREE & COOK LLP","1802 BAYBERRY COURT","SUITE 102","RICHMOND","VA","United States","23226","Y",3688,"Y","Y","N","N","Not Yet Received"
1968230,"YOUNT, HYDE & BARBOUR, P.C.","4419 PHEASANT RIDGE RD.","SUITE 302","ROANOKE","VA","United States","24014","Y",613,"Y","N","Y","N",""
1974239,"ARMANINO LLP","6 CITYPLACE DRIVE","SUITE 900","ST. LOUIS","MO","United States","63132","Y",643,"Y","N","Y","N",""
1968584,"EISNERAMPER LLP","2651 NORTH HARDWOOD STREET","SUITE 220","DALLAS","TX","United States","75201","Y",274,"Y","Y","N","N","Yes"
1974258,"CLARK SCHAEFER HACKETT /  MR. ZACH DOTZAUER, CPA","ONE EAST 4TH STREET","SUITE 1200","CINCINNATI","OH","United States","45202-3708","Y",539,"Y","N","Y","N",""
1973214,"ASSURANCE DIMENSIONS","4920 W CYPRESS STREET","SUITE 102","TAMPA","FL","United States","33607","Y",5036,"Y","Y","Y","N","Yes"
1951601,"EIDE BAILLY LLP","200 E. 10TH ST.","STE. 500","SIOUX FALLS","SD","United States","57117-5125","Y",286,"Y","N","N","Y","Yes"
1975010,"REHMANN ROBSON LLC","5800 GRATIOT AVENUE","SUITE 201","SAGINAW","MI","United States","48638","Y",263,"Y","Y","N","N","Yes"
1980420,"PRICEWATERHOUSECOOPERS LLP","726 EXCHANGE ST","SUITE 100","BUFFALO","NY","United States","14210","Y",238,"Y","N","Y","Y","Yes"
1979538,"GRAY, GRAY & GRAY","150 ROYALL STREET","","CANTON","MA","United States","02021","Y",889,"Y","N","Y","N",""
1980465,"LUTZ & COMPANY, PC","13616 CALIFORNIA ST.","SUITE 300","OMAHA","NE","United States","68154","Y",6473,"Y","N","Y","N",""
1980479,"PLANTE MORAN","10 SOUTH RIVERSIDE PLAZA 9TH FLOOR","","CHICAGO","IL","United States","60606-3770","Y",166,"Y","N","Y","N",""
1980479,"EISNERAMPER","100 N. 18TH ST","","PHILADELPHIA","PA","United States","19103","Y",274,"Y","Y","N","N","Yes"
1980479,"DELOITTE & TOUCHE LLP","1700 MARKET STREET","","PHILADELPHIA","PA","United States","19103-3984","Y",34,"Y","Y","N","N","Yes"
1980479,"ERNST & YOUNG LLP","ONE MANHATTAN WEST","395 - 9TH AVENUE","NEW YORK","NY","United States","10001","Y",42,"Y","Y","N","N","Yes"
1979845,"ERNST & YOUNG LLP","5 TIMES SQUARE","","NEW YORK","NY","United States","10036-6530","Y",42,"Y","Y","N","N","Yes"
1978555,"MELTON & MELTON, L.L.P.","6002 ROGERDALE, STE. 200","","HOUSTON","TX","United States","77072","Y",777,"Y","Y","N","Y","Yes"
1975681,"DELOITTE & TOUCHE LLP","30 ROCKEFELLER PLAZA","","NEW YORK","NY","United States","10112-0015","Y",34,"Y","Y","Y","Y","Yes"
1980649,"PRICEWATERHOUSECOOPERS","18 FORUM LANE","CAMANA BAY","GEORGE TOWN","","Cayman Islands","KY1-1104","Y",1266,"Y","Y","N","N","Yes"
1980649,"PRICEWATERHOUSECOOPERS LLP","330 MADISON AVE","","NEW YORK","NY","United States","10017","Y",238,"Y","Y","N","N","Yes"
1968849,"FISCHER CUNNANE & ASSOCIATES LTD","11 TURNER LANE","","WEST CHESTER","PA","United States","19380","Y",1940,"Y","N","N","N",""
1964088,"PLANTE MORAN","1445 MARKET STREET","SUITE 300","DENVER","CO","United States","80202","Y",166,"Y","Y","N","N","Not Yet Received"
1975093,"BAKER TILLY","2321 ROSECRANS AVE.","SUITE 2215","EL SEGUNDO","CA","United States","90245","Y",23,"Y","N","Y","N",""
1975216,"BODWELL VASEK WELLS DESIMONE LLP","8117 PRESTON ROAD SUITE 460","","DALLAS","TX","United States","75225","Y",7004,"Y","Y","Y","N","Not Yet Received"
1980681,"SPICER JEFFRIES LLP","4601 DTC BLVD.","SUITE 700","DENVER","CO","United States","80237","Y",349,"Y","Y","N","N","Yes"
1980710,"KPMG LLP","6070 POPLAR AVE, SUITE 450","","MEMPHIS","TN","United States","38119-3912","Y",185,"Y","Y","N","N","Yes"
1977568,"KPMG LLP","10 SOUTH BROADWAY","SUITE 900","SAINT LOUIS","MO","United States","63102-1736","Y",185,"Y","N","Y","Y","Yes"
1980050,"RICHEY MAY & CO.","9780 SOUTH MERIDIAN BLVD","SUITE 500","ENGLEWOOD","CO","United States","80112","Y",673,"Y","Y","N","N","Yes"
1980058,"ASHLAND PARTNERS & COMPANY LLP","3512 EXCEL DR","SUITE 103","MEDFORD","OR","United States","97504","Y",3783,"N","N","Y","N",""
1978897,"GBQ PARTNERS LLC","230 WEST STREET, SUITE 700","","COLUMBUS","OH","United States","43215","Y",1808,"Y","N","Y","N",""
1974832,"BDO USA, LLP","211 EAST WATER STREET","SUITE 300","KALAMAZOO","MI","United States","49007","Y",243,"Y","N","N","N",""
1974832,"ERNST & YOUNG LLP","SUITE 500, 700 NICOLLET MALL","","MINNEAPOLIS","MN","United States","55402","Y",42,"Y","N","Y","N",""
1974832,"KSM (KATZ, SAPPER & MILLER)","800 E 96TH ST","SUITE 500","INDIANAPOLIS","IN","United States","46240","Y",2804,"Y","Y","N","N","Yes"
1974832,"CROWE LLP","801 S FIGUEROA ST","SUITE 1750","LOS ANGELES","CA","United States","90017","Y",173,"Y","Y","N","N","Yes"
1975249,"MARCUM, LLP","500 WEST MONROE STREET","SUITE 2000","CHICAGO","IL","United States","60661","Y",688,"Y","N","N","N",""
1975123,"DELOITTE & TOUCHE LLP","1601 WEWATTA ST","SUITE 400","DENVER","CO","United States","80202-6479","Y",34,"Y","N","Y","Y","Yes"
1975268,"GRANT THORNTON LLP","171 N. CLARK STREET","SUITE 200","CHICAGO","IL","United States","60601-3370","Y",248,"Y","N","N","Y","Yes"
1975268,"BPM LLP","ONE CALIFORNIA STREET","SUITE 2500","SAN FRANCISCO","CA","United States","94111","Y",207,"Y","N","Y","N",""
1975268,"PRICEWATERHOUSECOOPERS","18 FORUM LANE, CAMANA BAY","","GRAND CAYMAN, BWI","","Cayman Islands","","Y",1266,"Y","Y","N","N","Not Yet Received"
1975268,"PRICEWATERHOUSECOOPERS LLP","101 SEAPORT BOULEVARD","","BOSTON","MA","United States","02210","Y",238,"Y","Y","N","N","Not Yet Received"
1975071,"KATZ ABOSH","9690 DEERECO ROAD","SUITE 500","TIMONIUM","MD","United States","21093","N",,"","N","Y","N",""
1975308,"COHEN & COMPANY, LTD.","342 N. WATER ST.","SUITE 830","MILWAUKEE","WI","United States","53202","Y",925,"Y","N","Y","Y","Yes"
1975272,"ASHLAND PARTNERS & COMPANY, LLP","3512 EXCEL DRIVE","SUITE 103","MEDFORD","OR","United States","97504","Y",3783,"Y","N","Y","N",""
1975340,"KPMG LLP","500 GRANT STREET","","PITTSBURGH","PA","United States","15219-2598","Y",185,"Y","N","N","Y","Yes"
1975359,"EIDE BAILLY LLP","300 N. LAKE AVE., SUITE 930","","PASADENA","CA","United States","91101-4100","N",,"","N","Y","N",""
1973787,"WARREN AVERETT","6 CONCOURSE PARKWAY","SUITE 600","ATLANTA","GA","United States","30328","Y",2226,"Y","Y","N","N","Not Yet Received"
1975299,"DELOITTE TOUCHE LLP","30 ROCKEFELLER PLAZA","","NEW YORK","NY","United States","10112-0015","Y",34,"Y","Y","N","N","Not Yet Received"
1954462,"WEAVER & TIDWELL, L.L.P.","2300 NORTH FIELD STREET SUITE 1000","","DALLAS","TX","United States","75201","Y",410,"Y","Y","N","N","Yes"
1979241,"CROWE LLP","1395 BRICKELL AVENUE","SUITE 1150","MIAMI","FL","United States","33131","Y",173,"Y","N","Y","Y","Not Yet Received"
1978288,"PRICEWATERHOUSECOOPERS","CAMANA BAY, P.O. BOX 258","","GRAND CAYMAN","","Cayman Islands","KY1-1104","Y",1266,"Y","Y","N","N","Yes"
1979715,"PRICEWATERHOUSECOOPERS LLP","PRICEWATERHOUSECOOPERS CENTER","300 MADISON AVENUE","NEW YORK","NY","United States","10017","Y",238,"Y","Y","Y","Y","Yes"
1979548,"SPICER JEFFRIES LLP","4601 DTC BOULEVARD","SUITE 700","DENVER","CO","United States","80237","Y",349,"Y","Y","N","N","Not Yet Received"
1975536,"PRICEWATERHOUSECOOPERS (AUSTRALIA)","ONE INTERNATIONAL TOWERS","WATERMANS QUAY","BARANGAROO","","Australia","2000","N",,"","Y","N","N","Not Yet Received"
1975548,"EIDE BAILLY, LLP","300 N. LAKE AVE.","#930","PASADENA","CA","United States","91101","Y",286,"Y","N","Y","N",""
1980061,"COHNREZNICK LLP","21600 OXNARD ST.","STE. 700","WOODLAND HILLS","CA","United States","91367","Y",596,"Y","Y","N","N","Yes"
1980328,"KPMG LLP","345  PARK AVENUE","","NEW YORK","NY","United States","10154","Y",185,"Y","N","Y","Y","Yes"
1978637,"FORVIS","2700 POST OAK BLVD","SUITE 1500","HOUSTON","TX","United States","77056","Y",686,"Y","N","Y","Y","Yes"
1975623,"WHITLEY PENN LLP","1400 WEST 7TH STREET","SUITE 400","FORT WORTH","TX","United States","76102","Y",726,"Y","Y","N","N","Not Yet Received"
1978329,"KREISCHER MILLER","100 WITMER ROAD","SUITE 350","HORSHAM","PA","United States","19044","Y",1110,"Y","N","Y","N",""
1978329,"COHEN & COMPANY, LTD.","1350 EUCLID AVE.","SUITE 800","CLEVELAND","OH","United States","44115","Y",925,"Y","Y","N","N","Not Yet Received"
1978619,"PRICEWATERHOUSECOOPERS LLP","101 SEAPORT BLVD","","BOSTON","MA","United States","02210","Y",238,"Y","N","Y","Y","Yes"
1978631,"FORVIS","2700 POST OAK BLVD","SUITE 1500","HOUSTON","TX","United States","77056","Y",686,"Y","N","Y","Y","Yes"
1978644,"PRICEWATERHOUSECOOPERS LLP","2001 MARKET STREET","SUITE 1800","PHILADELPHIA","PA","United States","19103-7042","Y",238,"Y","N","Y","Y","Yes"
1975696,"CITRIN COOPERMAN & COMPANY, LLP","50 ROCKEFELLER PLAZA","","NEW YORK","NY","United States","10020","Y",2468,"Y","Y","N","N","Not Yet Received"
1975716,"ASHLAND PARTNERS & COMPANY LLP","520 BIGHAM KNOLL","SUITE 200","JACKSONVILLE","OR","United States","97530","Y",3783,"Y","N","Y","N",""
1975716,"DELOITTE","925 4TH AVE","#3300","SEATTLE","WA","United States","98104","Y",34,"Y","Y","N","N","Yes"
1975716,"PKF O'CONNOR DAVIES","665 FIFTH AVENUE","","NEW YORK","NY","United States","10022","Y",127,"Y","Y","Y","N","Yes"
1975716,"EIDE BAILLY LLP","800 NICOLLET MALL","SUITE 1300","MINNEAPOLIS","MN","United States","55402","Y",286,"Y","N","N","Y","Yes"
1975753,"RODEFER MOSS & CO. PLLC","608 MABRY HOOD ROAD","","KNOXVILLE","TN","United States","37932","Y",910,"Y","N","Y","Y","Yes"
1975731,"BDO USA, P.C.","2600 W. BIG BEAVER ROAD","SUITE 600","TROY","MI","United States","48084","Y",243,"Y","Y","N","N","Yes"
1975413,"KATZ SAPPER & MILLER","800 E. 96TH STREET","SUITE 500","INDIANAPOLIS","IN","United States","46240","Y",2804,"Y","Y","N","N","Yes"
1975929,"KPMG LLP","78 SW 7TH STREET","SUITE 1200","MIAMI","FL","United States","33130","Y",185,"Y","Y","N","N","Yes"
1967695,"SANVILLE & COMPANY","1514 OLD YORK RD","","ABINGTON","PA","United States","19001","Y",169,"Y","Y","N","N","Yes"
1979524,"UHY LLP","27725 STANSBURY BLVD STE 200","","FARMINGTON HILLS","MI","United States","48334","Y",1195,"Y","Y","N","N","Yes"
1979894,"ANDERS","800 MARKET ST","STE 500","ST. LOUIS","MO","United States","63101","Y",2100,"Y","N","Y","N",""
1973112,"WEAVER AND TIDWELL, L.L.P.","1230 ROSECRANS AVE","SUITE 510","MANHATTAN BEACH","CA","United States","90266","Y",410,"Y","Y","N","N","Not Yet Received"
1980352,"ASHLAND PARTNERS & COMPANY, LLP","3512 EXCEL DRIVE","","MEDFORD","OR","United States","97504","Y",3783,"N","Y","Y","N","Yes"
1980007,"DELOITTE & TOUCHE, LLP","111 SOUTH WACKER DRIVE","","CHICAGO","IL","United States","60606","Y",34,"Y","Y","N","N","Yes"
1980007,"KPMG LLP","AON CENTER","200 E. RANDOLPH STREET, SUITE 5500","CHICAGO","IL","United States","60601","Y",185,"Y","Y","N","N","Not Yet Received"
1980007,"FORVIS MAZARS, LLP","135 W 50TH STREET","","NEW YORK","NY","United States","10020","Y",686,"Y","Y","N","N","Not Yet Received"
1980007,"COHEN & COMPANY","1350 EUCLID AVE","SUITE 800","CLEVELAND","OH","United States","44115","Y",925,"Y","Y","N","Y","Yes"
1980007,"ERNST & YOUNG","5 TIMES SQUARE","","NEW YORK","NY","United States","10036","Y",42,"Y","Y","N","N","Yes"
1980007,"KPMG","345 PARK AVENUE","","NEW YORK","NY","United States","10154","Y",185,"Y","Y","N","N","Yes"
1980007,"FORVIS MAZARS, LLP","135 W 50TH STREET","","NEW YORK","NY","United States","10020","Y",686,"Y","N","Y","N",""
1980007,"SCHNEIDER DOWNS & CO., INC.","ONE PPG PLACE, SUITE 1700","","PITTSBURGH","PA","United States","15222","Y",358,"Y","Y","N","N","Not Yet Received"
1980007,"ERNST & YOUNG LLP","200 CLARENDON ST","","BOSTON","MA","United States","02116","Y",42,"Y","Y","N","N","Yes"
1982774,"DELOITTE AUDIT SARL","20, BOULEVARD DE KOCKELSCHEUER","","LUXEMBOURG","","Luxembourg","L-1821","Y",1287,"Y","Y","N","N","Yes"
1982697,"BRAD VAN HOUTEN","1517 E PALM VALLEY BLVD","","ROUND ROCK","TX","United States","78664","N",,"","N","N","Y","No"
1982774,"DELOITTE & TOUCHE LLP","1700 MARKET STREET","","PHILADELPHIA","PA","United States","19103","Y",34,"Y","Y","Y","N","Yes"
1982774,"DELOITTE & TOUCHE LLP","60 NEXUS WAY, 8TH FLOOR","CAMANA BAY, PO BOX 1787","GRAND CAYMAN","","Cayman Islands","KY1-1109","Y",1096,"Y","Y","N","N","Yes"
1982898,"PRICEWATERHOUSE COOPERS LLP","300 MADISON AVENUE","","NEW YORK","NY","United States","10017-6204","Y",238,"Y","N","Y","Y","Yes"
1980740,"IBARRA & ASSOCIATES","3604 GOLDEN TRIANGLE BLVD.","SUITE 432","KELLER","TX","United States","76244","N",,"N","N","Y","N",""
1982939,"HORNE","661 SUNNYBROOK ROAD","SUITE 100","RIDGELAND","MS","United States","39157","Y",171,"Y","Y","Y","N","Yes"
1975972,"ASHLAND PARTNERS & COMPANY, LLP","3512 EXCEL DR","STE 103","MEDFORD","OR","United States","97504","Y",3783,"N","N","Y","N",""
1975986,"PKF","2020 CAMINO DEL RIO NORTH","SUITE 500","SAN DIEGO","CA","United States","92108","Y",27,"Y","N","Y","N",""
1975573,"RICHEY, MAY & CO., LLP","9780 SOUTH MERIDIEN BOULEVARD","SUITE 500","ENGLEWOOD","CO","United States","80112","Y",673,"Y","Y","N","N","Not Yet Received"
1977968,"DELOITTE & TOUCHE LLP","555 W. 5TH STREET # 2700","","LOS ANGELES","CA","United States","90013","Y",34,"Y","N","Y","Y","Yes"
1978318,"PRICEWATERHOUSE COOPERS LLP","300 MADISON AVENUE","","NEW YORK","NY","United States","10017-6204","Y",238,"Y","N","Y","Y","Yes"
1978522,"KPMG, LLP","345 PARK AVENUE","","NEW YORK","NY","United States","10154","Y",185,"Y","Y","N","N","Yes"
1978522,"COHN REZNICK LLC","350 CHURCH STREET","12TH FLOOR","HARTFORD","CT","United States","06103","Y",596,"Y","Y","N","N","Yes"
1982954,"MCSOLEY MCCOY & CO.","118 TILLEY DRIVE","SUITE 202","SOUTH BURLINGTON","VT","United States","05403","Y",803,"Y","N","Y","N",""
1982973,"MOSS ADAMS, LLC","14555 DALLAS PARKWAY","SUITE 300","DALLAS","TX","United States","75254","Y",659,"Y","N","Y","Y","Yes"
1976688,"BERRY DUNN","51 SAWYER ROAD","SUITE 610","WALTHAM","MA","United States","02452","Y",136,"Y","N","Y","N",""
1977129,"FORVIS MAZARS, LLP","135 WEST 50TH STREET","","NEW YORK","NY","United States","10020","Y",686,"Y","N","Y","N",""
1977139,"RSM US LLP","200 ELM STREET","","STAMFORD","CT","United States","06902","Y",49,"Y","Y","N","N","Yes"
1978073,"GRANT THORNTON LLP","13-18 CITY QUAY","","DUBLIN","","Ireland","2","Y",1402,"Y","Y","N","N","Yes"
1976617,"DELOITTE IRELAND LLP","DELOITTE & TOUCHE HOUSE","29 EARLSFORT TERRACE","DUBLIN","","Ireland","D02 AY28","Y",1193,"Y","Y","N","N","Yes"
1977115,"KPMG LLP","777 DUNSMUIR STREET","","VANCOUVER","","Canada","V7Y 1K3","Y",85,"Y","Y","N","N","Yes"
1976076,"COHEN & COMPANY, LTD.","1350 EUCLID AVENUE","SUITE 800","CLEVELAND","OH","United States","44115","Y",925,"Y","Y","N","N","Yes"
1942097,"ASHLAND PARTNERS & COMPANY LLP","3512 EXCEL DRIVE","SUITE 103","MEDFORD","OR","United States","97504","Y",3783,"N","N","Y","N",""
1978744,"KPMG LLP","6565 AMERICAS PKWY","#700","ALBUQUERQUE","NM","United States","87110","Y",185,"Y","Y","N","N","Yes"
1978808,"NICHOLS, CAULEY & ASSOCIATES, LLC","3550 ENGINEERING DRIVE SUITE 250","","PEACHTREE CORNERS","GA","United States","30092","Y",281,"Y","N","Y","N",""
1977103,"KPMG LLP, CHARTERED ACCOUNTANTS","BAY ADELAIDE CENTRE, 333 BAY STREET","SUITE 4600","TORONTO","","Canada","M5H 2S5","Y",85,"Y","N","N","Y","Yes"
1977103,"ERNST & YOUNG LLP","100 ADELAIDE ST. WEST","","TORONTO, ONTARIO","","Canada","M5H 0B3","Y",1263,"Y","N","Y","Y","Yes"
1978413,"BDO CAYMAN LTD.","GOVERNORS SQUARE, 23 LIME TREE BAY AVENUE","2ND FLOOR, BUILDING 3","GEORGE TOWN","","Cayman Islands","KY1-1205","Y",2162,"Y","Y","Y","N","Yes"
1978586,"BERKOW, SCHECHTER & COMPANY LLP","350 BEDFORD STREET","","STAMFORD","CT","United States","06901","Y",4040,"N","N","Y","N",""
1978628,"FORVIS","2700 POST OAK BLVD","SUITE 1500","HOUSTON","TX","United States","77056","Y",686,"Y","N","Y","Y","Yes"
1978639,"PRICEWATERHOUSECOOPERS LLP","2001 MARKET STREET","SUITE 1800","PHILADELPHIA","PA","United States","19103-7042","Y",238,"Y","N","Y","Y","Yes"
1978641,"PRICEWATERHOUSECOOPERS LLP","2001 MARKET STREET","SUITE 1800","PHILADELPHIA","PA","United States","19103-7042","Y",238,"Y","N","Y","Y","Yes"
1976641,"WATKINS UIBERALL PLLC","1661 AARON BRENNER DR","","MEMPHIS","TN","United States","38120","Y",1738,"Y","Y","N","N","Not Yet Received"
1976641,"PLANTE MORAN","634 FRONT AVENUE","","GRAND RAPIDS","MI","United States","49504","Y",166,"Y","N","Y","N",""
1980365,"DELOITTE & TOUCHE LLP","555 W 5TH ST","SUITE 2700","LOS ANGELES","CA","United States","90013","Y",34,"Y","Y","N","N","Yes"
1980143,"ERNST & YOUNG","401 9TH AVENUE","","NEW YORK","NY","United States","10001","Y",42,"Y","Y","Y","N","Not Yet Received"
1985844,"WIPFLI LLP","125 SOUTH WACKER DRIVE","SUITE 1500","CHICAGO","IL","United States","60606","Y",344,"Y","N","Y","N",""
1985678,"KPMG LLP","345 PARK AVENUE","","NEW YORK","NY","United States","10154","Y",185,"Y","Y","N","N","Yes"
1985678,"COHEN & COMPANY, LTD.","1350 EUCLID AVENUE","SUITE 800","CLEVELAND","OH","United States","44115","Y",925,"Y","Y","N","N","Yes"
1985678,"RICHEY, MAY & CO., LLP","9780 S MERIDIAN BLVD","SUITE 500","ENGLEWOOD","CO","United States","80112","Y",673,"Y","Y","N","N","Yes"
1985709,"FUTURES ACCOUNTING AND COMPLIANCE","2182 GLADSTONE CT","UNIT D","GLENDALE HEIGHTS","IL","United States","60139","N",,"","Y","N","N","No"
1985731,"BERKOWER LLC","517 US-1 #4103","","ISELIN","NJ","United States","08830","Y",217,"Y","Y","N","N","Not Yet Received"
1949374,"UHY LLP","955 MT. HERMON ROAD","","SALISBURY","MD","United States","21804","Y",141,"Y","N","Y","N",""
1984330,"PRICEWATERHOUSECOOPERS LLP","300 MADISON AVENUE, 32ND FLOOR","","NEW YORK","NY","United States","10017","Y",238,"Y","Y","Y","N","Yes"
1982513,"BDO USA, P.C.","200 PARK AVENUE","","NEW YORK","NY","United States","10166","Y",243,"Y","Y","N","N","Yes"
1984348,"WOLF & COMPANY, P.C.","255 STATE STREET","","BOSTON","MA","United States","02109","Y",392,"Y","N","Y","N",""
1985940,"PRICEWATERHOUSECOOPERS LLP","2001 MARKET STREET","SUITE 1800","PHILADELPHIA","PA","United States","19103-7042","Y",238,"Y","N","Y","Y","Yes"
1986011,"FORVIS, LLP","910 E. ST. LOUIS","","SPRINGFIELD","MO","United States","65801-1190","Y",686,"Y","N","Y","Y","Yes"
1986011,"CALIBRE CPA GROUP PLLC","7501 WISCONSIN AVENUE #1200","","BETHESDA","MD","United States","20814","N",,"N","Y","N","N","Yes"
1986011,"DELOITTE AND TOUCHE LLP","7900 TYSONS ONE PLACE, SUITE 800","","MCLEAN","VA","United States","22102-4219","Y",34,"Y","Y","N","N","Yes"
1986011,"BAKER TILLY VIRCHOW KRAUSE","8219 LEESBURG PIKE, SUITE 800","","TYSONS","VA","United States","22182","Y",23,"Y","Y","N","N","Yes"
1977194,"UHY, LLP","7171 STADIUM DRIVE","","KALAMAZOO","MI","United States","49009-4943","Y",1195,"Y","N","Y","N",""
1977255,"LARRY D LIBERFARB CERTIFIED PUBLIC ACCOUNTANTS","11 VANDERBILT AVE","","NORWOOD","MA","United States","02062","Y",2560,"Y","N","Y","N",""
1975673,"ERNST & YOUNG LLP","5 TIMES SQUARE","","NEW YORK","NY","United States","10036","Y",42,"Y","Y","N","N","Yes"
1976491,"PRICEWATERHOUSECOOPERS LLP","ONE NORTH WACKER DRIVE","","CHICAGO","IL","United States","60606","Y",238,"Y","Y","N","N","Yes"
1978954,"MENGEL METZGER BARR & CO. LLP","100 CHESTNUT STREET","SUITE 1200","ROCHESTER","NY","United States","14504","Y",557,"Y","N","Y","N",""
1977157,"SNYDER COMPANY CPAS & TRUSTED ADVISORS","11200 ROCKVILLE PILE","SUITE 415","NORTH BETHESDA","MD","United States","20852","N",,"","N","Y","N",""
1978777,"PRICEWATERHOUSE COOPERS","601 S. FIGUEROA ST","9TH FLOOR","LOS ANGELES","CA","United States","90017","Y",238,"Y","Y","N","N","Yes"
1986052,"COHNREZNICK LLP","1221 BRICKELL AVENUE","","MIAMI","FL","United States","33131","Y",596,"Y","Y","Y","N","Yes"
1971019,"BAUER & COMPANY","P.O. BOX 27887","","AUSTIN","TX","United States","78755","Y",6072,"Y","Y","N","N","Yes"
1986209,"KPMG","55 2ND STREET","SUITE 1800","SAN FRANCISCO","CA","United States","94105","Y",395,"Y","Y","N","N","Yes"
1977842,"DELOITTE & TOUCHE LLP","110 MORRIS STREET","","MORRISTOWN","NJ","United States","07960","Y",34,"Y","Y","N","N","Yes"
1977842,"COHNREZNICK LLP","14 SYLVAN WAY","","PARSIPPANY","NJ","United States","07054","Y",596,"Y","Y","N","N","Yes"
1974981,"PRICEWATERHOUSECOOPERS","300 MADISON AVE","7 CHURCH STREET","NEW YORK","NY","United States","10017","Y",1403,"Y","Y","Y","N","Yes"
1974981,"KPMG","LODHA EXCELUS, APOLLO MILLS COMPOUND","","MUMBAI","","India","400011","Y",2115,"Y","N","N","Y","Yes"
1974981,"DELOITTE & TOUCHE","EARSFORT TERRACE","","DUBLIN","","Ireland","2","Y",1193,"Y","Y","Y","N","Yes"
1986356,"RW GROUP LLC","P.O. BOX 114","","LANDENBURG","PA","United States","19350","Y",5020,"Y","N","Y","N",""
1986177,"EDELSTEIN","160 FEDERAL STREET","9TH FLOOR","BOSTON","MA","United States","02110","Y",3376,"Y","N","Y","N",""
1986177,"KPMG LLP","222 CENTRAL PARK AVENUE","SUITE 1510","VIRGINIA BEACH","VA","United States","23462","Y",185,"Y","Y","N","N","Yes"
1986177,"KPMG LLP","SIX CRICKET SQUARE","282 SHEDDEN RD","GEORGE TOWN","","Cayman Islands","KY1-1106","Y",1323,"Y","Y","N","N","Yes"
1986177,"DELOITTE AND TOUCHE LLP","7900 TYSONS ONE PLACE","SUITE 800","MCLEAN","VA","United States","22102","Y",34,"Y","Y","N","N","Yes"
1986177,"DELOITTE AND TOUCHE LLP","60 NEXUS WAY","8TH FLOOR","CANAMA BAY, GRAND CAYMAN","","Cayman Islands","KY1-1109","Y",1096,"Y","Y","N","N","Yes"
1986177,"CHERRY BEKAERT LLP","222 CENTRAL PARK AVENUE","SUITE 1400","VIRGINIA BEACH","VA","United States","23462","Y",677,"Y","Y","N","N","Yes"
1986359,"WHITHUMSMITH + BROWN, PC","ONE TOWER CENTER BOULEVARD","14TH FLOOR","EAST BRUNSWICK","NJ","United States","08816","Y",100,"Y","Y","N","N","Yes"
1963402,"WALTER & SHUFFAIN, P. C.","ONE INTERNATIONAL PLACE","","BOSTON","MA","United States","02110","Y",5439,"N","N","Y","N",""
1982180,"DELOITTE","EARLSFORT TERRACE","","DUBLIN 2","","Ireland","","N",,"","Y","N","N","Yes"
1982180,"DELOITTE & TOUCHE","ONE CAPITAL PLACE","","GRAND CAYMAN","","Cayman Islands","KY1-1109","Y",1096,"Y","Y","N","N","Yes"
1982180,"DELOITTE AUDIT SOCIETE A RESPONSABILITE LIMITEE","560 RUE DE NEUDORF","","LUXEMBOURG","","Luxembourg","L-2220","Y",1287,"Y","Y","N","N","Yes"
1982350,"ASHLAND PARTNERS & COMPANY, LLP","3512 EXCEL DR","STE 103","MEDFORD","OR","United States","97504","Y",3783,"Y","N","Y","N",""
1982044,"ASSURANCE DIMENSIONS","4920 W CYPRESS ST","","TAMPA","FL","United States","33607","N",,"","N","Y","N",""
1982236,"BAKER TILLY VIRCHOW KRAUSE, LLP","225 SOUTH SIXTH STREET","SUITE 2300","MINNEAPOLIS","MN","United States","55402","Y",23,"Y","N","Y","N",""
1979838,"BAKER NEWMAN & NOYES","280 FORE STREET","","PORTLAND","ME","United States","04101","Y",231,"Y","Y","Y","N","Not Yet Received"
1981340,"BAUER AND COMPANY LLC","P.O. BOX 27887","","AUSTIN","TX","United States","78755","Y",6072,"Y","N","Y","N",""
1983415,"KATZ SAPPER & MILLER","800 E. 96TH STREET","SUITE 500","INDIANAPOLIS","IN","United States","46240","Y",2804,"Y","Y","N","N","Yes"
1981230,"DEMETRIUS BERKOWER LLC","155 WAYNE US RTE 46","","WAYNE","NJ","United States","07470","Y",5961,"Y","Y","N","Y","No"
1982536,"LILLING & CO.","TWO SEAVIEW BLVD","","PORT WASHINGTON","NY","United States","11050","Y",3480,"Y","Y","N","N","No"
1981243,"KPMG LLP","2323 ROSS AVENUE","SUITE 1400","DALLAS","TX","United States","75201","Y",185,"Y","Y","N","N","Not Yet Received"
1981070,"MAZARS LUXEMBOURG","RUE GUILLAUME KROLL 51882","","LUXEMBOURG","","Luxembourg","","Y",6694,"Y","Y","N","N","Yes"
1981204,"GRANT THORNTON LLP","1301 INTERNATIONAL PKWY","SUITE 200","FORT LAUDERDALE","FL","United States","33323","Y",248,"Y","Y","N","N","Not Yet Received"
1981204,"WITHUMSMITH+BROWN, PC","506 CARNEGIE CENTER","SUITE 400","PRINCETON","NJ","United States","08540","Y",100,"Y","Y","N","N","Not Yet Received"
1979490,"PKF O'CONNOR DAVIES LLP","245 PARK AVENUE","","NEW YORK","NY","United States","10167","Y",127,"Y","N","Y","N",""
1980104,"PRICEWATERHOUSECOOPERS, LLP","6 CARDINAL WAY","SUITE 1100","ST. LOUIS","MO","United States","63102","Y",238,"Y","N","Y","Y","Yes"
1961505,"MYRON YANG CPA & ASSOCIATES, PLLC","38-08 UNION ST., #2A","","FLUSHING","NY","United States","11354","Y",6893,"Y","Y","N","N","Yes"
1977722,"KPMG LLP","345 PARK AVENUE","","NEW YORK","NY","United States","10154","Y",185,"Y","N","N","Y","Yes"
1977722,"KPMG LLP","BNY MELLON CENTER","500 GRANT STREET","PITTSBURGH","PA","United States","15219","Y",185,"Y","N","N","Y","Yes"
1978320,"BAUER AND COMPANY LLC","P.O. BOX 27887","","AUSTIN","TX","United States","78755","Y",6072,"Y","N","Y","N",""
1956027,"PRICEWATERHOUSE COOPERS LLP","300 MADISON AVENUE","","NEW YORK","NY","United States","10017","Y",238,"Y","N","Y","Y","Not Yet Received"
1978404,"MICHAEL COGLIANESE CPA, P.C.","1215 EAST LAKE STREET","SUITE 303","BLOOMINGTON","IL","United States","60108","Y",3874,"Y","Y","N","N","Yes"
1978330,"COHEN & COMPANY, LTD.","1350 EUCLID AVENUE","SUITE 800","CLEVELAND","OH","United States","44115","Y",925,"Y","N","Y","N",""
1978482,"PRICEWATERHOUSECOOPERS LLP","101 SEAPORT BOULEVARD","","BOSTON","MA","United States","02210","Y",238,"Y","Y","Y","Y","Yes"
1978547,"GRAY, GRAY & GRAY","150 ROYALL STREET","","CANTON","MA","United States","02021","Y",889,"Y","N","Y","N",""
1983116,"BAKER NEWMAN & NOYES","280 FORE STREET","","PORTLAND","ME","United States","04101","Y",231,"Y","Y","Y","N","Not Yet Received"
1983141,"COHEN AND COMPANY, LTD.","1350 EUCLID AVE.","SUITE 800","CLEVELAND","OH","United States","44115","Y",925,"Y","Y","Y","N","Yes"
1979711,"WOLF & COMPANY, P.C.","255 STATE STREET","","BOSTON","MA","United States","02109","Y",392,"Y","N","Y","N",""
1981400,"WOLF & COMPANY, P.C.","255 STATE STREET","","BOSTON","MA","United States","02109","Y",392,"Y","N","Y","N",""
1976637,"ASHLAND PARTNERS & COMPANY LLP","3512 EXCEL DR","SUITE 103","MEDFORD","OR","United States","97504","Y",3783,"Y","N","Y","N",""
1984308,"BAKER TILLY US LLP","8219 LEESBURG PIKE","SUITE 800","TYSONS","VA","United States","22182-2625","Y",23,"Y","N","Y","N",""
1983579,"ASHLAND PARTNERS & COMPANY, LLP","3512 EXCEL DRIVE","SUITE 103","MEDFORD","OR","United States","97504","Y",3783,"Y","N","Y","N",""
1984510,"KAUFMAN, ROSSIN & CO., P.A.","3310 MARY STREET","SUITE 501","MIAMI","FL","United States","33133","Y",137,"Y","N","Y","N",""
1944351,"FORVIS, LLP","191 PEACHTREE STREET, NE","SUITE 2700","ATLANTA","GA","United States","30303","Y",686,"Y","Y","Y","N","Yes"
1976540,"EISNER AMPER LLP","733 3RD AVENUE","","NEW YORK","NY","United States","10017","Y",274,"Y","Y","N","N","Yes"
1976572,"ERNST & YOUNG, LLP","1828 WALNUT STREET","SUITE 04-100","KANSAS CITY","MO","United States","64108","Y",42,"Y","N","Y","Y","Yes"
1976749,"ERNST & YOUNG LLP","900 UNITED CENTER","500 VIRGINIA STREET, EAST","CHARLESTON","WV","United States","25301","Y",42,"Y","N","N","N",""
1976753,"PRICEWATERHOUSECOOPERS LLP","TWO COMMERCE SQUARE, SUITE 1800","2001 MARKET STREET","PHILADELPHIA","PA","United States","19103","Y",238,"Y","N","Y","Y","Yes"
1984876,"PRICEWATERHOUSE COOPERS LP","300 MADISON AVENUE","","NEW YORK","NY","United States","10017","Y",238,"Y","Y","N","N","Not Yet Received"
1984889,"COHEN & CO.","201 INTERNATIONAL CIR.","SUITE 400","BALTIMORE","MD","United States","21030","Y",925,"Y","Y","N","N","Yes"
1984889,"DELOITTE & TOUCHE LLP","555 MISSION ST","1400","SAN FRANCISCO","CA","United States","94105","Y",34,"Y","Y","N","N","Yes"
1984889,"NAVOLIO & TALLMAN LLP","2121 N. CALIFORNIA BLVD","SUITE 610","WALNUT CREEK","CA","United States","94596","Y",5442,"Y","Y","N","N","Not Yet Received"
1985080,"ERNST & YOUNG LTD","62 FORUM LANE","","CAMANA BAY","","Cayman Islands","KY1-1106","Y",1655,"Y","Y","N","N","Yes"
1985080,"KPMG LLP","345 PARK AVENUE","","NEW YORK","NY","United States","10154","Y",185,"Y","Y","N","N","Yes"
1976835,"PRICEWATERHOUSECOOPERS LLP (PWC)","601 SOUTH FIGUEROA STREET","SUITE 900","LOS ANGELES","CA","United States","90071","Y",238,"Y","Y","N","N","Yes"
1976835,"EISNERAMPER LLP","ONE CALIFORNIA STREET","SUITE 1700","SAN FRANCISCO","CA","United States","94111","Y",274,"Y","Y","N","N","Yes"
1976838,"ANDERS MINKLER HUBER & HELM LLP","800 MARKET STREET, SUITE 500","","ST. LOUIS","MO","United States","63101","Y",2100,"Y","Y","Y","N","Yes"
1983340,"PRICEWATERHOUSECOOPERS LLP","PRICEWATERHOUSECOOPERS CENTER","300 MADISON AVENUE","NEW YORK","NY","United States","10017","Y",238,"Y","N","Y","Y","No"
1980178,"KAUFMAN ROSSIN","3310 MARY STREET","SUITE 501","MIAMI","FL","United States","33131","Y",137,"Y","N","Y","N",""
1983431,"KPMG LLP","200 E RANDOLPH ST","SUITE 5500","CHICAGO","IL","United States","60601","Y",185,"Y","Y","N","N","Yes"
1983390,"GRANT THORNTON LLP","171 NORTH CLARK STREET","SUITE 200","CHICAGO","IL","United States","60601","Y",248,"Y","Y","N","N","Yes"
1983593,"PRICEWATERHOUSECOOPERS LLP","300 MADISON AVENUE","","NEW YORK","NY","United States","10017-6204","Y",238,"Y","Y","N","N","Yes"
1982554,"PRICEWATERHOUSECOOPERS JAPAN LLC","1-1-1","OTEMACHI, CHIYODA-KU","TOKYO","","Japan","100-0004","Y",2743,"Y","Y","N","N","No"
1982554,"ERNST & YOUNG SHINNIHON LLC","1-1-2","YURAKU-CHO, CHIYODA-KU","TOKYO","","Japan","100-0006","Y",789,"Y","N","N","Y","No"
1985384,"DELOITTE AG","38 GENERAL-GUISAN-QUAI","","ZURICH","","Switzerland","8022","Y",500420,"Y","N","Y","Y","Yes"
1984974,"KPMG LLP","PO BOX 493","","345 PARK AVENUE","NY","United States","10154","Y",185,"Y","Y","N","N","Not Yet Received"
1976422,"MAZARS USA LLP","135 WEST 50TH STREET","","NEW YORK","NY","United States","10020","Y",339,"Y","N","Y","N",""
1985508,"BAKER TILLY","2500 DALLAS PARKWAY","SUITE300","PLANO","TX","United States","75093","Y",23,"Y","N","Y","N",""
1984549,"UHY LLP","4 TOWER PLACE, EXECUTIVE PARK","7TH FLOOR","ALBANY","NY","United States","12203","Y",1195,"Y","N","Y","N",""
1983426,"KAUFMAN, ROSSIN & CO., P.A.","3310 MARY STREET","SUITE 501","MIAMI","FL","United States","33133","Y",137,"Y","N","Y","N",""
1985615,"FORVIS","2700 POST OAK BLVD","SUITE 1500","HOUSTON","TX","United States","77056","Y",686,"Y","N","Y","Y","Yes"
1983964,"KPMG LLP","02 GODREJ BUSINESS DISTRICT, FIRST FLOOR BLOCK A","PIROJSHANAGAR, VIKHROLI - WEST","MUMBAI","","India","400 079","Y",185,"Y","N","N","Y","Not Yet Received"
1985998,"WATKINS UIBERALL, PLLC","1661 AARON BRENNER DRIVE","STE 300","MEMPHIS","TN","United States","38120","Y",1738,"Y","N","Y","N",""
1986035,"ASHLAND PARTNERS AND COMPANY LLP","3512 EXCEL DRIVE","SUITE 103","MEDFORD","OR","United States","97504","Y",3783,"Y","N","Y","N",""
1986139,"EISNERAMPER","733 THIRD AVENUE","","NEW YORK","NY","United States","10017","Y",274,"Y","N","Y","N",""
1986114,"EISNERAMPER LLP","733 THIRD AVENUE","","NEW YORK","NY","United States","10017","Y",274,"Y","Y","N","N","Yes"
1986216,"LILLING & COMPANY LLP","TWO SEAVIEW BOULEVARD","","PORT WASHINGTON","NY","United States","11050","Y",3480,"Y","N","Y","Y","Not Yet Received"
1974812,"KPMG LLC","55 2ND STREET","","SAN FRANSISCO","CA","United States","94105","Y",185,"Y","Y","N","N","Not Yet Received"
1985854,"ERNST & YOUNG","3900 ONE SHELL SQUARE","701 POYDRAS STREET","NEW ORLEANS","LA","United States","70139","Y",42,"Y","Y","N","N","Not Yet Received"
1985854,"COHN REZNICK LLP","1301 6TH AVENUE","","NEW YORK","NY","United States","10019","Y",596,"Y","Y","N","N","Not Yet Received"
1985854,"NOVOGRADAC & COMPANY","3025 NORTH WOOSTER AVENUE","","DOVER","OH","United States","44622","Y",474,"Y","Y","N","N","Not Yet Received"
1975436,"KPMG LLP","201 MAIN STREET","SUITE 2200","FORT WORTH","TX","United States","76102","Y",185,"Y","Y","Y","N","Yes"
1984865,"DEMARCO SCIACCOTTA WILKENS & DUNLEAVY","20646 ABBEY WOODS CT. N","SUITE 201","FRANKFORT","IL","United States","60423","Y",5376,"Y","N","Y","N",""
1986385,"ERNST & YOUNG LLP","5 TIMES SQUARE","","NEW YORK","NY","United States","10036","Y",42,"Y","Y","N","N","Yes"
1984727,"DELOITTE & TOUCHE LLP","30 ROCKEFELLER PLAZA","","NEW YORK","NY","United States","10112","Y",34,"Y","Y","N","N","Yes"
1977449,"PRICEWATERHOUSECOOPERS","300 MADISON AVENUE","","NEW YORK","NY","United States","10017","Y",238,"Y","Y","N","N","Yes"
1985170,"ERNST WINTTER & ASSOCIATES LLP","675 YGNACIO VALLEY ROAD","SUITE A200","WALNUT CREEK","CA","United States","94596","Y",3438,"Y","N","Y","N",""
1986402,"ERNST & YOUNG LLP","725 S FIGUEROA 500","","LOS ANGELES","CA","United States","90017-5945","Y",42,"Y","Y","N","N","Yes"
1984925,"COHEN & COMPANY","201 INTERNATIONAL CIRCLE, SUITE 400","","HUNT VALLEY","MD","United States","21030","Y",925,"Y","N","Y","N",""
1984869,"ERNST & YOUNG","220 SOUTH SIXTH ST","SUITE 1400","MINNEAPOLIS","MN","United States","55402","Y",42,"Y","Y","N","N","Not Yet Received"
1967751,"MCM CPAS & ADVISORS","2600 MEIDINGER TOWER","462 S 4TH STREET","LOUISVILLE","KY","United States","40202","Y",2276,"Y","N","Y","N",""
1984904,"ANCHIN BLOCK & ANCHIN LLP","3 TIMES SQUARE","","NEW YORK","NY","United States","10036","Y",168,"Y","Y","Y","N","Yes"
1973692,"RSM US LLP","30 S. WACKER DRIVE","UNIT 330","CHICAGO","IL","United States","60606","Y",104,"Y","Y","N","N","Not Yet Received"
1981525,"EISNERAMPER","750 3RD AVENUE","","NEW YORK","NY","United States","10017","Y",274,"Y","Y","Y","N","Not Yet Received"
1985010,"ERNST & YOUNG LLP","2005 MARKET ST","#700","PHILADELPHIA","PA","United States","19103","Y",42,"Y","Y","N","N","Yes"
1985010,"CBIZ CPAS P.C.","9 PARKWAY N","SUITE 200","DEERFIELD","IL","United States","60015","Y",199,"Y","Y","Y","N","Yes"
1976211,"WEAVER AND TIDWELL LLP","2821 W SEVENTH ST","STE 700","FORT WORTH","TX","United States","76107","Y",410,"Y","N","Y","N",""
1976109,"ERNST AND YOUNG, LLP","ONE COMMERCE SQUARE, SUITE 700","2005 MARKET STREET","PHILADELPHIA","PA","United States","19103","Y",42,"Y","N","Y","N",""
1976157,"GRANT THORNTON LLP","757 THIRD AVENUE","9TH FLOOR","NEW YORK","NY","United States","10017","Y",248,"Y","Y","N","N","Yes"
1976157,"PRICEWATERHOUSECOOPERS, LLP","300 MADISON AVE","","NEW YORK","NY","United States","10017-6204","Y",238,"Y","Y","N","N","Yes"
1977884,"RICHEY MAY & CO LLP","9605 S. KINGSTON CT, SUITE 200","","ENGLEWOOD","CO","United States","80112","Y",673,"Y","Y","N","N","Yes"
1976186,"KPMG LLP","10 SOUTH BROADWAY","SUITE 900","SAINT LOUIS","MO","United States","63102-1736","Y",185,"Y","N","Y","Y","Yes"
1968612,"MOUNTJOY CHILTON MEDLEY LLP","201 EAST FIFTH STREET","SUITE 2100","CINCINNATI","OH","United States","45202","Y",2276,"Y","N","Y","N",""
1954143,"ASSURANCE DIMENSIONS","4920 W CYPRESS ST #102","","TAMPA","FL","United States","33607","N",,"","N","Y","N",""
1979554,"MENGEL METZGER BARR & CO. LLP","100 CHESTNUT STREET","SUITE 1200","ROCHESTER","NY","United States","14504","Y",557,"Y","N","Y","N",""
1980446,"FISCHERCUNNANE CERTIFIED PUBLIC ACCOUNTANTS & CONSULTANTS","11 TURNER LANE","","WEST CHESTER","PA","United States","19380","Y",1940,"Y","N","Y","N",""
1978724,"DELOITTE & TOUCHE LLP","30 ROCKEFELLER PLAZA","","NEW YORK","NY","United States","10112","Y",34,"Y","Y","N","N","Yes"
1978839,"ELLIOTT DAVIS, LLC","629 MARKET STREET, SUITE 100","","CHATTANOOGA","TN","United States","37402","Y",149,"Y","N","Y","N",""
1978839,"MARGOLIN, WINER & EVENS LLP","ONE PENN PLAZA","SUITE 3000","NEW YORK","NY","United States","10119","Y",332,"Y","Y","N","N","Yes"
1978849,"MAGGART CPAS & ADVISORS","1201 DEMONBREUN STREET","SUITE 1220","NASHVILLE","TN","United States","37203","Y",763,"Y","N","Y","N",""
1964507,"KPMG LLP","345 PARK AVE","","NEW YORK","NY","United States","10154-0102","Y",85,"Y","Y","Y","N","Yes"
1978921,"WITHUMSMITH+BROWN, PC","SEAPORT WEST","155 SEAPORT BOULEVARD, FLOOR 3","BOSTON","MA","United States","02210","Y",100,"Y","N","Y","N",""
1978987,"ASHLAND PARTNERS & COMPANY LLP","3512 EXCEL DR.","SUITE 103","MEDFORD","OR","United States","97504","Y",3783,"Y","N","Y","N",""
1979761,"ASHLAND PARTNERS & COMPANY LLP","3512 EXCEL DRIVE","STE 103","MEDFORD","OR","United States","97504","Y",3783,"N","N","Y","N",""
1979917,"EIDE BAILEY LLC","601 W RIVERSIDE SUITE 1800","","SPOKANE","WA","United States","99201","Y",659,"Y","N","Y","Y","No"
1976413,"BDO USA","1801 MARKET STREET","SUITE 1200","PHILADELPHIA","PA","United States","19103","Y",243,"Y","Y","N","N","Yes"
1979051,"MOSS ADAMS LLP","999 3RD AVENUE #2800","","SEATTLE","WA","United States","98104","Y",659,"Y","N","Y","N",""
1979051,"REKDAL HOPKINS HOWARD, PS","2275 116TH AVE NE","STE 100","BELLEVUE","WA","United States","98004","Y",5996,"Y","Y","N","N","Not Yet Received"
1979178,"KPMG LLP","100 NORTH TAMPA STREET","#1700","TAMPA","FL","United States","33602-5145","Y",185,"Y","N","Y","Y","Yes"
1979183,"BDO USA PC","330 N WABASH AVE STE 3200","","CHICAGO","IL","United States","60611","Y",243,"Y","Y","Y","N","Yes"
1979183,"BDO CAYMAN LTD","BLDG 3 GOVERNORS SQUARE","23 LIME TREE BAY AVENUE","GRAND CAYMAN","","Cayman Islands","KY1-1205","Y",2162,"Y","Y","N","N","Yes"
1979171,"COHEN & COMPANY, LTD.","1350 EUCLID AVENUE","SUITE 800","CLEVELAND","OH","United States","44115","Y",925,"Y","N","Y","N",""
1980676,"FRAZIER AND DEETER","401 E JACKSON ST, SUITE 2425","","TAMPA","FL","United States","33602","Y",215,"Y","Y","N","N","Yes"
1980898,"DELOITTE & TOUCHE LLP","30 ROCKEFELLER PLAZA","","NEW YORK","NY","United States","10112-0015","Y",34,"Y","Y","Y","Y","Yes"
1978891,"SUMMIT LLC","999 18TH STREET","SUITE 3000","DENVER","CO","United States","80202","Y",5251,"Y","Y","Y","N","Not Yet Received"
1978891,"SPICER JEFFRIES LLP","4601 DTC BLVD STE 700","","DENVER","CO","United States","80237","Y",349,"Y","Y","Y","N","Not Yet Received"
1979324,"LALLY & CO., LLC.","5700 CORPORATE DRIVE","SUITE 800","PITTSBURGH","PA","United States","15237","Y",3578,"Y","N","Y","N",""
1979406,"ASSURANCE DIMENSIONS","4920 W. CYPRESS STREET,","SUITE 102","TAMPA","FL","United States","33607","Y",5036,"Y","N","Y","N",""
1979406,"PRESTI & NAEGELE LLC","350 BEDFORD ST.","#303","STAMFORD","CT","United States","06901","N",,"","Y","N","N","Yes"
1973538,"SELIGSON AND GIANNATTASIO","723 N BROADWAY","","WHITE PLAINS","NY","United States","10603","Y",759,"Y","Y","N","N","Yes"
1971469,"KPMG, LLP","345 PARK AVENUE","","NEW YORK","NY","United States","10154","Y",185,"Y","Y","N","N","Yes"
1971469,"COHN REZNICK LLC","350 CHURCH STREET","12TH FLOOR","HARTFORD","CT","United States","06103","Y",596,"Y","Y","N","N","Yes"
1969737,"TBASS & ASSOCIATES, LLC","5121 CASTELLO DRIVE","SUITE 1","NAPLES","FL","United States","34103","Y",5870,"Y","N","Y","N",""
1973627,"ASHLAND PARTNERS & COMPANY LLP","3512 EXCEL DR, STE 103","","MEDFORD","OR","United States","97504","Y",3783,"N","N","Y","N",""
1975006,"PLANTE & MORAN, PLLC","10 SOUTH RIVERSIDE PLAZA","9TH FLOOR","CHICAGO","IL","United States","60606","Y",166,"Y","N","Y","N",""
1975063,"WHITLEYPENN","8343 DOUGLAS AVENUE","SUITE 400","DALLAS","TX","United States","75225","Y",49,"Y","Y","Y","Y","Yes"
1964941,"PLANTE MORAN","1445 MARKET STREET","SUITE 300","DENVER","CO","United States","80202","Y",166,"Y","Y","N","N","Not Yet Received"
1975126,"PRICEWATERHOUSECOOPERS LLP","2001 MARKET STREET","SUITE 1800","PHILADELPHIA","PA","United States","19103-7042","Y",238,"Y","N","Y","Y","Yes"
1973743,"PRICEWATERHOUSECOOPERS LLP","300 MADISON AVENUE","","NEW YORK","NY","United States","10017","Y",238,"Y","Y","N","N","Yes"
1975157,"D. BROOKS AND ASSOCIATES CPA'S, P.A.","4440 PGA BLVD, SUITE 104","","PALM BEACH GARDENS","FL","United States","33410","Y",4048,"Y","N","Y","N",""
1974002,"UHY","27725 STANSBURY BLVD","SUITE 200","FARMINGTON HILLS","MI","United States","48334","Y",1195,"Y","Y","N","N","Yes"
1974002,"RICHEY MAY","780 S MERIDIAN BLVD","SUITE 500","ENGLEWOOD","CO","United States","80112","Y",673,"Y","Y","N","N","Not Yet Received"
1965755,"BODWELL VASEK WELLS DESIMONE LLP","8117 PRESTON RD","UNIT 460","DALLAS","TX","United States","75225","Y",7004,"Y","N","Y","Y","No"
1975193,"BPM LLP","1 CALIFORNIA STREET","#2500","SAN FRANCISCO","CA","United States","94111","Y",207,"Y","N","Y","N",""
1977355,"PRICEWATERHOUSECOOPERS LLP","1 NORTH UPPER WACKER DRIVE","","CHICAGO","IL","United States","60606","Y",238,"Y","Y","N","N","Yes"
1977320,"BAKER NEWMAN & NOYES, LLC","280 FORE STREET","","PORTLAND","ME","United States","04101","Y",231,"Y","N","Y","N",""
1977320,"EISNERAMPER LLC","733 THIRD AVENUE","","NEW YORK","NY","United States","10017","Y",274,"Y","Y","N","N","Yes"
1976355,"HOLT & PATTERSON","260 CHESTERFIELD INDUSTRIAL BLVD.","","CHESTERFIELD","MO","United States","63005","Y",3372,"Y","N","Y","N",""
1977553,"LARRY D LIBERFARB CERTIFIED PUBLIC ACCOUNTANTS","11 VANDERBILT AVE","","NORWOOD","MA","United States","02062","Y",2560,"Y","N","Y","N",""
1977564,"KPMG, LLP","1601 MARKET ST.","","PHILADELPHIA","PA","United States","19103-2499","Y",185,"Y","Y","N","N","Yes"
1977564,"COHNREZNICK, LLP","3560 LENOX ROAD NE","NUMBER 2900","ATLANTA","GA","United States","30326","Y",596,"Y","Y","N","N","Yes"
1977625,"ERNST & YOUNG LLP","HARCOURT STREET","","DUBLIN 2","","Ireland","","Y",42,"Y","Y","N","N","Yes"
1977625,"KPMG CHANNEL ISLANDS LIMITED","GLATEGNY COURT","GLATENGNY ESPLANADE","ST. PETER PORT","","Guernsey","GY1 1WR","N",,"","Y","N","N","Yes"
1977625,"KPMG LLP","345 PARK AVENUE","","NEW YORK","NY","United States","10154","Y",185,"Y","Y","N","N","Yes"
1975280,"ELLIOTT DAVIS","629 MARKET STREET","SUITE 100","CHATTANOOGA","TN","United States","37402","Y",149,"Y","N","Y","N",""
1975352,"ASHLAND PARTNERS & COMPANY, LLP","3512 EXCEL DRIVE","SUITE 103","MEDFORD","OR","United States","97504","Y",3783,"Y","N","Y","N",""
1972577,"RANDALL SANSOM CPA","87 BAYBRIDGE DR","","GULF BREEZE","FL","United States","32561","N",,"","N","Y","Y","Not Yet Received"
1978053,"COHEN & COMPANY, LTD.","201 INTERNATIONAL CIRCLE","","HUNT VALLEY","MD","United States","21030","Y",925,"Y","Y","N","N","Yes"
1979248,"SPICER JEFFRIES LLP","5251 S. QUEBEC STREET,","SUITE 200","GREENWOOD VILLAGE","CO","United States","80111","Y",349,"Y","Y","N","N","Yes"
1979310,"BAKER TILLY VIRCHOW KRAUSE, LLP","225 S SIXTH STREET","SUITE 2300","MINNEAPOLIS","MN","United States","55402-4661","N",,"","N","Y","N",""
1976282,"PKF O'CONNOR DAVIES LLP","245 PARK AVENUE","","NEW YORK","NY","United States","10167","Y",127,"Y","N","Y","N",""
1975534,"PRICEWATERHOUSECOOPERS","ONE INTERNATIONAL TOWERS SYDNEY","WATERMANS QUAY, BARANGAROO","SYDNEY","","Australia","2001","N",,"","Y","N","N","Not Yet Received"
1974910,"COHEN & COMPANY, LTD.","1350 EUCLID AVE","SUITE 800","CLEVELAND","OH","United States","44115","Y",925,"Y","Y","N","N","Yes"
1974910,"PLANTE & MORAN, PLLC","10 SOUTH RIVERSIDE PLAZA","9TH FLOOR","CHICAGO","IL","United States","60606","Y",166,"Y","N","Y","N",""
1974910,"BAKER TILLY US, LLP","205 N MICHIGAN AVE","STE 2800","CHICAGO","IL","United States","60601","Y",23,"Y","Y","N","N","Yes"
1974910,"BLUE & CO., LLC","12800 N. MERIDIAN STREET","SUITE 400","CARMEL","IN","United States","46032","Y",1117,"Y","Y","N","N","Yes"
1975569,"KPMG LLP","550 SOUTH HOPE STREET","SUITE 1500","LOS ANGELES","CA","United States","90071","Y",185,"Y","N","Y","N",""
1962054,"RSM PUERTO RICO","1000 CALLE SAN ROBERTO","","SAN JUAN","PR","United States","00926","Y",2025,"Y","Y","N","N","Yes"
1975551,"NOVOGRADAC & COMPANY LLP","1160 BATTERY ST","E BUILDING","SAN FRANCISCO","CA","United States","94111","Y",474,"Y","Y","N","N","Yes"
1978470,"PRICEWATERHOUSECOOPERS LLP","4100 CORPORATE CENTER DRIVE","SUITE 400","SPRINGDALE","AR","United States","72762","Y",238,"Y","N","Y","N",""
1944298,"EISNERAMPER LLP","733 THIRD AVENUE","","NEW YORK","NY","United States","10017-2703","Y",274,"Y","N","Y","N",""
1944298,"EISNERAMPER LLP","733 THIRD AVENUE","","NEW YORK","NY","United States","10017-2703","Y",274,"Y","Y","N","N","Yes"
1979337,"ELLIOTT DAVIS, LLC","629 MARKET STREET, SUITE 100","","CHATTANOOGA","TN","United States","37402","Y",149,"Y","N","Y","N",""
1979337,"MARGOLIN, WINER & EVENS LLP","ONE PENN PLAZA","SUITE 3000","NEW YORK","NY","United States","10119","Y",332,"Y","Y","N","N","Yes"
1979471,"ERNST & YOUNG LLP","14O1 MCKINNEY ST.","SUITE 2400","HOUSTON","TX","United States","77010","Y",1000,"Y","N","Y","N",""
1983689,"PRICEWATERHOUSECOOPERS CAYMAN ISLANDS","5TH FLOOR STRATHVALE HOUSE","P.O. BOX 258","GRAND CAYMAN","","Cayman Islands","","Y",1266,"Y","Y","N","N","Yes"
1983689,"PRICEWATERHOUSECOOPERS LLP","18 YORK STREET","SUITE 2600","TORONTO","","Canada","","Y",271,"Y","Y","N","N","Yes"
1978316,"GRANT THORTON LLP","201 S COLLEGE ST STE 2500","","CHARLOTTE","NC","United States","28244","Y",248,"Y","Y","Y","N","Yes"
1978079,"KPMG LLP","21700 OXNARD STREET","SUITE 1200","WOODLAND HILLS","CA","United States","91367","Y",185,"Y","Y","N","N","Yes"
1978079,"ERNST & YOUNG","1201 ELM ST.","","DALLAS","UT","United States","75270","Y",42,"Y","Y","N","N","Yes"
1978079,"DELOITTE LLP","30 ROCKEFELLER PLAZA","","NEW YORK","NY","United States","10112","Y",34,"Y","Y","Y","N","Yes"
1978410,"EMERICK & COMPANY, P.C.","4520 MADISON AVE","SUITE G","KANSAS CITY","MO","United States","64111","Y",5152,"Y","N","Y","N",""
1978184,"WOLF & COMPANY, P.C.","99 HIGH STREET","","BOSTON","MA","United States","02110","Y",392,"Y","N","Y","N",""
1977893,"PRICEWATERCOOPERS LLC","300 MADISON AVENUE","","NEW YORK","NY","United States","10017","Y",238,"Y","Y","Y","Y","Yes"
1978462,"PRICEWATERHOUSECOOPERS LLP","101 SEAPORT BOULEVARD","","BOSTON","MA","United States","02210","Y",238,"Y","Y","N","Y","Yes"
1978472,"PRICEWATERHOUSECOOPERS LLP","101 SEAPORT BLVD","SUITE 500","BOSTON","MA","United States","02110","Y",238,"Y","N","Y","Y","Yes"
1978455,"KPMG, LLP","345 PARK AVENUE","","NEW YORK","NY","United States","10154","Y",185,"Y","Y","N","N","Yes"
1978455,"COHN REZNICK LLC","350 CHURCH STREET","12TH FLOOR","HARTFORD","CT","United States","06103","Y",596,"Y","Y","N","N","Yes"
1978490,"PRICEWATERHOUSECOOPERS LLP","101 SEAPORT BOULEVARD","","BOSTON","MA","United States","02210","Y",238,"Y","Y","N","Y","Yes"
1978490,"BELFINT LYONS & SHUMAN","1011 CENTRE ROAD","SUITE 310","WILMINGTON","DE","United States","19805","N",,"","Y","N","Y","Yes"
1978506,"KATZ ABOSCH, P.A.","9690 DEERECO RD.","SUITE 500","TIMONIUM","MD","United States","21093","N",,"","N","Y","N",""
1978526,"RICHEY MAY & CO","9780 S MERIDIAN BLVD","SUITE 500","ENGLEWOOD","CO","United States","80112","Y",673,"Y","N","Y","N",""
1982626,"STOUT, CAUSEY & HORNING","910 RIDGEBROOK ROAD","","SPARKS","MD","United States","21152","Y",2297,"Y","Y","N","N","Yes"
1982626,"SUMMIT LLC","999 18TH STREET SUITE 3000","","DENVER","CO","United States","80202","Y",5251,"Y","Y","N","N","No"
1982714,"DELOITTE & TOUCHE LLP","30 ROCKEFELLER PLAZA","","NEW YORK","NY","United States","10112","Y",34,"Y","Y","N","N","Yes"
1981957,"HILL, BARTH & KING LLC","100 PINEWOOD LANE","SUITE 201","WARRENDALE","PA","United States","15086","Y",2206,"Y","N","Y","N",""
1982765,"PRICEWATERHOUSECOOPERS LLP","125 HIGH STREET","","BOSTON","MA","United States","02110","Y",238,"Y","Y","Y","N","Yes"
1982762,"WEAVER AND TIDWELL, L.L.P.","ONE EMBARCADERO CENTER, SUITE 2410","","HOUSTON","TX","United States","94111","Y",410,"Y","Y","N","N","Not Yet Received"
1982782,"SOMERSET CPAS AND ADVISORS","3925 RIVER CROSSING PARKWAY","SUITE 100","INDIANAPOLIS","IN","United States","46240","Y",752,"Y","N","Y","N",""
1982782,"MICHAEL COGLIANESE, CPA PC","125 E LAKE STREET, STE 303","","BLOOMINGTON","IL","United States","60108","Y",3874,"Y","Y","N","N","Yes"
1982854,"ASHLAND PARTNERS & COMPANY LLP","3512 EXCEL DRIVE","SUITE 103","MEDFORD","OR","United States","97504","Y",3783,"N","N","Y","N",""
1982854,"RSM","80 CITY SQUARE","","BOSTON","MA","United States","02129","Y",49,"Y","Y","N","N","Yes"
1982930,"ERNST WINTTER & ASSOCIATES LLP","675 YGNACIO VALLEY ROAD","SUITE A200","WALNUT CREEK","CA","United States","94596","Y",3438,"Y","N","Y","N",""
1983821,"WIPFLI","2501 WEST BELTLINE HIGHWAY","SUITE 401","MADISON","WI","United States","53713","Y",344,"Y","N","Y","N",""
1983864,"PRICEWATERHOUSE COOPERS","699 WALNUT ST","","DES MOINES","IA","United States","50309","Y",238,"Y","N","Y","N",""
1983893,"CBIZ CPAS P.C.","500 BOYLSTON ST","","BOSTON","MA","United States","02116","Y",199,"Y","Y","N","N","Not Yet Received"
1982587,"GRANT THORNTON LLP","THIRD AVENUE 2ND FLOOR","757","NEW YORK","NY","United States","10017","Y",248,"N","Y","N","N","Yes"
1983826,"GRANT THORNTON LLP","1100 PEACHTREE ST. NE","SUITE 1200","ATLANTA","GA","United States","30309","Y",248,"Y","N","Y","N",""
1983620,"BDO USA, LLLP","421 FAYETTEVILLE STREET","","RALEIGH","NC","United States","07078","Y",243,"Y","N","Y","N",""
1984100,"COHEN & COMPANY","1350 EUCLID AVE","SUITE 800","CLEVELAND","OH","United States","44115","Y",925,"Y","N","Y","N",""
1984099,"DELOITTE & TOUCHE LLP","1111 BAGBY ST.","SUITE 4500","HOUSTON","TX","United States","77002","Y",34,"Y","Y","N","N","Yes"
1978609,"LARRY D LIBERFARB CERTIFIED PUBLIC ACCOUNTANTS","11 VANDERBILT AVE","","NORWOOD","MA","United States","02062","Y",2560,"Y","N","Y","N",""
1978617,"FORVIS","2700 POST OAK BLVD","SUITE 1500","HOUSTON","TX","United States","77056","Y",686,"Y","N","Y","Y","Yes"
1978626,"PRICEWATERHOUSECOOPERS LLP","2001 MARKET STREET","SUITE 1800","PHILADELPHIA","PA","United States","19103-7042","Y",238,"Y","N","Y","Y","Yes"
1978633,"PRICEWATERHOUSECOOPERS LLP","2001 MARKET STREET","SUITE 1800","PHILADELPHIA","PA","United States","19103-7042","Y",238,"Y","N","Y","Y","Yes"
1978646,"PRICEWATERHOUSECOOPERS LLP","2001 MARKET STREET","SUITE 1800","PHILADELPHIA","PA","United States","19103-7042","Y",238,"Y","N","Y","Y","Yes"
1982056,"KPMG LLP","345 PARK AVENUE","","NEW YORK","NY","United States","10154-0102","Y",185,"Y","Y","N","N","Yes"
1982056,"EISNERAMPER LLP","750 THIRD AVENUE","","NEW YORK","NY","United States","10017","Y",274,"Y","Y","N","N","Yes"
1982066,"KPMG LLP","345 PARK AVENUE","","NEW YORK","NY","United States","10154-0102","Y",185,"Y","Y","N","Y","Yes"
1982066,"KPMG LLP","BNY MELLON CENTER","SUITE 3400, 500 GRANT STREET","PITTSBURGH","PA","United States","15219-2598","Y",185,"Y","N","N","Y","Yes"
1980027,"ERNST & YOUNG LLP","725 SOUTH FIGUEROA","SUITE 200","LOS ANGELES","CA","United States","90017","Y",42,"Y","Y","N","N","Yes"
1982187,"HANCOCK ASKEW & CO. LLP","100 RIVERVIEW DRIVE","","SAVANNAH","GA","United States","31404","Y",794,"Y","N","Y","N",""
1978846,"FORVIS MAZARS","1410 SPRING HILL ROAD","SUITE 500","TYSONS","VA","United States","22102","Y",686,"Y","N","N","Y","Yes"
1978846,"BBD, LLP","1835 MARKET STREET","3RD FLOOR","PHILADELPHIA","PA","United States","19103","Y",552,"Y","Y","N","N","Not Yet Received"
1978846,"BDO USA, LLP","330 N WABASH AVENUE","","CHICAGO","IL","United States","60611","Y",243,"Y","Y","N","N","Yes"
1977909,"BPM","ONE CALIFORNIA ST., SUITE 2500","","SAN FRANCISCO","CA","United States","94111","Y",207,"Y","N","Y","N",""
1978862,"ELLIOTT DAVIS, LLC","629 MARKET STREET, SUITE 100","","CHATTANOOGA","TN","United States","37402","Y",149,"Y","N","Y","N",""
1978862,"MARGOLIN, WINER & EVENS LLP","ONE PENN PLAZA","SUITE 3000","NEW YORK","NY","United States","10119","Y",332,"Y","Y","N","N","Yes"
1978875,"PRICE WATERHOUSE COOPER LLP","254 MUNOZ RIVERA AVENUE","ORIENTAL CENTER SUITE 900","SAN JUAN","PR","United States","00918","Y",238,"Y","N","N","Y","Yes"
1978844,"PRICE WATERHOUSE & CO.","304 AVENIDA DE LA CONSTITUCION","SUITE 800","SAN JAN","PR","United States","00918","Y",238,"Y","N","Y","Y","Yes"
1984235,"GRANT THORNTON LLP","201 SOUTH COLLEGE STREET","SUITE 2500","CHARLOTTE","NC","United States","28244","Y",248,"Y","Y","N","N","Yes"
1984276,"WIPFLI LLP","100 TRI-STATE INTERNATIONAL","SUITE 300","LINCOLNSHIRE","IL","United States","60069","Y",344,"Y","N","Y","N",""
1984280,"ERNST & YOUNG LLP","155 N WACKER DR","","CHICAGO","IL","United States","60606","Y",42,"Y","Y","N","N","Yes"
1984065,"ERNST & YOUNG, LLP","2323 VICTORY AVENUE","SUITE 2000","DALLAS","TX","United States","75219","Y",42,"Y","Y","N","N","Yes"
1971323,"SR SNODGRASS","2100 CORPORATE DRIVE SUITE 400","","WEXFORD","PA","United States","15090","Y",74,"Y","N","Y","N",""
1970526,"MICHAEL T. REMUS","108 ROBIN DRIVE","","HAMILTON","NJ","United States","08619","Y",3598,"Y","N","Y","N",""
1971127,"ASHLAND PARTNERS & COMPANY LLP","3512 EXCEL DRIVE","SUITE 103","MEDFORD","OR","United States","97504","Y",3783,"Y","N","Y","N",""
1971127,"RSM US LLP","80 CITY SQUARE","","BOSTON","MA","United States","02129","Y",49,"Y","N","N","Y","Yes"
1976507,"RYAN & JURASKA LLP","141 WEST JACKSON BLVD, SUITE 2250","","CHICAGO","IL","United States","60604","Y",3407,"Y","Y","N","N","Yes"
1980720,"PLANTE MORAN","10 S. RIVERSIDE PLAZA","9TH FLOOR","CHICAGO","IL","United States","60606","Y",166,"Y","N","Y","N",""
1982356,"EISNER AMPER","ONE MARKET, LANDMARK, SUITE 620","","SAN FRANCISCO","CA","United States","94105","Y",274,"Y","Y","N","N","Yes"
1982257,"PRICEWATERHOUSECOOPERS LLP","300 MADISON AVENUE","","NEW YORK","NY","United States","10017","Y",238,"Y","Y","Y","Y","Yes"
1982257,"ERNST & YOUNG","5 TIMES SQUARE","","NEW YORK","NY","United States","10036","Y",42,"Y","Y","N","N","Yes"
1982408,"PKF SAN DIEGO, LLP","2020 CAMINO DEL RIO NORTH","SUITE 1000","SAN DIEGO","CA","United States","92108","Y",27,"Y","N","Y","N",""
1982408,"ARMANINO LLP","2700 CAMINO RAMON","SUITE 350","SAN RAMON","CA","United States","94583","Y",32,"Y","N","N","Y","Yes"
1982442,"MOSS ADAMS, LLP","6100 UPTOWN BLVD. NE","","ALBUQUERUQUE","NM","United States","87110","Y",659,"Y","Y","N","N","Yes"
1977068,"BDO USA, LLP","1 BUSH ST. #1800","","SAN FRANCISCO","CA","United States","94104","Y",243,"Y","Y","N","N","Yes"
1977068,"KPMG, LLP","2175 NORTH CALIFORNIA BOULEVARD","10TH FLOOR","WALNUT CREEK","CA","United States","94596","Y",185,"Y","Y","N","N","Yes"
1982458,"HORNE","661 SUNNYBROOK ROAD","SUITE 100","RIDGELAND","MS","United States","39157","Y",171,"Y","Y","Y","N","Yes"
1982530,"LILLING & CO.","TWO SEAVIEW BLVD","","PORT WASHINGTON","NY","United States","11050","Y",3480,"Y","Y","N","N","No"
1979037,"PRICEWATERHOUSECOOPERS LLP","214 N TRYON STREET","#4200","CHARLOTTE","NC","United States","28202","Y",238,"Y","N","Y","N",""
1977518,"BAKER TILLY US, LLP","66 HUDSON BLVD E","SUITE 2200","NEW YORK","NY","United States","10001","Y",23,"Y","Y","Y","N","Yes"
1983045,"MOSS ADAMS","101 SECOND STREET","SUITE 900","SAN FRANCISCO","CA","United States","94105","Y",659,"Y","Y","Y","N","Yes"
1974986,"TBASS & ASSOCIATES, LLC","5121 CASTELLO DRIVE","SUITE 1","NAPLES","FL","United States","34103","Y",5870,"Y","N","Y","N",""
1974037,"SPICER JEFFRIES LLP","4601 DTC BLVD.","SUITE 700","DENVER","CO","United States","80237","Y",349,"Y","Y","N","N","Yes"
1956287,"LAVINE, LOFGREN, MORRIS, & ENGELBERG, LLP","4180 LA JOLLA VILLAGE DRIVE","SUITE 300","LA JOLLA","CA","United States","92037","Y",3496,"Y","N","Y","N",""
1973806,"GRASSI & CO.","360 MADISON AVENUE","","NEW YORK","NY","United States","10017","Y",606,"Y","Y","N","N","Yes"
1974186,"PRICEWATERHOUSECOOPERS LLC","300 MADISON AVE","","NEW YORK","NY","United States","10017","Y",238,"Y","N","Y","Y","Yes"
1975206,"PRICEWATERHOUSECOOPERS LLP","300 MADISON AVENUE","","NEW YORK","NY","United States","10017-6204","Y",238,"Y","Y","N","N","Yes"
1976213,"ASHLAND PARTNERS & COMPANY LLP","3512 EXCEL DR","SUITE 103","MEDFORD","OR","United States","97504","Y",3783,"Y","N","Y","N",""
1976240,"RW GROUP","400 OLD FORGE LANE","SUITE 401","KENNETT SQUARE","PA","United States","19348","Y",5020,"Y","N","Y","N",""
1963920,"MALONEY + NOVOTNY LLC","1111 SUPERIOR AVENUE","SUITE 700","CLEVELAND","OH","United States","44114","Y",320,"Y","N","Y","N",""
1981465,"KPMG","1 STOKES PLACE","ST STEPHEN'S GREEN","DUBLIN 2","","Ireland","DO2 DE03","Y",1116,"Y","Y","N","N","Yes"
1982207,"GEFFEN MESHER","888 SW 5TH AVE.","STE 800","PORTLAND","OR","United States","97204","Y",3912,"Y","N","Y","N",""
1983461,"ASHLAND PARTNERS & COMPANY LLP","3512 EXCEL DRIVE","SUITE 103","MEDFORD","OR","United States","97504","Y",3783,"N","N","Y","N",""
1983535,"UHY LLP","4200 UNIVERSITY AVE #410","","WEST DES MOINES","IA","United States","50266","Y",1195,"Y","N","Y","N",""
1975253,"TRAMER & BOLBACH","23775 COMMERCE PARK ROAD","","BEACHWOOD","OH","United States","44122","N",,"Y","N","Y","N",""
1975163,"ARENA SNYDER & DUNLAP LLP","722 SPRINGDALE DRIVE","","EXTON","PA","United States","19341","N",,"","N","Y","Y","Yes"
1975306,"KPMG LLP","15 CANADA SQUARE","CANARY WHARF","LONDON","","United Kingdom","E14 5GL","Y",1118,"Y","Y","N","N","Yes"
1975306,"KPMG LUXEMBOURG","39 AV. JOHN F. KENNEDY","","LUXEMBOURG","","Luxembourg","1855","Y",2831,"Y","Y","N","N","Yes"
1975312,"HOLLAND, BROMLEY, BARNHILL & BRETT LLP","530 STEPHENSON AVENUE","#200","SAVANNAH","GA","United States","31405","N",,"","N","Y","N",""
1961150,"MOSS ADAMS","999 THIRD AVENUE","SUITE 2800","SEATTLE","WA","United States","98104","Y",659,"Y","N","Y","N",""
1975375,"PRICEWATERHOUSECOOPERS LLP","101 SEAPORT BOULEVARD","","BOSTON","MA","United States","02110","Y",238,"Y","Y","Y","Y","Yes"
1975387,"BDO USA, LLP","100 PARK AVENUE","","NEW YORK","NY","United States","10017","Y",243,"Y","Y","N","N","Yes"
1975387,"BDO CAYMAN LTD.","GOVERNORS SQUARE, 2ND FLOOR - BLDG 3","WEST BAY","GRAND CAYMAN","","Cayman Islands","","Y",2162,"Y","Y","N","N","Yes"
1975411,"FREED MAXICK CPA'S, PC","100 MERIDIAN CENTRE","SUITE 310","ROCHESTER","NY","United States","14618","Y",317,"Y","N","N","Y","Yes"
1974852,"BOBER, MARKEY, FEDOROVICH & COMPANY","3421 RIDGEWOOD RD., SUITE 300","","AKRON","OH","United States","44333","Y",1172,"Y","N","Y","N",""
1975482,"KPMG LLP","345 PARK AVENUE","","NEW YORK","NY","United States","10154","Y",185,"Y","Y","N","N","Not Yet Received"
1977870,"DELOITTE & TOUCHE LLP","30 ROCKEFELLER PLAZA","","NEW YORK","NY","United States","10112","Y",34,"Y","N","Y","N",""
1977870,"DELOITTE & TOUCHE LLP","110 MORRIS STREET","","MORRISTOWN","NJ","United States","07960","Y",34,"Y","Y","N","N","Yes"
1977870,"GRANT THORNTON LLP","1201 WALNUT ST","SUITE 2200","KANSAS CITY","MO","United States","64106","Y",248,"Y","N","N","Y","Yes"
1977870,"RSM US LLP","30 S WACKER DR","SUITE 3300","CHICAGO","IL","United States","60606","Y",49,"Y","Y","N","N","Yes"
1979562,"YOUNT, HYDE & BARBOUR, P.C.","4419 PHEASANT RIDGE RD.","SUITE 302","ROANOKE","VA","United States","24014","Y",613,"Y","N","Y","N",""
1975671,"GRANT THORNTON LLP","1301 INTERNATIONAL PARKWAY, SUITE 300","","FORT LAUDERDALE","FL","United States","33323","Y",248,"Y","Y","N","N","Yes"
1975727,"ASHLAND PARTNERS & COMPANY","3512 EXCEL DRIVE","SUITE 103","MEDFORD","OR","United States","97504","Y",3783,"Y","N","Y","N",""
1975725,"RICHEY MAY & CO","9605 KINGSTON CT # 200","","ENGLEWOOD","CO","United States","80112","Y",673,"Y","Y","Y","N","Yes"
1975815,"EISNER AMPER LLP","160 FEDERAL STREET","9TH FLOOR","BOSTON","MA","United States","02110","Y",274,"Y","Y","Y","N","Yes"
1975497,"BDO USA, LLP","100 PARK AVENUE","","NEW YORK","NY","United States","10017","Y",243,"Y","Y","N","N","Yes"
1975497,"BDO CAYMAN LTD.","GOVERNORS SQUARE, 2ND FLOOR - BLDG 3","WEST BAY","GRAND CAYMAN","","Cayman Islands","","Y",2162,"Y","Y","N","N","Yes"
1977363,"EISNER AMPER, LLP","733 THIRD AVENUE","","NEW YORK","NY","United States","10017","Y",274,"Y","Y","N","N","Yes"
1976334,"FRAZIER & DEETER","1230 PEACHTREE STREET","SUITE 1500","ATLANTA","GA","United States","30309","Y",215,"Y","N","Y","N",""
1979839,"WIPFLI LLP","100 TRI-STATE INTERNATIONAL","SUITE 300","LINCOLNSHIRE","IL","United States","60069","Y",344,"Y","N","Y","N",""
1979874,"PRICEWATERHOUSECOOPERS","300 MADISON AVENUE","","NEW YORK","NY","United States","10017","Y",238,"Y","N","Y","Y","No"
1979032,"PRICEWATERHOUSECOOPERS LLP","ONE NORTH WACKER","","CHICAGO","IL","United States","60606","Y",238,"Y","Y","Y","N","Yes"
1979336,"COHNREZNICK LLP","1900 AVENUE OF THE STARS","FLOOR 28","LOS ANGELES","CA","United States","90067","Y",596,"Y","Y","Y","N","Yes"
1979336,"KPMG LLP","550 S. HOPE STREET","SUITE 1500","LOS ANGELES","CA","United States","90071","Y",185,"Y","Y","N","N","Yes"
1979336,"WITHUMSMITH+BROWN, PC","16830 VENTURA BLVD","#501","ENCINO","CA","United States","91436","Y",100,"Y","Y","N","N","Yes"
1983755,"COHEN & COMPANY","1350 EUCLID AVE","#800","CLEVELAND","OH","United States","44115","Y",925,"Y","Y","N","N","Yes"
1983755,"DELOITTE & TOUCHE","DELOITTE & TOUCHE HOUSE","EARLSFORT TERRACE","DUBLIN","","Ireland","","Y",1193,"Y","Y","N","N","Yes"
1985200,"WEAVER AND TIDWELL, L.L.P.","2821 WEST 7TH STREET","SUITE 700","FORT WORTH","TX","United States","76107","Y",410,"Y","Y","N","N","Not Yet Received"
1985141,"FORVIS","2700 POST OAK BLVD","SUITE 1500","HOUSTON","TX","United States","77056","Y",686,"Y","N","Y","Y","Yes"
1985150,"FORVIS","2700 POST OAK BLVD","SUITE 1500","HOUSTON","TX","United States","77056","Y",686,"Y","N","Y","Y","Yes"
1985200,"WHITLEY PENN LLP","8343 DOUGLAS AVE","SUITE 400","DALLAS","TX","United States","75225","Y",726,"Y","N","Y","N",""
1984461,"DELOITTE & TOUCHE LLP","30 ROCKEFELLER  PLAZA","","NEW YORK","NY","United States","10112","Y",248,"Y","Y","N","N","Yes"
1985299,"ERNST & YOUNG LLP","5 TIMES SQUARE","","NEW YORK","NY","United States","10036","Y",42,"Y","Y","N","N","Yes"
1975921,"HBK CPAS & CONSULTANTS","100 PINEWOOD LANE","SUITE 201","WARRENDAL","PA","United States","15086","Y",2206,"Y","N","Y","N",""
1975442,"PRICEWATERHOUSECOOPERS","300 MADISON AVE","","NEW YORK","NY","United States","10017-6204","Y",238,"Y","Y","N","N","Not Yet Received"
1976001,"ASHLAND PARTNERS & COMPANY, LLP","3512 EXCEL DR","SUITE 103","MEDFORD","OR","United States","97504","Y",3783,"Y","N","Y","N",""
1976001,"EISNERAMPER LLC","ONE LOGAN SQUARE","130 NORTH 18TH STREET, SUITE 3000","PHILADELPHIA","PA","United States","19103","Y",274,"Y","Y","N","N","Yes"
1975970,"ASHLAND PARTNERS & COMPANY LLP","3512 EXCEL DRIVE","SUITE 103","MEDORD","SC","United States","97504","Y",3783,"Y","N","Y","Y","Yes"
1976511,"PWC","125 HIGH STREET","","BOSTON","MA","United States","02110","Y",238,"Y","N","N","Y","Yes"
1976505,"PRICEWATERHOUSECOOPERS LLP","300 MADISON AVENUE","","NEW YORK","NY","United States","10017","Y",238,"Y","Y","N","N","Not Yet Received"
1977444,"WEAVER AND TIDWELL, L.L.P.","1230 ROSECRANS AVE.","SUITE 510","MANHATTAN BEACH","CA","United States","90266","Y",410,"Y","Y","N","Y","Yes"
1983818,"DELOITTE & TOUCHE LLP","111 SOUTH WACKER DRIVE","","CHICAGO","IL","United States","60606-4301","Y",34,"Y","Y","N","N","Yes"
1984035,"KPMG","620 S. TRYON STREET","SUITE 1000","CHARLOTTE","NC","United States","28202","Y",185,"Y","Y","N","N","Not Yet Received"
1975353,"ASHLAND PARTNERS & COMPANY LLP","3512 EXCEL DRIVE","SUITE 103","MEDFORD","OR","United States","97504","Y",3783,"N","N","Y","N",""
1984185,"HANCOCK ASKEW & CO LLP","3740 DAVINCI COURT","SUITE 400","PEACHTREE CORNERS","GA","United States","30092","Y",794,"Y","Y","N","N","Not Yet Received"
1983366,"PRICEWATERHOUSECOOPERS","300 MADISON AVENUE","","NEW YORK","NY","United States","10017","Y",238,"Y","Y","N","N","Yes"
1984471,"KPMG LLP","AON CENTER","SUITE 5500, 200 E. RANDOLPH STREET","CHICAGO","IL","United States","60601","Y",185,"Y","Y","N","N","Yes"
1984471,"ERNST & YOUNG CHARTERED ACCOUNTANTS","HARCOURT CENTRE","HARCOURT STREET","DUBLIN","","Ireland","DUBLIN D2","Y",1411,"Y","Y","N","N","Yes"
1984471,"ERNST & YOUNG LLP","ONE MANHATTAN WEST","","NEW YORK","NY","United States","10001","Y",42,"Y","Y","N","N","Yes"
1983289,"ERNST & YOUNG LLP","2005 MARKET ST","#700","PHILADELPHIA","PA","United States","19103","Y",42,"Y","Y","N","N","Yes"
1983289,"CBIZ CPAS P.C.","9 PARKWAY N","SUITE 200","DEERFIELD","IL","United States","60015","Y",199,"Y","N","Y","N",""
1985257,"RSM US LLP","4 TIMES SQUARE","","NEW YORK","NY","United States","10036","Y",49,"Y","Y","N","N","Yes"
1976560,"ASHLAND PARTNERS & COMPANY LLC","525 BIGHAM KNOLL, SUITE 200","","JACKSONVILLE","OR","United States","97530","Y",3783,"Y","N","Y","N",""
1972875,"SPICER JEFFRIES LLP","4601 DTC BLVD.","","DENVER","CO","United States","80237","Y",349,"Y","Y","N","N","Yes"
1976624,"WIPFLI","125 SOUTH WACKER DRIVE","SUITE 1500","CHICAGO","IL","United States","60606-4477","Y",344,"Y","Y","Y","N","No"
1976575,"ERNST & YOUNG LLP","1828 WALNUT ST","","KANSAS CITY","MO","United States","64108","Y",42,"Y","N","Y","N",""
1976610,"ERNST & YOUNG, LP","725 S FIGUEROA STREET","","LOS ANGELES","CA","United States","90017","Y",42,"Y","Y","N","N","Yes"
1976725,"DELOITTE & TOUCHE LLP","1601 WEWATTA ST","SUITE 400","DENVER","CO","United States","80202-6479","Y",34,"Y","N","Y","Y","Yes"
1975327,"ROSEN KUSLANSKY, CPA, P.C.","7 PENN PLAZA","SUITE 1700","NEW YORK","NY","United States","10001","Y",3032,"Y","Y","N","N","Not Yet Received"
1975327,"EISNERAMPER LLP","733 THIRD AVENUE","","NEW YORK","NY","United States","10017","Y",274,"Y","Y","N","N","Not Yet Received"
1977712,"ASHLAND PARTNERS & COMPANY LLP","520 BIGHAM KNOLL","SUITE 200","JACKSONVILLE","OR","United States","97530","Y",3783,"Y","N","Y","N",""
1977712,"DELOITTE","925 4TH AVE","#3300","SEATTLE","WA","United States","98104","Y",34,"Y","Y","N","N","Yes"
1977712,"PKF O'CONNOR DAVIES","665 FIFTH AVENUE","","NEW YORK","NY","United States","10022","Y",127,"Y","Y","Y","N","Yes"
1977712,"EIDE BAILLY LLP","800 NICOLLET MALL","SUITE 1300","MINNEAPOLIS","MN","United States","55402","Y",286,"Y","N","N","Y","Yes"
1984462,"MENGEL METZGER BARR & CO., LLP","100 CHESTNUT ST.","SUITE 1200","ROCHESTER","NY","United States","14604","Y",557,"Y","N","Y","N",""
1983356,"LARRY LIBERFARB, PC","11 VANDERBILT AVENUE","SUITE 220","NORWOOD","MA","United States","02062","Y",2560,"Y","N","Y","N",""
1984490,"CLARK SCHAEFER HACKETT","ONE EAST FOURTH STREET","SUITE 1200","CINCINNATI","OH","United States","45202","Y",539,"Y","N","Y","N",""
1984513,"DELOITTE & TOUCHE LLP","1111 BAGBY ST.","SUITE 4500","HOUSTON","TX","United States","77002","Y",34,"Y","Y","N","N","Yes"
1984322,"SANVILLE & COMPANY","2617 HUNTINGDON PIKE","","HUNTINGDON VALLEY","PA","United States","19006","Y",169,"Y","Y","Y","N","Yes"
1976752,"ASHLAND PARTNERS & COMPANY, LLP","3512 EXCEL DRIVE","SUITE 103","MEDFORD","OR","United States","97504","Y",3783,"Y","N","Y","N",""
1968468,"WIPFLI LLP","10000 INNOVATION DRIVE","SUITE 250","MILWAUKEE","WI","United States","53226","Y",344,"Y","N","Y","N",""
1976799,"ZION, SYNEK & ASSOCIATES","6000 FREEDOM SQUARE DRIVE","SUITE 220","INDEPENDENCE","OH","United States","44131","Y",5094,"Y","N","Y","N",""
1976815,"MAYER HOFFMAN MCCANN P.C.","1000 CAMPBELL MITHEN TOWER","222 SOUTH NINTH STREET","MINNEAPOLIS","MN","United States","55402","Y",199,"Y","N","Y","N",""
1964470,"MAYER HOFFMAN MCCANN P.C.","1000 CAMPBELL MITHUN TOWER","222 SOUTH NINTH STREET","MINNEAPOLIS","MN","United States","55402","Y",199,"Y","Y","N","N","Yes"
1984677,"PRICEWATERHOUSECOOPERS LLP","601 S. FIGEUROA ST","","LOS ANGELES","CA","United States","90017","Y",238,"Y","Y","N","N","Not Yet Received"
1984709,"DAVID LUNDGREN & COMPANY CPA, CHTD.","505 NORTH MUR-LEN ROAD","","OLATHE","KS","United States","66062","Y",6075,"Y","N","Y","N",""
1980569,"PEROTTI AND CARRADE","1 MCINNIS PARKWAY","SUITE 200","SAN RAFAEL","CA","United States","94903","N",,"","N","Y","N",""
1984818,"BREARD & ASSOCIATES, LLP","9221 CORBIN AVENUE","SUITE 170","NORTHRIDGE","CA","United States","91324","N",,"","N","Y","N",""
1984818,"LMHS, PC","80 WASHINGTON STREET","BLDG S","NORWELL","MA","United States","02061","Y",3373,"Y","Y","N","N","Yes"
1984774,"DSWD GROUP","20646 ABBEY WOODS CT. N","SUITE 201","FRANKFORT","IL","United States","60423","N",,"","N","Y","N",""
1984820,"PRICEWATERHOUSECOOPERS LLP","601 S. FIGEUROA ST","","LOS ANGELES","CA","United States","90017","Y",238,"Y","Y","N","N","Not Yet Received"
1984094,"ERNST & YOUNG LLP","ONE MANHATTAN WEST","","NEW YORK","NY","United States","10001","Y",42,"Y","Y","N","N","Not Yet Received"
1984094,"ERNST & YOUNG LTD.","62 FORUM LANE, CAMANA BAY","P.O. BOX 510","GRAND CAYMAN","","Cayman Islands","KY1-1106","Y",1655,"Y","Y","N","N","Not Yet Received"
1984094,"PRICEWATERHOUSECOOPERS LLP","18 YORK STREET","","TORONTO","","Canada","M5J 0B2","Y",271,"Y","Y","N","N","Not Yet Received"
1984094,"EISNER AMPER","733 THIRD AVENUE","","NEW YORK","NY","United States","10017","Y",274,"Y","Y","N","N","Yes"
1982466,"KPMG","303 PEACHTREE STREET","SUITE 2000","ATLANTA","GA","United States","30308","Y",185,"Y","Y","N","N","Yes"
1982317,"O'CONNOR DAVIES, LLP","665 FIFTH AVENUE","","NEW YORK","NY","United States","10022","Y",127,"Y","N","Y","Y","Yes"
1982433,"PRICEWATERHOUSECOOPERS LLP","300 MADISON AVENUE","","NEW YORK","NY","United States","10017","Y",238,"Y","Y","Y","Y","Yes"
1982433,"ERNST & YOUNG","5 TIMES SQUARE","","NEW YORK","NY","United States","10036","Y",42,"Y","Y","N","N","Yes"
1982481,"GRANT THORNTON LLP","757 THIRD AVENUE, 9TH FLOOOR","","NEW YORK","NY","United States","10017","Y",248,"Y","Y","Y","N","Yes"
1982510,"HORNE","661 SUNNYBROOK ROAD","SUITE 100","RIDGELAND","MS","United States","39157","Y",171,"Y","Y","Y","N","Yes"
1985848,"ASHLAND PARTNERS & COMPANY, LLP","3512 EXCEL DRIVE","SUITE 103","MEDFORD","OR","United States","97504","Y",3783,"Y","N","Y","N",""
1985856,"ASHLAND PARTNERS & COMPANY, LLP","3512 EXCEL DRIVE","SUITE 103","MEDFORD","OR","United States","97504","Y",3783,"Y","N","Y","N",""
1983138,"KPMG LLP","345 PARK AVENUE","","NEW YORK","NY","United States","10154","Y",185,"Y","Y","N","N","Not Yet Received"
1983138,"PRICEWATERHOUSECOOPERS LLP","1 EMBANKMENT PLACE","","LONDON","","United Kingdom","WC2N 6RH","Y",876,"Y","Y","N","N","Not Yet Received"
1983138,"FORVIS MAZARS, LLP","135 W 50TH STREET","","NEW YORK","NY","United States","10020","Y",686,"Y","Y","N","N","Not Yet Received"
1983138,"PRICEWATERHOUSECOOPERS, SOCIETE COOPERATIVE","2 RUE GERHARD","B.P.1443","MERCATOR","","Luxembourg","L-1014","Y",1328,"Y","Y","N","N","Yes"
1985259,"PKF O'CONNOR DAVIES, LLP","245 PARK AVENUE","12TH FLOOR","NEW YORK","NY","United States","10167","Y",127,"Y","N","Y","N",""
1985976,"MOSS ADAMS LLP","999 THIRD AVENUE","SUITE 2800","SEATTLE","WA","United States","98104","Y",659,"Y","N","Y","N",""
1985976,"DELOITTE & TOUCHÉ LLP","200 BERKELEY STREET","","BOSTON","MA","United States","02116","Y",34,"Y","Y","N","N","Yes"
1985976,"DELOITTE & TOUCHÉ","ONE CAPITAL PLACE","PO BOX 1787","GRAND CAYMAN","","Cayman Islands","KY1-1109","Y",1096,"Y","Y","N","N","Yes"
1981426,"KPMG LLP","21700 OXNARD STREET","SUITE 1200","WOODLAND HILLS","CA","United States","91367","Y",185,"Y","Y","N","N","Yes"
1984797,"PRICEWATERHOUSECOOPERS LLP","45 SOUTH SEVENTH STREET","SUITE 3400","MINNEAPOLIS","MN","United States","55402","Y",238,"Y","N","Y","Y","Yes"
1984244,"DELOITTE & TOUCHE, LLP","111 SOUTH WACKER DRIVE","","CHICAGO","IL","United States","60606","Y",34,"Y","Y","N","N","Yes"
1984244,"KPMG LLP","AON CENTER","200 E. RANDOLPH STREET, SUITE 5500","CHICAGO","IL","United States","60601","Y",185,"Y","Y","N","N","Not Yet Received"
1984244,"FORVIS MAZARS, LLP","135 W 50TH STREET","","NEW YORK","NY","United States","10020","Y",686,"Y","Y","N","N","Not Yet Received"
1984244,"COHEN & COMPANY","1350 EUCLID AVE","SUITE 800","CLEVELAND","OH","United States","44115","Y",925,"Y","Y","N","Y","Yes"
1984244,"ERNST & YOUNG","5 TIMES SQUARE","","NEW YORK","NY","United States","10036","Y",42,"Y","Y","N","N","Yes"
1984244,"KPMG","345 PARK AVENUE","","NEW YORK","NY","United States","10154","Y",185,"Y","Y","N","N","Yes"
1984244,"FORVIS MAZARS, LLP","135 W 50TH STREET","","NEW YORK","NY","United States","10020","Y",686,"Y","N","Y","N",""
1984244,"SCHNEIDER DOWNS & CO., INC.","ONE PPG PLACE, SUITE 1700","","PITTSBURGH","PA","United States","15222","Y",358,"Y","Y","N","N","Not Yet Received"
1984244,"ERNST & YOUNG LLP","200 CLARENDON ST","","BOSTON","MA","United States","02116","Y",42,"Y","Y","N","N","Yes"
1986224,"KPMG","200 E. RANDOLPH","SUITE 5500","CHICAGO","IL","United States","60601","Y",185,"Y","Y","Y","N","Yes"
1986363,"DELOITTE & TOUCHE LLP","1700 MARKET STREET","","PHILADELPHIA","PA","United States","19103","Y",34,"Y","Y","Y","N","Yes"
1986363,"PRICEWATERHOUSECOOPERS AG","BIRCHSTRASSE 160","","ZURICH","","Switzerland","8050","Y",1358,"Y","Y","N","N","Yes"
1986363,"DELOITTE & TOUCHE LLP","60 NEXUS WAY, 8TH FLOOR","CAMANA BAY, PO BOX 1787","GRAND CAYMAN","","Cayman Islands","KY1-1109","Y",1096,"Y","Y","N","N","Yes"
1986363,"DELOITTE IRELAND","EARLSFORT TERRACE","","DUBLIN","","Ireland","2","Y",1193,"Y","Y","N","N","Yes"
1986363,"PRICEWATERHOUSECOOPERS, SOCIÉTÉ COOPÉRATIVE","2, RUE GERHARD MERCATOR","B.P. 1443","LUXEMBOURG","","Luxembourg","L-1014","Y",1328,"Y","Y","N","N","Yes"
1986363,"DELOITTE AUDIT SARL","20, BOULEVARD DE KOCKELSCHEUER","","LUXEMBOURG","","Luxembourg","L-1821","Y",1287,"Y","Y","N","N","Yes"
1986363,"PRICEWATERHOUSECOOPERS LTD.","P.O. BOX HM 1171","","HAMILTON","","Bermuda","HM EX","Y",1403,"Y","Y","N","N","Yes"
1986363,"PRICEWATERHOUSECOOPERS","18 FORUM LANE, CAMANA BAY","P.O. BOX 258","GRAND CAYMAN","","Cayman Islands","KY1-1104","Y",1266,"Y","Y","N","N","Yes"
1975105,"PLANTE MORAN","634 FRONT AVENUE","","GRAND RAPIDS","MI","United States","49504","Y",166,"Y","N","Y","N",""
1976084,"ERNST & YOUNG LLP","155 NORTH WACKER DRIVE","","CHICAGO","IL","United States","60606-1787","Y",42,"Y","N","Y","N",""
1976084,"ERNST & YOUNG LLP","155 NORTH WACKER DRIVE","","CHICAGO","IL","United States","60606-1787","Y",42,"Y","N","N","Y","Yes"
1975105,"WATKINS UIBERALL PLLC","1661 AARON BRENNER DR","","MEMPHIS","TN","United States","38120","Y",1738,"Y","Y","N","N","Not Yet Received"
1976121,"RUSSELL S. GOLDMAN","316 ALEXANDER STREET, SUITE 4","","MARIETTA","GA","United States","30060","Y",1952,"Y","N","Y","N",""
1979628,"WITHUMSMITH + BROWN, PC","155 SEAPORT BOULEVARD","","BOSTON","MA","United States","02210-2600","Y",100,"Y","Y","Y","N","Yes"
1979628,"DELOITTE AND TOUCHE LLP","200 BERKELEY ST","","BOSTON","MA","United States","02116","Y",34,"Y","Y","N","N","Yes"
1985673,"ERNST & YOUNG","5 TIMES SQUARE","","NEW YORK","NY","United States","10036","Y",42,"Y","Y","N","N","Yes"
1985605,"WOLF AND CO.","1500 MAIN ST","","SPRINGFIELD","MA","United States","01115","Y",392,"Y","N","Y","Y","No"
1985228,"ASHLAND PARTNERS & COMPANY LLP","3512 EXCEL DRIVE","SUITE 103","MEDFORD","OR","United States","97504","Y",3783,"Y","N","Y","N",""
1985673,"PRICEWATERHOUSECOOPERS LLP","300 MADISON AVENUE","","NEW YORK","NY","United States","10017","Y",238,"Y","Y","Y","Y","Yes"
1977384,"PRICEWATERHOUSECOOPER, LLP","300 MADISON AVE","","NEW YORK","NY","United States","10017","Y",238,"Y","Y","Y","N","Yes"
1977550,"KPMG LLP","550 SOUTH HOPE STREET","SUITE 1500","LOS ANGELES","CA","United States","90071","Y",185,"Y","N","Y","N",""
1977687,"ERNST & YOUNG LTD.","62 FORUM LANE","PO BOX 510","CAMANA BAY","","Cayman Islands","10052","Y",1655,"Y","Y","N","N","Yes"
1977687,"ERNST & YOUNG LLP","ONE MANHATTAN LLP","","NEW YORK","NY","United States","10001","Y",1263,"Y","Y","N","N","Yes"
1981432,"ASSURANCE DIMENSIONS. LLC","4920 W CYPRESS STREET","SUITE 102","TAMPA","FL","United States","33607","Y",5036,"Y","N","Y","N",""
1975073,"KPMG LLP","10 SOUTH BROADWAY","SUITE 900","SAINT LOUIS","MO","United States","63102-1736","Y",185,"Y","N","Y","Y","Yes"
1976253,"ASHLAND PARTNERS & COMPANY LLP","520 BIGHAM KNOLL","SUITE 200","JACKSONVILLE","OR","United States","97530","Y",3783,"Y","N","Y","N",""
1976253,"DELOITTE","925 4TH AVE","#3300","SEATTLE","WA","United States","98104","Y",34,"Y","Y","N","N","Yes"
1976253,"PKF O'CONNOR DAVIES","665 FIFTH AVENUE","","NEW YORK","NY","United States","10022","Y",127,"Y","Y","Y","N","Yes"
1976253,"EIDE BAILLY LLP","800 NICOLLET MALL","SUITE 1300","MINNEAPOLIS","MN","United States","55402","Y",286,"Y","N","N","Y","Yes"
1976293,"ERNST & YOUNG LLP","725 SOUTH FIGUEROA STREET","","LOS ANGELES","CA","United States","90017","Y",42,"Y","Y","N","N","Yes"
1976293,"ROSE SNYDER & JACOBS LLP","15821 VENTURA BOULEVARD, SUITE 490","","ENCINO","CA","United States","91436","Y",468,"Y","Y","N","N","Yes"
1976304,"WIPFLI LLP","150 S 5TH ST","UNIT 2000","MINNEAPOLIS","MN","United States","55402","Y",344,"Y","N","Y","N",""
1979669,"BDO USA, P.C.","100 PARK AVENUE","","NEW YORK","NY","United States","10017","Y",243,"Y","Y","N","N","Yes"
1979669,"BDO CAYMAN LTD","PO BOX 3118, 2ND FLOOR","GOVERNORS SQUARE, 23 LIME TREE BAY AVE","GRAND CAYMAN","","Cayman Islands","KY1-1205","Y",2162,"Y","Y","N","N","Yes"
1979148,"WHITTLESEY PC","280 TRUMBULL ST.","24TH FLOOR","HARTFORD","CT","United States","06103","Y",2538,"Y","N","Y","N",""
1985031,"COHN REZNICK LLP","350 CHURCH STREET","","HARTFORD","CT","United States","00936-3436","Y",596,"Y","Y","N","N","Yes"
1985031,"DRIVEN P.S.C.","B7 TABONUCO STREET, SUITE 302","","GUAYNABO","PR","United States","00968","Y",6817,"Y","Y","N","N","Yes"
1984066,"COHEN & COMPANY, LTD","1350 EUCLID AVENUE","SUITE 800","CLEVELAND","OH","United States","44115","Y",925,"Y","Y","N","N","Not Yet Received"
1985768,"KRAFT CPAS PLLC","6136 SHALLOWFORD RD, SUITE 101","","CHATTANOOGA","TN","United States","37421","Y",379,"Y","Y","N","N","Not Yet Received"
1984821,"PRICEWATERHOUSECOOPERS LLP","125 HIGH STREET","","BOSTON","MA","United States","02110","Y",238,"Y","Y","Y","N","Yes"
1985927,"LILLING & CO.","TWO SEAVIEW BLVD","","PORT WASHINGTON","NY","United States","11050","Y",3480,"Y","Y","N","N","No"
1985958,"FGMK, LLC","2801 LAKESIDE DRIVE","3RD FLOOR","BANNOCKBURN","IL","United States","60015","Y",3968,"Y","N","Y","N",""
1985974,"BERRYDUNN","2211 CONGRESS ST","","PORTLAND","ME","United States","04102","Y",136,"Y","N","Y","N",""
1981509,"FRANK, RIMERMAN & COMPANY, LLP","1801 PAGE MILL ROAD","","PALO ALTO","CA","United States","94304","Y",1596,"Y","N","Y","N",""
1981544,"PRICEWATERHOUSECOOPERS LLP","100 EAST PRATT STREET","SUITE 1900","BALTIMORE","MD","United States","21202-1096","Y",238,"Y","N","Y","N",""
1981544,"KREISCHER MILLER","100 WITMER ROAD","SUITE 350","HORSHAM","PA","United States","19044-2369","Y",6151,"Y","Y","N","N","Yes"
1981544,"PRICEWATERHOUSECOOPERS LLP","125 HIGH STREET","","BOSTON","MA","United States","02110","Y",238,"Y","N","N","Y","Yes"
1976364,"ERNST & YOUNG, LLP","5 HOUSTON CENTER","1401 MCKINNEY ST, STE 1200","HOUSTON","TX","United States","77010","Y",42,"Y","Y","N","N","Yes"
1968727,"SANVILLE & COMPANY","325 N. SAINT PAUL ST","SUITE 3100","DALLAS","TX","United States","75201","Y",169,"Y","N","Y","N",""
1976390,"PRICEWATERHOUSECOOPERS LLP","601 SOUTH FIGUEROA STREET","","LOS ANGELES","CA","United States","90017","Y",238,"Y","N","Y","Y","Yes"
1976416,"ASHLAND PARTNERS & COMPANY LLP","3512 EXCEL DR","SUITE 103","MEDFORD","OR","United States","97504","Y",3783,"N","N","Y","N",""
1976416,"SANDLER & ASSOCIATES, P.C.","144 GOULD STREET","","NEEDHAM","MA","United States","02492","Y",3709,"Y","Y","N","N","Yes"
1985587,"CITRIN COOPERMAN & COMPANY, LLP","529 FIFTH AVENUE","","NEW YORK","NY","United States","10017","Y",2468,"Y","Y","N","N","Yes"
1986448,"COHNREZNICK LLP","707 WILSHIRE BLVD","SUITE 4950","LOS ANGELES","CA","United States","90017-3628","Y",596,"Y","Y","N","N","Yes"
1986448,"COHNREZNICK (CAYMAN) LLP","19 TARPON ISLAND DRIVE","P.O. BOX 1748","GRAND CAYMAN KY1-1109","","Cayman Islands","","Y",596,"Y","Y","N","N","Yes"
1975174,"ASHLAND PARTNERS & COMPANY LLP","4400 LIVINGSTON ROAD","","CENTRAL POINT","OR","United States","97502","Y",3783,"Y","N","Y","N",""
1975174,"DELOITTE & TOUCHE, LLP","30 ROCKEFELLER PLAZA","","NEW YORK CITY","NY","United States","10112","Y",34,"Y","Y","N","N","Yes"
1937888,"DEMARCO SCIACCOTTA WILKENS & DUNLEAVY, LLP","20646 ABBEY WOODS CT N SUITE 201","","FRANKFORT","IL","United States","60423","Y",5376,"Y","N","Y","N",""
1974999,"ERNST & YOUNG LLP","801 GRAND AVENUE","SUITE 3000","DES MOINES","IA","United States","50309","Y",42,"Y","N","Y","N",""
1975235,"DELOITTE & TOUCHE LLP","1700 MARKET STREET","","PHILADELPHIA","PA","United States","19103","Y",34,"Y","Y","Y","N","Yes"
1975235,"PRICEWATERHOUSECOOPERS AG","BIRCHSTRASSE 160","","ZURICH","","Switzerland","8050","Y",1358,"Y","Y","N","N","Yes"
1975235,"DELOITTE & TOUCHE LLP","60 NEXUS WAY, 8TH FLOOR","CAMANA BAY, PO BOX 1787","GRAND CAYMAN","","Cayman Islands","KY1-1109","Y",1096,"Y","Y","N","N","Yes"
1975235,"DELOITTE IRELAND","EARLSFORT TERRACE","","DUBLIN","","Ireland","2","Y",1193,"Y","Y","N","N","Yes"
1975235,"PRICEWATERHOUSECOOPERS, SOCIÉTÉ COOPÉRATIVE","2, RUE GERHARD MERCATOR","B.P. 1443","LUXEMBOURG","","Luxembourg","L-1014","Y",1328,"Y","Y","N","N","Yes"
1975235,"DELOITTE AUDIT SARL","20, BOULEVARD DE KOCKELSCHEUER","","LUXEMBOURG","","Luxembourg","L-1821","Y",1287,"Y","Y","N","N","Yes"
1975235,"PRICEWATERHOUSECOOPERS LTD.","P.O. BOX HM 1171","","HAMILTON","","Bermuda","HM EX","Y",1403,"Y","Y","N","N","Yes"
1975235,"PRICEWATERHOUSECOOPERS","18 FORUM LANE, CAMANA BAY","P.O. BOX 258","GRAND CAYMAN","","Cayman Islands","KY1-1104","Y",1266,"Y","Y","N","N","Yes"
1975222,"EISNERAMPER LLP","750 THIRD AVENUE","16TH FLOOR","NEW YORK","NY","United States","10022","Y",274,"Y","Y","N","N","Yes"
1975933,"FORVIS","2700 POST OAK BLVD","SUITE 1500","HOUSTON","TX","United States","77056","Y",686,"Y","N","Y","Y","Yes"
1981497,"BRAD VAN HOUTEN","1517 E PALM VALLEY BLVD","","ROUND ROCK","TX","United States","78664","N",,"","N","N","Y","No"
1981656,"FORVIS","2700 POST OAK BLVD","SUITE 1500","HOUSTON","TX","United States","77056","Y",686,"Y","N","Y","Y","Yes"
1981873,"ASHLAND PARTNERS & COMPANY LLP","3512 EXCEL DR., SUITE 103","","MEDFORD","OR","United States","97504","Y",3783,"Y","N","Y","N",""
1981898,"GOLDMAN & COMPANY, CPAS PC","3535 ROSWELL RD.","SUITE 32","MARIETTA","GA","United States","30062","Y",1952,"Y","N","Y","Y","Yes"
1981303,"GRASSI & CO.","360 MADISON AVENUE","","NEW YORK","NY","United States","10017","Y",606,"Y","Y","N","N","Yes"
1981326,"BAKER TILLY US, LLP","225 S SIXTH ST.","STE 2300","MINNEAPOLIS","MN","United States","55402","Y",23,"Y","N","Y","N",""
1980422,"KPMG LLP","21700 OXNARD STREET","SUITE 1200","WOODLAND HILLS","CA","United States","91367","Y",185,"Y","Y","N","N","Yes"
1980422,"DELOITTE LLP","2200 ROSS AVE #1600","16TH FLOOR","DALLAS","TX","United States","75201","Y",34,"Y","Y","Y","N","Yes"
1981238,"PRICEWATERHOUSECOOPERS LLP","300 MADISON AVENUE","","NEW YORK","NY","United States","10017","Y",238,"Y","Y","Y","Y","Yes"
1981412,"DELOITTE & TOUCHE LLP","30 ROCKEFELLER PLAZA","","NEW YORK","NY","United States","10112","Y",34,"Y","Y","N","N","Yes"
1981224,"CROWE LLP","485 LEXINGTON AVENUE","FLOOR 11","NEW YORK","NY","United States","10017-2619","Y",173,"Y","Y","N","N","Yes"
1981998,"GALAXY ACCOUNTING SERVICES","15260 VENTURA BOULEVARD","SUITE 1200","SHERMAN OAKS","CA","United States","91403","N",,"","N","Y","N",""
1976927,"PRICEWATERHOUSECOOPERS LLP","405 HOWARD STREET","SUITE 600","SAN FRANCISCO","CA","United States","94105","Y",238,"Y","Y","N","N","Not Yet Received"
1978345,"ERNST & YOUNG LLP","55 IVAN ALLEN JR. BLVD","SUITE 1000","ATLANTA","GA","United States","30308","Y",42,"Y","N","Y","Y","Yes"
1976927,"WOLF & COMPANY, P.C.","99 HIGH STREET","","BOSTON","MA","United States","02110","Y",392,"Y","N","Y","N",""
1976927,"GRANT THORNTON","13-18 CITY QUAY","","DUBLIN","","Ireland","D02 ED70","N",,"","Y","N","N","Not Yet Received"
1978411,"SPICER JEFFRIES","4601 DTC BLVD STE 700","","DENVER","CO","United States","80237","Y",349,"Y","Y","Y","N","Not Yet Received"
1978201,"KPMG LLP","ONE FINANCIAL PLAZA","","HARTFORD","CT","United States","06103","Y",185,"Y","Y","N","N","Not Yet Received"
1978436,"ERNST & YOUNG","5 TIMES SQUARE","","NEW YORK","NY","United States","10036","Y",42,"Y","Y","N","N","Yes"
1978465,"PRICEWATERHOUSE COOPERS LLP","300 MADISON AVENUE","","NEW YORK","NY","United States","10017-6204","Y",238,"Y","N","Y","Y","Yes"
1978473,"ARMANINO LLP","6 CITYPLACE DRIVE","SUITE 900","ST. LOUIS","MO","United States","63141","Y",32,"Y","N","Y","N",""
1978469,"RW GROUP LLC","PO BOX 114","","LANDENBERG","PA","United States","19350","Y",5020,"Y","N","Y","N",""
1978476,"PRICEWATERHOUSECOOPERS LLP","101 SEAPORT BOULEVARD","","BOSTON","MA","United States","02210","Y",238,"Y","Y","N","Y","Yes"
1978500,"BREARD & ASSOCIATES, LLP","9221 CORBIN AVENUE","SUITE 170","NORTHRIDGE","CA","United States","91324","N",,"","N","Y","N",""
1978500,"LMHS, PC","80 WASHINGTON STREET","BLDG S","NORWELL","MA","United States","02061","Y",3373,"Y","Y","N","N","No"
1972447,"MEADOWS URQUHART ACREE & COOK, LLP","1802 BAYBERRY CT","STE 102","RICHMOND","VA","United States","23226","Y",3688,"Y","N","Y","N",""
1976631,"KPMG, LLP","1601 MARKET ST.","","PHILADELPHIA","PA","United States","19103-2499","Y",185,"Y","Y","N","N","Yes"
1976631,"COHNREZNICK, LLP","3560 LENOX ROAD NE","NUMBER 2900","ATLANTA","GA","United States","30326","Y",596,"Y","Y","N","N","Yes"
1977271,"PRICEWATERHOUSECOOPERS","ONE INTERNATIONAL TOWERS SYDNEY","WATERMANS QUAY, BARANGAROO","SYDNEY","","Australia","2001","N",,"","Y","N","N","Not Yet Received"
1975624,"PRICEWATERHOUSECOOPERS LLP","125 HIGH STREET","","BOSTON","MA","United States","02110","Y",238,"Y","Y","Y","N","Yes"
1964683,"CROWE LLP","485 LEXINGTON AVENUE","11TH FLOOR","NEW YORK","NY","United States","10017","Y",173,"Y","N","Y","N",""
1982868,"GRANT THORNTON","201 S COLLEGE STREET","SUITE 2500","CHARLOTTE","NC","United States","28244","Y",248,"Y","N","Y","N",""
1983790,"KPMG, LLP","1601 MARKET ST.","","PHILADELPHIA","PA","United States","19103-2499","Y",185,"Y","Y","N","N","Yes"
1983790,"COHNREZNICK, LLP","3560 LENOX ROAD NE","NUMBER 2900","ATLANTA","GA","United States","30326","Y",596,"Y","Y","N","N","Yes"
1968432,"PKF O'CONNOR DAVIES","40 WESTMINSTER STREET, SUITE 600","","PROVIDENCE","RI","United States","02903","Y",127,"Y","N","Y","N",""
1985507,"ASSURANCE DIMENSIONS","2000 BANKS RD.","SUITE 218","MARGATE","FL","United States","33063","Y",5026,"Y","N","Y","N",""
1978635,"PRICEWATERHOUSECOOPERS LLP","2001 MARKET STREET","SUITE 1800","PHILADELPHIA","PA","United States","19103-7042","Y",238,"Y","N","Y","Y","Yes"
1978640,"PRICEWATERHOUSECOOPERS LLP","2001 MARKET STREET","SUITE 1800","PHILADELPHIA","PA","United States","19103-7042","Y",238,"Y","N","Y","Y","Yes"
1978650,"PRICEWATERHOUSECOOPERS LLP","2001 MARKET STREET","SUITE 1800","PHILADELPHIA","PA","United States","19103-7042","Y",238,"Y","N","Y","Y","Yes"
1978653,"MEADOWS URQUHART ACREE & COOK, LLP","1802 BAYBERRY CT","STE 102","RICHMOND","VA","United States","23226","Y",3688,"Y","N","Y","N",""
1975814,"SPICER JEFFRIES LLP","4601 DTC BLVD.","SUITE 700","DENVER","CO","United States","80237","Y",349,"Y","Y","N","N","Not Yet Received"
1975746,"ERNST & YOUNG","ONE MANHATTAN WEST","401 9TH AVENUE","NEW YORK","NY","United States","10001","Y",42,"Y","Y","N","N","Yes"
1975909,"ASSURANCE DIMENSIONS","2000 BANKS ROAD","#218","MARGATE","FL","United States","33063","Y",5036,"Y","N","Y","Y","Yes"
1975949,"DELOITTE & TOUCHE LLP","60 NEXUS WAY","8TH FLOOR CAMANA BAY, PO BOX 1787","GRAND CAYMAN","","Cayman Islands","KY1-1109","Y",1096,"Y","Y","N","N","Yes"
1975967,"MENGEL METZGER BARR & CO. LLP","100 CHESTNUT ST.","SUITE 1200","ROCHESTER","NY","United States","14604","Y",557,"Y","Y","Y","N","Yes"
1975967,"FORVIS MAZARS, LLP","910 E. ST. LOUIS STREET","SUITE 400","SPRINGFIELD","MO","United States","65806","Y",686,"Y","N","N","N",""
1976533,"KEITER, STEPHENS, HURST, GARY & SHREAVES, P.C.","4401 DOMINION BOULEVARD","","GLEN ALLEN","VA","United States","23060","Y",80,"Y","N","Y","N",""
1976546,"WIPFLI LLP","125 SOUTH WACKER DRIVE","SUITE 1500","CHICAGO","IL","United States","60606","Y",344,"Y","N","Y","N",""
1976558,"MICHAEL COGLIANESE CPA, P.C.","300 N. STATE ST., STE. 5720","","CHICAGO","IL","United States","60654","Y",3874,"Y","N","Y","N",""
1976590,"KPMG LLP","345 PARK AVENUE","","NEW YORK","NY","United States","10154-0102","Y",185,"Y","N","Y","Y","Yes"
1976623,"KPMG LLP","620 SOUTH TRYON STREET, SUITE 1000","","CHARLOTTE","NC","United States","28202","Y",185,"Y","Y","N","N","Yes"
1976524,"EISNERAMPER, LLP","ONE LOGAN SQUARE 130 N 18TH ST","STE 3000","PHILADELPHIA","PA","United States","19103","Y",274,"Y","N","Y","N",""
1969044,"WEAVER AND TIDWELL, L.L.P.","2821 WEST SEVENTH STREET, SUITE 700","","FORT WORTH","TX","United States","76107","Y",410,"Y","N","Y","N",""
1976739,"BOWERS & COMPANY CPAS, PLLC","120 MADISON STREET","1700 AXA TOWER II","SYRACUSE","NY","United States","13202","N",,"","N","Y","N",""
1962576,"FGMK","33 W. WACKER DRIVE","6TH FLOOR","CHICAGO","IL","United States","60606","Y",3968,"Y","N","Y","N",""
1977349,"ASHLAND PARTNERS & COMPANY LLP","3512 EXCEL DRIVE, SUITE 103","","MEDFORD","OR","United States","97504","Y",3783,"N","N","Y","N",""
1977421,"KPMG LLP","345 PARK AVENUE","","NEW YORK","NY","United States","10154","Y",185,"Y","Y","N","N","Not Yet Received"
1977316,"STEVEN SCHICK, CPA, CGMA","PLANTE MORAN, 10 S. RIVERSIDE PLAZA","9TH FLOOR","CHICAGO","IL","United States","60606","Y",6581,"Y","N","Y","N",""
1976808,"ERNST & YOUNG LLP","15 W SOUTH TEMPLE","","SALT LAKE CITY","UT","United States","84101","Y",42,"Y","Y","N","N","Yes"
1976809,"ERNST & YOUNG LLP","725 S FIGUEROA 500","","LOS ANGELES","CA","United States","90017-5945","Y",42,"Y","Y","N","N","Yes"
1981650,"ASHLAND PARTNERS & COMPANY LLP","3515 EXCEL DRIVE","SUITE 103","MEDFORD","OR","United States","97504","Y",3783,"N","N","Y","N",""
1981721,"PKF O'CONNOR DAVIES LLP","245 PARK AVENUE","","NEW YORK","NY","United States","10167","Y",127,"Y","N","Y","N",""
1975431,"BRAD A. KINDER, CPA","815 PARKER SQUARE","","FLOWER MOUND","TX","United States","75028","Y",641,"Y","N","Y","N",""
1975608,"CAVANAUGH NELSON PLC","999 WATERSIDE DRIVE","SUITE 2250","NORFOLK","VA","United States","23510","N",,"","N","Y","N",""
1981638,"COHNREZNICK LLP","21700 OXNARD STREET","","WOODLAND HILLS","CA","United States","91367","Y",596,"Y","Y","Y","N","Yes"
1981291,"BDO USA LLP","200 PARK AVENUE","","NEW YORK","NY","United States","10017","Y",243,"Y","Y","N","N","Yes"
1982312,"O'CONNOR DAVIES, LLP","665 FIFTH AVENUE","","NEW YORK","NY","United States","10022","Y",127,"Y","N","Y","Y","Yes"
1981553,"DELOITTE & TOUCHE LLP","111 S. WACKER DRIVE","SUITE 2100","CHICAGO","IL","United States","60606","Y",34,"Y","Y","N","N","Yes"
1981810,"WEAVER AND TIDWELL, L.L.P.","2821 W 7TH ST","STE 700","FORT WORTH","TX","United States","76107","Y",410,"Y","Y","Y","N","Not Yet Received"
1980320,"GRANT THORNTON","171 N. CLARK STREET","SUITE 200","CHICAGO","IL","United States","60601","Y",248,"Y","N","Y","N",""
1981348,"BERKOW, SCHECHTER & COMPANY LLP","350 BEDFORD STREET","","STAMFORD","CT","United States","06901","Y",4040,"Y","N","Y","N",""
1982011,"PRICEWATERHOUSECOOPERS LLP","300 MADISON AVENUE","","NEW YORK","NY","United States","10017-6204","Y",238,"Y","Y","N","N","Not Yet Received"
1985480,"DANNIBLE & MCKEE, LLP","FINANCIAL PLAZA","221 S. WARREN ST.","SYRACUSE","NY","United States","13202-2687","Y",528,"Y","N","Y","N",""
1985480,"MEISEL TUTEUR & LEWIS","101 EISENHOWER PKWY","","ROSELAND","NJ","United States","07068","Y",3861,"Y","Y","N","N","Yes"
1985448,"GRANT THORNTON","757 THIRD AVE., 9TH FLOOR","","NEW YORK","NY","United States","10017","Y",1402,"Y","Y","N","N","Yes"
1985582,"KAUFMAN, ROSSIN & CO., P.A.","3310 MARY STREET","SUITE 501","MIAMI","FL","United States","33133","Y",137,"Y","N","Y","N",""
